{
 "type": "FeatureCollection",
 "generated": "2026-04-21T00:26:52.033224",
 "suburb": "BEAUMONT",
 "features": [
  {
   "type": "Feature",
   "geometry": {
    "type": "Point",
    "coordinates": [
     122.81990715,
     -33.52750729
    ]
   },
   "properties": {
    "name": "LOT 354 PARMANGO ROAD BEAUMONT 6450",
    "locID": "LOC000108252421",
    "tech": "NULL",
    "upgrade": "NULL_NA",
    "gnaf_pid": "GAWA_162801965",
    "tech_change_status": "Not Planned"
   }
  },
  {
   "type": "Feature",
   "geometry": {
    "type": "Point",
    "coordinates": [
     123.05786361,
     -33.28884428
    ]
   },
   "properties": {
    "name": "LOT 491 PARMANGO ROAD BEAUMONT 6450",
    "locID": "LOC000107561611",
    "tech": "NULL",
    "upgrade": "NULL_NA",
    "gnaf_pid": "GAWA_162801973",
    "tech_change_status": "Not Planned"
   }
  },
  {
   "type": "Feature",
   "geometry": {
    "type": "Point",
    "coordinates": [
     123.06814534,
     -33.34488031
    ]
   },
   "properties": {
    "name": "LOT 492 PARMANGO ROAD BEAUMONT 6450",
    "locID": "LOC000109216207",
    "tech": "NULL",
    "upgrade": "NULL_NA",
    "gnaf_pid": "GAWA_162801974",
    "tech_change_status": "Not Planned"
   }
  },
  {
   "type": "Feature",
   "geometry": {
    "type": "Point",
    "coordinates": [
     122.91287632,
     -33.5280336
    ]
   },
   "properties": {
    "name": "450 MUNTZ ROAD BEAUMONT 6450",
    "locID": "LOC000153477119",
    "tech": "SATELLITE",
    "upgrade": "NULL_NA",
    "gnaf_pid": "GAWA_163391077",
    "tech_change_status": "Not Planned"
   }
  },
  {
   "type": "Feature",
   "geometry": {
    "type": "Point",
    "coordinates": [
     122.91287632,
     -33.5280336
    ]
   },
   "properties": {
    "name": "497 MUNTZ ROAD BEAUMONT 6450",
    "locID": "LOC000153108625",
    "tech": "SATELLITE",
    "upgrade": "NULL_NA",
    "gnaf_pid": "GAWA_163391080",
    "tech_change_status": "Not Planned"
   }
  },
  {
   "type": "Feature",
   "geometry": {
    "type": "Point",
    "coordinates": [
     122.87813715,
     -33.45843373
    ]
   },
   "properties": {
    "name": "354 PARMANGO ROAD BEAUMONT 6450",
    "locID": "LOC000108252421",
    "tech": "NULL",
    "upgrade": "NULL_NA",
    "gnaf_pid": "GAWA_163391537",
    "tech_change_status": "Not Planned"
   }
  },
  {
   "type": "Feature",
   "geometry": {
    "type": "Point",
    "coordinates": [
     122.87813715,
     -33.45843373
    ]
   },
   "properties": {
    "name": "492 PARMANGO ROAD BEAUMONT 6450",
    "locID": "LOC000109216207",
    "tech": "NULL",
    "upgrade": "NULL_NA",
    "gnaf_pid": "GAWA_163391545",
    "tech_change_status": "Not Planned"
   }
  },
  {
   "type": "Feature",
   "geometry": {
    "type": "Point",
    "coordinates": [
     122.8896567,
     -33.4967882
    ]
   },
   "properties": {
    "name": "447 SHEARER ROAD BEAUMONT 6450",
    "locID": "LOC000112850272",
    "tech": "SATELLITE",
    "upgrade": "NULL_NA",
    "gnaf_pid": "GAWA_163392340",
    "tech_change_status": "Not Planned"
   }
  },
  {
   "type": "Feature",
   "geometry": {
    "type": "Point",
    "coordinates": [
     122.60342563,
     -33.47848118
    ]
   },
   "properties": {
    "name": "3980 COOLINUP ROAD BEAUMONT 6450",
    "locID": "LOC000148369065",
    "tech": "NULL",
    "upgrade": "NULL_NA",
    "gnaf_pid": "GAWA_718448849",
    "tech_change_status": "Not Planned"
   }
  },
  {
   "type": "Feature",
   "geometry": {
    "type": "Point",
    "coordinates": [
     122.71900643,
     -33.4204959
    ]
   },
   "properties": {
    "name": "1045 KARL BERG ROAD BEAUMONT 6450",
    "locID": "LOC000148152163",
    "tech": "NULL",
    "upgrade": "NULL_NA",
    "gnaf_pid": "GAWA_718450278",
    "tech_change_status": "Not Planned"
   }
  },
  {
   "type": "Feature",
   "geometry": {
    "type": "Point",
    "coordinates": [
     122.77037986,
     -33.43057676
    ]
   },
   "properties": {
    "name": "1384 KARL BERG ROAD BEAUMONT 6450",
    "locID": "LOC000148152911",
    "tech": "NULL",
    "upgrade": "NULL_NA",
    "gnaf_pid": "GAWA_718450279",
    "tech_change_status": "Not Planned"
   }
  },
  {
   "type": "Feature",
   "geometry": {
    "type": "Point",
    "coordinates": [
     122.77118314,
     -33.37327356
    ]
   },
   "properties": {
    "name": "1795 KARL BERG ROAD BEAUMONT 6450",
    "locID": "LOC000148369342",
    "tech": "SATELLITE",
    "upgrade": "NULL_NA",
    "gnaf_pid": "GAWA_718450280",
    "tech_change_status": "Not Planned"
   }
  },
  {
   "type": "Feature",
   "geometry": {
    "type": "Point",
    "coordinates": [
     122.80961769,
     -33.39832268
    ]
   },
   "properties": {
    "name": "1820 KARL BERG ROAD BEAUMONT 6450",
    "locID": "LOC000148369357",
    "tech": "NULL",
    "upgrade": "NULL_NA",
    "gnaf_pid": "GAWA_718450281",
    "tech_change_status": "Not Planned"
   }
  },
  {
   "type": "Feature",
   "geometry": {
    "type": "Point",
    "coordinates": [
     122.85180975,
     -33.38675438
    ]
   },
   "properties": {
    "name": "2304 KARL BERG ROAD BEAUMONT 6450",
    "locID": "LOC000148154297",
    "tech": "NULL",
    "upgrade": "NULL_NA",
    "gnaf_pid": "GAWA_718450283",
    "tech_change_status": "Not Planned"
   }
  },
  {
   "type": "Feature",
   "geometry": {
    "type": "Point",
    "coordinates": [
     122.70607927,
     -33.48402836
    ]
   },
   "properties": {
    "name": "528 KARL BERG ROAD BEAUMONT 6450",
    "locID": "LOC000148156501",
    "tech": "NULL",
    "upgrade": "NULL_NA",
    "gnaf_pid": "GAWA_718450284",
    "tech_change_status": "Not Planned"
   }
  },
  {
   "type": "Feature",
   "geometry": {
    "type": "Point",
    "coordinates": [
     122.70090517,
     -33.43587223
    ]
   },
   "properties": {
    "name": "839 KARL BERG ROAD BEAUMONT 6450",
    "locID": "LOC000148157583",
    "tech": "NULL",
    "upgrade": "NULL_NA",
    "gnaf_pid": "GAWA_718450285",
    "tech_change_status": "Not Planned"
   }
  },
  {
   "type": "Feature",
   "geometry": {
    "type": "Point",
    "coordinates": [
     122.95255018,
     -33.51403481
    ]
   },
   "properties": {
    "name": "3698 MUNTZ ROAD BEAUMONT 6450",
    "locID": "LOC000148155594",
    "tech": "NULL",
    "upgrade": "NULL_NA",
    "gnaf_pid": "GAWA_718451296",
    "tech_change_status": "Not Planned"
   }
  },
  {
   "type": "Feature",
   "geometry": {
    "type": "Point",
    "coordinates": [
     123.0029558,
     -33.48893796
    ]
   },
   "properties": {
    "name": "4330 MUNTZ ROAD BEAUMONT 6450",
    "locID": "LOC000112856245",
    "tech": "SATELLITE",
    "upgrade": "NULL_NA",
    "gnaf_pid": "GAWA_718451297",
    "tech_change_status": "Not Planned"
   }
  },
  {
   "type": "Feature",
   "geometry": {
    "type": "Point",
    "coordinates": [
     122.96167578,
     -33.46979848
    ]
   },
   "properties": {
    "name": "LOT 450 MUNTZ ROAD BEAUMONT 6450",
    "locID": "LOC000153108625",
    "tech": "SATELLITE",
    "upgrade": "NULL_NA",
    "gnaf_pid": "GAWA_718451299",
    "tech_change_status": "Not Planned"
   }
  },
  {
   "type": "Feature",
   "geometry": {
    "type": "Point",
    "coordinates": [
     122.88843633,
     -33.41155283
    ]
   },
   "properties": {
    "name": "4643 PARMANGO ROAD BEAUMONT 6450",
    "locID": "LOC000148369632",
    "tech": "NULL",
    "upgrade": "NULL_NA",
    "gnaf_pid": "GAWA_718451696",
    "tech_change_status": "Not Planned"
   }
  },
  {
   "type": "Feature",
   "geometry": {
    "type": "Point",
    "coordinates": [
     122.95303304,
     -33.37207074
    ]
   },
   "properties": {
    "name": "5611 PARMANGO ROAD BEAUMONT 6450",
    "locID": "LOC000148156670",
    "tech": "NULL",
    "upgrade": "NULL_NA",
    "gnaf_pid": "GAWA_718451700",
    "tech_change_status": "Not Planned"
   }
  },
  {
   "type": "Feature",
   "geometry": {
    "type": "Point",
    "coordinates": [
     123.00157494,
     -33.39813174
    ]
   },
   "properties": {
    "name": "5638 PARMANGO ROAD BEAUMONT 6450",
    "locID": "LOC000148156691",
    "tech": "NULL",
    "upgrade": "NULL_NA",
    "gnaf_pid": "GAWA_718451701",
    "tech_change_status": "Not Planned"
   }
  },
  {
   "type": "Feature",
   "geometry": {
    "type": "Point",
    "coordinates": [
     122.8455679,
     -33.47999527
    ]
   },
   "properties": {
    "name": "LOT 1 BEAUMONT ROAD BEAUMONT 6450",
    "locID": "LOC000148156670",
    "tech": "NULL",
    "upgrade": "NULL_NA",
    "gnaf_pid": "GAWA_718482888",
    "tech_change_status": "Not Planned"
   }
  }
 ]
}