{
 "type": "FeatureCollection",
 "generated": "2025-01-24T21:48:49.759330",
 "suburb": "BENCUBBIN",
 "features": [
  {
   "type": "Feature",
   "geometry": {
    "type": "Point",
    "coordinates": [
     117.86443164,
     -30.8134798
    ]
   },
   "properties": {
    "name": "84 BROWN STREET BENCUBBIN 6477",
    "locID": "LOC000104202497",
    "tech": "NULL",
    "upgrade": "NULL_NA",
    "gnaf_pid": "GAWA_147037399",
    "tech_change_status": "Not Planned"
   }
  },
  {
   "type": "Feature",
   "geometry": {
    "type": "Point",
    "coordinates": [
     117.85821319,
     -30.81048203
    ]
   },
   "properties": {
    "name": "14 HAMMOND STREET BENCUBBIN 6477",
    "locID": "LOC000063349550",
    "tech": "NULL",
    "upgrade": "NULL_NA",
    "gnaf_pid": "GAWA_147039309",
    "tech_change_status": "Not Planned"
   }
  },
  {
   "type": "Feature",
   "geometry": {
    "type": "Point",
    "coordinates": [
     117.86350426,
     -30.81223383
    ]
   },
   "properties": {
    "name": "68 BROWN STREET BENCUBBIN 6477",
    "locID": "LOC000097590947",
    "tech": "NULL",
    "upgrade": "NULL_NA",
    "gnaf_pid": "GAWA_147040912",
    "tech_change_status": "Not Planned"
   }
  },
  {
   "type": "Feature",
   "geometry": {
    "type": "Point",
    "coordinates": [
     117.86378746,
     -30.81250638
    ]
   },
   "properties": {
    "name": "70 BROWN STREET BENCUBBIN 6477",
    "locID": "LOC000030392325",
    "tech": "NULL",
    "upgrade": "NULL_NA",
    "gnaf_pid": "GAWA_147043926",
    "tech_change_status": "Not Planned"
   }
  },
  {
   "type": "Feature",
   "geometry": {
    "type": "Point",
    "coordinates": [
     117.86383162,
     -30.81159076
    ]
   },
   "properties": {
    "name": "65 BROWN STREET BENCUBBIN 6477",
    "locID": "LOC000021979245",
    "tech": "NULL",
    "upgrade": "NULL_NA",
    "gnaf_pid": "GAWA_147048836",
    "tech_change_status": "Not Planned"
   }
  },
  {
   "type": "Feature",
   "geometry": {
    "type": "Point",
    "coordinates": [
     117.86033057,
     -30.8132263
    ]
   },
   "properties": {
    "name": "1 POWELL STREET BENCUBBIN 6477",
    "locID": "LOC000087433017",
    "tech": "NULL",
    "upgrade": "NULL_NA",
    "gnaf_pid": "GAWA_147062365",
    "tech_change_status": "Not Planned"
   }
  },
  {
   "type": "Feature",
   "geometry": {
    "type": "Point",
    "coordinates": [
     117.86505148,
     -30.81312727
    ]
   },
   "properties": {
    "name": "85 BROWN STREET BENCUBBIN 6477",
    "locID": "LOC000100793015",
    "tech": "NULL",
    "upgrade": "NULL_NA",
    "gnaf_pid": "GAWA_147068362",
    "tech_change_status": "Not Planned"
   }
  },
  {
   "type": "Feature",
   "geometry": {
    "type": "Point",
    "coordinates": [
     117.86448173,
     -30.81364928
    ]
   },
   "properties": {
    "name": "86 BROWN STREET BENCUBBIN 6477",
    "locID": "LOC000074834057",
    "tech": "SATELLITE",
    "upgrade": "NULL_NA",
    "gnaf_pid": "GAWA_147068363",
    "tech_change_status": "Not Planned"
   }
  },
  {
   "type": "Feature",
   "geometry": {
    "type": "Point",
    "coordinates": [
     117.85849345,
     -30.81075095
    ]
   },
   "properties": {
    "name": "18 HAMMOND STREET BENCUBBIN 6477",
    "locID": "LOC000101171325",
    "tech": "NULL",
    "upgrade": "NULL_NA",
    "gnaf_pid": "GAWA_147491533",
    "tech_change_status": "Not Planned"
   }
  },
  {
   "type": "Feature",
   "geometry": {
    "type": "Point",
    "coordinates": [
     117.8601374,
     -30.80899196
    ]
   },
   "properties": {
    "name": "24 BROWN STREET BENCUBBIN 6477",
    "locID": "LOC000007820447",
    "tech": "SATELLITE",
    "upgrade": "NULL_NA",
    "gnaf_pid": "GAWA_160639404",
    "tech_change_status": "Not Planned"
   }
  },
  {
   "type": "Feature",
   "geometry": {
    "type": "Point",
    "coordinates": [
     117.85999694,
     -30.80885702
    ]
   },
   "properties": {
    "name": "22 BROWN STREET BENCUBBIN 6477",
    "locID": "LOC000071469495",
    "tech": "SATELLITE",
    "upgrade": "NULL_NA",
    "gnaf_pid": "GAWA_160639405",
    "tech_change_status": "Not Planned"
   }
  },
  {
   "type": "Feature",
   "geometry": {
    "type": "Point",
    "coordinates": [
     117.86096508,
     -30.80883671
    ]
   },
   "properties": {
    "name": "29 BROWN STREET BENCUBBIN 6477",
    "locID": "LOC000002192188",
    "tech": "NULL",
    "upgrade": "NULL_NA",
    "gnaf_pid": "GAWA_160639406",
    "tech_change_status": "Not Planned"
   }
  },
  {
   "type": "Feature",
   "geometry": {
    "type": "Point",
    "coordinates": [
     117.86251085,
     -30.81032176
    ]
   },
   "properties": {
    "name": "49 BROWN STREET BENCUBBIN 6477",
    "locID": "LOC000017847425",
    "tech": "NULL",
    "upgrade": "NULL_NA",
    "gnaf_pid": "GAWA_160639407",
    "tech_change_status": "Not Planned"
   }
  },
  {
   "type": "Feature",
   "geometry": {
    "type": "Point",
    "coordinates": [
     117.85851182,
     -30.81429054
    ]
   },
   "properties": {
    "name": "24 GRANT STREET BENCUBBIN 6477",
    "locID": "LOC000086708887",
    "tech": "SATELLITE",
    "upgrade": "NULL_NA",
    "gnaf_pid": "GAWA_160639408",
    "tech_change_status": "Not Planned"
   }
  },
  {
   "type": "Feature",
   "geometry": {
    "type": "Point",
    "coordinates": [
     117.85905728,
     -30.81129051
    ]
   },
   "properties": {
    "name": "26 HAMMOND STREET BENCUBBIN 6477",
    "locID": "LOC000086529115",
    "tech": "SATELLITE",
    "upgrade": "NULL_NA",
    "gnaf_pid": "GAWA_160639409",
    "tech_change_status": "Not Planned"
   }
  },
  {
   "type": "Feature",
   "geometry": {
    "type": "Point",
    "coordinates": [
     117.86017885,
     -30.81236909
    ]
   },
   "properties": {
    "name": "40 HAMMOND STREET BENCUBBIN 6477",
    "locID": "LOC000058421029",
    "tech": "NULL",
    "upgrade": "NULL_NA",
    "gnaf_pid": "GAWA_160639410",
    "tech_change_status": "Not Planned"
   }
  },
  {
   "type": "Feature",
   "geometry": {
    "type": "Point",
    "coordinates": [
     117.86003826,
     -30.81223406
    ]
   },
   "properties": {
    "name": "38 HAMMOND STREET BENCUBBIN 6477",
    "locID": "LOC000085389668",
    "tech": "SATELLITE",
    "upgrade": "NULL_NA",
    "gnaf_pid": "GAWA_160639411",
    "tech_change_status": "Not Planned"
   }
  },
  {
   "type": "Feature",
   "geometry": {
    "type": "Point",
    "coordinates": [
     117.85989769,
     -30.81209897
    ]
   },
   "properties": {
    "name": "36 HAMMOND STREET BENCUBBIN 6477",
    "locID": "LOC000025630307",
    "tech": "NULL",
    "upgrade": "NULL_NA",
    "gnaf_pid": "GAWA_160639412",
    "tech_change_status": "Not Planned"
   }
  },
  {
   "type": "Feature",
   "geometry": {
    "type": "Point",
    "coordinates": [
     117.85975712,
     -30.81196395
    ]
   },
   "properties": {
    "name": "34 HAMMOND STREET BENCUBBIN 6477",
    "locID": "LOC000063812274",
    "tech": "NULL",
    "upgrade": "NULL_NA",
    "gnaf_pid": "GAWA_160639413",
    "tech_change_status": "Not Planned"
   }
  },
  {
   "type": "Feature",
   "geometry": {
    "type": "Point",
    "coordinates": [
     117.85933749,
     -30.81155975
    ]
   },
   "properties": {
    "name": "28 HAMMOND STREET BENCUBBIN 6477",
    "locID": "LOC000018986087",
    "tech": "NULL",
    "upgrade": "NULL_NA",
    "gnaf_pid": "GAWA_160639414",
    "tech_change_status": "Not Planned"
   }
  },
  {
   "type": "Feature",
   "geometry": {
    "type": "Point",
    "coordinates": [
     117.85891503,
     -30.8111555
    ]
   },
   "properties": {
    "name": "24 HAMMOND STREET BENCUBBIN 6477",
    "locID": "LOC000070647368",
    "tech": "NULL",
    "upgrade": "NULL_NA",
    "gnaf_pid": "GAWA_160639415",
    "tech_change_status": "Not Planned"
   }
  },
  {
   "type": "Feature",
   "geometry": {
    "type": "Point",
    "coordinates": [
     117.85863621,
     -30.81088605
    ]
   },
   "properties": {
    "name": "20 HAMMOND STREET BENCUBBIN 6477",
    "locID": "LOC000093048348",
    "tech": "NULL",
    "upgrade": "NULL_NA",
    "gnaf_pid": "GAWA_160639416",
    "tech_change_status": "Not Planned"
   }
  },
  {
   "type": "Feature",
   "geometry": {
    "type": "Point",
    "coordinates": [
     117.85743,
     -30.80987
    ]
   },
   "properties": {
    "name": "2 HAMMOND STREET BENCUBBIN 6477",
    "locID": "LOC000046685000",
    "tech": "NULL",
    "upgrade": "NULL_NA",
    "gnaf_pid": "GAWA_160639417",
    "tech_change_status": "Not Planned"
   }
  },
  {
   "type": "Feature",
   "geometry": {
    "type": "Point",
    "coordinates": [
     117.86087256,
     -30.81304043
    ]
   },
   "properties": {
    "name": "46 HAMMOND STREET BENCUBBIN 6477",
    "locID": "LOC000080230019",
    "tech": "SATELLITE",
    "upgrade": "NULL_NA",
    "gnaf_pid": "GAWA_160639418",
    "tech_change_status": "Not Planned"
   }
  },
  {
   "type": "Feature",
   "geometry": {
    "type": "Point",
    "coordinates": [
     117.86171452,
     -30.813765
    ]
   },
   "properties": {
    "name": "58 HAMMOND STREET BENCUBBIN 6477",
    "locID": "LOC000045730313",
    "tech": "SATELLITE",
    "upgrade": "NULL_NA",
    "gnaf_pid": "GAWA_160639419",
    "tech_change_status": "Not Planned"
   }
  },
  {
   "type": "Feature",
   "geometry": {
    "type": "Point",
    "coordinates": [
     117.85780045,
     -30.81007236
    ]
   },
   "properties": {
    "name": "10 HAMMOND STREET BENCUBBIN 6477",
    "locID": "LOC000058102708",
    "tech": "NULL",
    "upgrade": "NULL_NA",
    "gnaf_pid": "GAWA_160639420",
    "tech_change_status": "Not Planned"
   }
  },
  {
   "type": "Feature",
   "geometry": {
    "type": "Point",
    "coordinates": [
     117.86279811,
     -30.81229428
    ]
   },
   "properties": {
    "name": "77 MONGER STREET BENCUBBIN 6477",
    "locID": "LOC000040153112",
    "tech": "NULL",
    "upgrade": "NULL_NA",
    "gnaf_pid": "GAWA_160641640",
    "tech_change_status": "Not Planned"
   }
  },
  {
   "type": "Feature",
   "geometry": {
    "type": "Point",
    "coordinates": [
     117.86384322,
     -30.81336151
    ]
   },
   "properties": {
    "name": "89 MONGER STREET BENCUBBIN 6477",
    "locID": "LOC000014531443",
    "tech": "NULL",
    "upgrade": "NULL_NA",
    "gnaf_pid": "GAWA_160641641",
    "tech_change_status": "Not Planned"
   }
  },
  {
   "type": "Feature",
   "geometry": {
    "type": "Point",
    "coordinates": [
     117.85625786,
     -30.81023294
    ]
   },
   "properties": {
    "name": "2 DIVER STREET BENCUBBIN 6477",
    "locID": "LOC000056141067",
    "tech": "SATELLITE",
    "upgrade": "NULL_NA",
    "gnaf_pid": "GAWA_160641642",
    "tech_change_status": "Not Planned"
   }
  },
  {
   "type": "Feature",
   "geometry": {
    "type": "Point",
    "coordinates": [
     117.86350174,
     -30.81296956
    ]
   },
   "properties": {
    "name": "UNIT 2, 85 MONGER STREET BENCUBBIN 6477",
    "locID": "LOC000071765380",
    "tech": "NULL",
    "upgrade": "NULL_NA",
    "gnaf_pid": "GAWA_160641648",
    "tech_change_status": "Not Planned"
   }
  },
  {
   "type": "Feature",
   "geometry": {
    "type": "Point",
    "coordinates": [
     117.86336656,
     -30.81283278
    ]
   },
   "properties": {
    "name": "UNIT 1, 83 MONGER STREET BENCUBBIN 6477",
    "locID": "LOC000094220295",
    "tech": "NULL",
    "upgrade": "NULL_NA",
    "gnaf_pid": "GAWA_160641649",
    "tech_change_status": "Not Planned"
   }
  },
  {
   "type": "Feature",
   "geometry": {
    "type": "Point",
    "coordinates": [
     117.86336656,
     -30.81283278
    ]
   },
   "properties": {
    "name": "UNIT 2, 83 MONGER STREET BENCUBBIN 6477",
    "locID": "LOC000094220295",
    "tech": "NULL",
    "upgrade": "NULL_NA",
    "gnaf_pid": "GAWA_160641678",
    "tech_change_status": "Not Planned"
   }
  },
  {
   "type": "Feature",
   "geometry": {
    "type": "Point",
    "coordinates": [
     117.86350174,
     -30.81296956
    ]
   },
   "properties": {
    "name": "UNIT 1, 85 MONGER STREET BENCUBBIN 6477",
    "locID": "LOC000071765380",
    "tech": "NULL",
    "upgrade": "NULL_NA",
    "gnaf_pid": "GAWA_160641679",
    "tech_change_status": "Not Planned"
   }
  },
  {
   "type": "Feature",
   "geometry": {
    "type": "Point",
    "coordinates": [
     117.86026928,
     -30.80986521
    ]
   },
   "properties": {
    "name": "45 MONGER STREET BENCUBBIN 6477",
    "locID": "LOC000039200722",
    "tech": "NULL",
    "upgrade": "NULL_NA",
    "gnaf_pid": "GAWA_160641683",
    "tech_change_status": "Not Planned"
   }
  },
  {
   "type": "Feature",
   "geometry": {
    "type": "Point",
    "coordinates": [
     117.8580493,
     -30.80848219
    ]
   },
   "properties": {
    "name": "19 MONGER STREET BENCUBBIN 6477",
    "locID": "LOC000089589334",
    "tech": "SATELLITE",
    "upgrade": "NULL_NA",
    "gnaf_pid": "GAWA_160641893",
    "tech_change_status": "Not Planned"
   }
  },
  {
   "type": "Feature",
   "geometry": {
    "type": "Point",
    "coordinates": [
     117.86097154,
     -30.81053976
    ]
   },
   "properties": {
    "name": "53 MONGER STREET BENCUBBIN 6477",
    "locID": "LOC000070394587",
    "tech": "NULL",
    "upgrade": "NULL_NA",
    "gnaf_pid": "GAWA_160641895",
    "tech_change_status": "Not Planned"
   }
  },
  {
   "type": "Feature",
   "geometry": {
    "type": "Point",
    "coordinates": [
     117.85941197,
     -30.80901976
    ]
   },
   "properties": {
    "name": "33 MONGER STREET BENCUBBIN 6477",
    "locID": "LOC000021236476",
    "tech": "NULL",
    "upgrade": "NULL_NA",
    "gnaf_pid": "GAWA_160641896",
    "tech_change_status": "Not Planned"
   }
  },
  {
   "type": "Feature",
   "geometry": {
    "type": "Point",
    "coordinates": [
     117.86111192,
     -30.8106746
    ]
   },
   "properties": {
    "name": "55 MONGER STREET BENCUBBIN 6477",
    "locID": "LOC000070414402",
    "tech": "NULL",
    "upgrade": "NULL_NA",
    "gnaf_pid": "GAWA_160641897",
    "tech_change_status": "Not Planned"
   }
  },
  {
   "type": "Feature",
   "geometry": {
    "type": "Point",
    "coordinates": [
     117.86181575,
     -30.81134582
    ]
   },
   "properties": {
    "name": "65 MONGER STREET BENCUBBIN 6477",
    "locID": "LOC000069231867",
    "tech": "NULL",
    "upgrade": "NULL_NA",
    "gnaf_pid": "GAWA_160641898",
    "tech_change_status": "Not Planned"
   }
  },
  {
   "type": "Feature",
   "geometry": {
    "type": "Point",
    "coordinates": [
     117.86294108,
     -30.80998822
    ]
   },
   "properties": {
    "name": "12 COLLINS STREET BENCUBBIN 6477",
    "locID": "LOC000065566837",
    "tech": "NULL",
    "upgrade": "NULL_NA",
    "gnaf_pid": "GAWA_160644210",
    "tech_change_status": "Not Planned"
   }
  },
  {
   "type": "Feature",
   "geometry": {
    "type": "Point",
    "coordinates": [
     117.86223868,
     -30.81101739
    ]
   },
   "properties": {
    "name": "52 BROWN STREET BENCUBBIN 6477",
    "locID": "LOC000061242986",
    "tech": "NULL",
    "upgrade": "NULL_NA",
    "gnaf_pid": "GAWA_160644211",
    "tech_change_status": "Not Planned"
   }
  },
  {
   "type": "Feature",
   "geometry": {
    "type": "Point",
    "coordinates": [
     117.86140142,
     -30.81020632
    ]
   },
   "properties": {
    "name": "40 BROWN STREET BENCUBBIN 6477",
    "locID": "LOC000061246970",
    "tech": "SATELLITE",
    "upgrade": "NULL_NA",
    "gnaf_pid": "GAWA_160644212",
    "tech_change_status": "Not Planned"
   }
  },
  {
   "type": "Feature",
   "geometry": {
    "type": "Point",
    "coordinates": [
     117.85655954,
     -30.8098068
    ]
   },
   "properties": {
    "name": "11 MURRAY STREET BENCUBBIN 6477",
    "locID": "LOC000021110789",
    "tech": "SATELLITE",
    "upgrade": "NULL_NA",
    "gnaf_pid": "GAWA_160644849",
    "tech_change_status": "Not Planned"
   }
  },
  {
   "type": "Feature",
   "geometry": {
    "type": "Point",
    "coordinates": [
     117.86045,
     -30.81336
    ]
   },
   "properties": {
    "name": "3 POWELL STREET BENCUBBIN 6477",
    "locID": "LOC000063595439",
    "tech": "SATELLITE",
    "upgrade": "NULL_NA",
    "gnaf_pid": "GAWA_160644850",
    "tech_change_status": "Not Planned"
   }
  },
  {
   "type": "Feature",
   "geometry": {
    "type": "Point",
    "coordinates": [
     117.86437576,
     -30.81310237
    ]
   },
   "properties": {
    "name": "80 BROWN STREET BENCUBBIN 6477",
    "locID": "LOC000012932185",
    "tech": "SATELLITE",
    "upgrade": "NULL_NA",
    "gnaf_pid": "GAWA_160645702",
    "tech_change_status": "Not Planned"
   }
  },
  {
   "type": "Feature",
   "geometry": {
    "type": "Point",
    "coordinates": [
     117.86027785,
     -30.80912689
    ]
   },
   "properties": {
    "name": "26 BROWN STREET BENCUBBIN 6477",
    "locID": "LOC000069524748",
    "tech": "NULL",
    "upgrade": "NULL_NA",
    "gnaf_pid": "GAWA_160645703",
    "tech_change_status": "Not Planned"
   }
  },
  {
   "type": "Feature",
   "geometry": {
    "type": "Point",
    "coordinates": [
     117.86074247,
     -30.813628
    ]
   },
   "properties": {
    "name": "7 POWELL STREET BENCUBBIN 6477",
    "locID": "LOC000013752799",
    "tech": "NULL",
    "upgrade": "NULL_NA",
    "gnaf_pid": "GAWA_160648089",
    "tech_change_status": "Not Planned"
   }
  },
  {
   "type": "Feature",
   "geometry": {
    "type": "Point",
    "coordinates": [
     117.86518456,
     -30.81365775
    ]
   },
   "properties": {
    "name": "89 BROWN STREET BENCUBBIN 6477",
    "locID": "LOC000100342918",
    "tech": "SATELLITE",
    "upgrade": "NULL_NA",
    "gnaf_pid": "GAWA_160648090",
    "tech_change_status": "Not Planned"
   }
  },
  {
   "type": "Feature",
   "geometry": {
    "type": "Point",
    "coordinates": [
     117.86152975,
     -30.80937314
    ]
   },
   "properties": {
    "name": "37 BROWN STREET BENCUBBIN 6477",
    "locID": "LOC000046201662",
    "tech": "NULL",
    "upgrade": "NULL_NA",
    "gnaf_pid": "GAWA_160651028",
    "tech_change_status": "Not Planned"
   }
  },
  {
   "type": "Feature",
   "geometry": {
    "type": "Point",
    "coordinates": [
     117.8597129,
     -30.80857613
    ]
   },
   "properties": {
    "name": "16 BROWN STREET BENCUBBIN 6477",
    "locID": "LOC000070697981",
    "tech": "NULL",
    "upgrade": "NULL_NA",
    "gnaf_pid": "GAWA_160651029",
    "tech_change_status": "Not Planned"
   }
  },
  {
   "type": "Feature",
   "geometry": {
    "type": "Point",
    "coordinates": [
     117.85985956,
     -30.80871948
    ]
   },
   "properties": {
    "name": "20 BROWN STREET BENCUBBIN 6477",
    "locID": "LOC000069172871",
    "tech": "SATELLITE",
    "upgrade": "NULL_NA",
    "gnaf_pid": "GAWA_160651030",
    "tech_change_status": "Not Planned"
   }
  },
  {
   "type": "Feature",
   "geometry": {
    "type": "Point",
    "coordinates": [
     117.8604183,
     -30.80926183
    ]
   },
   "properties": {
    "name": "28 BROWN STREET BENCUBBIN 6477",
    "locID": "LOC000046185811",
    "tech": "NULL",
    "upgrade": "NULL_NA",
    "gnaf_pid": "GAWA_160651031",
    "tech_change_status": "Not Planned"
   }
  },
  {
   "type": "Feature",
   "geometry": {
    "type": "Point",
    "coordinates": [
     117.86438823,
     -30.81330212
    ]
   },
   "properties": {
    "name": "82 BROWN STREET BENCUBBIN 6477",
    "locID": "LOC000094746535",
    "tech": "NULL",
    "upgrade": "NULL_NA",
    "gnaf_pid": "GAWA_160651032",
    "tech_change_status": "Not Planned"
   }
  },
  {
   "type": "Feature",
   "geometry": {
    "type": "Point",
    "coordinates": [
     117.86451,
     -30.81383
    ]
   },
   "properties": {
    "name": "88 BROWN STREET BENCUBBIN 6477",
    "locID": "LOC000065351478",
    "tech": "NULL",
    "upgrade": "NULL_NA",
    "gnaf_pid": "GAWA_160651033",
    "tech_change_status": "Not Planned"
   }
  },
  {
   "type": "Feature",
   "geometry": {
    "type": "Point",
    "coordinates": [
     117.86322788,
     -30.8119615
    ]
   },
   "properties": {
    "name": "64 BROWN STREET BENCUBBIN 6477",
    "locID": "LOC000054984608",
    "tech": "NULL",
    "upgrade": "NULL_NA",
    "gnaf_pid": "GAWA_160651034",
    "tech_change_status": "Not Planned"
   }
  },
  {
   "type": "Feature",
   "geometry": {
    "type": "Point",
    "coordinates": [
     117.86308719,
     -30.81182629
    ]
   },
   "properties": {
    "name": "62 BROWN STREET BENCUBBIN 6477",
    "locID": "LOC000090633828",
    "tech": "NULL",
    "upgrade": "NULL_NA",
    "gnaf_pid": "GAWA_160651035",
    "tech_change_status": "Not Planned"
   }
  },
  {
   "type": "Feature",
   "geometry": {
    "type": "Point",
    "coordinates": [
     117.86280579,
     -30.81155585
    ]
   },
   "properties": {
    "name": "58 BROWN STREET BENCUBBIN 6477",
    "locID": "LOC000032132974",
    "tech": "NULL",
    "upgrade": "NULL_NA",
    "gnaf_pid": "GAWA_160651036",
    "tech_change_status": "Not Planned"
   }
  },
  {
   "type": "Feature",
   "geometry": {
    "type": "Point",
    "coordinates": [
     117.86168218,
     -30.81047605
    ]
   },
   "properties": {
    "name": "44 BROWN STREET BENCUBBIN 6477",
    "locID": "LOC000077573246",
    "tech": "SATELLITE",
    "upgrade": "NULL_NA",
    "gnaf_pid": "GAWA_160651037",
    "tech_change_status": "Not Planned"
   }
  },
  {
   "type": "Feature",
   "geometry": {
    "type": "Point",
    "coordinates": [
     117.86182256,
     -30.81061091
    ]
   },
   "properties": {
    "name": "46 BROWN STREET BENCUBBIN 6477",
    "locID": "LOC000007922207",
    "tech": "SATELLITE",
    "upgrade": "NULL_NA",
    "gnaf_pid": "GAWA_160651261",
    "tech_change_status": "Not Planned"
   }
  },
  {
   "type": "Feature",
   "geometry": {
    "type": "Point",
    "coordinates": [
     117.86196294,
     -30.81074577
    ]
   },
   "properties": {
    "name": "48 BROWN STREET BENCUBBIN 6477",
    "locID": "LOC000087392582",
    "tech": "NULL",
    "upgrade": "NULL_NA",
    "gnaf_pid": "GAWA_160651262",
    "tech_change_status": "Not Planned"
   }
  },
  {
   "type": "Feature",
   "geometry": {
    "type": "Point",
    "coordinates": [
     117.86259001,
     -30.80965078
    ]
   },
   "properties": {
    "name": "6 COLLINS STREET BENCUBBIN 6477",
    "locID": "LOC000071935714",
    "tech": "NULL",
    "upgrade": "NULL_NA",
    "gnaf_pid": "GAWA_160651264",
    "tech_change_status": "Not Planned"
   }
  },
  {
   "type": "Feature",
   "geometry": {
    "type": "Point",
    "coordinates": [
     117.86321542,
     -30.81025783
    ]
   },
   "properties": {
    "name": "16 COLLINS STREET BENCUBBIN 6477",
    "locID": "LOC000031100499",
    "tech": "NULL",
    "upgrade": "NULL_NA",
    "gnaf_pid": "GAWA_160651265",
    "tech_change_status": "Not Planned"
   }
  },
  {
   "type": "Feature",
   "geometry": {
    "type": "Point",
    "coordinates": [
     117.86308152,
     -30.81012321
    ]
   },
   "properties": {
    "name": "14 COLLINS STREET BENCUBBIN 6477",
    "locID": "LOC000069815275",
    "tech": "SATELLITE",
    "upgrade": "NULL_NA",
    "gnaf_pid": "GAWA_160651266",
    "tech_change_status": "Not Planned"
   }
  },
  {
   "type": "Feature",
   "geometry": {
    "type": "Point",
    "coordinates": [
     117.85599542,
     -30.81179216
    ]
   },
   "properties": {
    "name": "2 FEDERATION STREET BENCUBBIN 6477",
    "locID": "LOC000073451861",
    "tech": "NULL",
    "upgrade": "NULL_NA",
    "gnaf_pid": "GAWA_160651267",
    "tech_change_status": "Not Planned"
   }
  },
  {
   "type": "Feature",
   "geometry": {
    "type": "Point",
    "coordinates": [
     117.85877421,
     -30.81102085
    ]
   },
   "properties": {
    "name": "22 HAMMOND STREET BENCUBBIN 6477",
    "locID": "LOC000069714371",
    "tech": "SATELLITE",
    "upgrade": "NULL_NA",
    "gnaf_pid": "GAWA_160651268",
    "tech_change_status": "Not Planned"
   }
  },
  {
   "type": "Feature",
   "geometry": {
    "type": "Point",
    "coordinates": [
     117.86059521,
     -30.81348534
    ]
   },
   "properties": {
    "name": "5 POWELL STREET BENCUBBIN 6477",
    "locID": "LOC000100382247",
    "tech": "NULL",
    "upgrade": "NULL_NA",
    "gnaf_pid": "GAWA_160651935",
    "tech_change_status": "Not Planned"
   }
  },
  {
   "type": "Feature",
   "geometry": {
    "type": "Point",
    "coordinates": [
     117.86355228,
     -30.81078595
    ]
   },
   "properties": {
    "name": "59 BROWN STREET BENCUBBIN 6477",
    "locID": "LOC000102032550",
    "tech": "NULL",
    "upgrade": "NULL_NA",
    "gnaf_pid": "GAWA_160652679",
    "tech_change_status": "Not Planned"
   }
  },
  {
   "type": "Feature",
   "geometry": {
    "type": "Point",
    "coordinates": [
     117.86279204,
     -30.81058606
    ]
   },
   "properties": {
    "name": "53 BROWN STREET BENCUBBIN 6477",
    "locID": "LOC000092887791",
    "tech": "SATELLITE",
    "upgrade": "NULL_NA",
    "gnaf_pid": "GAWA_160653116",
    "tech_change_status": "Not Planned"
   }
  },
  {
   "type": "Feature",
   "geometry": {
    "type": "Point",
    "coordinates": [
     117.86068404,
     -30.80856682
    ]
   },
   "properties": {
    "name": "25 BROWN STREET BENCUBBIN 6477",
    "locID": "LOC000003771055",
    "tech": "SATELLITE",
    "upgrade": "NULL_NA",
    "gnaf_pid": "GAWA_160653117",
    "tech_change_status": "Not Planned"
   }
  },
  {
   "type": "Feature",
   "geometry": {
    "type": "Point",
    "coordinates": [
     117.8611056,
     -30.80897166
    ]
   },
   "properties": {
    "name": "31 BROWN STREET BENCUBBIN 6477",
    "locID": "LOC000092546313",
    "tech": "SATELLITE",
    "upgrade": "NULL_NA",
    "gnaf_pid": "GAWA_160653118",
    "tech_change_status": "Not Planned"
   }
  },
  {
   "type": "Feature",
   "geometry": {
    "type": "Point",
    "coordinates": [
     117.86124611,
     -30.80910661
    ]
   },
   "properties": {
    "name": "33 BROWN STREET BENCUBBIN 6477",
    "locID": "LOC000054977908",
    "tech": "SATELLITE",
    "upgrade": "NULL_NA",
    "gnaf_pid": "GAWA_160653119",
    "tech_change_status": "Not Planned"
   }
  },
  {
   "type": "Feature",
   "geometry": {
    "type": "Point",
    "coordinates": [
     117.85605672,
     -30.80956157
    ]
   },
   "properties": {
    "name": "3 BAXTER STREET BENCUBBIN 6477",
    "locID": "LOC000068543605",
    "tech": "NULL",
    "upgrade": "NULL_NA",
    "gnaf_pid": "GAWA_160792688",
    "tech_change_status": "Not Planned"
   }
  },
  {
   "type": "Feature",
   "geometry": {
    "type": "Point",
    "coordinates": [
     117.85546486,
     -30.80943563
    ]
   },
   "properties": {
    "name": "6 BAXTER STREET BENCUBBIN 6477",
    "locID": "LOC000019512304",
    "tech": "NULL",
    "upgrade": "NULL_NA",
    "gnaf_pid": "GAWA_160792691",
    "tech_change_status": "Not Planned"
   }
  },
  {
   "type": "Feature",
   "geometry": {
    "type": "Point",
    "coordinates": [
     117.85607333,
     -30.80983902
    ]
   },
   "properties": {
    "name": "7 BAXTER STREET BENCUBBIN 6477",
    "locID": "LOC000019512304",
    "tech": "NULL",
    "upgrade": "NULL_NA",
    "gnaf_pid": "GAWA_160792692",
    "tech_change_status": "Not Planned"
   }
  },
  {
   "type": "Feature",
   "geometry": {
    "type": "Point",
    "coordinates": [
     117.85806717,
     -30.80723081
    ]
   },
   "properties": {
    "name": "1 BROWN STREET BENCUBBIN 6477",
    "locID": "LOC000142895052",
    "tech": "SATELLITE",
    "upgrade": "NULL_NA",
    "gnaf_pid": "GAWA_160793465",
    "tech_change_status": "Not Planned"
   }
  },
  {
   "type": "Feature",
   "geometry": {
    "type": "Point",
    "coordinates": [
     117.85834889,
     -30.80806397
    ]
   },
   "properties": {
    "name": "2 BROWN STREET BENCUBBIN 6477",
    "locID": "LOC000069172871",
    "tech": "SATELLITE",
    "upgrade": "NULL_NA",
    "gnaf_pid": "GAWA_160793467",
    "tech_change_status": "Not Planned"
   }
  },
  {
   "type": "Feature",
   "geometry": {
    "type": "Point",
    "coordinates": [
     117.86098011,
     -30.80980158
    ]
   },
   "properties": {
    "name": "36 BROWN STREET BENCUBBIN 6477",
    "locID": "LOC000003685571",
    "tech": "NULL",
    "upgrade": "NULL_NA",
    "gnaf_pid": "GAWA_160793472",
    "tech_change_status": "Not Planned"
   }
  },
  {
   "type": "Feature",
   "geometry": {
    "type": "Point",
    "coordinates": [
     117.86188211,
     -30.80971423
    ]
   },
   "properties": {
    "name": "39 BROWN STREET BENCUBBIN 6477",
    "locID": "LOC000058000081",
    "tech": "NULL",
    "upgrade": "NULL_NA",
    "gnaf_pid": "GAWA_160793474",
    "tech_change_status": "Not Planned"
   }
  },
  {
   "type": "Feature",
   "geometry": {
    "type": "Point",
    "coordinates": [
     117.86208947,
     -30.80991686
    ]
   },
   "properties": {
    "name": "43 BROWN STREET BENCUBBIN 6477",
    "locID": "LOC000044927364",
    "tech": "NULL",
    "upgrade": "NULL_NA",
    "gnaf_pid": "GAWA_160793476",
    "tech_change_status": "Not Planned"
   }
  },
  {
   "type": "Feature",
   "geometry": {
    "type": "Point",
    "coordinates": [
     117.85854465,
     -30.80812958
    ]
   },
   "properties": {
    "name": "4 BROWN STREET BENCUBBIN 6477",
    "locID": "LOC000077573246",
    "tech": "SATELLITE",
    "upgrade": "NULL_NA",
    "gnaf_pid": "GAWA_160793479",
    "tech_change_status": "Not Planned"
   }
  },
  {
   "type": "Feature",
   "geometry": {
    "type": "Point",
    "coordinates": [
     117.86294649,
     -30.81169107
    ]
   },
   "properties": {
    "name": "60 BROWN STREET BENCUBBIN 6477",
    "locID": "LOC000105344929",
    "tech": "NULL",
    "upgrade": "NULL_NA",
    "gnaf_pid": "GAWA_160793484",
    "tech_change_status": "Not Planned"
   }
  },
  {
   "type": "Feature",
   "geometry": {
    "type": "Point",
    "coordinates": [
     117.86377258,
     -30.81116078
    ]
   },
   "properties": {
    "name": "61 BROWN STREET BENCUBBIN 6477",
    "locID": "LOC000004765472",
    "tech": "NULL",
    "upgrade": "NULL_NA",
    "gnaf_pid": "GAWA_160793485",
    "tech_change_status": "Not Planned"
   }
  },
  {
   "type": "Feature",
   "geometry": {
    "type": "Point",
    "coordinates": [
     117.85873457,
     -30.8082075
    ]
   },
   "properties": {
    "name": "6 BROWN STREET BENCUBBIN 6477",
    "locID": "LOC000105344929",
    "tech": "NULL",
    "upgrade": "NULL_NA",
    "gnaf_pid": "GAWA_160793487",
    "tech_change_status": "Not Planned"
   }
  },
  {
   "type": "Feature",
   "geometry": {
    "type": "Point",
    "coordinates": [
     117.86511,
     -30.8134
    ]
   },
   "properties": {
    "name": "87 BROWN STREET BENCUBBIN 6477",
    "locID": "LOC000049497584",
    "tech": "SATELLITE",
    "upgrade": "NULL_NA",
    "gnaf_pid": "GAWA_160793493",
    "tech_change_status": "Not Planned"
   }
  },
  {
   "type": "Feature",
   "geometry": {
    "type": "Point",
    "coordinates": [
     117.85892449,
     -30.80828542
    ]
   },
   "properties": {
    "name": "8 BROWN STREET BENCUBBIN 6477",
    "locID": "LOC000028681113",
    "tech": "SATELLITE",
    "upgrade": "NULL_NA",
    "gnaf_pid": "GAWA_160793494",
    "tech_change_status": "Not Planned"
   }
  },
  {
   "type": "Feature",
   "geometry": {
    "type": "Point",
    "coordinates": [
     117.86405538,
     -30.80918424
    ]
   },
   "properties": {
    "name": "1 COLLINS STREET BENCUBBIN 6477",
    "locID": "LOC000065566837",
    "tech": "NULL",
    "upgrade": "NULL_NA",
    "gnaf_pid": "GAWA_160794716",
    "tech_change_status": "Not Planned"
   }
  },
  {
   "type": "Feature",
   "geometry": {
    "type": "Point",
    "coordinates": [
     117.8576451,
     -30.81329096
    ]
   },
   "properties": {
    "name": "22 GRANT STREET BENCUBBIN 6477",
    "locID": "LOC000090513206",
    "tech": "NULL",
    "upgrade": "NULL_NA",
    "gnaf_pid": "GAWA_160797069",
    "tech_change_status": "Not Planned"
   }
  },
  {
   "type": "Feature",
   "geometry": {
    "type": "Point",
    "coordinates": [
     117.85807,
     -30.81035
    ]
   },
   "properties": {
    "name": "12 HAMMOND STREET BENCUBBIN 6477",
    "locID": "LOC000098338327",
    "tech": "NULL",
    "upgrade": "NULL_NA",
    "gnaf_pid": "GAWA_160797500",
    "tech_change_status": "Not Planned"
   }
  },
  {
   "type": "Feature",
   "geometry": {
    "type": "Point",
    "coordinates": [
     117.85835,
     -30.81061
    ]
   },
   "properties": {
    "name": "16 HAMMOND STREET BENCUBBIN 6477",
    "locID": "LOC000027767036",
    "tech": "NULL",
    "upgrade": "NULL_NA",
    "gnaf_pid": "GAWA_160797501",
    "tech_change_status": "Not Planned"
   }
  },
  {
   "type": "Feature",
   "geometry": {
    "type": "Point",
    "coordinates": [
     117.85947597,
     -30.81169387
    ]
   },
   "properties": {
    "name": "30 HAMMOND STREET BENCUBBIN 6477",
    "locID": "LOC000030552169",
    "tech": "SATELLITE",
    "upgrade": "NULL_NA",
    "gnaf_pid": "GAWA_160797502",
    "tech_change_status": "Not Planned"
   }
  },
  {
   "type": "Feature",
   "geometry": {
    "type": "Point",
    "coordinates": [
     117.86102177,
     -30.81318277
    ]
   },
   "properties": {
    "name": "48 HAMMOND STREET BENCUBBIN 6477",
    "locID": "LOC000025597667",
    "tech": "SATELLITE",
    "upgrade": "NULL_NA",
    "gnaf_pid": "GAWA_160797506",
    "tech_change_status": "Not Planned"
   }
  },
  {
   "type": "Feature",
   "geometry": {
    "type": "Point",
    "coordinates": [
     117.85726165,
     -30.80769844
    ]
   },
   "properties": {
    "name": "1 MONGER STREET BENCUBBIN 6477",
    "locID": "LOC000077925766",
    "tech": "NULL",
    "upgrade": "NULL_NA",
    "gnaf_pid": "GAWA_160800852",
    "tech_change_status": "Not Planned"
   }
  },
  {
   "type": "Feature",
   "geometry": {
    "type": "Point",
    "coordinates": [
     117.85841753,
     -30.80862989
    ]
   },
   "properties": {
    "name": "23 MONGER STREET BENCUBBIN 6477",
    "locID": "LOC000009505211",
    "tech": "NULL",
    "upgrade": "NULL_NA",
    "gnaf_pid": "GAWA_160800853",
    "tech_change_status": "Not Planned"
   }
  },
  {
   "type": "Feature",
   "geometry": {
    "type": "Point",
    "coordinates": [
     117.8598479,
     -30.80946044
    ]
   },
   "properties": {
    "name": "39 MONGER STREET BENCUBBIN 6477",
    "locID": "LOC000086314832",
    "tech": "NULL",
    "upgrade": "NULL_NA",
    "gnaf_pid": "GAWA_160800859",
    "tech_change_status": "Not Planned"
   }
  },
  {
   "type": "Feature",
   "geometry": {
    "type": "Point",
    "coordinates": [
     117.86040974,
     -30.81000013
    ]
   },
   "properties": {
    "name": "47 MONGER STREET BENCUBBIN 6477",
    "locID": "LOC000044927386",
    "tech": "NULL",
    "upgrade": "NULL_NA",
    "gnaf_pid": "GAWA_160800862",
    "tech_change_status": "Not Planned"
   }
  },
  {
   "type": "Feature",
   "geometry": {
    "type": "Point",
    "coordinates": [
     117.85640058,
     -30.80832936
    ]
   },
   "properties": {
    "name": "4 MONGER STREET BENCUBBIN 6477",
    "locID": "LOC000039200722",
    "tech": "NULL",
    "upgrade": "NULL_NA",
    "gnaf_pid": "GAWA_160800863",
    "tech_change_status": "Not Planned"
   }
  },
  {
   "type": "Feature",
   "geometry": {
    "type": "Point",
    "coordinates": [
     117.86083614,
     -30.8104031
    ]
   },
   "properties": {
    "name": "51 MONGER STREET BENCUBBIN 6477",
    "locID": "LOC000077838371",
    "tech": "NULL",
    "upgrade": "NULL_NA",
    "gnaf_pid": "GAWA_160800864",
    "tech_change_status": "Not Planned"
   }
  },
  {
   "type": "Feature",
   "geometry": {
    "type": "Point",
    "coordinates": [
     117.86139268,
     -30.81094428
    ]
   },
   "properties": {
    "name": "59 MONGER STREET BENCUBBIN 6477",
    "locID": "LOC000051685857",
    "tech": "SATELLITE",
    "upgrade": "NULL_NA",
    "gnaf_pid": "GAWA_160800866",
    "tech_change_status": "Not Planned"
   }
  },
  {
   "type": "Feature",
   "geometry": {
    "type": "Point",
    "coordinates": [
     117.86153306,
     -30.81107912
    ]
   },
   "properties": {
    "name": "61 MONGER STREET BENCUBBIN 6477",
    "locID": "LOC000032715536",
    "tech": "NULL",
    "upgrade": "NULL_NA",
    "gnaf_pid": "GAWA_160800867",
    "tech_change_status": "Not Planned"
   }
  },
  {
   "type": "Feature",
   "geometry": {
    "type": "Point",
    "coordinates": [
     117.86223428,
     -30.81175293
    ]
   },
   "properties": {
    "name": "69 MONGER STREET BENCUBBIN 6477",
    "locID": "LOC000031515192",
    "tech": "NULL",
    "upgrade": "NULL_NA",
    "gnaf_pid": "GAWA_160800870",
    "tech_change_status": "Not Planned"
   }
  },
  {
   "type": "Feature",
   "geometry": {
    "type": "Point",
    "coordinates": [
     117.86237428,
     -30.81188746
    ]
   },
   "properties": {
    "name": "71 MONGER STREET BENCUBBIN 6477",
    "locID": "LOC000036688187",
    "tech": "NULL",
    "upgrade": "NULL_NA",
    "gnaf_pid": "GAWA_160800871",
    "tech_change_status": "Not Planned"
   }
  },
  {
   "type": "Feature",
   "geometry": {
    "type": "Point",
    "coordinates": [
     117.86251429,
     -30.81202199
    ]
   },
   "properties": {
    "name": "73 MONGER STREET BENCUBBIN 6477",
    "locID": "LOC000063442881",
    "tech": "NULL",
    "upgrade": "NULL_NA",
    "gnaf_pid": "GAWA_160800872",
    "tech_change_status": "Not Planned"
   }
  },
  {
   "type": "Feature",
   "geometry": {
    "type": "Point",
    "coordinates": [
     117.86307873,
     -30.81256046
    ]
   },
   "properties": {
    "name": "81 MONGER STREET BENCUBBIN 6477",
    "locID": "LOC000058350195",
    "tech": "NULL",
    "upgrade": "NULL_NA",
    "gnaf_pid": "GAWA_160800875",
    "tech_change_status": "Not Planned"
   }
  },
  {
   "type": "Feature",
   "geometry": {
    "type": "Point",
    "coordinates": [
     117.86336656,
     -30.81283278
    ]
   },
   "properties": {
    "name": "83 MONGER STREET BENCUBBIN 6477",
    "locID": "LOC000094220295",
    "tech": "NULL",
    "upgrade": "NULL_NA",
    "gnaf_pid": "GAWA_160800876",
    "tech_change_status": "Not Planned"
   }
  },
  {
   "type": "Feature",
   "geometry": {
    "type": "Point",
    "coordinates": [
     117.86350174,
     -30.81296956
    ]
   },
   "properties": {
    "name": "85 MONGER STREET BENCUBBIN 6477",
    "locID": "LOC000071765380",
    "tech": "NULL",
    "upgrade": "NULL_NA",
    "gnaf_pid": "GAWA_160800877",
    "tech_change_status": "Not Planned"
   }
  },
  {
   "type": "Feature",
   "geometry": {
    "type": "Point",
    "coordinates": [
     117.86369814,
     -30.81313407
    ]
   },
   "properties": {
    "name": "87 MONGER STREET BENCUBBIN 6477",
    "locID": "LOC000006536717",
    "tech": "NULL",
    "upgrade": "NULL_NA",
    "gnaf_pid": "GAWA_160800878",
    "tech_change_status": "Not Planned"
   }
  },
  {
   "type": "Feature",
   "geometry": {
    "type": "Point",
    "coordinates": [
     117.86386584,
     -30.81358349
    ]
   },
   "properties": {
    "name": "91 MONGER STREET BENCUBBIN 6477",
    "locID": "LOC000045602991",
    "tech": "NULL",
    "upgrade": "NULL_NA",
    "gnaf_pid": "GAWA_160800879",
    "tech_change_status": "Not Planned"
   }
  },
  {
   "type": "Feature",
   "geometry": {
    "type": "Point",
    "coordinates": [
     117.8639093,
     -30.8137611
    ]
   },
   "properties": {
    "name": "93 MONGER STREET BENCUBBIN 6477",
    "locID": "LOC000035471742",
    "tech": "NULL",
    "upgrade": "NULL_NA",
    "gnaf_pid": "GAWA_160800880",
    "tech_change_status": "Not Planned"
   }
  },
  {
   "type": "Feature",
   "geometry": {
    "type": "Point",
    "coordinates": [
     117.86396373,
     -30.81393349
    ]
   },
   "properties": {
    "name": "95 MONGER STREET BENCUBBIN 6477",
    "locID": "LOC000071594370",
    "tech": "NULL",
    "upgrade": "NULL_NA",
    "gnaf_pid": "GAWA_160800881",
    "tech_change_status": "Not Planned"
   }
  },
  {
   "type": "Feature",
   "geometry": {
    "type": "Point",
    "coordinates": [
     117.85642996,
     -30.8099858
    ]
   },
   "properties": {
    "name": "9 MURRAY STREET BENCUBBIN 6477",
    "locID": "LOC000015378325",
    "tech": "SATELLITE",
    "upgrade": "NULL_NA",
    "gnaf_pid": "GAWA_160801115",
    "tech_change_status": "Not Planned"
   }
  },
  {
   "type": "Feature",
   "geometry": {
    "type": "Point",
    "coordinates": [
     117.86125287,
     -30.81396527
    ]
   },
   "properties": {
    "name": "13 POWELL STREET BENCUBBIN 6477",
    "locID": "LOC000015468759",
    "tech": "SATELLITE",
    "upgrade": "NULL_NA",
    "gnaf_pid": "GAWA_160802496",
    "tech_change_status": "Not Planned"
   }
  },
  {
   "type": "Feature",
   "geometry": {
    "type": "Point",
    "coordinates": [
     117.85663985,
     -30.80961946
    ]
   },
   "properties": {
    "name": "1 ROWLANDS STREET BENCUBBIN 6477",
    "locID": "LOC000103929001",
    "tech": "NULL",
    "upgrade": "NULL_NA",
    "gnaf_pid": "GAWA_160803173",
    "tech_change_status": "Not Planned"
   }
  },
  {
   "type": "Feature",
   "geometry": {
    "type": "Point",
    "coordinates": [
     117.85655374,
     -30.80944168
    ]
   },
   "properties": {
    "name": "3 ROWLANDS STREET BENCUBBIN 6477",
    "locID": "LOC000017916239",
    "tech": "SATELLITE",
    "upgrade": "NULL_NA",
    "gnaf_pid": "GAWA_160803174",
    "tech_change_status": "Not Planned"
   }
  },
  {
   "type": "Feature",
   "geometry": {
    "type": "Point",
    "coordinates": [
     117.85644707,
     -30.80926263
    ]
   },
   "properties": {
    "name": "5 ROWLANDS STREET BENCUBBIN 6477",
    "locID": "LOC000052649902",
    "tech": "NULL",
    "upgrade": "NULL_NA",
    "gnaf_pid": "GAWA_160803175",
    "tech_change_status": "Not Planned"
   }
  },
  {
   "type": "Feature",
   "geometry": {
    "type": "Point",
    "coordinates": [
     117.85626774,
     -30.8092054
    ]
   },
   "properties": {
    "name": "7 ROWLANDS STREET BENCUBBIN 6477",
    "locID": "LOC000099936838",
    "tech": "SATELLITE",
    "upgrade": "NULL_NA",
    "gnaf_pid": "GAWA_160803176",
    "tech_change_status": "Not Planned"
   }
  },
  {
   "type": "Feature",
   "geometry": {
    "type": "Point",
    "coordinates": [
     117.86023027,
     -30.81194481
    ]
   },
   "properties": {
    "name": "3 HAMMOND STREET BENCUBBIN 6477",
    "locID": "LOC000030552169",
    "tech": "SATELLITE",
    "upgrade": "NULL_NA",
    "gnaf_pid": "GAWA_160934322",
    "tech_change_status": "Not Planned"
   }
  },
  {
   "type": "Feature",
   "geometry": {
    "type": "Point",
    "coordinates": [
     117.86606032,
     -30.93598656
    ]
   },
   "properties": {
    "name": "1229 BENCUBBIN-KELLERBERRIN ROAD BENCUBBIN 6477",
    "locID": "LOC000034662933",
    "tech": "SATELLITE",
    "upgrade": "NULL_NA",
    "gnaf_pid": "GAWA_162259340",
    "tech_change_status": "Not Planned"
   }
  },
  {
   "type": "Feature",
   "geometry": {
    "type": "Point",
    "coordinates": [
     117.816971,
     -30.881398
    ]
   },
   "properties": {
    "name": "404 BREAKELL ROAD BENCUBBIN 6477",
    "locID": "LOC000069660119",
    "tech": "SATELLITE",
    "upgrade": "NULL_NA",
    "gnaf_pid": "GAWA_162259765",
    "tech_change_status": "Not Planned"
   }
  },
  {
   "type": "Feature",
   "geometry": {
    "type": "Point",
    "coordinates": [
     117.762306,
     -30.940629
    ]
   },
   "properties": {
    "name": "1165 MANDIGA-TRAYNING ROAD BENCUBBIN 6477",
    "locID": "LOC000011552927",
    "tech": "NULL",
    "upgrade": "NULL_NA",
    "gnaf_pid": "GAWA_162274022",
    "tech_change_status": "Not Planned"
   }
  },
  {
   "type": "Feature",
   "geometry": {
    "type": "Point",
    "coordinates": [
     117.87319,
     -30.861904
    ]
   },
   "properties": {
    "name": "319 BENCUBBIN-KELLERBERRIN ROAD BENCUBBIN 6477",
    "locID": "LOC000104239110",
    "tech": "NULL",
    "upgrade": "NULL_NA",
    "gnaf_pid": "GAWA_162276043",
    "tech_change_status": "Not Planned"
   }
  },
  {
   "type": "Feature",
   "geometry": {
    "type": "Point",
    "coordinates": [
     117.86680116,
     -30.91714285
    ]
   },
   "properties": {
    "name": "935 BENCUBBIN-KELLERBERRIN ROAD BENCUBBIN 6477",
    "locID": "LOC000026504930",
    "tech": "SATELLITE",
    "upgrade": "NULL_NA",
    "gnaf_pid": "GAWA_162276044",
    "tech_change_status": "Not Planned"
   }
  },
  {
   "type": "Feature",
   "geometry": {
    "type": "Point",
    "coordinates": [
     117.874383,
     -30.844789
    ]
   },
   "properties": {
    "name": "99 BENCUBBIN-KELLERBERRIN ROAD BENCUBBIN 6477",
    "locID": "LOC000022885815",
    "tech": "NULL",
    "upgrade": "NULL_NA",
    "gnaf_pid": "GAWA_162276045",
    "tech_change_status": "Not Planned"
   }
  },
  {
   "type": "Feature",
   "geometry": {
    "type": "Point",
    "coordinates": [
     117.884287,
     -30.91689
    ]
   },
   "properties": {
    "name": "1076 BENCUBBIN-KUNUNOPPIN ROAD BENCUBBIN 6477",
    "locID": "LOC000063948844",
    "tech": "NULL",
    "upgrade": "NULL_NA",
    "gnaf_pid": "GAWA_162276046",
    "tech_change_status": "Not Planned"
   }
  },
  {
   "type": "Feature",
   "geometry": {
    "type": "Point",
    "coordinates": [
     117.911464,
     -30.867508
    ]
   },
   "properties": {
    "name": "533 BENCUBBIN-KUNUNOPPIN ROAD BENCUBBIN 6477",
    "locID": "LOC000090855881",
    "tech": "SATELLITE",
    "upgrade": "NULL_NA",
    "gnaf_pid": "GAWA_162276047",
    "tech_change_status": "Not Planned"
   }
  },
  {
   "type": "Feature",
   "geometry": {
    "type": "Point",
    "coordinates": [
     117.894081,
     -30.862031
    ]
   },
   "properties": {
    "name": "534 BENCUBBIN-KUNUNOPPIN ROAD BENCUBBIN 6477",
    "locID": "LOC000065678687",
    "tech": "NULL",
    "upgrade": "NULL_NA",
    "gnaf_pid": "GAWA_162276048",
    "tech_change_status": "Not Planned"
   }
  },
  {
   "type": "Feature",
   "geometry": {
    "type": "Point",
    "coordinates": [
     117.84232915,
     -30.89161861
    ]
   },
   "properties": {
    "name": "169 BREAKELL ROAD BENCUBBIN 6477",
    "locID": "LOC000099328405",
    "tech": "NULL",
    "upgrade": "NULL_NA",
    "gnaf_pid": "GAWA_162276156",
    "tech_change_status": "Not Planned"
   }
  },
  {
   "type": "Feature",
   "geometry": {
    "type": "Point",
    "coordinates": [
     117.835394,
     -30.903738
    ]
   },
   "properties": {
    "name": "261 BREAKELL ROAD BENCUBBIN 6477",
    "locID": "LOC000037148062",
    "tech": "SATELLITE",
    "upgrade": "NULL_NA",
    "gnaf_pid": "GAWA_162276157",
    "tech_change_status": "Not Planned"
   }
  },
  {
   "type": "Feature",
   "geometry": {
    "type": "Point",
    "coordinates": [
     117.8182,
     -30.903039
    ]
   },
   "properties": {
    "name": "451 BREAKELL ROAD BENCUBBIN 6477",
    "locID": "LOC000016594597",
    "tech": "NULL",
    "upgrade": "NULL_NA",
    "gnaf_pid": "GAWA_162276158",
    "tech_change_status": "Not Planned"
   }
  },
  {
   "type": "Feature",
   "geometry": {
    "type": "Point",
    "coordinates": [
     117.80702966,
     -30.8939394
    ]
   },
   "properties": {
    "name": "565 BREAKELL ROAD BENCUBBIN 6477",
    "locID": "LOC000027880030",
    "tech": "SATELLITE",
    "upgrade": "NULL_NA",
    "gnaf_pid": "GAWA_162276159",
    "tech_change_status": "Not Planned"
   }
  },
  {
   "type": "Feature",
   "geometry": {
    "type": "Point",
    "coordinates": [
     117.938858,
     -30.94376
    ]
   },
   "properties": {
    "name": "776 GILHAM COOPER ROAD BENCUBBIN 6477",
    "locID": "LOC000021249367",
    "tech": "NULL",
    "upgrade": "NULL_NA",
    "gnaf_pid": "GAWA_162277248",
    "tech_change_status": "Not Planned"
   }
  },
  {
   "type": "Feature",
   "geometry": {
    "type": "Point",
    "coordinates": [
     117.83519684,
     -30.92892531
    ]
   },
   "properties": {
    "name": "1476 GRYLLS ROAD BENCUBBIN 6477",
    "locID": "LOC000071767049",
    "tech": "NULL",
    "upgrade": "NULL_NA",
    "gnaf_pid": "GAWA_162277386",
    "tech_change_status": "Not Planned"
   }
  },
  {
   "type": "Feature",
   "geometry": {
    "type": "Point",
    "coordinates": [
     117.76463359,
     -30.84297319
    ]
   },
   "properties": {
    "name": "202 JACK ROAD BENCUBBIN 6477",
    "locID": "LOC000044829870",
    "tech": "NULL",
    "upgrade": "NULL_NA",
    "gnaf_pid": "GAWA_162277723",
    "tech_change_status": "Not Planned"
   }
  },
  {
   "type": "Feature",
   "geometry": {
    "type": "Point",
    "coordinates": [
     117.798328,
     -30.879997
    ]
   },
   "properties": {
    "name": "483 JACK ROAD BENCUBBIN 6477",
    "locID": "LOC000074712319",
    "tech": "NULL",
    "upgrade": "NULL_NA",
    "gnaf_pid": "GAWA_162277724",
    "tech_change_status": "Not Planned"
   }
  },
  {
   "type": "Feature",
   "geometry": {
    "type": "Point",
    "coordinates": [
     117.779834,
     -30.89852
    ]
   },
   "properties": {
    "name": "699 JACK ROAD BENCUBBIN 6477",
    "locID": "LOC000042192958",
    "tech": "NULL",
    "upgrade": "NULL_NA",
    "gnaf_pid": "GAWA_162277725",
    "tech_change_status": "Not Planned"
   }
  },
  {
   "type": "Feature",
   "geometry": {
    "type": "Point",
    "coordinates": [
     117.77964,
     -30.836868
    ]
   },
   "properties": {
    "name": "2784 KOORDA-BULLFINCH ROAD BENCUBBIN 6477",
    "locID": "LOC000012819919",
    "tech": "SATELLITE",
    "upgrade": "NULL_NA",
    "gnaf_pid": "GAWA_162277944",
    "tech_change_status": "Not Planned"
   }
  },
  {
   "type": "Feature",
   "geometry": {
    "type": "Point",
    "coordinates": [
     117.823224,
     -30.823962
    ]
   },
   "properties": {
    "name": "3233 KOORDA-BULLFINCH ROAD BENCUBBIN 6477",
    "locID": "LOC000025623856",
    "tech": "SATELLITE",
    "upgrade": "NULL_NA",
    "gnaf_pid": "GAWA_162277945",
    "tech_change_status": "Not Planned"
   }
  },
  {
   "type": "Feature",
   "geometry": {
    "type": "Point",
    "coordinates": [
     117.91462739,
     -30.82203283
    ]
   },
   "properties": {
    "name": "9 MARSHALL ROCK SOUTH ROAD BENCUBBIN 6477",
    "locID": "LOC000100717898",
    "tech": "NULL",
    "upgrade": "NULL_NA",
    "gnaf_pid": "GAWA_162278225",
    "tech_change_status": "Not Planned"
   }
  },
  {
   "type": "Feature",
   "geometry": {
    "type": "Point",
    "coordinates": [
     117.90763765,
     -30.88910353
    ]
   },
   "properties": {
    "name": "1770 WREN ROAD BENCUBBIN 6477",
    "locID": "LOC000047646642",
    "tech": "SATELLITE",
    "upgrade": "NULL_NA",
    "gnaf_pid": "GAWA_162280235",
    "tech_change_status": "Not Planned"
   }
  },
  {
   "type": "Feature",
   "geometry": {
    "type": "Point",
    "coordinates": [
     117.871917,
     -30.880178
    ]
   },
   "properties": {
    "name": "77 WREN ROAD BENCUBBIN 6477",
    "locID": "LOC000089699377",
    "tech": "NULL",
    "upgrade": "NULL_NA",
    "gnaf_pid": "GAWA_162280236",
    "tech_change_status": "Not Planned"
   }
  },
  {
   "type": "Feature",
   "geometry": {
    "type": "Point",
    "coordinates": [
     117.77735424,
     -30.80143363
    ]
   },
   "properties": {
    "name": "767 BENCUBBIN-GABBIN ROAD BENCUBBIN 6477",
    "locID": "LOC000022014617",
    "tech": "SATELLITE",
    "upgrade": "NULL_NA",
    "gnaf_pid": "GAWA_162327278",
    "tech_change_status": "Not Planned"
   }
  },
  {
   "type": "Feature",
   "geometry": {
    "type": "Point",
    "coordinates": [
     117.89645712,
     -30.80555305
    ]
   },
   "properties": {
    "name": "3969 KOORDA-BULLFINCH ROAD BENCUBBIN 6477",
    "locID": "LOC000133250085",
    "tech": "SATELLITE",
    "upgrade": "NULL_NA",
    "gnaf_pid": "GAWA_162330320",
    "tech_change_status": "Not Planned"
   }
  },
  {
   "type": "Feature",
   "geometry": {
    "type": "Point",
    "coordinates": [
     117.867533,
     -30.816055
    ]
   },
   "properties": {
    "name": "49 WELBUNGIN ROAD BENCUBBIN 6477",
    "locID": "LOC000108047856",
    "tech": "NULL",
    "upgrade": "NULL_NA",
    "gnaf_pid": "GAWA_162333763",
    "tech_change_status": "Not Planned"
   }
  },
  {
   "type": "Feature",
   "geometry": {
    "type": "Point",
    "coordinates": [
     117.863939,
     -30.815907
    ]
   },
   "properties": {
    "name": "9 WELBUNGIN ROAD BENCUBBIN 6477",
    "locID": "LOC000055029182",
    "tech": "NULL",
    "upgrade": "NULL_NA",
    "gnaf_pid": "GAWA_162333764",
    "tech_change_status": "Not Planned"
   }
  },
  {
   "type": "Feature",
   "geometry": {
    "type": "Point",
    "coordinates": [
     117.789988,
     -30.620828
    ]
   },
   "properties": {
    "name": "1112 ANDREWS TANK ROAD BENCUBBIN 6477",
    "locID": "LOC000100672818",
    "tech": "NULL",
    "upgrade": "NULL_NA",
    "gnaf_pid": "GAWA_162389742",
    "tech_change_status": "Not Planned"
   }
  },
  {
   "type": "Feature",
   "geometry": {
    "type": "Point",
    "coordinates": [
     117.86325194,
     -30.65420395
    ]
   },
   "properties": {
    "name": "319 ANDREWS TANK ROAD BENCUBBIN 6477",
    "locID": "LOC000064820503",
    "tech": "NULL",
    "upgrade": "NULL_NA",
    "gnaf_pid": "GAWA_162389743",
    "tech_change_status": "Not Planned"
   }
  },
  {
   "type": "Feature",
   "geometry": {
    "type": "Point",
    "coordinates": [
     117.808185,
     -30.655189
    ]
   },
   "properties": {
    "name": "975 ANDREWS TANK ROAD BENCUBBIN 6477",
    "locID": "LOC000077568410",
    "tech": "NULL",
    "upgrade": "NULL_NA",
    "gnaf_pid": "GAWA_162389744",
    "tech_change_status": "Not Planned"
   }
  },
  {
   "type": "Feature",
   "geometry": {
    "type": "Point",
    "coordinates": [
     117.836943,
     -30.699699
    ]
   },
   "properties": {
    "name": "1106 BEACON BACK ROAD BENCUBBIN 6477",
    "locID": "LOC000057338966",
    "tech": "NULL",
    "upgrade": "NULL_NA",
    "gnaf_pid": "GAWA_162389947",
    "tech_change_status": "Not Planned"
   }
  },
  {
   "type": "Feature",
   "geometry": {
    "type": "Point",
    "coordinates": [
     117.822175,
     -30.775761
    ]
   },
   "properties": {
    "name": "225 BEACON BACK ROAD BENCUBBIN 6477",
    "locID": "LOC000054531658",
    "tech": "SATELLITE",
    "upgrade": "NULL_NA",
    "gnaf_pid": "GAWA_162389948",
    "tech_change_status": "Not Planned"
   }
  },
  {
   "type": "Feature",
   "geometry": {
    "type": "Point",
    "coordinates": [
     117.91406449,
     -30.60316589
    ]
   },
   "properties": {
    "name": "1807 BEACON-BENCUBBIN ROAD BENCUBBIN 6477",
    "locID": "LOC000094587345",
    "tech": "NULL",
    "upgrade": "NULL_NA",
    "gnaf_pid": "GAWA_162389956",
    "tech_change_status": "Not Planned"
   }
  },
  {
   "type": "Feature",
   "geometry": {
    "type": "Point",
    "coordinates": [
     117.88206407,
     -30.63568042
    ]
   },
   "properties": {
    "name": "2164 BEACON-BENCUBBIN ROAD BENCUBBIN 6477",
    "locID": "LOC000011194192",
    "tech": "NULL",
    "upgrade": "NULL_NA",
    "gnaf_pid": "GAWA_162389957",
    "tech_change_status": "Not Planned"
   }
  },
  {
   "type": "Feature",
   "geometry": {
    "type": "Point",
    "coordinates": [
     117.88868851,
     -30.66098236
    ]
   },
   "properties": {
    "name": "2514 BEACON-BENCUBBIN ROAD BENCUBBIN 6477",
    "locID": "LOC000104154226",
    "tech": "NULL",
    "upgrade": "NULL_NA",
    "gnaf_pid": "GAWA_162389958",
    "tech_change_status": "Not Planned"
   }
  },
  {
   "type": "Feature",
   "geometry": {
    "type": "Point",
    "coordinates": [
     117.89088135,
     -30.68885501
    ]
   },
   "properties": {
    "name": "2830 BEACON-BENCUBBIN ROAD BENCUBBIN 6477",
    "locID": "LOC000051847943",
    "tech": "NULL",
    "upgrade": "NULL_NA",
    "gnaf_pid": "GAWA_162389959",
    "tech_change_status": "Not Planned"
   }
  },
  {
   "type": "Feature",
   "geometry": {
    "type": "Point",
    "coordinates": [
     117.86879192,
     -30.74556336
    ]
   },
   "properties": {
    "name": "3460 BEACON-BENCUBBIN ROAD BENCUBBIN 6477",
    "locID": "LOC000055692669",
    "tech": "NULL",
    "upgrade": "NULL_NA",
    "gnaf_pid": "GAWA_162389960",
    "tech_change_status": "Not Planned"
   }
  },
  {
   "type": "Feature",
   "geometry": {
    "type": "Point",
    "coordinates": [
     117.859178,
     -30.756849
    ]
   },
   "properties": {
    "name": "3628 BEACON-BENCUBBIN ROAD BENCUBBIN 6477",
    "locID": "LOC000074961494",
    "tech": "NULL",
    "upgrade": "NULL_NA",
    "gnaf_pid": "GAWA_162389961",
    "tech_change_status": "Not Planned"
   }
  },
  {
   "type": "Feature",
   "geometry": {
    "type": "Point",
    "coordinates": [
     117.86785227,
     -30.78852952
    ]
   },
   "properties": {
    "name": "3903 BEACON-BENCUBBIN ROAD BENCUBBIN 6477",
    "locID": "LOC000018153909",
    "tech": "NULL",
    "upgrade": "NULL_NA",
    "gnaf_pid": "GAWA_162389962",
    "tech_change_status": "Not Planned"
   }
  },
  {
   "type": "Feature",
   "geometry": {
    "type": "Point",
    "coordinates": [
     117.85171523,
     -30.77925641
    ]
   },
   "properties": {
    "name": "3914 BEACON-BENCUBBIN ROAD BENCUBBIN 6477",
    "locID": "LOC000107931960",
    "tech": "NULL",
    "upgrade": "NULL_NA",
    "gnaf_pid": "GAWA_162389963",
    "tech_change_status": "Not Planned"
   }
  },
  {
   "type": "Feature",
   "geometry": {
    "type": "Point",
    "coordinates": [
     117.93586852,
     -30.63901084
    ]
   },
   "properties": {
    "name": "280 GRANT ROAD BENCUBBIN 6477",
    "locID": "LOC000013717630",
    "tech": "NULL",
    "upgrade": "NULL_NA",
    "gnaf_pid": "GAWA_162391001",
    "tech_change_status": "Not Planned"
   }
  },
  {
   "type": "Feature",
   "geometry": {
    "type": "Point",
    "coordinates": [
     117.88670391,
     -30.79033372
    ]
   },
   "properties": {
    "name": "186 HOGAN ROAD BENCUBBIN 6477",
    "locID": "LOC000017285646",
    "tech": "SATELLITE",
    "upgrade": "NULL_NA",
    "gnaf_pid": "GAWA_162391190",
    "tech_change_status": "Not Planned"
   }
  },
  {
   "type": "Feature",
   "geometry": {
    "type": "Point",
    "coordinates": [
     117.785374,
     -30.698639
    ]
   },
   "properties": {
    "name": "1050 MANDIGA-MARINDO ROAD BENCUBBIN 6477",
    "locID": "LOC000006178447",
    "tech": "NULL",
    "upgrade": "NULL_NA",
    "gnaf_pid": "GAWA_162391681",
    "tech_change_status": "Not Planned"
   }
  },
  {
   "type": "Feature",
   "geometry": {
    "type": "Point",
    "coordinates": [
     117.790502,
     -30.734096
    ]
   },
   "properties": {
    "name": "654 MANDIGA-MARINDO ROAD BENCUBBIN 6477",
    "locID": "LOC000066643271",
    "tech": "NULL",
    "upgrade": "NULL_NA",
    "gnaf_pid": "GAWA_162391682",
    "tech_change_status": "Not Planned"
   }
  },
  {
   "type": "Feature",
   "geometry": {
    "type": "Point",
    "coordinates": [
     117.90922598,
     -30.77317752
    ]
   },
   "properties": {
    "name": "41 MARSHALL ROCK NORTH ROAD BENCUBBIN 6477",
    "locID": "LOC000051867210",
    "tech": "NULL",
    "upgrade": "NULL_NA",
    "gnaf_pid": "GAWA_162391734",
    "tech_change_status": "Not Planned"
   }
  },
  {
   "type": "Feature",
   "geometry": {
    "type": "Point",
    "coordinates": [
     117.937498,
     -30.673501
    ]
   },
   "properties": {
    "name": "221 PERRY ROAD BENCUBBIN 6477",
    "locID": "LOC100079005388",
    "tech": "NULL",
    "upgrade": "NULL_NA",
    "gnaf_pid": "GAWA_162392343",
    "tech_change_status": "Not Planned"
   }
  },
  {
   "type": "Feature",
   "geometry": {
    "type": "Point",
    "coordinates": [
     117.915108,
     -30.707117
    ]
   },
   "properties": {
    "name": "319 SACHSE NORTH SOUTH ROAD BENCUBBIN 6477",
    "locID": "LOC000052775346",
    "tech": "NULL",
    "upgrade": "NULL_NA",
    "gnaf_pid": "GAWA_162392624",
    "tech_change_status": "Not Planned"
   }
  },
  {
   "type": "Feature",
   "geometry": {
    "type": "Point",
    "coordinates": [
     117.892544,
     -30.722702
    ]
   },
   "properties": {
    "name": "496 SACHSE NORTH SOUTH ROAD BENCUBBIN 6477",
    "locID": "LOC000092593863",
    "tech": "NULL",
    "upgrade": "NULL_NA",
    "gnaf_pid": "GAWA_162392625",
    "tech_change_status": "Not Planned"
   }
  },
  {
   "type": "Feature",
   "geometry": {
    "type": "Point",
    "coordinates": [
     117.85752757,
     -30.81424082
    ]
   },
   "properties": {
    "name": "34 JEFFRIES STREET BENCUBBIN 6477",
    "locID": "LOC000082555472",
    "tech": "NULL",
    "upgrade": "NULL_NA",
    "gnaf_pid": "GAWA_162641740",
    "tech_change_status": "Not Planned"
   }
  },
  {
   "type": "Feature",
   "geometry": {
    "type": "Point",
    "coordinates": [
     117.86139177,
     -30.81416739
    ]
   },
   "properties": {
    "name": "6 JEFFRIES STREET BENCUBBIN 6477",
    "locID": "LOC000082555472",
    "tech": "NULL",
    "upgrade": "NULL_NA",
    "gnaf_pid": "GAWA_162641744",
    "tech_change_status": "Not Planned"
   }
  },
  {
   "type": "Feature",
   "geometry": {
    "type": "Point",
    "coordinates": [
     117.86118825,
     -30.81486907
    ]
   },
   "properties": {
    "name": "15146 POWELL STREET BENCUBBIN 6477",
    "locID": "LOC000114485018",
    "tech": "SATELLITE",
    "upgrade": "NULL_NA",
    "gnaf_pid": "GAWA_163391808",
    "tech_change_status": "Not Planned"
   }
  },
  {
   "type": "Feature",
   "geometry": {
    "type": "Point",
    "coordinates": [
     117.87216444,
     -30.80770203
    ]
   },
   "properties": {
    "name": "80 GILLETT ROAD BENCUBBIN 6477",
    "locID": "LOC100078655552",
    "tech": "NULL",
    "upgrade": "NULL_NA",
    "gnaf_pid": "GAWA_719853558",
    "tech_change_status": "Not Planned"
   }
  },
  {
   "type": "Feature",
   "geometry": {
    "type": "Point",
    "coordinates": [
     117.8734804,
     -30.80350576
    ]
   },
   "properties": {
    "name": "82 GILLETT ROAD BENCUBBIN 6477",
    "locID": "LOC000142870131",
    "tech": "NULL",
    "upgrade": "NULL_NA",
    "gnaf_pid": "GAWA_719854267",
    "tech_change_status": "Not Planned"
   }
  },
  {
   "type": "Feature",
   "geometry": {
    "type": "Point",
    "coordinates": [
     117.83595736,
     -30.76891236
    ]
   },
   "properties": {
    "name": "396 BEACON BACK ROAD BENCUBBIN 6477",
    "locID": "LOC000057338966",
    "tech": "NULL",
    "upgrade": "NULL_NA",
    "gnaf_pid": "GAWA_720486868",
    "tech_change_status": "Not Planned"
   }
  },
  {
   "type": "Feature",
   "geometry": {
    "type": "Point",
    "coordinates": [
     117.86188211,
     -30.80971423
    ]
   },
   "properties": {
    "name": "UNIT 4, 39 BROWN STREET BENCUBBIN 6477",
    "locID": "LOC000058000081",
    "tech": "NULL",
    "upgrade": "NULL_NA",
    "gnaf_pid": "GAWA_720645729",
    "tech_change_status": "Not Planned"
   }
  }
 ]
}