{
 "type": "FeatureCollection",
 "generated": "2024-10-30T22:23:57.605034",
 "suburb": "BIRCHMONT",
 "features": [
  {
   "type": "Feature",
   "geometry": {
    "type": "Point",
    "coordinates": [
     115.70786,
     -32.70496
    ]
   },
   "properties": {
    "name": "12 KANGAROO LOOP BIRCHMONT 6214",
    "locID": "LOC000012713560",
    "tech": "SATELLITE",
    "upgrade": "WIRELESS",
    "gnaf_pid": "GAWA_147265050",
    "tech_change_status": "Eligible to Order",
    "program_type": "Fixed Wireless and Satellite Upgrade Program",
    "target_eligibility_quarter": "NA"
   }
  },
  {
   "type": "Feature",
   "geometry": {
    "type": "Point",
    "coordinates": [
     115.76805,
     -32.73864
    ]
   },
   "properties": {
    "name": "108 HERRON POINT ROAD BIRCHMONT 6214",
    "locID": "LOC000027794071",
    "tech": "WIRELESS",
    "upgrade": "NULL_NA",
    "gnaf_pid": "GAWA_160916165",
    "tech_change_status": "Not Planned",
    "program_type": "Fixed Wireless and Satellite Upgrade Program",
    "target_eligibility_quarter": "Dec 2024"
   }
  },
  {
   "type": "Feature",
   "geometry": {
    "type": "Point",
    "coordinates": [
     115.75422757,
     -32.7403995
    ]
   },
   "properties": {
    "name": "284 HERRON POINT ROAD BIRCHMONT 6214",
    "locID": "LOC000011538761",
    "tech": "WIRELESS",
    "upgrade": "NULL_NA",
    "gnaf_pid": "GAWA_160916166",
    "tech_change_status": "Not Planned",
    "program_type": "Fixed Wireless and Satellite Upgrade Program",
    "target_eligibility_quarter": "NA"
   }
  },
  {
   "type": "Feature",
   "geometry": {
    "type": "Point",
    "coordinates": [
     115.70616,
     -32.7032
    ]
   },
   "properties": {
    "name": "54 KANGAROO LOOP BIRCHMONT 6214",
    "locID": "LOC000060490645",
    "tech": "SATELLITE",
    "upgrade": "WIRELESS",
    "gnaf_pid": "GAWA_160916619",
    "tech_change_status": "Eligible to Order",
    "program_type": "Fixed Wireless and Satellite Upgrade Program",
    "target_eligibility_quarter": "Dec 2024"
   }
  },
  {
   "type": "Feature",
   "geometry": {
    "type": "Point",
    "coordinates": [
     115.7431505,
     -32.73549363
    ]
   },
   "properties": {
    "name": "380 HERRON POINT ROAD BIRCHMONT 6214",
    "locID": "LOC000018056598",
    "tech": "WIRELESS",
    "upgrade": "NULL_NA",
    "gnaf_pid": "GAWA_160927894",
    "tech_change_status": "Not Planned",
    "program_type": "Fixed Wireless and Satellite Upgrade Program",
    "target_eligibility_quarter": "Dec 2024"
   }
  },
  {
   "type": "Feature",
   "geometry": {
    "type": "Point",
    "coordinates": [
     115.7286007,
     -32.68461355
    ]
   },
   "properties": {
    "name": "495 LAKE MEALUP ROAD BIRCHMONT 6214",
    "locID": "LOC000010389100",
    "tech": "SATELLITE",
    "upgrade": "NULL_NA",
    "gnaf_pid": "GAWA_160928246",
    "tech_change_status": "Not Planned"
   }
  },
  {
   "type": "Feature",
   "geometry": {
    "type": "Point",
    "coordinates": [
     115.76543309,
     -32.71784355
    ]
   },
   "properties": {
    "name": "601 MILLS ROAD BIRCHMONT 6214",
    "locID": "LOC000056696670",
    "tech": "WIRELESS",
    "upgrade": "NULL_NA",
    "gnaf_pid": "GAWA_160928729",
    "tech_change_status": "Not Planned",
    "program_type": "Fixed Wireless and Satellite Upgrade Program",
    "target_eligibility_quarter": "NA"
   }
  },
  {
   "type": "Feature",
   "geometry": {
    "type": "Point",
    "coordinates": [
     115.7396,
     -32.70385
    ]
   },
   "properties": {
    "name": "624 THOMPSON ROAD BIRCHMONT 6214",
    "locID": "LOC000006562269",
    "tech": "WIRELESS",
    "upgrade": "NULL_NA",
    "gnaf_pid": "GAWA_160930348",
    "tech_change_status": "Not Planned",
    "program_type": "Fixed Wireless and Satellite Upgrade Program",
    "target_eligibility_quarter": "NA"
   }
  },
  {
   "type": "Feature",
   "geometry": {
    "type": "Point",
    "coordinates": [
     115.70742,
     -32.70623
    ]
   },
   "properties": {
    "name": "149 BIRCH DRIVE BIRCHMONT 6214",
    "locID": "LOC000179000585",
    "tech": "WIRELESS",
    "upgrade": "NULL_NA",
    "gnaf_pid": "GAWA_161028090",
    "tech_change_status": "Not Planned",
    "program_type": "Fixed Wireless and Satellite Upgrade Program",
    "target_eligibility_quarter": "NA"
   }
  },
  {
   "type": "Feature",
   "geometry": {
    "type": "Point",
    "coordinates": [
     115.70722,
     -32.69913
    ]
   },
   "properties": {
    "name": "231 BIRCH DRIVE BIRCHMONT 6214",
    "locID": "LOC000023685322",
    "tech": "WIRELESS",
    "upgrade": "NULL_NA",
    "gnaf_pid": "GAWA_161028091",
    "tech_change_status": "Not Planned",
    "program_type": "Fixed Wireless and Satellite Upgrade Program",
    "target_eligibility_quarter": "NA"
   }
  },
  {
   "type": "Feature",
   "geometry": {
    "type": "Point",
    "coordinates": [
     115.70442,
     -32.69644
    ]
   },
   "properties": {
    "name": "111 KANGAROO LOOP BIRCHMONT 6214",
    "locID": "LOC000013601870",
    "tech": "WIRELESS",
    "upgrade": "NULL_NA",
    "gnaf_pid": "GAWA_161030688",
    "tech_change_status": "Not Planned",
    "program_type": "Fixed Wireless and Satellite Upgrade Program",
    "target_eligibility_quarter": "NA"
   }
  },
  {
   "type": "Feature",
   "geometry": {
    "type": "Point",
    "coordinates": [
     115.70502,
     -32.69825
    ]
   },
   "properties": {
    "name": "112 KANGAROO LOOP BIRCHMONT 6214",
    "locID": "LOC000104218489",
    "tech": "WIRELESS",
    "upgrade": "NULL_NA",
    "gnaf_pid": "GAWA_161030689",
    "tech_change_status": "Not Planned",
    "program_type": "Fixed Wireless and Satellite Upgrade Program",
    "target_eligibility_quarter": "NA"
   }
  },
  {
   "type": "Feature",
   "geometry": {
    "type": "Point",
    "coordinates": [
     115.7054,
     -32.6965
    ]
   },
   "properties": {
    "name": "125 KANGAROO LOOP BIRCHMONT 6214",
    "locID": "LOC000050707587",
    "tech": "WIRELESS",
    "upgrade": "NULL_NA",
    "gnaf_pid": "GAWA_161030690",
    "tech_change_status": "Not Planned",
    "program_type": "Fixed Wireless and Satellite Upgrade Program",
    "target_eligibility_quarter": "NA"
   }
  },
  {
   "type": "Feature",
   "geometry": {
    "type": "Point",
    "coordinates": [
     115.70353,
     -32.70313
    ]
   },
   "properties": {
    "name": "53 KANGAROO LOOP BIRCHMONT 6214",
    "locID": "LOC000076915158",
    "tech": "WIRELESS",
    "upgrade": "NULL_NA",
    "gnaf_pid": "GAWA_161030691",
    "tech_change_status": "Not Planned",
    "program_type": "Fixed Wireless and Satellite Upgrade Program",
    "target_eligibility_quarter": "NA"
   }
  },
  {
   "type": "Feature",
   "geometry": {
    "type": "Point",
    "coordinates": [
     115.7234,
     -32.69788
    ]
   },
   "properties": {
    "name": "140 MCSWANN ROAD BIRCHMONT 6214",
    "locID": "LOC000071612297",
    "tech": "WIRELESS",
    "upgrade": "NULL_NA",
    "gnaf_pid": "GAWA_161031377",
    "tech_change_status": "Not Planned",
    "program_type": "Fixed Wireless and Satellite Upgrade Program",
    "target_eligibility_quarter": "Dec 2024"
   }
  },
  {
   "type": "Feature",
   "geometry": {
    "type": "Point",
    "coordinates": [
     115.70109633,
     -32.69583766
    ]
   },
   "properties": {
    "name": "LOT 6 POSSUM PLACE BIRCHMONT 6214",
    "locID": "LOC000108898536",
    "tech": "WIRELESS",
    "upgrade": "NULL_NA",
    "gnaf_pid": "GAWA_161573685",
    "tech_change_status": "Not Planned",
    "program_type": "Fixed Wireless and Satellite Upgrade Program",
    "target_eligibility_quarter": "Dec 2024"
   }
  },
  {
   "type": "Feature",
   "geometry": {
    "type": "Point",
    "coordinates": [
     115.70861844,
     -32.7059681
    ]
   },
   "properties": {
    "name": "LOT 25 BIRCH DRIVE BIRCHMONT 6214",
    "locID": "LOC000169439281",
    "tech": "WIRELESS",
    "upgrade": "NULL_NA",
    "gnaf_pid": "GAWA_162774355",
    "tech_change_status": "Not Planned",
    "program_type": "Fixed Wireless and Satellite Upgrade Program",
    "target_eligibility_quarter": "Dec 2024"
   }
  },
  {
   "type": "Feature",
   "geometry": {
    "type": "Point",
    "coordinates": [
     115.71268068,
     -32.71720013
    ]
   },
   "properties": {
    "name": "LOT 57 PIONEER PLACE BIRCHMONT 6214",
    "locID": "LOC000110090615",
    "tech": "WIRELESS",
    "upgrade": "NULL_NA",
    "gnaf_pid": "GAWA_162820553",
    "tech_change_status": "Not Planned",
    "program_type": "Fixed Wireless and Satellite Upgrade Program",
    "target_eligibility_quarter": "Dec 2024"
   }
  },
  {
   "type": "Feature",
   "geometry": {
    "type": "Point",
    "coordinates": [
     115.70802665,
     -32.70193918
    ]
   },
   "properties": {
    "name": "LOT 29 BIRCH DRIVE BIRCHMONT 6214",
    "locID": "LOC000169439281",
    "tech": "WIRELESS",
    "upgrade": "NULL_NA",
    "gnaf_pid": "GAWA_162835957",
    "tech_change_status": "Not Planned",
    "program_type": "Fixed Wireless and Satellite Upgrade Program",
    "target_eligibility_quarter": "Dec 2024"
   }
  },
  {
   "type": "Feature",
   "geometry": {
    "type": "Point",
    "coordinates": [
     115.70861844,
     -32.7059681
    ]
   },
   "properties": {
    "name": "LOT 45 BIRCH DRIVE BIRCHMONT 6214",
    "locID": "LOC000169439281",
    "tech": "WIRELESS",
    "upgrade": "NULL_NA",
    "gnaf_pid": "GAWA_162835961",
    "tech_change_status": "Not Planned",
    "program_type": "Fixed Wireless and Satellite Upgrade Program",
    "target_eligibility_quarter": "Dec 2024"
   }
  },
  {
   "type": "Feature",
   "geometry": {
    "type": "Point",
    "coordinates": [
     115.70861844,
     -32.7059681
    ]
   },
   "properties": {
    "name": "LOT 47 BIRCH DRIVE BIRCHMONT 6214",
    "locID": "LOC000169439281",
    "tech": "WIRELESS",
    "upgrade": "NULL_NA",
    "gnaf_pid": "GAWA_162835963",
    "tech_change_status": "Not Planned",
    "program_type": "Fixed Wireless and Satellite Upgrade Program",
    "target_eligibility_quarter": "Dec 2024"
   }
  },
  {
   "type": "Feature",
   "geometry": {
    "type": "Point",
    "coordinates": [
     115.70501209,
     -32.70208719
    ]
   },
   "properties": {
    "name": "LOT 11 KANGAROO LOOP BIRCHMONT 6214",
    "locID": "LOC100080316357",
    "tech": "WIRELESS",
    "upgrade": "NULL_NA",
    "gnaf_pid": "GAWA_162839113",
    "tech_change_status": "Not Planned",
    "program_type": "Fixed Wireless and Satellite Upgrade Program",
    "target_eligibility_quarter": "NA"
   }
  },
  {
   "type": "Feature",
   "geometry": {
    "type": "Point",
    "coordinates": [
     115.70341426,
     -32.69637337
    ]
   },
   "properties": {
    "name": "LOT 5 KANGAROO LOOP BIRCHMONT 6214",
    "locID": "LOC000060490645",
    "tech": "SATELLITE",
    "upgrade": "WIRELESS",
    "gnaf_pid": "GAWA_162839132",
    "tech_change_status": "Eligible to Order",
    "program_type": "Fixed Wireless and Satellite Upgrade Program",
    "target_eligibility_quarter": "Dec 2024"
   }
  },
  {
   "type": "Feature",
   "geometry": {
    "type": "Point",
    "coordinates": [
     115.70501209,
     -32.70208719
    ]
   },
   "properties": {
    "name": "LOT 9 KANGAROO LOOP BIRCHMONT 6214",
    "locID": "LOC000084581474",
    "tech": "WIRELESS",
    "upgrade": "NULL_NA",
    "gnaf_pid": "GAWA_162839137",
    "tech_change_status": "Not Planned",
    "program_type": "Fixed Wireless and Satellite Upgrade Program",
    "target_eligibility_quarter": "NA"
   }
  },
  {
   "type": "Feature",
   "geometry": {
    "type": "Point",
    "coordinates": [
     115.70637204,
     -32.71115283
    ]
   },
   "properties": {
    "name": "LOT 43 NUMBAT PLACE BIRCHMONT 6214",
    "locID": "LOC000109488152",
    "tech": "WIRELESS",
    "upgrade": "NULL_NA",
    "gnaf_pid": "GAWA_162840592",
    "tech_change_status": "Not Planned",
    "program_type": "Fixed Wireless and Satellite Upgrade Program",
    "target_eligibility_quarter": "Dec 2024"
   }
  },
  {
   "type": "Feature",
   "geometry": {
    "type": "Point",
    "coordinates": [
     115.70136967,
     -32.69649962
    ]
   },
   "properties": {
    "name": "LOT 7 POSSUM PLACE BIRCHMONT 6214",
    "locID": "LOC000108828567",
    "tech": "WIRELESS",
    "upgrade": "NULL_NA",
    "gnaf_pid": "GAWA_162841136",
    "tech_change_status": "Not Planned",
    "program_type": "Fixed Wireless and Satellite Upgrade Program",
    "target_eligibility_quarter": "Dec 2024"
   }
  },
  {
   "type": "Feature",
   "geometry": {
    "type": "Point",
    "coordinates": [
     115.70176919,
     -32.69719754
    ]
   },
   "properties": {
    "name": "LOT 8 POSSUM PLACE BIRCHMONT 6214",
    "locID": "LOC000108898536",
    "tech": "WIRELESS",
    "upgrade": "NULL_NA",
    "gnaf_pid": "GAWA_162841137",
    "tech_change_status": "Not Planned",
    "program_type": "Fixed Wireless and Satellite Upgrade Program",
    "target_eligibility_quarter": "Dec 2024"
   }
  },
  {
   "type": "Feature",
   "geometry": {
    "type": "Point",
    "coordinates": [
     115.71212195,
     -32.72191381
    ]
   },
   "properties": {
    "name": "LOT 63 PIONEER PLACE BIRCHMONT 6214",
    "locID": "LOC000109401909",
    "tech": "WIRELESS",
    "upgrade": "NULL_NA",
    "gnaf_pid": "GAWA_162874745",
    "tech_change_status": "Not Planned",
    "program_type": "Fixed Wireless and Satellite Upgrade Program",
    "target_eligibility_quarter": "Dec 2024"
   }
  },
  {
   "type": "Feature",
   "geometry": {
    "type": "Point",
    "coordinates": [
     115.708494,
     -32.71362301
    ]
   },
   "properties": {
    "name": "LOT 806 READING PLACE BIRCHMONT 6214",
    "locID": "LOC000132898033",
    "tech": "WIRELESS",
    "upgrade": "NULL_NA",
    "gnaf_pid": "GAWA_163383686",
    "tech_change_status": "Not Planned",
    "program_type": "Fixed Wireless and Satellite Upgrade Program",
    "target_eligibility_quarter": "Dec 2024"
   }
  },
  {
   "type": "Feature",
   "geometry": {
    "type": "Point",
    "coordinates": [
     115.70972737,
     -32.71313103
    ]
   },
   "properties": {
    "name": "LOT 807 READING PLACE BIRCHMONT 6214",
    "locID": "LOC000132898033",
    "tech": "WIRELESS",
    "upgrade": "NULL_NA",
    "gnaf_pid": "GAWA_163383687",
    "tech_change_status": "Not Planned",
    "program_type": "Fixed Wireless and Satellite Upgrade Program",
    "target_eligibility_quarter": "Dec 2024"
   }
  },
  {
   "type": "Feature",
   "geometry": {
    "type": "Point",
    "coordinates": [
     115.71449967,
     -32.73996943
    ]
   },
   "properties": {
    "name": "LOT 1631 HERRON POINT ROAD BIRCHMONT 6214",
    "locID": "LOC000007443198",
    "tech": "WIRELESS",
    "upgrade": "NULL_NA",
    "gnaf_pid": "GAWA_718297492",
    "tech_change_status": "Not Planned",
    "program_type": "Fixed Wireless and Satellite Upgrade Program",
    "target_eligibility_quarter": "Dec 2024"
   }
  },
  {
   "type": "Feature",
   "geometry": {
    "type": "Point",
    "coordinates": [
     115.70644595,
     -32.70952871
    ]
   },
   "properties": {
    "name": "LOT 45 NUMBAT PLACE BIRCHMONT 6214",
    "locID": "LOC000132897932",
    "tech": "WIRELESS",
    "upgrade": "NULL_NA",
    "gnaf_pid": "GAWA_718298980",
    "tech_change_status": "Not Planned",
    "program_type": "Fixed Wireless and Satellite Upgrade Program",
    "target_eligibility_quarter": "Dec 2024"
   }
  },
  {
   "type": "Feature",
   "geometry": {
    "type": "Point",
    "coordinates": [
     115.7125166,
     -32.72264673
    ]
   },
   "properties": {
    "name": "LOT 64 PIONEER PLACE BIRCHMONT 6214",
    "locID": "LOC000132898014",
    "tech": "WIRELESS",
    "upgrade": "NULL_NA",
    "gnaf_pid": "GAWA_718344919",
    "tech_change_status": "Not Planned",
    "program_type": "Fixed Wireless and Satellite Upgrade Program",
    "target_eligibility_quarter": "Dec 2024"
   }
  },
  {
   "type": "Feature",
   "geometry": {
    "type": "Point",
    "coordinates": [
     115.7053022,
     -32.71103125
    ]
   },
   "properties": {
    "name": "43 NUMBAT PLACE BIRCHMONT 6214",
    "locID": "LOC000109488152",
    "tech": "WIRELESS",
    "upgrade": "NULL_NA",
    "gnaf_pid": "GAWA_718633889",
    "tech_change_status": "Not Planned",
    "program_type": "Fixed Wireless and Satellite Upgrade Program",
    "target_eligibility_quarter": "Dec 2024"
   }
  },
  {
   "type": "Feature",
   "geometry": {
    "type": "Point",
    "coordinates": [
     115.71312689,
     -32.7153788
    ]
   },
   "properties": {
    "name": "1114 MILLS ROAD BIRCHMONT 6214",
    "locID": "LOC100056421080",
    "tech": "WIRELESS",
    "upgrade": "NULL_NA",
    "gnaf_pid": "GAWA_718789212",
    "tech_change_status": "Not Planned",
    "program_type": "Fixed Wireless and Satellite Upgrade Program",
    "target_eligibility_quarter": "Dec 2024"
   }
  },
  {
   "type": "Feature",
   "geometry": {
    "type": "Point",
    "coordinates": [
     115.70809873,
     -32.70099794
    ]
   },
   "properties": {
    "name": "209 BIRCH DRIVE BIRCHMONT 6214",
    "locID": "LOC000169439281",
    "tech": "WIRELESS",
    "upgrade": "NULL_NA",
    "gnaf_pid": "GAWA_719036921",
    "tech_change_status": "Not Planned",
    "program_type": "Fixed Wireless and Satellite Upgrade Program",
    "target_eligibility_quarter": "Dec 2024"
   }
  },
  {
   "type": "Feature",
   "geometry": {
    "type": "Point",
    "coordinates": [
     115.70800426,
     -32.70290922
    ]
   },
   "properties": {
    "name": "183 BIRCH DRIVE BIRCHMONT 6214",
    "locID": "LOC100056668646",
    "tech": "WIRELESS",
    "upgrade": "NULL_NA",
    "gnaf_pid": "GAWA_719038097",
    "tech_change_status": "Not Planned",
    "program_type": "Fixed Wireless and Satellite Upgrade Program",
    "target_eligibility_quarter": "Dec 2024"
   }
  },
  {
   "type": "Feature",
   "geometry": {
    "type": "Point",
    "coordinates": [
     115.70385749,
     -32.7038656
    ]
   },
   "properties": {
    "name": "43 KANGAROO LOOP BIRCHMONT 6214",
    "locID": "LOC000108331491",
    "tech": "WIRELESS",
    "upgrade": "NULL_NA",
    "gnaf_pid": "GAWA_719147144",
    "tech_change_status": "Not Planned",
    "program_type": "Fixed Wireless and Satellite Upgrade Program",
    "target_eligibility_quarter": "Dec 2024"
   }
  },
  {
   "type": "Feature",
   "geometry": {
    "type": "Point",
    "coordinates": [
     115.70774748,
     -32.70006511
    ]
   },
   "properties": {
    "name": "221 BIRCH DRIVE BIRCHMONT 6214",
    "locID": "LOC100077615069",
    "tech": "WIRELESS",
    "upgrade": "NULL_NA",
    "gnaf_pid": "GAWA_719148444",
    "tech_change_status": "Not Planned",
    "program_type": "Fixed Wireless and Satellite Upgrade Program",
    "target_eligibility_quarter": "Dec 2024"
   }
  },
  {
   "type": "Feature",
   "geometry": {
    "type": "Point",
    "coordinates": [
     115.71408883,
     -32.72111337
    ]
   },
   "properties": {
    "name": "63 PIONEER PLACE BIRCHMONT 6214",
    "locID": "LOC000172743443",
    "tech": "WIRELESS",
    "upgrade": "NULL_NA",
    "gnaf_pid": "GAWA_719196694",
    "tech_change_status": "Not Planned",
    "program_type": "Fixed Wireless and Satellite Upgrade Program",
    "target_eligibility_quarter": "NA"
   }
  },
  {
   "type": "Feature",
   "geometry": {
    "type": "Point",
    "coordinates": [
     115.71157495,
     -32.71494135
    ]
   },
   "properties": {
    "name": "1124 MILLS ROAD BIRCHMONT 6214",
    "locID": "LOC000132897899",
    "tech": "WIRELESS",
    "upgrade": "NULL_NA",
    "gnaf_pid": "GAWA_719499792",
    "tech_change_status": "Not Planned",
    "program_type": "Fixed Wireless and Satellite Upgrade Program",
    "target_eligibility_quarter": "Dec 2024"
   }
  },
  {
   "type": "Feature",
   "geometry": {
    "type": "Point",
    "coordinates": [
     115.70803171,
     -32.70173597
    ]
   },
   "properties": {
    "name": "195 BIRCH DRIVE BIRCHMONT 6214",
    "locID": "LOC000186465596",
    "tech": "WIRELESS",
    "upgrade": "NULL_NA",
    "gnaf_pid": "GAWA_719502639",
    "tech_change_status": "Not Planned",
    "program_type": "Fixed Wireless and Satellite Upgrade Program",
    "target_eligibility_quarter": "Dec 2024"
   }
  },
  {
   "type": "Feature",
   "geometry": {
    "type": "Point",
    "coordinates": [
     115.70861844,
     -32.7059681
    ]
   },
   "properties": {
    "name": "LOT 801 BIRCH DRIVE BIRCHMONT 6214",
    "locID": "LOC000132889409",
    "tech": "WIRELESS",
    "upgrade": "NULL_NA",
    "gnaf_pid": "GAWA_719505051",
    "tech_change_status": "Not Planned",
    "program_type": "Fixed Wireless and Satellite Upgrade Program",
    "target_eligibility_quarter": "Dec 2024"
   }
  },
  {
   "type": "Feature",
   "geometry": {
    "type": "Point",
    "coordinates": [
     115.71285164,
     -32.71639368
    ]
   },
   "properties": {
    "name": "7 PIONEER PLACE BIRCHMONT 6214",
    "locID": "LOC100056139649",
    "tech": "WIRELESS",
    "upgrade": "NULL_NA",
    "gnaf_pid": "GAWA_719674391",
    "tech_change_status": "Not Planned",
    "program_type": "Fixed Wireless and Satellite Upgrade Program",
    "target_eligibility_quarter": "Dec 2024"
   }
  },
  {
   "type": "Feature",
   "geometry": {
    "type": "Point",
    "coordinates": [
     115.70534546,
     -32.69935277
    ]
   },
   "properties": {
    "name": "94 KANGAROO LOOP BIRCHMONT 6214",
    "locID": "LOC000084581474",
    "tech": "WIRELESS",
    "upgrade": "NULL_NA",
    "gnaf_pid": "GAWA_721280022",
    "tech_change_status": "Not Planned",
    "program_type": "Fixed Wireless and Satellite Upgrade Program",
    "target_eligibility_quarter": "NA"
   }
  },
  {
   "type": "Feature",
   "geometry": {
    "type": "Point",
    "coordinates": [
     115.70861844,
     -32.7059681
    ]
   },
   "properties": {
    "name": "46 BIRCH DRIVE BIRCHMONT 6214",
    "locID": "LOC100077227776",
    "tech": "SATELLITE",
    "upgrade": "NULL_NA",
    "gnaf_pid": "GAWA_721409559",
    "tech_change_status": "Not Planned"
   }
  },
  {
   "type": "Feature",
   "geometry": {
    "type": "Point",
    "coordinates": [
     115.70894742,
     -32.71490516
    ]
   },
   "properties": {
    "name": "18 BIRCH DRIVE BIRCHMONT 6214",
    "locID": "LOC100056668646",
    "tech": "WIRELESS",
    "upgrade": "NULL_NA",
    "gnaf_pid": "GAWA_721530450",
    "tech_change_status": "Not Planned",
    "program_type": "Fixed Wireless and Satellite Upgrade Program",
    "target_eligibility_quarter": "Dec 2024"
   }
  }
 ]
}