{
 "type": "FeatureCollection",
 "generated": "2024-10-12T13:30:37.278504",
 "suburb": "BOOKARA",
 "features": [
  {
   "type": "Feature",
   "geometry": {
    "type": "Point",
    "coordinates": [
     114.912063,
     -29.166828
    ]
   },
   "properties": {
    "name": "17 MELALEUCA ROAD BOOKARA 6525",
    "locID": "LOC000032665813",
    "tech": "SATELLITE",
    "upgrade": "NULL_NA",
    "gnaf_pid": "GAWA_147152069",
    "tech_change_status": "Not Planned"
   }
  },
  {
   "type": "Feature",
   "geometry": {
    "type": "Point",
    "coordinates": [
     114.92914,
     -29.10498
    ]
   },
   "properties": {
    "name": "LOT 15 MOUNT HORNER ROAD WEST BOOKARA 6525",
    "locID": "LOC000038873210",
    "tech": "NULL",
    "upgrade": "NULL_NA",
    "gnaf_pid": "GAWA_161566589",
    "tech_change_status": "Not Planned"
   }
  },
  {
   "type": "Feature",
   "geometry": {
    "type": "Point",
    "coordinates": [
     114.89639,
     -29.16344
    ]
   },
   "properties": {
    "name": "LOT 21 SEVEN MILE ROAD BOOKARA 6525",
    "locID": "LOC000142447761",
    "tech": "SATELLITE",
    "upgrade": "NULL_NA",
    "gnaf_pid": "GAWA_161579998",
    "tech_change_status": "Not Planned"
   }
  },
  {
   "type": "Feature",
   "geometry": {
    "type": "Point",
    "coordinates": [
     114.865059,
     -29.038785
    ]
   },
   "properties": {
    "name": "169 BOOKARA ROAD EAST BOOKARA 6525",
    "locID": "LOC000077041746",
    "tech": "SATELLITE",
    "upgrade": "NULL_NA",
    "gnaf_pid": "GAWA_161999786",
    "tech_change_status": "Not Planned"
   }
  },
  {
   "type": "Feature",
   "geometry": {
    "type": "Point",
    "coordinates": [
     114.886413,
     -29.031962
    ]
   },
   "properties": {
    "name": "397 BOOKARA ROAD EAST BOOKARA 6525",
    "locID": "LOC000142454333",
    "tech": "SATELLITE",
    "upgrade": "NULL_NA",
    "gnaf_pid": "GAWA_161999787",
    "tech_change_status": "Not Planned"
   }
  },
  {
   "type": "Feature",
   "geometry": {
    "type": "Point",
    "coordinates": [
     114.9154454,
     -29.02717937
    ]
   },
   "properties": {
    "name": "693 BOOKARA ROAD EAST BOOKARA 6525",
    "locID": "LOC000038836250",
    "tech": "WIRELESS",
    "upgrade": "NULL_NA",
    "gnaf_pid": "GAWA_161999788",
    "tech_change_status": "Not Planned",
    "program_type": "Fixed Wireless and Satellite Upgrade Program",
    "target_eligibility_quarter": "Dec 2024"
   }
  },
  {
   "type": "Feature",
   "geometry": {
    "type": "Point",
    "coordinates": [
     114.91543687,
     -29.04276521
    ]
   },
   "properties": {
    "name": "764 BOOKARA ROAD EAST BOOKARA 6525",
    "locID": "LOC000099460418",
    "tech": "NULL",
    "upgrade": "NULL_NA",
    "gnaf_pid": "GAWA_161999789",
    "tech_change_status": "Not Planned"
   }
  },
  {
   "type": "Feature",
   "geometry": {
    "type": "Point",
    "coordinates": [
     114.9154454,
     -29.02717937
    ]
   },
   "properties": {
    "name": "915 BOOKARA ROAD EAST BOOKARA 6525",
    "locID": "LOC000078012225",
    "tech": "WIRELESS",
    "upgrade": "NULL_NA",
    "gnaf_pid": "GAWA_161999790",
    "tech_change_status": "Not Planned",
    "program_type": "Fixed Wireless and Satellite Upgrade Program",
    "target_eligibility_quarter": "Dec 2024"
   }
  },
  {
   "type": "Feature",
   "geometry": {
    "type": "Point",
    "coordinates": [
     114.905539,
     -29.164223
    ]
   },
   "properties": {
    "name": "31423 BRAND HIGHWAY BOOKARA 6525",
    "locID": "LOC000101782047",
    "tech": "NULL",
    "upgrade": "NULL_NA",
    "gnaf_pid": "GAWA_161999869",
    "tech_change_status": "Not Planned"
   }
  },
  {
   "type": "Feature",
   "geometry": {
    "type": "Point",
    "coordinates": [
     114.91092172,
     -29.15945654
    ]
   },
   "properties": {
    "name": "31470 BRAND HIGHWAY BOOKARA 6525",
    "locID": "LOC000061007205",
    "tech": "SATELLITE",
    "upgrade": "NULL_NA",
    "gnaf_pid": "GAWA_161999870",
    "tech_change_status": "Not Planned"
   }
  },
  {
   "type": "Feature",
   "geometry": {
    "type": "Point",
    "coordinates": [
     114.90193956,
     -29.15783603
    ]
   },
   "properties": {
    "name": "31511 BRAND HIGHWAY BOOKARA 6525",
    "locID": "LOC000065451761",
    "tech": "NULL",
    "upgrade": "NULL_NA",
    "gnaf_pid": "GAWA_161999871",
    "tech_change_status": "Not Planned"
   }
  },
  {
   "type": "Feature",
   "geometry": {
    "type": "Point",
    "coordinates": [
     114.909495,
     -29.150768
    ]
   },
   "properties": {
    "name": "31534 BRAND HIGHWAY BOOKARA 6525",
    "locID": "LOC000103109799",
    "tech": "NULL",
    "upgrade": "NULL_NA",
    "gnaf_pid": "GAWA_161999872",
    "tech_change_status": "Not Planned"
   }
  },
  {
   "type": "Feature",
   "geometry": {
    "type": "Point",
    "coordinates": [
     114.901126,
     -29.153763
    ]
   },
   "properties": {
    "name": "31565 BRAND HIGHWAY BOOKARA 6525",
    "locID": "LOC000014508126",
    "tech": "NULL",
    "upgrade": "NULL_NA",
    "gnaf_pid": "GAWA_161999873",
    "tech_change_status": "Not Planned"
   }
  },
  {
   "type": "Feature",
   "geometry": {
    "type": "Point",
    "coordinates": [
     114.89222162,
     -29.15346434
    ]
   },
   "properties": {
    "name": "31567 BRAND HIGHWAY BOOKARA 6525",
    "locID": "LOC000024510224",
    "tech": "SATELLITE",
    "upgrade": "NULL_NA",
    "gnaf_pid": "GAWA_161999874",
    "tech_change_status": "Not Planned"
   }
  },
  {
   "type": "Feature",
   "geometry": {
    "type": "Point",
    "coordinates": [
     114.889544,
     -29.14632
    ]
   },
   "properties": {
    "name": "31601 BRAND HIGHWAY BOOKARA 6525",
    "locID": "LOC000101017160",
    "tech": "NULL",
    "upgrade": "NULL_NA",
    "gnaf_pid": "GAWA_161999875",
    "tech_change_status": "Not Planned"
   }
  },
  {
   "type": "Feature",
   "geometry": {
    "type": "Point",
    "coordinates": [
     114.905011,
     -29.147474
    ]
   },
   "properties": {
    "name": "31632 BRAND HIGHWAY BOOKARA 6525",
    "locID": "LOC000096032773",
    "tech": "SATELLITE",
    "upgrade": "NULL_NA",
    "gnaf_pid": "GAWA_161999876",
    "tech_change_status": "Not Planned"
   }
  },
  {
   "type": "Feature",
   "geometry": {
    "type": "Point",
    "coordinates": [
     114.899705,
     -29.145576
    ]
   },
   "properties": {
    "name": "31635 BRAND HIGHWAY BOOKARA 6525",
    "locID": "LOC000077198291",
    "tech": "NULL",
    "upgrade": "NULL_NA",
    "gnaf_pid": "GAWA_161999877",
    "tech_change_status": "Not Planned"
   }
  },
  {
   "type": "Feature",
   "geometry": {
    "type": "Point",
    "coordinates": [
     114.909354,
     -29.14673756
    ]
   },
   "properties": {
    "name": "31638 BRAND HIGHWAY BOOKARA 6525",
    "locID": "LOC000032825187",
    "tech": "NULL",
    "upgrade": "NULL_NA",
    "gnaf_pid": "GAWA_161999878",
    "tech_change_status": "Not Planned"
   }
  },
  {
   "type": "Feature",
   "geometry": {
    "type": "Point",
    "coordinates": [
     114.9070732,
     -29.14227795
    ]
   },
   "properties": {
    "name": "31658 BRAND HIGHWAY BOOKARA 6525",
    "locID": "LOC000067502816",
    "tech": "SATELLITE",
    "upgrade": "NULL_NA",
    "gnaf_pid": "GAWA_161999879",
    "tech_change_status": "Not Planned"
   }
  },
  {
   "type": "Feature",
   "geometry": {
    "type": "Point",
    "coordinates": [
     114.902325,
     -29.127773
    ]
   },
   "properties": {
    "name": "31840 BRAND HIGHWAY BOOKARA 6525",
    "locID": "LOC000104239255",
    "tech": "SATELLITE",
    "upgrade": "NULL_NA",
    "gnaf_pid": "GAWA_161999880",
    "tech_change_status": "Not Planned"
   }
  },
  {
   "type": "Feature",
   "geometry": {
    "type": "Point",
    "coordinates": [
     114.85294678,
     -29.06007755
    ]
   },
   "properties": {
    "name": "32709 BRAND HIGHWAY BOOKARA 6525",
    "locID": "LOC000045012189",
    "tech": "SATELLITE",
    "upgrade": "NULL_NA",
    "gnaf_pid": "GAWA_161999881",
    "tech_change_status": "Not Planned"
   }
  },
  {
   "type": "Feature",
   "geometry": {
    "type": "Point",
    "coordinates": [
     114.84997199,
     -29.04828885
    ]
   },
   "properties": {
    "name": "32843 BRAND HIGHWAY BOOKARA 6525",
    "locID": "LOC000048386543",
    "tech": "NULL",
    "upgrade": "NULL_NA",
    "gnaf_pid": "GAWA_161999882",
    "tech_change_status": "Not Planned"
   }
  },
  {
   "type": "Feature",
   "geometry": {
    "type": "Point",
    "coordinates": [
     114.853812,
     -29.048462
    ]
   },
   "properties": {
    "name": "32846 BRAND HIGHWAY BOOKARA 6525",
    "locID": "LOC000095982146",
    "tech": "SATELLITE",
    "upgrade": "NULL_NA",
    "gnaf_pid": "GAWA_161999883",
    "tech_change_status": "Not Planned"
   }
  },
  {
   "type": "Feature",
   "geometry": {
    "type": "Point",
    "coordinates": [
     114.85094015,
     -29.0547649
    ]
   },
   "properties": {
    "name": "32917 BRAND HIGHWAY BOOKARA 6525",
    "locID": "LOC000012838768",
    "tech": "SATELLITE",
    "upgrade": "NULL_NA",
    "gnaf_pid": "GAWA_161999884",
    "tech_change_status": "Not Planned"
   }
  },
  {
   "type": "Feature",
   "geometry": {
    "type": "Point",
    "coordinates": [
     114.841745,
     -29.051637
    ]
   },
   "properties": {
    "name": "32919 BRAND HIGHWAY BOOKARA 6525",
    "locID": "LOC000100298772",
    "tech": "SATELLITE",
    "upgrade": "NULL_NA",
    "gnaf_pid": "GAWA_161999885",
    "tech_change_status": "Not Planned"
   }
  },
  {
   "type": "Feature",
   "geometry": {
    "type": "Point",
    "coordinates": [
     114.85019426,
     -29.0447702
    ]
   },
   "properties": {
    "name": "32926 BRAND HIGHWAY BOOKARA 6525",
    "locID": "LOC000065488241",
    "tech": "SATELLITE",
    "upgrade": "NULL_NA",
    "gnaf_pid": "GAWA_161999887",
    "tech_change_status": "Not Planned"
   }
  },
  {
   "type": "Feature",
   "geometry": {
    "type": "Point",
    "coordinates": [
     114.87909478,
     -29.07277077
    ]
   },
   "properties": {
    "name": "112 BUTCHER ROAD BOOKARA 6525",
    "locID": "LOC000085460013",
    "tech": "SATELLITE",
    "upgrade": "NULL_NA",
    "gnaf_pid": "GAWA_162000029",
    "tech_change_status": "Not Planned"
   }
  },
  {
   "type": "Feature",
   "geometry": {
    "type": "Point",
    "coordinates": [
     114.91108182,
     -29.085462
    ]
   },
   "properties": {
    "name": "339 BUTCHER ROAD BOOKARA 6525",
    "locID": "LOC000044961077",
    "tech": "NULL",
    "upgrade": "NULL_NA",
    "gnaf_pid": "GAWA_162000030",
    "tech_change_status": "Not Planned"
   }
  },
  {
   "type": "Feature",
   "geometry": {
    "type": "Point",
    "coordinates": [
     114.879568,
     -29.061877
    ]
   },
   "properties": {
    "name": "47 BUTCHER ROAD BOOKARA 6525",
    "locID": "LOC000025668847",
    "tech": "SATELLITE",
    "upgrade": "NULL_NA",
    "gnaf_pid": "GAWA_162000031",
    "tech_change_status": "Not Planned"
   }
  },
  {
   "type": "Feature",
   "geometry": {
    "type": "Point",
    "coordinates": [
     114.9040613,
     -29.13266999
    ]
   },
   "properties": {
    "name": "26 MATSEN ROAD BOOKARA 6525",
    "locID": "LOC000004781106",
    "tech": "SATELLITE",
    "upgrade": "NULL_NA",
    "gnaf_pid": "GAWA_162001427",
    "tech_change_status": "Not Planned"
   }
  },
  {
   "type": "Feature",
   "geometry": {
    "type": "Point",
    "coordinates": [
     114.93059416,
     -29.12879746
    ]
   },
   "properties": {
    "name": "40 MATSEN ROAD BOOKARA 6525",
    "locID": "LOC000066035687",
    "tech": "NULL",
    "upgrade": "NULL_NA",
    "gnaf_pid": "GAWA_162001428",
    "tech_change_status": "Not Planned"
   }
  },
  {
   "type": "Feature",
   "geometry": {
    "type": "Point",
    "coordinates": [
     114.93249809,
     -29.165761
    ]
   },
   "properties": {
    "name": "179 MELALEUCA ROAD BOOKARA 6525",
    "locID": "LOC000055791634",
    "tech": "NULL",
    "upgrade": "NULL_NA",
    "gnaf_pid": "GAWA_162001480",
    "tech_change_status": "Not Planned"
   }
  },
  {
   "type": "Feature",
   "geometry": {
    "type": "Point",
    "coordinates": [
     114.93249809,
     -29.165761
    ]
   },
   "properties": {
    "name": "197 MELALEUCA ROAD BOOKARA 6525",
    "locID": "LOC000003748809",
    "tech": "NULL",
    "upgrade": "NULL_NA",
    "gnaf_pid": "GAWA_162001481",
    "tech_change_status": "Not Planned"
   }
  },
  {
   "type": "Feature",
   "geometry": {
    "type": "Point",
    "coordinates": [
     114.915948,
     -29.167061
    ]
   },
   "properties": {
    "name": "21 MELALEUCA ROAD BOOKARA 6525",
    "locID": "LOC000076924270",
    "tech": "SATELLITE",
    "upgrade": "NULL_NA",
    "gnaf_pid": "GAWA_162001482",
    "tech_change_status": "Not Planned"
   }
  },
  {
   "type": "Feature",
   "geometry": {
    "type": "Point",
    "coordinates": [
     114.918702,
     -29.166373
    ]
   },
   "properties": {
    "name": "65 MELALEUCA ROAD BOOKARA 6525",
    "locID": "LOC000033801042",
    "tech": "SATELLITE",
    "upgrade": "NULL_NA",
    "gnaf_pid": "GAWA_162001483",
    "tech_change_status": "Not Planned"
   }
  },
  {
   "type": "Feature",
   "geometry": {
    "type": "Point",
    "coordinates": [
     114.903098,
     -29.112578
    ]
   },
   "properties": {
    "name": "51 MOUNT HORNER ROAD WEST BOOKARA 6525",
    "locID": "LOC000021245047",
    "tech": "NULL",
    "upgrade": "NULL_NA",
    "gnaf_pid": "GAWA_162001729",
    "tech_change_status": "Not Planned"
   }
  },
  {
   "type": "Feature",
   "geometry": {
    "type": "Point",
    "coordinates": [
     114.918405,
     -29.158729
    ]
   },
   "properties": {
    "name": "105 PADBURY ROAD BOOKARA 6525",
    "locID": "LOC000016441383",
    "tech": "SATELLITE",
    "upgrade": "NULL_NA",
    "gnaf_pid": "GAWA_162002102",
    "tech_change_status": "Not Planned"
   }
  },
  {
   "type": "Feature",
   "geometry": {
    "type": "Point",
    "coordinates": [
     114.925542,
     -29.157055
    ]
   },
   "properties": {
    "name": "126 PADBURY ROAD BOOKARA 6525",
    "locID": "LOC000022052375",
    "tech": "NULL",
    "upgrade": "NULL_NA",
    "gnaf_pid": "GAWA_162002103",
    "tech_change_status": "Not Planned"
   }
  },
  {
   "type": "Feature",
   "geometry": {
    "type": "Point",
    "coordinates": [
     114.920926,
     -29.165987
    ]
   },
   "properties": {
    "name": "67 PADBURY ROAD BOOKARA 6525",
    "locID": "LOC000082325985",
    "tech": "SATELLITE",
    "upgrade": "NULL_NA",
    "gnaf_pid": "GAWA_162002104",
    "tech_change_status": "Not Planned"
   }
  },
  {
   "type": "Feature",
   "geometry": {
    "type": "Point",
    "coordinates": [
     114.925543,
     -29.161389
    ]
   },
   "properties": {
    "name": "80 PADBURY ROAD BOOKARA 6525",
    "locID": "LOC000101718396",
    "tech": "NULL",
    "upgrade": "NULL_NA",
    "gnaf_pid": "GAWA_162002105",
    "tech_change_status": "Not Planned"
   }
  },
  {
   "type": "Feature",
   "geometry": {
    "type": "Point",
    "coordinates": [
     114.95890396,
     -29.12937989
    ]
   },
   "properties": {
    "name": "1015 WATER SUPPLY ROAD BOOKARA 6525",
    "locID": "LOC000005624334",
    "tech": "NULL",
    "upgrade": "NULL_NA",
    "gnaf_pid": "GAWA_162003178",
    "tech_change_status": "Not Planned"
   }
  },
  {
   "type": "Feature",
   "geometry": {
    "type": "Point",
    "coordinates": [
     114.957891,
     -29.139741
    ]
   },
   "properties": {
    "name": "865 WATER SUPPLY ROAD BOOKARA 6525",
    "locID": "LOC000055363516",
    "tech": "SATELLITE",
    "upgrade": "NULL_NA",
    "gnaf_pid": "GAWA_162003179",
    "tech_change_status": "Not Planned"
   }
  },
  {
   "type": "Feature",
   "geometry": {
    "type": "Point",
    "coordinates": [
     114.920341,
     -29.063926
    ]
   },
   "properties": {
    "name": "278 WILLIAMS ROAD BOOKARA 6525",
    "locID": "LOC000013637909",
    "tech": "NULL",
    "upgrade": "NULL_NA",
    "gnaf_pid": "GAWA_162003315",
    "tech_change_status": "Not Planned"
   }
  },
  {
   "type": "Feature",
   "geometry": {
    "type": "Point",
    "coordinates": [
     114.927033,
     -29.164893
    ]
   },
   "properties": {
    "name": "165 MELALEUCA ROAD BOOKARA 6525",
    "locID": "LOC000040330268",
    "tech": "SATELLITE",
    "upgrade": "NULL_NA",
    "gnaf_pid": "GAWA_162266539",
    "tech_change_status": "Not Planned"
   }
  },
  {
   "type": "Feature",
   "geometry": {
    "type": "Point",
    "coordinates": [
     114.924055,
     -29.164894
    ]
   },
   "properties": {
    "name": "54 PADBURY ROAD BOOKARA 6525",
    "locID": "LOC000021989417",
    "tech": "SATELLITE",
    "upgrade": "NULL_NA",
    "gnaf_pid": "GAWA_162267845",
    "tech_change_status": "Not Planned"
   }
  },
  {
   "type": "Feature",
   "geometry": {
    "type": "Point",
    "coordinates": [
     114.89366205,
     -29.15011827
    ]
   },
   "properties": {
    "name": "LOT 3 BRAND HIGHWAY BOOKARA 6525",
    "locID": "LOC000077198291",
    "tech": "NULL",
    "upgrade": "NULL_NA",
    "gnaf_pid": "GAWA_162775477",
    "tech_change_status": "Not Planned"
   }
  },
  {
   "type": "Feature",
   "geometry": {
    "type": "Point",
    "coordinates": [
     114.92441233,
     -29.16749954
    ]
   },
   "properties": {
    "name": "LOT 6 MELALEUCA ROAD BOOKARA 6525",
    "locID": "LOC000076924270",
    "tech": "SATELLITE",
    "upgrade": "NULL_NA",
    "gnaf_pid": "GAWA_162797501",
    "tech_change_status": "Not Planned"
   }
  },
  {
   "type": "Feature",
   "geometry": {
    "type": "Point",
    "coordinates": [
     114.86833943,
     -29.0422461
    ]
   },
   "properties": {
    "name": "LOT 21 BOOKARA ROAD EAST BOOKARA 6525",
    "locID": "LOC000038836250",
    "tech": "WIRELESS",
    "upgrade": "NULL_NA",
    "gnaf_pid": "GAWA_162817147",
    "tech_change_status": "Not Planned",
    "program_type": "Fixed Wireless and Satellite Upgrade Program",
    "target_eligibility_quarter": "Dec 2024"
   }
  },
  {
   "type": "Feature",
   "geometry": {
    "type": "Point",
    "coordinates": [
     114.90627377,
     -29.14043964
    ]
   },
   "properties": {
    "name": "31700 BRAND HIGHWAY BOOKARA 6525",
    "locID": "LOC000028721324",
    "tech": "SATELLITE",
    "upgrade": "NULL_NA",
    "gnaf_pid": "GAWA_162987527",
    "tech_change_status": "Not Planned"
   }
  },
  {
   "type": "Feature",
   "geometry": {
    "type": "Point",
    "coordinates": [
     114.85346093,
     -29.04345052
    ]
   },
   "properties": {
    "name": "79 BOOKARA ROAD EAST BOOKARA 6525",
    "locID": "LOC000068117880",
    "tech": "SATELLITE",
    "upgrade": "NULL_NA",
    "gnaf_pid": "GAWA_163046041",
    "tech_change_status": "Not Planned"
   }
  },
  {
   "type": "Feature",
   "geometry": {
    "type": "Point",
    "coordinates": [
     114.91115658,
     -29.16247388
    ]
   },
   "properties": {
    "name": "31446 BRAND HIGHWAY BOOKARA 6525",
    "locID": "LOC000075154668",
    "tech": "SATELLITE",
    "upgrade": "NULL_NA",
    "gnaf_pid": "GAWA_163046183",
    "tech_change_status": "Not Planned"
   }
  },
  {
   "type": "Feature",
   "geometry": {
    "type": "Point",
    "coordinates": [
     114.932513,
     -29.16342516
    ]
   },
   "properties": {
    "name": "LOT 112 LOXTON DRIVE BOOKARA 6525",
    "locID": "LOC000133359502",
    "tech": "NULL",
    "upgrade": "NULL_NA",
    "gnaf_pid": "GAWA_718253218",
    "tech_change_status": "Not Planned"
   }
  },
  {
   "type": "Feature",
   "geometry": {
    "type": "Point",
    "coordinates": [
     114.91846819,
     -29.1553344
    ]
   },
   "properties": {
    "name": "161 PADBURY ROAD BOOKARA 6525",
    "locID": "LOC000150285239",
    "tech": "SATELLITE",
    "upgrade": "NULL_NA",
    "gnaf_pid": "GAWA_718758090",
    "tech_change_status": "Not Planned"
   }
  },
  {
   "type": "Feature",
   "geometry": {
    "type": "Point",
    "coordinates": [
     114.91847828,
     -29.1570601
    ]
   },
   "properties": {
    "name": "117 PADBURY ROAD BOOKARA 6525",
    "locID": "LOC000150285294",
    "tech": "SATELLITE",
    "upgrade": "NULL_NA",
    "gnaf_pid": "GAWA_718789715",
    "tech_change_status": "Not Planned"
   }
  },
  {
   "type": "Feature",
   "geometry": {
    "type": "Point",
    "coordinates": [
     114.92247593,
     -29.15792439
    ]
   },
   "properties": {
    "name": "LOT 116 PADBURY ROAD BOOKARA 6525",
    "locID": "LOC000133368058",
    "tech": "NULL",
    "upgrade": "NULL_NA",
    "gnaf_pid": "GAWA_719407441",
    "tech_change_status": "Not Planned"
   }
  },
  {
   "type": "Feature",
   "geometry": {
    "type": "Point",
    "coordinates": [
     114.8950252,
     -29.03453894
    ]
   },
   "properties": {
    "name": "LOT 19 BOOKARA ROAD EAST BOOKARA 6525",
    "locID": "LOC000038836250",
    "tech": "WIRELESS",
    "upgrade": "NULL_NA",
    "gnaf_pid": "GAWA_720247244",
    "tech_change_status": "Not Planned",
    "program_type": "Fixed Wireless and Satellite Upgrade Program",
    "target_eligibility_quarter": "Dec 2024"
   }
  },
  {
   "type": "Feature",
   "geometry": {
    "type": "Point",
    "coordinates": [
     114.92247593,
     -29.15792439
    ]
   },
   "properties": {
    "name": "LOT 102 PADBURY ROAD BOOKARA 6525",
    "locID": "LOC000190504997",
    "tech": "SATELLITE",
    "upgrade": "NULL_NA",
    "gnaf_pid": "GAWA_720645732",
    "tech_change_status": "Not Planned"
   }
  },
  {
   "type": "Feature",
   "geometry": {
    "type": "Point",
    "coordinates": [
     114.93666793,
     -29.15591924
    ]
   },
   "properties": {
    "name": "LOT 110 LOXTON DRIVE BOOKARA 6525",
    "locID": "LOC000133359489",
    "tech": "SATELLITE",
    "upgrade": "NULL_NA",
    "gnaf_pid": "GAWA_720725015",
    "tech_change_status": "Not Planned"
   }
  },
  {
   "type": "Feature",
   "geometry": {
    "type": "Point",
    "coordinates": [
     114.93666793,
     -29.15591924
    ]
   },
   "properties": {
    "name": "LOT 117 LOXTON DRIVE BOOKARA 6525",
    "locID": "LOC000133359489",
    "tech": "SATELLITE",
    "upgrade": "NULL_NA",
    "gnaf_pid": "GAWA_721016922",
    "tech_change_status": "Not Planned"
   }
  }
 ]
}