{
 "type": "FeatureCollection",
 "generated": "2026-05-04T04:14:42.268755",
 "suburb": "CHAPMAN HILL",
 "features": [
  {
   "type": "Feature",
   "geometry": {
    "type": "Point",
    "coordinates": [
     115.346791,
     -33.824964
    ]
   },
   "properties": {
    "name": "156 CHAPMAN HILL EAST ROAD CHAPMAN HILL 6280",
    "locID": "LOC000049381443",
    "tech": "SATELLITE",
    "upgrade": "NULL_NA",
    "gnaf_pid": "GAWA_162260790",
    "tech_change_status": "Not Planned"
   }
  },
  {
   "type": "Feature",
   "geometry": {
    "type": "Point",
    "coordinates": [
     115.348644,
     -33.820049
    ]
   },
   "properties": {
    "name": "173 CHAPMAN HILL EAST ROAD CHAPMAN HILL 6280",
    "locID": "LOC000092809957",
    "tech": "SATELLITE",
    "upgrade": "NULL_NA",
    "gnaf_pid": "GAWA_162260791",
    "tech_change_status": "Not Planned"
   }
  },
  {
   "type": "Feature",
   "geometry": {
    "type": "Point",
    "coordinates": [
     115.368081,
     -33.825343
    ]
   },
   "properties": {
    "name": "356 CHAPMAN HILL EAST ROAD CHAPMAN HILL 6280",
    "locID": "LOC000054139863",
    "tech": "NULL",
    "upgrade": "NULL_NA",
    "gnaf_pid": "GAWA_162260793",
    "tech_change_status": "Not Planned"
   }
  },
  {
   "type": "Feature",
   "geometry": {
    "type": "Point",
    "coordinates": [
     115.344542,
     -33.753231
    ]
   },
   "properties": {
    "name": "1092 CHAPMAN HILL ROAD CHAPMAN HILL 6280",
    "locID": "LOC000061265881",
    "tech": "WIRELESS",
    "upgrade": "NULL_NA",
    "gnaf_pid": "GAWA_162260806",
    "tech_change_status": "Not Planned",
    "program_type": "Fixed Wireless and Satellite Upgrade Program",
    "target_eligibility_quarter": "NA"
   }
  },
  {
   "type": "Feature",
   "geometry": {
    "type": "Point",
    "coordinates": [
     115.332841,
     -33.760849
    ]
   },
   "properties": {
    "name": "1222 CHAPMAN HILL ROAD CHAPMAN HILL 6280",
    "locID": "LOC000026074740",
    "tech": "WIRELESS",
    "upgrade": "NULL_NA",
    "gnaf_pid": "GAWA_162260807",
    "tech_change_status": "Not Planned",
    "program_type": "Fixed Wireless and Satellite Upgrade Program",
    "target_eligibility_quarter": "NA"
   }
  },
  {
   "type": "Feature",
   "geometry": {
    "type": "Point",
    "coordinates": [
     115.337672,
     -33.783958
    ]
   },
   "properties": {
    "name": "1454 CHAPMAN HILL ROAD CHAPMAN HILL 6280",
    "locID": "LOC000055980374",
    "tech": "WIRELESS",
    "upgrade": "NULL_NA",
    "gnaf_pid": "GAWA_162260808",
    "tech_change_status": "Not Planned",
    "program_type": "Fixed Wireless and Satellite Upgrade Program",
    "target_eligibility_quarter": "NA"
   }
  },
  {
   "type": "Feature",
   "geometry": {
    "type": "Point",
    "coordinates": [
     115.330409,
     -33.783315
    ]
   },
   "properties": {
    "name": "1470 CHAPMAN HILL ROAD CHAPMAN HILL 6280",
    "locID": "LOC000034609621",
    "tech": "WIRELESS",
    "upgrade": "NULL_NA",
    "gnaf_pid": "GAWA_162260809",
    "tech_change_status": "Not Planned",
    "program_type": "Fixed Wireless and Satellite Upgrade Program",
    "target_eligibility_quarter": "NA"
   }
  },
  {
   "type": "Feature",
   "geometry": {
    "type": "Point",
    "coordinates": [
     115.33524067,
     -33.79366956
    ]
   },
   "properties": {
    "name": "1539 CHAPMAN HILL ROAD CHAPMAN HILL 6280",
    "locID": "LOC000071594327",
    "tech": "WIRELESS",
    "upgrade": "NULL_NA",
    "gnaf_pid": "GAWA_162260810",
    "tech_change_status": "Not Planned",
    "program_type": "Fixed Wireless and Satellite Upgrade Program",
    "target_eligibility_quarter": "NA"
   }
  },
  {
   "type": "Feature",
   "geometry": {
    "type": "Point",
    "coordinates": [
     115.33291302,
     -33.79210645
    ]
   },
   "properties": {
    "name": "1597 CHAPMAN HILL ROAD CHAPMAN HILL 6280",
    "locID": "LOC000088671563",
    "tech": "WIRELESS",
    "upgrade": "NULL_NA",
    "gnaf_pid": "GAWA_162260811",
    "tech_change_status": "Not Planned",
    "program_type": "Fixed Wireless and Satellite Upgrade Program",
    "target_eligibility_quarter": "NA"
   }
  },
  {
   "type": "Feature",
   "geometry": {
    "type": "Point",
    "coordinates": [
     115.330377,
     -33.796807
    ]
   },
   "properties": {
    "name": "1623 CHAPMAN HILL ROAD CHAPMAN HILL 6280",
    "locID": "LOC000105821748",
    "tech": "SATELLITE",
    "upgrade": "WIRELESS",
    "gnaf_pid": "GAWA_162260812",
    "tech_change_status": "Eligible to Order",
    "program_type": "Fixed Wireless and Satellite Upgrade Program",
    "target_eligibility_quarter": "NA"
   }
  },
  {
   "type": "Feature",
   "geometry": {
    "type": "Point",
    "coordinates": [
     115.335885,
     -33.798315
    ]
   },
   "properties": {
    "name": "1647 CHAPMAN HILL ROAD CHAPMAN HILL 6280",
    "locID": "LOC000006165304",
    "tech": "WIRELESS",
    "upgrade": "NULL_NA",
    "gnaf_pid": "GAWA_162260813",
    "tech_change_status": "Not Planned",
    "program_type": "Fixed Wireless and Satellite Upgrade Program",
    "target_eligibility_quarter": "NA"
   }
  },
  {
   "type": "Feature",
   "geometry": {
    "type": "Point",
    "coordinates": [
     115.327336,
     -33.798839
    ]
   },
   "properties": {
    "name": "1662 CHAPMAN HILL ROAD CHAPMAN HILL 6280",
    "locID": "LOC000032813768",
    "tech": "WIRELESS",
    "upgrade": "NULL_NA",
    "gnaf_pid": "GAWA_162260814",
    "tech_change_status": "Not Planned",
    "program_type": "Fixed Wireless and Satellite Upgrade Program",
    "target_eligibility_quarter": "NA"
   }
  },
  {
   "type": "Feature",
   "geometry": {
    "type": "Point",
    "coordinates": [
     115.332251,
     -33.8025
    ]
   },
   "properties": {
    "name": "1675 CHAPMAN HILL ROAD CHAPMAN HILL 6280",
    "locID": "LOC000031478610",
    "tech": "SATELLITE",
    "upgrade": "WIRELESS",
    "gnaf_pid": "GAWA_162260815",
    "tech_change_status": "Eligible to Order",
    "program_type": "Fixed Wireless and Satellite Upgrade Program",
    "target_eligibility_quarter": "NA"
   }
  },
  {
   "type": "Feature",
   "geometry": {
    "type": "Point",
    "coordinates": [
     115.33629166,
     -33.81289997
    ]
   },
   "properties": {
    "name": "1801 CHAPMAN HILL ROAD CHAPMAN HILL 6280",
    "locID": "LOC000101928101",
    "tech": "NULL",
    "upgrade": "NULL_NA",
    "gnaf_pid": "GAWA_162260816",
    "tech_change_status": "Not Planned"
   }
  },
  {
   "type": "Feature",
   "geometry": {
    "type": "Point",
    "coordinates": [
     115.330466,
     -33.817739
    ]
   },
   "properties": {
    "name": "1900 CHAPMAN HILL ROAD CHAPMAN HILL 6280",
    "locID": "LOC000014546936",
    "tech": "SATELLITE",
    "upgrade": "NULL_NA",
    "gnaf_pid": "GAWA_162260817",
    "tech_change_status": "Not Planned"
   }
  },
  {
   "type": "Feature",
   "geometry": {
    "type": "Point",
    "coordinates": [
     115.32795888,
     -33.82227081
    ]
   },
   "properties": {
    "name": "1961 CHAPMAN HILL ROAD CHAPMAN HILL 6280",
    "locID": "LOC000093860060",
    "tech": "SATELLITE",
    "upgrade": "NULL_NA",
    "gnaf_pid": "GAWA_162260818",
    "tech_change_status": "Not Planned"
   }
  },
  {
   "type": "Feature",
   "geometry": {
    "type": "Point",
    "coordinates": [
     115.321293,
     -33.822315
    ]
   },
   "properties": {
    "name": "1992 CHAPMAN HILL ROAD CHAPMAN HILL 6280",
    "locID": "LOC000103366064",
    "tech": "NULL",
    "upgrade": "NULL_NA",
    "gnaf_pid": "GAWA_162260819",
    "tech_change_status": "Not Planned"
   }
  },
  {
   "type": "Feature",
   "geometry": {
    "type": "Point",
    "coordinates": [
     115.3273,
     -33.826643
    ]
   },
   "properties": {
    "name": "2003 CHAPMAN HILL ROAD CHAPMAN HILL 6280",
    "locID": "LOC000061248928",
    "tech": "SATELLITE",
    "upgrade": "NULL_NA",
    "gnaf_pid": "GAWA_162260820",
    "tech_change_status": "Not Planned"
   }
  },
  {
   "type": "Feature",
   "geometry": {
    "type": "Point",
    "coordinates": [
     115.349385,
     -33.740839
    ]
   },
   "properties": {
    "name": "916 CHAPMAN HILL ROAD CHAPMAN HILL 6280",
    "locID": "LOC000031518766",
    "tech": "WIRELESS",
    "upgrade": "NULL_NA",
    "gnaf_pid": "GAWA_162260821",
    "tech_change_status": "Not Planned",
    "program_type": "Fixed Wireless and Satellite Upgrade Program",
    "target_eligibility_quarter": "NA"
   }
  },
  {
   "type": "Feature",
   "geometry": {
    "type": "Point",
    "coordinates": [
     115.318784,
     -33.763035
    ]
   },
   "properties": {
    "name": "124 DON ROAD CHAPMAN HILL 6280",
    "locID": "LOC000059296452",
    "tech": "WIRELESS",
    "upgrade": "NULL_NA",
    "gnaf_pid": "GAWA_162261806",
    "tech_change_status": "Not Planned",
    "program_type": "Fixed Wireless and Satellite Upgrade Program",
    "target_eligibility_quarter": "NA"
   }
  },
  {
   "type": "Feature",
   "geometry": {
    "type": "Point",
    "coordinates": [
     115.3186309,
     -33.76550178
    ]
   },
   "properties": {
    "name": "153 DON ROAD CHAPMAN HILL 6280",
    "locID": "LOC000056129246",
    "tech": "WIRELESS",
    "upgrade": "NULL_NA",
    "gnaf_pid": "GAWA_162261807",
    "tech_change_status": "Not Planned",
    "program_type": "Fixed Wireless and Satellite Upgrade Program",
    "target_eligibility_quarter": "NA"
   }
  },
  {
   "type": "Feature",
   "geometry": {
    "type": "Point",
    "coordinates": [
     115.316354,
     -33.766195
    ]
   },
   "properties": {
    "name": "174 DON ROAD CHAPMAN HILL 6280",
    "locID": "LOC000031162866",
    "tech": "WIRELESS",
    "upgrade": "NULL_NA",
    "gnaf_pid": "GAWA_162261809",
    "tech_change_status": "Not Planned",
    "program_type": "Fixed Wireless and Satellite Upgrade Program",
    "target_eligibility_quarter": "NA"
   }
  },
  {
   "type": "Feature",
   "geometry": {
    "type": "Point",
    "coordinates": [
     115.323829,
     -33.756837
    ]
   },
   "properties": {
    "name": "33 DON ROAD CHAPMAN HILL 6280",
    "locID": "LOC000019480773",
    "tech": "WIRELESS",
    "upgrade": "NULL_NA",
    "gnaf_pid": "GAWA_162261810",
    "tech_change_status": "Not Planned",
    "program_type": "Fixed Wireless and Satellite Upgrade Program",
    "target_eligibility_quarter": "NA"
   }
  },
  {
   "type": "Feature",
   "geometry": {
    "type": "Point",
    "coordinates": [
     115.326147,
     -33.749389
    ]
   },
   "properties": {
    "name": "3 DON ROAD CHAPMAN HILL 6280",
    "locID": "LOC000079729422",
    "tech": "WIRELESS",
    "upgrade": "NULL_NA",
    "gnaf_pid": "GAWA_162261811",
    "tech_change_status": "Not Planned",
    "program_type": "Fixed Wireless and Satellite Upgrade Program",
    "target_eligibility_quarter": "NA"
   }
  },
  {
   "type": "Feature",
   "geometry": {
    "type": "Point",
    "coordinates": [
     115.346342,
     -33.736309
    ]
   },
   "properties": {
    "name": "159 DOYLE ROAD CHAPMAN HILL 6280",
    "locID": "LOC000011389758",
    "tech": "WIRELESS",
    "upgrade": "NULL_NA",
    "gnaf_pid": "GAWA_162261938",
    "tech_change_status": "Not Planned",
    "program_type": "Fixed Wireless and Satellite Upgrade Program",
    "target_eligibility_quarter": "NA"
   }
  },
  {
   "type": "Feature",
   "geometry": {
    "type": "Point",
    "coordinates": [
     115.316231,
     -33.739075
    ]
   },
   "properties": {
    "name": "429 DOYLE ROAD CHAPMAN HILL 6280",
    "locID": "LOC000083962083",
    "tech": "WIRELESS",
    "upgrade": "NULL_NA",
    "gnaf_pid": "GAWA_162261939",
    "tech_change_status": "Not Planned",
    "program_type": "Fixed Wireless and Satellite Upgrade Program",
    "target_eligibility_quarter": "NA"
   }
  },
  {
   "type": "Feature",
   "geometry": {
    "type": "Point",
    "coordinates": [
     115.306629,
     -33.740677
    ]
   },
   "properties": {
    "name": "551 DOYLE ROAD CHAPMAN HILL 6280",
    "locID": "LOC000048361151",
    "tech": "WIRELESS",
    "upgrade": "NULL_NA",
    "gnaf_pid": "GAWA_162261940",
    "tech_change_status": "Not Planned",
    "program_type": "Fixed Wireless and Satellite Upgrade Program",
    "target_eligibility_quarter": "NA"
   }
  },
  {
   "type": "Feature",
   "geometry": {
    "type": "Point",
    "coordinates": [
     115.308162,
     -33.775116
    ]
   },
   "properties": {
    "name": "275 EVANS ROAD CHAPMAN HILL 6280",
    "locID": "LOC000050965295",
    "tech": "WIRELESS",
    "upgrade": "NULL_NA",
    "gnaf_pid": "GAWA_162262306",
    "tech_change_status": "Not Planned",
    "program_type": "Fixed Wireless and Satellite Upgrade Program",
    "target_eligibility_quarter": "NA"
   }
  },
  {
   "type": "Feature",
   "geometry": {
    "type": "Point",
    "coordinates": [
     115.31597809,
     -33.79212005
    ]
   },
   "properties": {
    "name": "117 FARQUHAR ROAD CHAPMAN HILL 6280",
    "locID": "LOC000035298048",
    "tech": "WIRELESS",
    "upgrade": "NULL_NA",
    "gnaf_pid": "GAWA_162262367",
    "tech_change_status": "Not Planned",
    "program_type": "Fixed Wireless and Satellite Upgrade Program",
    "target_eligibility_quarter": "NA"
   }
  },
  {
   "type": "Feature",
   "geometry": {
    "type": "Point",
    "coordinates": [
     115.302943,
     -33.822867
    ]
   },
   "properties": {
    "name": "271 HOPKINS ROAD CHAPMAN HILL 6280",
    "locID": "LOC000106429539",
    "tech": "SATELLITE",
    "upgrade": "WIRELESS",
    "gnaf_pid": "GAWA_162264448",
    "tech_change_status": "Eligible to Order",
    "program_type": "Fixed Wireless and Satellite Upgrade Program",
    "target_eligibility_quarter": "NA"
   }
  },
  {
   "type": "Feature",
   "geometry": {
    "type": "Point",
    "coordinates": [
     115.297157,
     -33.775009
    ]
   },
   "properties": {
    "name": "291 JAMISONS ROAD CHAPMAN HILL 6280",
    "locID": "LOC000004873351",
    "tech": "WIRELESS",
    "upgrade": "NULL_NA",
    "gnaf_pid": "GAWA_162264724",
    "tech_change_status": "Not Planned",
    "program_type": "Fixed Wireless and Satellite Upgrade Program",
    "target_eligibility_quarter": "NA"
   }
  },
  {
   "type": "Feature",
   "geometry": {
    "type": "Point",
    "coordinates": [
     115.298647,
     -33.782623
    ]
   },
   "properties": {
    "name": "335 JAMISONS ROAD CHAPMAN HILL 6280",
    "locID": "LOC000088705846",
    "tech": "SATELLITE",
    "upgrade": "NULL_NA",
    "gnaf_pid": "GAWA_162264725",
    "tech_change_status": "Not Planned"
   }
  },
  {
   "type": "Feature",
   "geometry": {
    "type": "Point",
    "coordinates": [
     115.344726,
     -33.796938
    ]
   },
   "properties": {
    "name": "114 NUTTMAN ROAD CHAPMAN HILL 6280",
    "locID": "LOC000092731609",
    "tech": "WIRELESS",
    "upgrade": "NULL_NA",
    "gnaf_pid": "GAWA_162267532",
    "tech_change_status": "Not Planned",
    "program_type": "Fixed Wireless and Satellite Upgrade Program",
    "target_eligibility_quarter": "NA"
   }
  },
  {
   "type": "Feature",
   "geometry": {
    "type": "Point",
    "coordinates": [
     115.34647972,
     -33.80315829
    ]
   },
   "properties": {
    "name": "198 NUTTMAN ROAD CHAPMAN HILL 6280",
    "locID": "LOC000101953093",
    "tech": "WIRELESS",
    "upgrade": "NULL_NA",
    "gnaf_pid": "GAWA_162267533",
    "tech_change_status": "Not Planned",
    "program_type": "Fixed Wireless and Satellite Upgrade Program",
    "target_eligibility_quarter": "NA"
   }
  },
  {
   "type": "Feature",
   "geometry": {
    "type": "Point",
    "coordinates": [
     115.35053469,
     -33.8114992
    ]
   },
   "properties": {
    "name": "270 NUTTMAN ROAD CHAPMAN HILL 6280",
    "locID": "LOC000013711339",
    "tech": "SATELLITE",
    "upgrade": "NULL_NA",
    "gnaf_pid": "GAWA_162267534",
    "tech_change_status": "Not Planned"
   }
  },
  {
   "type": "Feature",
   "geometry": {
    "type": "Point",
    "coordinates": [
     115.35915069,
     -33.81748478
    ]
   },
   "properties": {
    "name": "354 NUTTMAN ROAD CHAPMAN HILL 6280",
    "locID": "LOC000057836226",
    "tech": "NULL",
    "upgrade": "NULL_NA",
    "gnaf_pid": "GAWA_162267535",
    "tech_change_status": "Not Planned"
   }
  },
  {
   "type": "Feature",
   "geometry": {
    "type": "Point",
    "coordinates": [
     115.344726,
     -33.789682
    ]
   },
   "properties": {
    "name": "38 NUTTMAN ROAD CHAPMAN HILL 6280",
    "locID": "LOC000023656788",
    "tech": "SATELLITE",
    "upgrade": "NULL_NA",
    "gnaf_pid": "GAWA_162267536",
    "tech_change_status": "Not Planned"
   }
  },
  {
   "type": "Feature",
   "geometry": {
    "type": "Point",
    "coordinates": [
     115.30871,
     -33.746791
    ]
   },
   "properties": {
    "name": "1067 PAYNE ROAD CHAPMAN HILL 6280",
    "locID": "LOC000030589200",
    "tech": "WIRELESS",
    "upgrade": "NULL_NA",
    "gnaf_pid": "GAWA_162268031",
    "tech_change_status": "Not Planned",
    "program_type": "Fixed Wireless and Satellite Upgrade Program",
    "target_eligibility_quarter": "NA"
   }
  },
  {
   "type": "Feature",
   "geometry": {
    "type": "Point",
    "coordinates": [
     115.297912,
     -33.748075
    ]
   },
   "properties": {
    "name": "991 PAYNE ROAD CHAPMAN HILL 6280",
    "locID": "LOC000089627049",
    "tech": "WIRELESS",
    "upgrade": "NULL_NA",
    "gnaf_pid": "GAWA_162268032",
    "tech_change_status": "Not Planned",
    "program_type": "Fixed Wireless and Satellite Upgrade Program",
    "target_eligibility_quarter": "NA"
   }
  },
  {
   "type": "Feature",
   "geometry": {
    "type": "Point",
    "coordinates": [
     115.295627,
     -33.756542
    ]
   },
   "properties": {
    "name": "998 PAYNE ROAD CHAPMAN HILL 6280",
    "locID": "LOC000038956485",
    "tech": "WIRELESS",
    "upgrade": "NULL_NA",
    "gnaf_pid": "GAWA_162268033",
    "tech_change_status": "Not Planned",
    "program_type": "Fixed Wireless and Satellite Upgrade Program",
    "target_eligibility_quarter": "NA"
   }
  },
  {
   "type": "Feature",
   "geometry": {
    "type": "Point",
    "coordinates": [
     115.31414739,
     -33.79828669
    ]
   },
   "properties": {
    "name": "131 PRICE ROAD CHAPMAN HILL 6280",
    "locID": "LOC000027100506",
    "tech": "NULL",
    "upgrade": "NULL_NA",
    "gnaf_pid": "GAWA_162268323",
    "tech_change_status": "Not Planned"
   }
  },
  {
   "type": "Feature",
   "geometry": {
    "type": "Point",
    "coordinates": [
     115.305044,
     -33.791043
    ]
   },
   "properties": {
    "name": "258 PRICE ROAD CHAPMAN HILL 6280",
    "locID": "LOC000102002428",
    "tech": "SATELLITE",
    "upgrade": "NULL_NA",
    "gnaf_pid": "GAWA_162268324",
    "tech_change_status": "Not Planned"
   }
  },
  {
   "type": "Feature",
   "geometry": {
    "type": "Point",
    "coordinates": [
     115.320205,
     -33.74365
    ]
   },
   "properties": {
    "name": "988 QUEEN ELIZABETH AVENUE CHAPMAN HILL 6280",
    "locID": "LOC000067899494",
    "tech": "WIRELESS",
    "upgrade": "NULL_NA",
    "gnaf_pid": "GAWA_162268400",
    "tech_change_status": "Not Planned",
    "program_type": "Fixed Wireless and Satellite Upgrade Program",
    "target_eligibility_quarter": "NA"
   }
  },
  {
   "type": "Feature",
   "geometry": {
    "type": "Point",
    "coordinates": [
     115.33944762,
     -33.80284119
    ]
   },
   "properties": {
    "name": "1725 CHAPMAN HILL ROAD CHAPMAN HILL 6280",
    "locID": "LOC000061231709",
    "tech": "WIRELESS",
    "upgrade": "NULL_NA",
    "gnaf_pid": "GAWA_162276418",
    "tech_change_status": "Not Planned",
    "program_type": "Fixed Wireless and Satellite Upgrade Program",
    "target_eligibility_quarter": "NA"
   }
  },
  {
   "type": "Feature",
   "geometry": {
    "type": "Point",
    "coordinates": [
     115.36063682,
     -33.82517142
    ]
   },
   "properties": {
    "name": "290 CHAPMAN HILL EAST ROAD CHAPMAN HILL 6280",
    "locID": "LOC000022109070",
    "tech": "SATELLITE",
    "upgrade": "NULL_NA",
    "gnaf_pid": "GAWA_162334648",
    "tech_change_status": "Not Planned"
   }
  },
  {
   "type": "Feature",
   "geometry": {
    "type": "Point",
    "coordinates": [
     115.30669448,
     -33.78338834
    ]
   },
   "properties": {
    "name": "217 FARQUHAR ROAD CHAPMAN HILL 6280",
    "locID": "LOC000113519145",
    "tech": "WIRELESS",
    "upgrade": "NULL_NA",
    "gnaf_pid": "GAWA_162390781",
    "tech_change_status": "Not Planned",
    "program_type": "Fixed Wireless and Satellite Upgrade Program",
    "target_eligibility_quarter": "NA"
   }
  },
  {
   "type": "Feature",
   "geometry": {
    "type": "Point",
    "coordinates": [
     115.32279539,
     -33.77419664
    ]
   },
   "properties": {
    "name": "161 EVANS ROAD CHAPMAN HILL 6280",
    "locID": "LOC000098994350",
    "tech": "WIRELESS",
    "upgrade": "NULL_NA",
    "gnaf_pid": "GAWA_162564619",
    "tech_change_status": "Not Planned",
    "program_type": "Fixed Wireless and Satellite Upgrade Program",
    "target_eligibility_quarter": "NA"
   }
  },
  {
   "type": "Feature",
   "geometry": {
    "type": "Point",
    "coordinates": [
     115.32823353,
     -33.77665054
    ]
   },
   "properties": {
    "name": "91 EVANS ROAD CHAPMAN HILL 6280",
    "locID": "LOC000099430066",
    "tech": "WIRELESS",
    "upgrade": "NULL_NA",
    "gnaf_pid": "GAWA_162867284",
    "tech_change_status": "Not Planned",
    "program_type": "Fixed Wireless and Satellite Upgrade Program",
    "target_eligibility_quarter": "NA"
   }
  },
  {
   "type": "Feature",
   "geometry": {
    "type": "Point",
    "coordinates": [
     115.31271704,
     -33.83578358
    ]
   },
   "properties": {
    "name": "2133 CHAPMAN HILL ROAD CHAPMAN HILL 6280",
    "locID": "LOC000064382375",
    "tech": "NULL",
    "upgrade": "NULL_NA",
    "gnaf_pid": "GAWA_163000399",
    "tech_change_status": "Not Planned"
   }
  },
  {
   "type": "Feature",
   "geometry": {
    "type": "Point",
    "coordinates": [
     115.31075175,
     -33.79172918
    ]
   },
   "properties": {
    "name": "164 PRICE ROAD CHAPMAN HILL 6280",
    "locID": "LOC000059364486",
    "tech": "WIRELESS",
    "upgrade": "NULL_NA",
    "gnaf_pid": "GAWA_163053059",
    "tech_change_status": "Not Planned",
    "program_type": "Fixed Wireless and Satellite Upgrade Program",
    "target_eligibility_quarter": "NA"
   }
  },
  {
   "type": "Feature",
   "geometry": {
    "type": "Point",
    "coordinates": [
     115.33855726,
     -33.77775203
    ]
   },
   "properties": {
    "name": "11 EVANS ROAD CHAPMAN HILL 6280",
    "locID": "LOC000111776629",
    "tech": "WIRELESS",
    "upgrade": "NULL_NA",
    "gnaf_pid": "GAWA_163198066",
    "tech_change_status": "Not Planned",
    "program_type": "Fixed Wireless and Satellite Upgrade Program",
    "target_eligibility_quarter": "NA"
   }
  },
  {
   "type": "Feature",
   "geometry": {
    "type": "Point",
    "coordinates": [
     115.34770899,
     -33.80168653
    ]
   },
   "properties": {
    "name": "196 NUTTMAN ROAD CHAPMAN HILL 6280",
    "locID": "LOC000133072596",
    "tech": "WIRELESS",
    "upgrade": "NULL_NA",
    "gnaf_pid": "GAWA_163341034",
    "tech_change_status": "Not Planned",
    "program_type": "Fixed Wireless and Satellite Upgrade Program",
    "target_eligibility_quarter": "NA"
   }
  },
  {
   "type": "Feature",
   "geometry": {
    "type": "Point",
    "coordinates": [
     115.31668222,
     -33.74897523
    ]
   },
   "properties": {
    "name": "1165 PAYNE ROAD CHAPMAN HILL 6280",
    "locID": "LOC000133092746",
    "tech": "WIRELESS",
    "upgrade": "NULL_NA",
    "gnaf_pid": "GAWA_718254577",
    "tech_change_status": "Not Planned",
    "program_type": "Fixed Wireless and Satellite Upgrade Program",
    "target_eligibility_quarter": "NA"
   }
  },
  {
   "type": "Feature",
   "geometry": {
    "type": "Point",
    "coordinates": [
     115.32795888,
     -33.82227081
    ]
   },
   "properties": {
    "name": "1991 CHAPMAN HILL ROAD CHAPMAN HILL 6280",
    "locID": "LOC000133072605",
    "tech": "NULL",
    "upgrade": "NULL_NA",
    "gnaf_pid": "GAWA_718296000",
    "tech_change_status": "Not Planned"
   }
  },
  {
   "type": "Feature",
   "geometry": {
    "type": "Point",
    "coordinates": [
     115.31414739,
     -33.79828669
    ]
   },
   "properties": {
    "name": "131A PRICE ROAD CHAPMAN HILL 6280",
    "locID": "LOC000027100506",
    "tech": "NULL",
    "upgrade": "NULL_NA",
    "gnaf_pid": "GAWA_718303140",
    "tech_change_status": "Not Planned"
   }
  },
  {
   "type": "Feature",
   "geometry": {
    "type": "Point",
    "coordinates": [
     115.31414739,
     -33.79828669
    ]
   },
   "properties": {
    "name": "131C PRICE ROAD CHAPMAN HILL 6280",
    "locID": "LOC000133047916",
    "tech": "NULL",
    "upgrade": "NULL_NA",
    "gnaf_pid": "GAWA_718303141",
    "tech_change_status": "Not Planned"
   }
  },
  {
   "type": "Feature",
   "geometry": {
    "type": "Point",
    "coordinates": [
     115.30061135,
     -33.7995635
    ]
   },
   "properties": {
    "name": "441 JAMISONS ROAD CHAPMAN HILL 6280",
    "locID": "LOC100029471622",
    "tech": "WIRELESS",
    "upgrade": "NULL_NA",
    "gnaf_pid": "GAWA_718389640",
    "tech_change_status": "Not Planned",
    "program_type": "Fixed Wireless and Satellite Upgrade Program",
    "target_eligibility_quarter": "NA"
   }
  },
  {
   "type": "Feature",
   "geometry": {
    "type": "Point",
    "coordinates": [
     115.33222472,
     -33.7451628
    ]
   },
   "properties": {
    "name": "1072 CHAPMAN HILL ROAD CHAPMAN HILL 6280",
    "locID": "LOC100078087434",
    "tech": "WIRELESS",
    "upgrade": "NULL_NA",
    "gnaf_pid": "GAWA_718448623",
    "tech_change_status": "Not Planned",
    "program_type": "Fixed Wireless and Satellite Upgrade Program",
    "target_eligibility_quarter": "NA"
   }
  },
  {
   "type": "Feature",
   "geometry": {
    "type": "Point",
    "coordinates": [
     115.32949435,
     -33.74699728
    ]
   },
   "properties": {
    "name": "983 QUEEN ELIZABETH AVENUE CHAPMAN HILL 6280",
    "locID": "LOC100078087468",
    "tech": "WIRELESS",
    "upgrade": "NULL_NA",
    "gnaf_pid": "GAWA_718452064",
    "tech_change_status": "Not Planned",
    "program_type": "Fixed Wireless and Satellite Upgrade Program",
    "target_eligibility_quarter": "NA"
   }
  },
  {
   "type": "Feature",
   "geometry": {
    "type": "Point",
    "coordinates": [
     115.31506237,
     -33.7565503
    ]
   },
   "properties": {
    "name": "1148 PAYNE ROAD CHAPMAN HILL 6280",
    "locID": "LOC000133038086",
    "tech": "NULL",
    "upgrade": "NULL_NA",
    "gnaf_pid": "GAWA_718551966",
    "tech_change_status": "Not Planned"
   }
  },
  {
   "type": "Feature",
   "geometry": {
    "type": "Point",
    "coordinates": [
     115.35363043,
     -33.82555807
    ]
   },
   "properties": {
    "name": "200 CHAPMAN HILL EAST ROAD CHAPMAN HILL 6280",
    "locID": "LOC000148153904",
    "tech": "NULL",
    "upgrade": "NULL_NA",
    "gnaf_pid": "GAWA_718571582",
    "tech_change_status": "Not Planned"
   }
  },
  {
   "type": "Feature",
   "geometry": {
    "type": "Point",
    "coordinates": [
     115.31597809,
     -33.79212005
    ]
   },
   "properties": {
    "name": "92 PRICE ROAD CHAPMAN HILL 6280",
    "locID": "LOC000148794579",
    "tech": "WIRELESS",
    "upgrade": "NULL_NA",
    "gnaf_pid": "GAWA_718573344",
    "tech_change_status": "Not Planned",
    "program_type": "Fixed Wireless and Satellite Upgrade Program",
    "target_eligibility_quarter": "NA"
   }
  },
  {
   "type": "Feature",
   "geometry": {
    "type": "Point",
    "coordinates": [
     115.34568492,
     -33.80490514
    ]
   },
   "properties": {
    "name": "208 NUTTMAN ROAD CHAPMAN HILL 6280",
    "locID": "LOC000182028981",
    "tech": "WIRELESS",
    "upgrade": "NULL_NA",
    "gnaf_pid": "GAWA_718914507",
    "tech_change_status": "Not Planned",
    "program_type": "Fixed Wireless and Satellite Upgrade Program",
    "target_eligibility_quarter": "NA"
   }
  },
  {
   "type": "Feature",
   "geometry": {
    "type": "Point",
    "coordinates": [
     115.3476969,
     -33.80644925
    ]
   },
   "properties": {
    "name": "248 NUTTMAN ROAD CHAPMAN HILL 6280",
    "locID": "LOC100071987848",
    "tech": "NULL",
    "upgrade": "NULL_NA",
    "gnaf_pid": "GAWA_719039030",
    "tech_change_status": "Not Planned"
   }
  },
  {
   "type": "Feature",
   "geometry": {
    "type": "Point",
    "coordinates": [
     115.36228785,
     -33.81983792
    ]
   },
   "properties": {
    "name": "243 CHAPMAN HILL EAST ROAD CHAPMAN HILL 6280",
    "locID": "LOC000176331910",
    "tech": "SATELLITE",
    "upgrade": "NULL_NA",
    "gnaf_pid": "GAWA_719147682",
    "tech_change_status": "Not Planned"
   }
  },
  {
   "type": "Feature",
   "geometry": {
    "type": "Point",
    "coordinates": [
     115.34362252,
     -33.81419628
    ]
   },
   "properties": {
    "name": "73 CHAPMAN HILL EAST ROAD CHAPMAN HILL 6280",
    "locID": "LOC000133029710",
    "tech": "NULL",
    "upgrade": "NULL_NA",
    "gnaf_pid": "GAWA_719646769",
    "tech_change_status": "Not Planned"
   }
  },
  {
   "type": "Feature",
   "geometry": {
    "type": "Point",
    "coordinates": [
     115.33132065,
     -33.80620813
    ]
   },
   "properties": {
    "name": "1729 CHAPMAN HILL ROAD CHAPMAN HILL 6280",
    "locID": "LOC100078857266",
    "tech": "WIRELESS",
    "upgrade": "NULL_NA",
    "gnaf_pid": "GAWA_720242902",
    "tech_change_status": "Not Planned",
    "program_type": "Fixed Wireless and Satellite Upgrade Program",
    "target_eligibility_quarter": "NA"
   }
  },
  {
   "type": "Feature",
   "geometry": {
    "type": "Point",
    "coordinates": [
     115.33626361,
     -33.80737062
    ]
   },
   "properties": {
    "name": "1789 CHAPMAN HILL ROAD CHAPMAN HILL 6280",
    "locID": "LOC000158397389",
    "tech": "WIRELESS",
    "upgrade": "NULL_NA",
    "gnaf_pid": "GAWA_720719332",
    "tech_change_status": "Not Planned",
    "program_type": "Fixed Wireless and Satellite Upgrade Program",
    "target_eligibility_quarter": "NA"
   }
  },
  {
   "type": "Feature",
   "geometry": {
    "type": "Point",
    "coordinates": [
     115.33291302,
     -33.79210645
    ]
   },
   "properties": {
    "name": "1541 CHAPMAN HILL ROAD CHAPMAN HILL 6280",
    "locID": "LOC000189654407",
    "tech": "WIRELESS",
    "upgrade": "NULL_NA",
    "gnaf_pid": "GAWA_720888579",
    "tech_change_status": "Not Planned",
    "program_type": "Fixed Wireless and Satellite Upgrade Program",
    "target_eligibility_quarter": "NA"
   }
  }
 ]
}