{
 "type": "FeatureCollection",
 "generated": "2025-02-14T09:08:23.158729",
 "suburb": "DWARDA",
 "features": [
  {
   "type": "Feature",
   "geometry": {
    "type": "Point",
    "coordinates": [
     116.58291,
     -32.74939
    ]
   },
   "properties": {
    "name": "8887 ALBANY HIGHWAY DWARDA 6308",
    "locID": "LOC000105162302",
    "tech": "SATELLITE",
    "upgrade": "NULL_NA",
    "gnaf_pid": "GAWA_146597572",
    "tech_change_status": "Not Planned"
   }
  },
  {
   "type": "Feature",
   "geometry": {
    "type": "Point",
    "coordinates": [
     116.57997,
     -32.73887
    ]
   },
   "properties": {
    "name": "8735 ALBANY HIGHWAY DWARDA 6308",
    "locID": "LOC000047868291",
    "tech": "SATELLITE",
    "upgrade": "NULL_NA",
    "gnaf_pid": "GAWA_146664204",
    "tech_change_status": "Not Planned"
   }
  },
  {
   "type": "Feature",
   "geometry": {
    "type": "Point",
    "coordinates": [
     116.72411782,
     -32.74152022
    ]
   },
   "properties": {
    "name": "1210 NOOMBLING-NORRINE ROAD DWARDA 6308",
    "locID": "LOC000142478424",
    "tech": "SATELLITE",
    "upgrade": "NULL_NA",
    "gnaf_pid": "GAWA_147243197",
    "tech_change_status": "Not Planned"
   }
  },
  {
   "type": "Feature",
   "geometry": {
    "type": "Point",
    "coordinates": [
     116.77394,
     -32.75962
    ]
   },
   "properties": {
    "name": "799 NOOMBLING-NORRINE ROAD DWARDA 6308",
    "locID": "LOC000142446601",
    "tech": "SATELLITE",
    "upgrade": "NULL_NA",
    "gnaf_pid": "GAWA_147243198",
    "tech_change_status": "Not Planned"
   }
  },
  {
   "type": "Feature",
   "geometry": {
    "type": "Point",
    "coordinates": [
     116.73395479,
     -32.79153505
    ]
   },
   "properties": {
    "name": "546 DWARDA EAST ROAD DWARDA 6308",
    "locID": "LOC000111014602",
    "tech": "WIRELESS",
    "upgrade": "NULL_NA",
    "gnaf_pid": "GAWA_147246268",
    "tech_change_status": "Not Planned",
    "program_type": "Fixed Wireless and Satellite Upgrade Program",
    "target_eligibility_quarter": "NA"
   }
  },
  {
   "type": "Feature",
   "geometry": {
    "type": "Point",
    "coordinates": [
     116.63723666,
     -32.75421874
    ]
   },
   "properties": {
    "name": "1024 MORAMOCKINING ROAD DWARDA 6308",
    "locID": "LOC000088651498",
    "tech": "WIRELESS",
    "upgrade": "NULL_NA",
    "gnaf_pid": "GAWA_147246273",
    "tech_change_status": "Not Planned",
    "program_type": "Fixed Wireless and Satellite Upgrade Program",
    "target_eligibility_quarter": "NA"
   }
  },
  {
   "type": "Feature",
   "geometry": {
    "type": "Point",
    "coordinates": [
     116.69263946,
     -32.76818185
    ]
   },
   "properties": {
    "name": "101 DWARDA EAST ROAD DWARDA 6308",
    "locID": "LOC000069255256",
    "tech": "WIRELESS",
    "upgrade": "NULL_NA",
    "gnaf_pid": "GAWA_147249227",
    "tech_change_status": "Not Planned",
    "program_type": "Fixed Wireless and Satellite Upgrade Program",
    "target_eligibility_quarter": "NA"
   }
  },
  {
   "type": "Feature",
   "geometry": {
    "type": "Point",
    "coordinates": [
     116.70523978,
     -32.74958816
    ]
   },
   "properties": {
    "name": "28 WATTS ROAD DWARDA 6308",
    "locID": "LOC000036465939",
    "tech": "WIRELESS",
    "upgrade": "NULL_NA",
    "gnaf_pid": "GAWA_147249228",
    "tech_change_status": "Not Planned",
    "program_type": "Fixed Wireless and Satellite Upgrade Program",
    "target_eligibility_quarter": "NA"
   }
  },
  {
   "type": "Feature",
   "geometry": {
    "type": "Point",
    "coordinates": [
     116.68463541,
     -32.7676913
    ]
   },
   "properties": {
    "name": "43 DWARDA EAST ROAD DWARDA 6308",
    "locID": "LOC000068160737",
    "tech": "WIRELESS",
    "upgrade": "NULL_NA",
    "gnaf_pid": "GAWA_147249229",
    "tech_change_status": "Not Planned",
    "program_type": "Fixed Wireless and Satellite Upgrade Program",
    "target_eligibility_quarter": "NA"
   }
  },
  {
   "type": "Feature",
   "geometry": {
    "type": "Point",
    "coordinates": [
     116.66323464,
     -32.80306862
    ]
   },
   "properties": {
    "name": "106 SANDS ROAD DWARDA 6308",
    "locID": "LOC000133019891",
    "tech": "SATELLITE",
    "upgrade": "NULL_NA",
    "gnaf_pid": "GAWA_147321140",
    "tech_change_status": "Not Planned"
   }
  },
  {
   "type": "Feature",
   "geometry": {
    "type": "Point",
    "coordinates": [
     116.69263946,
     -32.76818185
    ]
   },
   "properties": {
    "name": "103 DWARDA EAST ROAD DWARDA 6308",
    "locID": "LOC000037574966",
    "tech": "WIRELESS",
    "upgrade": "NULL_NA",
    "gnaf_pid": "GAWA_147677128",
    "tech_change_status": "Not Planned",
    "program_type": "Fixed Wireless and Satellite Upgrade Program",
    "target_eligibility_quarter": "NA"
   }
  },
  {
   "type": "Feature",
   "geometry": {
    "type": "Point",
    "coordinates": [
     116.59802104,
     -32.74747586
    ]
   },
   "properties": {
    "name": "8771 ALBANY HIGHWAY DWARDA 6308",
    "locID": "LOC000017082626",
    "tech": "SATELLITE",
    "upgrade": "NULL_NA",
    "gnaf_pid": "GAWA_147677129",
    "tech_change_status": "Not Planned"
   }
  },
  {
   "type": "Feature",
   "geometry": {
    "type": "Point",
    "coordinates": [
     116.73395479,
     -32.79153505
    ]
   },
   "properties": {
    "name": "HOUSE 1, 546 DWARDA EAST ROAD DWARDA 6308",
    "locID": "LOC000111014602",
    "tech": "WIRELESS",
    "upgrade": "NULL_NA",
    "gnaf_pid": "GAWA_163346736",
    "tech_change_status": "Not Planned",
    "program_type": "Fixed Wireless and Satellite Upgrade Program",
    "target_eligibility_quarter": "NA"
   }
  },
  {
   "type": "Feature",
   "geometry": {
    "type": "Point",
    "coordinates": [
     116.73395479,
     -32.79153505
    ]
   },
   "properties": {
    "name": "HOUSE 2, 546 DWARDA EAST ROAD DWARDA 6308",
    "locID": "LOC000111014602",
    "tech": "WIRELESS",
    "upgrade": "NULL_NA",
    "gnaf_pid": "GAWA_163346737",
    "tech_change_status": "Not Planned",
    "program_type": "Fixed Wireless and Satellite Upgrade Program",
    "target_eligibility_quarter": "NA"
   }
  },
  {
   "type": "Feature",
   "geometry": {
    "type": "Point",
    "coordinates": [
     116.64664513,
     -32.77837728
    ]
   },
   "properties": {
    "name": "491 CROSSMAN-DWARDA ROAD DWARDA 6308",
    "locID": "LOC000148369110",
    "tech": "SATELLITE",
    "upgrade": "NULL_NA",
    "gnaf_pid": "GAWA_718448944",
    "tech_change_status": "Not Planned"
   }
  }
 ]
}