{
 "type": "FeatureCollection",
 "generated": "2024-11-17T08:56:04.232841",
 "suburb": "EIGHTY MILE BEACH",
 "features": [
  {
   "type": "Feature",
   "geometry": {
    "type": "Point",
    "coordinates": [
     121.72894217,
     -19.00095617
    ]
   },
   "properties": {
    "name": "LOT 46 GREAT NORTHERN HIGHWAY EIGHTY MILE BEACH 6725",
    "locID": "LOC000109797505",
    "tech": "SATELLITE",
    "upgrade": "NULL_NA",
    "gnaf_pid": "GAWA_161601912",
    "tech_change_status": "Not Planned"
   }
  },
  {
   "type": "Feature",
   "geometry": {
    "type": "Point",
    "coordinates": [
     121.09165152,
     -19.76956866
    ]
   },
   "properties": {
    "name": "LOT 6 GREAT NORTHERN HIGHWAY EIGHTY MILE BEACH 6725",
    "locID": "LOC000109503043",
    "tech": "SATELLITE",
    "upgrade": "NULL_NA",
    "gnaf_pid": "GAWA_162787040",
    "tech_change_status": "Not Planned"
   }
  },
  {
   "type": "Feature",
   "geometry": {
    "type": "Point",
    "coordinates": [
     121.01122564,
     -19.79414549
    ]
   },
   "properties": {
    "name": "LOT 57 GREAT NORTHERN HIGHWAY EIGHTY MILE BEACH 6725",
    "locID": "LOC000175897323",
    "tech": "SATELLITE",
    "upgrade": "NULL_NA",
    "gnaf_pid": "GAWA_162818541",
    "tech_change_status": "Not Planned"
   }
  },
  {
   "type": "Feature",
   "geometry": {
    "type": "Point",
    "coordinates": [
     120.32810401,
     -19.96383293
    ]
   },
   "properties": {
    "name": "LOT 22 GREAT NORTHERN HIGHWAY EIGHTY MILE BEACH 6725",
    "locID": "LOC000048202404",
    "tech": "FTTN",
    "upgrade": "FTTP_SA",
    "gnaf_pid": "GAWA_163151487",
    "tech_change_status": "Eligible to Order",
    "program_type": "On-Demand N2P SDU/MDU Simple",
    "target_eligibility_quarter": "NA"
   }
  },
  {
   "type": "Feature",
   "geometry": {
    "type": "Point",
    "coordinates": [
     120.61069843,
     -19.8625929
    ]
   },
   "properties": {
    "name": "LOT 23 GREAT NORTHERN HIGHWAY EIGHTY MILE BEACH 6725",
    "locID": "LOC000087567992",
    "tech": "NULL",
    "upgrade": "NULL_NA",
    "gnaf_pid": "GAWA_163151488",
    "tech_change_status": "Not Planned"
   }
  },
  {
   "type": "Feature",
   "geometry": {
    "type": "Point",
    "coordinates": [
     120.68073686,
     -19.8351968
    ]
   },
   "properties": {
    "name": "LOT 24 GREAT NORTHERN HIGHWAY EIGHTY MILE BEACH 6725",
    "locID": "LOC000055078460",
    "tech": "FTTN",
    "upgrade": "FTTP_SA",
    "gnaf_pid": "GAWA_163151489",
    "tech_change_status": "Eligible to Order",
    "program_type": "On-Demand N2P SDU/MDU Simple",
    "target_eligibility_quarter": "NA"
   }
  },
  {
   "type": "Feature",
   "geometry": {
    "type": "Point",
    "coordinates": [
     121.02094206,
     -19.79334547
    ]
   },
   "properties": {
    "name": "LOT 26 GREAT NORTHERN HIGHWAY EIGHTY MILE BEACH 6725",
    "locID": "LOC000092642699",
    "tech": "FTTN",
    "upgrade": "FTTP_SA",
    "gnaf_pid": "GAWA_163151491",
    "tech_change_status": "Eligible to Order",
    "program_type": "On-Demand N2P SDU/MDU Simple",
    "target_eligibility_quarter": "NA"
   }
  },
  {
   "type": "Feature",
   "geometry": {
    "type": "Point",
    "coordinates": [
     121.14224844,
     -19.75742608
    ]
   },
   "properties": {
    "name": "LOT 28 GREAT NORTHERN HIGHWAY EIGHTY MILE BEACH 6725",
    "locID": "LOC000060231238",
    "tech": "FTTP",
    "upgrade": "NULL_NA",
    "gnaf_pid": "GAWA_163151493",
    "program_type": "On-Demand N2P SDU/MDU Simple",
    "target_eligibility_quarter": "NA"
   }
  },
  {
   "type": "Feature",
   "geometry": {
    "type": "Point",
    "coordinates": [
     121.14241474,
     -19.76563774
    ]
   },
   "properties": {
    "name": "LOT 29 GREAT NORTHERN HIGHWAY EIGHTY MILE BEACH 6725",
    "locID": "LOC000078442866",
    "tech": "FTTP",
    "upgrade": "FTTP_NA",
    "gnaf_pid": "GAWA_163151494",
    "tech_change_status": "Previous Tech Disconnected",
    "program_type": "On-Demand N2P SDU/MDU Simple",
    "target_eligibility_quarter": "NA"
   }
  },
  {
   "type": "Feature",
   "geometry": {
    "type": "Point",
    "coordinates": [
     121.33075656,
     -19.58201719
    ]
   },
   "properties": {
    "name": "LOT 30 GREAT NORTHERN HIGHWAY EIGHTY MILE BEACH 6725",
    "locID": "LOC100055991769",
    "tech": "FTTN",
    "upgrade": "FTTP_SA",
    "gnaf_pid": "GAWA_163151495",
    "tech_change_status": "Eligible to Order",
    "program_type": "On-Demand N2P SDU/MDU Simple",
    "target_eligibility_quarter": "NA"
   }
  },
  {
   "type": "Feature",
   "geometry": {
    "type": "Point",
    "coordinates": [
     121.34079199,
     -19.59043587
    ]
   },
   "properties": {
    "name": "LOT 31 GREAT NORTHERN HIGHWAY EIGHTY MILE BEACH 6725",
    "locID": "LOC000007458027",
    "tech": "NULL",
    "upgrade": "NULL_NA",
    "gnaf_pid": "GAWA_163151496",
    "tech_change_status": "Not Planned"
   }
  },
  {
   "type": "Feature",
   "geometry": {
    "type": "Point",
    "coordinates": [
     121.37145222,
     -19.55142632
    ]
   },
   "properties": {
    "name": "LOT 32 GREAT NORTHERN HIGHWAY EIGHTY MILE BEACH 6725",
    "locID": "LOC100073860445",
    "tech": "FTTN",
    "upgrade": "FTTP_NA",
    "gnaf_pid": "GAWA_163151497",
    "tech_change_status": "MDU Complex Eligible To Apply",
    "program_type": "Customer-initiated N2P MDU Complex"
   }
  },
  {
   "type": "Feature",
   "geometry": {
    "type": "Point",
    "coordinates": [
     121.5097653,
     -19.4372802
    ]
   },
   "properties": {
    "name": "LOT 33 GREAT NORTHERN HIGHWAY EIGHTY MILE BEACH 6725",
    "locID": "LOC000105405845",
    "tech": "NULL",
    "upgrade": "NULL_NA",
    "gnaf_pid": "GAWA_163151498",
    "tech_change_status": "Not Planned"
   }
  },
  {
   "type": "Feature",
   "geometry": {
    "type": "Point",
    "coordinates": [
     121.56850041,
     -19.33353513
    ]
   },
   "properties": {
    "name": "LOT 34 GREAT NORTHERN HIGHWAY EIGHTY MILE BEACH 6725",
    "locID": "LOC000084503517",
    "tech": "NULL",
    "upgrade": "NULL_NA",
    "gnaf_pid": "GAWA_163151499",
    "tech_change_status": "Not Planned"
   }
  },
  {
   "type": "Feature",
   "geometry": {
    "type": "Point",
    "coordinates": [
     121.66447276,
     -19.04397805
    ]
   },
   "properties": {
    "name": "LOT 35 GREAT NORTHERN HIGHWAY EIGHTY MILE BEACH 6725",
    "locID": "LOC100071887852",
    "tech": "SATELLITE",
    "upgrade": "NULL_NA",
    "gnaf_pid": "GAWA_163151500",
    "tech_change_status": "Not Planned"
   }
  },
  {
   "type": "Feature",
   "geometry": {
    "type": "Point",
    "coordinates": [
     121.58998194,
     -18.98297314
    ]
   },
   "properties": {
    "name": "LOT 37 GREAT NORTHERN HIGHWAY EIGHTY MILE BEACH 6725",
    "locID": "LOC000175897323",
    "tech": "SATELLITE",
    "upgrade": "NULL_NA",
    "gnaf_pid": "GAWA_163151501",
    "tech_change_status": "Not Planned"
   }
  },
  {
   "type": "Feature",
   "geometry": {
    "type": "Point",
    "coordinates": [
     120.45995006,
     -20.02495925
    ]
   },
   "properties": {
    "name": "44 GREAT NORTHERN HIGHWAY EIGHTY MILE BEACH 6725",
    "locID": "LOC000133475795",
    "tech": "SATELLITE",
    "upgrade": "NULL_NA",
    "gnaf_pid": "GAWA_163198728",
    "tech_change_status": "Not Planned"
   }
  },
  {
   "type": "Feature",
   "geometry": {
    "type": "Point",
    "coordinates": [
     120.69325082,
     -19.83464098
    ]
   },
   "properties": {
    "name": "LOT 555 GREAT NORTHERN HIGHWAY EIGHTY MILE BEACH 6725",
    "locID": "LOC000175897323",
    "tech": "SATELLITE",
    "upgrade": "NULL_NA",
    "gnaf_pid": "GAWA_718550233",
    "tech_change_status": "Not Planned"
   }
  },
  {
   "type": "Feature",
   "geometry": {
    "type": "Point",
    "coordinates": [
     120.67330878,
     -19.75471063
    ]
   },
   "properties": {
    "name": "896 EIGHTY MILE BEACH ROAD EIGHTY MILE BEACH 6725",
    "locID": "LOC000184569331",
    "tech": "SATELLITE",
    "upgrade": "NULL_NA",
    "gnaf_pid": "GAWA_719037866",
    "tech_change_status": "Not Planned"
   }
  }
 ]
}