{
 "type": "FeatureCollection",
 "generated": "2024-12-27T16:36:40.717318",
 "suburb": "KATRINE",
 "features": [
  {
   "type": "Feature",
   "geometry": {
    "type": "Point",
    "coordinates": [
     116.53435659,
     -31.65012975
    ]
   },
   "properties": {
    "name": "679 SMITH ROAD KATRINE 6401",
    "locID": "LOC000101700732",
    "tech": "NULL",
    "upgrade": "NULL_NA",
    "gnaf_pid": "GAWA_160645710",
    "tech_change_status": "Not Planned"
   }
  },
  {
   "type": "Feature",
   "geometry": {
    "type": "Point",
    "coordinates": [
     116.55799409,
     -31.61866245
    ]
   },
   "properties": {
    "name": "1010 NORTHAM-TOODYAY ROAD KATRINE 6401",
    "locID": "LOC000055054370",
    "tech": "WIRELESS",
    "upgrade": "NULL_NA",
    "gnaf_pid": "GAWA_160645711",
    "tech_change_status": "Not Planned"
   }
  },
  {
   "type": "Feature",
   "geometry": {
    "type": "Point",
    "coordinates": [
     116.52427384,
     -31.65576838
    ]
   },
   "properties": {
    "name": "146 JILYADING DRIVE KATRINE 6401",
    "locID": "LOC000033094923",
    "tech": "WIRELESS",
    "upgrade": "NULL_NA",
    "gnaf_pid": "GAWA_160645712",
    "tech_change_status": "Not Planned"
   }
  },
  {
   "type": "Feature",
   "geometry": {
    "type": "Point",
    "coordinates": [
     116.52791028,
     -31.66450376
    ]
   },
   "properties": {
    "name": "LOT 307 JILYADING DRIVE KATRINE 6401",
    "locID": "LOC000105707990",
    "tech": "WIRELESS",
    "upgrade": "NULL_NA",
    "gnaf_pid": "GAWA_160645713",
    "tech_change_status": "Not Planned",
    "program_type": "Fixed Wireless and Satellite Upgrade Program",
    "target_eligibility_quarter": "NA"
   }
  },
  {
   "type": "Feature",
   "geometry": {
    "type": "Point",
    "coordinates": [
     116.57352073,
     -31.5860433
    ]
   },
   "properties": {
    "name": "732 DUMBARTON ROAD KATRINE 6401",
    "locID": "LOC000102225631",
    "tech": "NULL",
    "upgrade": "NULL_NA",
    "gnaf_pid": "GAWA_160648233",
    "tech_change_status": "Not Planned"
   }
  },
  {
   "type": "Feature",
   "geometry": {
    "type": "Point",
    "coordinates": [
     116.58097184,
     -31.64215831
    ]
   },
   "properties": {
    "name": "555 NORTHAM-TOODYAY ROAD KATRINE 6401",
    "locID": "LOC000034618532",
    "tech": "WIRELESS",
    "upgrade": "NULL_NA",
    "gnaf_pid": "GAWA_160649378",
    "tech_change_status": "Not Planned",
    "program_type": "Fixed Wireless and Satellite Upgrade Program",
    "target_eligibility_quarter": "NA"
   }
  },
  {
   "type": "Feature",
   "geometry": {
    "type": "Point",
    "coordinates": [
     116.61771518,
     -31.63093057
    ]
   },
   "properties": {
    "name": "718 KATRINE ROAD KATRINE 6401",
    "locID": "LOC000106341084",
    "tech": "WIRELESS",
    "upgrade": "NULL_NA",
    "gnaf_pid": "GAWA_160665133",
    "tech_change_status": "Not Planned",
    "program_type": "Fixed Wireless and Satellite Upgrade Program",
    "target_eligibility_quarter": "NA"
   }
  },
  {
   "type": "Feature",
   "geometry": {
    "type": "Point",
    "coordinates": [
     116.59289627,
     -31.62409122
    ]
   },
   "properties": {
    "name": "1050 KATRINE ROAD KATRINE 6401",
    "locID": "LOC000101081512",
    "tech": "SATELLITE",
    "upgrade": "NULL_NA",
    "gnaf_pid": "GAWA_160665134",
    "tech_change_status": "Not Planned"
   }
  },
  {
   "type": "Feature",
   "geometry": {
    "type": "Point",
    "coordinates": [
     116.56236944,
     -31.60912027
    ]
   },
   "properties": {
    "name": "1406 KATRINE ROAD KATRINE 6401",
    "locID": "LOC000052397347",
    "tech": "WIRELESS",
    "upgrade": "NULL_NA",
    "gnaf_pid": "GAWA_160665135",
    "tech_change_status": "Not Planned"
   }
  },
  {
   "type": "Feature",
   "geometry": {
    "type": "Point",
    "coordinates": [
     116.56342274,
     -31.61796837
    ]
   },
   "properties": {
    "name": "1418 KATRINE ROAD KATRINE 6401",
    "locID": "LOC000016452021",
    "tech": "SATELLITE",
    "upgrade": "NULL_NA",
    "gnaf_pid": "GAWA_160665136",
    "tech_change_status": "Not Planned"
   }
  },
  {
   "type": "Feature",
   "geometry": {
    "type": "Point",
    "coordinates": [
     116.54118078,
     -31.66158598
    ]
   },
   "properties": {
    "name": "547 SMITH ROAD KATRINE 6401",
    "locID": "LOC000100193482",
    "tech": "NULL",
    "upgrade": "NULL_NA",
    "gnaf_pid": "GAWA_160668337",
    "tech_change_status": "Not Planned"
   }
  },
  {
   "type": "Feature",
   "geometry": {
    "type": "Point",
    "coordinates": [
     116.5529904,
     -31.65702016
    ]
   },
   "properties": {
    "name": "576 SMITH ROAD KATRINE 6401",
    "locID": "LOC000092682267",
    "tech": "WIRELESS",
    "upgrade": "NULL_NA",
    "gnaf_pid": "GAWA_160668338",
    "tech_change_status": "Not Planned",
    "program_type": "Fixed Wireless and Satellite Upgrade Program",
    "target_eligibility_quarter": "NA"
   }
  },
  {
   "type": "Feature",
   "geometry": {
    "type": "Point",
    "coordinates": [
     116.54919406,
     -31.65129082
    ]
   },
   "properties": {
    "name": "588 SMITH ROAD KATRINE 6401",
    "locID": "LOC000078006748",
    "tech": "WIRELESS",
    "upgrade": "NULL_NA",
    "gnaf_pid": "GAWA_160668339",
    "tech_change_status": "Not Planned",
    "program_type": "Fixed Wireless and Satellite Upgrade Program",
    "target_eligibility_quarter": "NA"
   }
  },
  {
   "type": "Feature",
   "geometry": {
    "type": "Point",
    "coordinates": [
     116.5457414,
     -31.64829472
    ]
   },
   "properties": {
    "name": "648 SMITH ROAD KATRINE 6401",
    "locID": "LOC000074791984",
    "tech": "WIRELESS",
    "upgrade": "NULL_NA",
    "gnaf_pid": "GAWA_160668340",
    "tech_change_status": "Not Planned",
    "program_type": "Fixed Wireless and Satellite Upgrade Program",
    "target_eligibility_quarter": "NA"
   }
  },
  {
   "type": "Feature",
   "geometry": {
    "type": "Point",
    "coordinates": [
     116.54377359,
     -31.64495777
    ]
   },
   "properties": {
    "name": "674 SMITH ROAD KATRINE 6401",
    "locID": "LOC000056521739",
    "tech": "WIRELESS",
    "upgrade": "NULL_NA",
    "gnaf_pid": "GAWA_160668341",
    "tech_change_status": "Not Planned",
    "program_type": "Fixed Wireless and Satellite Upgrade Program",
    "target_eligibility_quarter": "NA"
   }
  },
  {
   "type": "Feature",
   "geometry": {
    "type": "Point",
    "coordinates": [
     116.54116208,
     -31.64183309
    ]
   },
   "properties": {
    "name": "740 SMITH ROAD KATRINE 6401",
    "locID": "LOC000045483837",
    "tech": "WIRELESS",
    "upgrade": "NULL_NA",
    "gnaf_pid": "GAWA_160668342",
    "tech_change_status": "Not Planned",
    "program_type": "Fixed Wireless and Satellite Upgrade Program",
    "target_eligibility_quarter": "NA"
   }
  },
  {
   "type": "Feature",
   "geometry": {
    "type": "Point",
    "coordinates": [
     116.51804008,
     -31.67672455
    ]
   },
   "properties": {
    "name": "412 CLACKLINE-TOODYAY ROAD KATRINE 6401",
    "locID": "LOC000005687371",
    "tech": "NULL",
    "upgrade": "NULL_NA",
    "gnaf_pid": "GAWA_160671113",
    "tech_change_status": "Not Planned"
   }
  },
  {
   "type": "Feature",
   "geometry": {
    "type": "Point",
    "coordinates": [
     116.51300027,
     -31.66672903
    ]
   },
   "properties": {
    "name": "420 CLACKLINE-TOODYAY ROAD KATRINE 6401",
    "locID": "LOC000049680496",
    "tech": "WIRELESS",
    "upgrade": "NULL_NA",
    "gnaf_pid": "GAWA_160671114",
    "tech_change_status": "Not Planned",
    "program_type": "Fixed Wireless and Satellite Upgrade Program",
    "target_eligibility_quarter": "NA"
   }
  },
  {
   "type": "Feature",
   "geometry": {
    "type": "Point",
    "coordinates": [
     116.5376599,
     -31.65406698
    ]
   },
   "properties": {
    "name": "77 JILYADING DRIVE KATRINE 6401",
    "locID": "LOC000105707990",
    "tech": "WIRELESS",
    "upgrade": "NULL_NA",
    "gnaf_pid": "GAWA_160671115",
    "tech_change_status": "Not Planned",
    "program_type": "Fixed Wireless and Satellite Upgrade Program",
    "target_eligibility_quarter": "NA"
   }
  },
  {
   "type": "Feature",
   "geometry": {
    "type": "Point",
    "coordinates": [
     116.52461388,
     -31.66248338
    ]
   },
   "properties": {
    "name": "148 JILYADING DRIVE KATRINE 6401",
    "locID": "LOC000094675090",
    "tech": "WIRELESS",
    "upgrade": "NULL_NA",
    "gnaf_pid": "GAWA_160671116",
    "tech_change_status": "Not Planned",
    "program_type": "Fixed Wireless and Satellite Upgrade Program",
    "target_eligibility_quarter": "NA"
   }
  },
  {
   "type": "Feature",
   "geometry": {
    "type": "Point",
    "coordinates": [
     116.55893514,
     -31.63871885
    ]
   },
   "properties": {
    "name": "967 NORTHAM-TOODYAY ROAD KATRINE 6401",
    "locID": "LOC000142476614",
    "tech": "SATELLITE",
    "upgrade": "NULL_NA",
    "gnaf_pid": "GAWA_160671118",
    "tech_change_status": "Not Planned"
   }
  },
  {
   "type": "Feature",
   "geometry": {
    "type": "Point",
    "coordinates": [
     116.53806068,
     -31.60816155
    ]
   },
   "properties": {
    "name": "1246 NORTHAM-TOODYAY ROAD KATRINE 6401",
    "locID": "LOC000033702931",
    "tech": "SATELLITE",
    "upgrade": "NULL_NA",
    "gnaf_pid": "GAWA_160671120",
    "tech_change_status": "Not Planned"
   }
  },
  {
   "type": "Feature",
   "geometry": {
    "type": "Point",
    "coordinates": [
     116.52598796,
     -31.62341085
    ]
   },
   "properties": {
    "name": "1251 NORTHAM-TOODYAY ROAD KATRINE 6401",
    "locID": "LOC000066495986",
    "tech": "WIRELESS",
    "upgrade": "NULL_NA",
    "gnaf_pid": "GAWA_160671121",
    "tech_change_status": "Not Planned"
   }
  },
  {
   "type": "Feature",
   "geometry": {
    "type": "Point",
    "coordinates": [
     116.53767182,
     -31.60790191
    ]
   },
   "properties": {
    "name": "1252 NORTHAM-TOODYAY ROAD KATRINE 6401",
    "locID": "LOC000092839812",
    "tech": "WIRELESS",
    "upgrade": "NULL_NA",
    "gnaf_pid": "GAWA_160671122",
    "tech_change_status": "Not Planned",
    "program_type": "Fixed Wireless and Satellite Upgrade Program",
    "target_eligibility_quarter": "NA"
   }
  },
  {
   "type": "Feature",
   "geometry": {
    "type": "Point",
    "coordinates": [
     116.51129127,
     -31.61194099
    ]
   },
   "properties": {
    "name": "1291 NORTHAM-TOODYAY ROAD KATRINE 6401",
    "locID": "LOC000004590768",
    "tech": "SATELLITE",
    "upgrade": "NULL_NA",
    "gnaf_pid": "GAWA_160671123",
    "tech_change_status": "Not Planned"
   }
  },
  {
   "type": "Feature",
   "geometry": {
    "type": "Point",
    "coordinates": [
     116.5287214,
     -31.60334765
    ]
   },
   "properties": {
    "name": "1292 NORTHAM-TOODYAY ROAD KATRINE 6401",
    "locID": "LOC000009443563",
    "tech": "WIRELESS",
    "upgrade": "NULL_NA",
    "gnaf_pid": "GAWA_160671124",
    "tech_change_status": "Not Planned"
   }
  },
  {
   "type": "Feature",
   "geometry": {
    "type": "Point",
    "coordinates": [
     116.50029367,
     -31.66090353
    ]
   },
   "properties": {
    "name": "622 CLACKLINE-TOODYAY ROAD KATRINE 6401",
    "locID": "LOC000064330673",
    "tech": "WIRELESS",
    "upgrade": "NULL_NA",
    "gnaf_pid": "GAWA_162327988",
    "tech_change_status": "Not Planned",
    "program_type": "Fixed Wireless and Satellite Upgrade Program",
    "target_eligibility_quarter": "NA"
   }
  },
  {
   "type": "Feature",
   "geometry": {
    "type": "Point",
    "coordinates": [
     116.50423081,
     -31.65219723
    ]
   },
   "properties": {
    "name": "652 CLACKLINE-TOODYAY ROAD KATRINE 6401",
    "locID": "LOC000045772768",
    "tech": "WIRELESS",
    "upgrade": "NULL_NA",
    "gnaf_pid": "GAWA_162327989",
    "tech_change_status": "Not Planned",
    "program_type": "Fixed Wireless and Satellite Upgrade Program",
    "target_eligibility_quarter": "NA"
   }
  },
  {
   "type": "Feature",
   "geometry": {
    "type": "Point",
    "coordinates": [
     116.55155076,
     -31.66275218
    ]
   },
   "properties": {
    "name": "521 SMITH ROAD KATRINE 6401",
    "locID": "LOC000149129610",
    "tech": "WIRELESS",
    "upgrade": "NULL_NA",
    "gnaf_pid": "GAWA_718639560",
    "tech_change_status": "Not Planned"
   }
  },
  {
   "type": "Feature",
   "geometry": {
    "type": "Point",
    "coordinates": [
     116.53155368,
     -31.65665168
    ]
   },
   "properties": {
    "name": "79 JILYADING DRIVE KATRINE 6401",
    "locID": "LOC000149129986",
    "tech": "WIRELESS",
    "upgrade": "NULL_NA",
    "gnaf_pid": "GAWA_718675776",
    "tech_change_status": "Not Planned",
    "program_type": "Fixed Wireless and Satellite Upgrade Program",
    "target_eligibility_quarter": "NA"
   }
  },
  {
   "type": "Feature",
   "geometry": {
    "type": "Point",
    "coordinates": [
     116.56019679,
     -31.62208948
    ]
   },
   "properties": {
    "name": "LOT 205 NORTHAM-TOODYAY ROAD KATRINE 6401",
    "locID": "LOC000055054370",
    "tech": "WIRELESS",
    "upgrade": "NULL_NA",
    "gnaf_pid": "GAWA_719170496",
    "tech_change_status": "Not Planned"
   }
  },
  {
   "type": "Feature",
   "geometry": {
    "type": "Point",
    "coordinates": [
     116.56019679,
     -31.62208948
    ]
   },
   "properties": {
    "name": "LOT 203 NORTHAM-TOODYAY ROAD KATRINE 6401",
    "locID": "LOC000055054370",
    "tech": "WIRELESS",
    "upgrade": "NULL_NA",
    "gnaf_pid": "GAWA_720247218",
    "tech_change_status": "Not Planned"
   }
  },
  {
   "type": "Feature",
   "geometry": {
    "type": "Point",
    "coordinates": [
     116.52429504,
     -31.67347719
    ]
   },
   "properties": {
    "name": "414 CLACKLINE-TOODYAY ROAD KATRINE 6401",
    "locID": "LOC000064330673",
    "tech": "WIRELESS",
    "upgrade": "NULL_NA",
    "gnaf_pid": "GAWA_720817422",
    "tech_change_status": "Not Planned",
    "program_type": "Fixed Wireless and Satellite Upgrade Program",
    "target_eligibility_quarter": "NA"
   }
  }
 ]
}