{
 "type": "FeatureCollection",
 "generated": "2026-05-04T11:25:14.932115",
 "suburb": "MELALEUCA",
 "features": [
  {
   "type": "Feature",
   "geometry": {
    "type": "Point",
    "coordinates": [
     115.9459,
     -31.71051
    ]
   },
   "properties": {
    "name": "LOT 1497 WISE ROAD MELALEUCA 6079",
    "locID": "LOC000111957521",
    "tech": "WIRELESS",
    "upgrade": "NULL_NA",
    "gnaf_pid": "GAWA_161592724",
    "tech_change_status": "Previous Tech Disconnected",
    "program_type": "Fixed Wireless and Satellite Upgrade Program",
    "target_eligibility_quarter": "NA"
   }
  },
  {
   "type": "Feature",
   "geometry": {
    "type": "Point",
    "coordinates": [
     115.94134595,
     -31.715158
    ]
   },
   "properties": {
    "name": "LOT 44 WISE ROAD MELALEUCA 6079",
    "locID": "LOC000111957521",
    "tech": "WIRELESS",
    "upgrade": "NULL_NA",
    "gnaf_pid": "GAWA_163089351",
    "tech_change_status": "Previous Tech Disconnected",
    "program_type": "Fixed Wireless and Satellite Upgrade Program",
    "target_eligibility_quarter": "NA"
   }
  },
  {
   "type": "Feature",
   "geometry": {
    "type": "Point",
    "coordinates": [
     115.94198318,
     -31.71936313
    ]
   },
   "properties": {
    "name": "LOT 45 WISE ROAD MELALEUCA 6079",
    "locID": "LOC000111957521",
    "tech": "WIRELESS",
    "upgrade": "NULL_NA",
    "gnaf_pid": "GAWA_163089352",
    "tech_change_status": "Previous Tech Disconnected",
    "program_type": "Fixed Wireless and Satellite Upgrade Program",
    "target_eligibility_quarter": "NA"
   }
  }
 ]
}