{
 "type": "FeatureCollection",
 "generated": "2025-05-25T15:33:30.438922",
 "suburb": "NGAANYATJARRA-GILES",
 "features": [
  {
   "type": "Feature",
   "geometry": {
    "type": "Point",
    "coordinates": [
     128.12428835,
     -26.02758901
    ]
   },
   "properties": {
    "name": "LOT 56 TJUKURLA ROAD NGAANYATJARRA-GILES 872",
    "locID": "LOC100079644688",
    "tech": "SATELLITE",
    "upgrade": "NULL_NA",
    "gnaf_pid": "GAWA_720641823",
    "tech_change_status": "Not Planned"
   }
  }
 ]
}