{
 "type": "FeatureCollection",
 "generated": "2024-12-28T05:49:36.674410",
 "suburb": "PEERABEELUP",
 "features": [
  {
   "type": "Feature",
   "geometry": {
    "type": "Point",
    "coordinates": [
     115.77089249,
     -34.33246516
    ]
   },
   "properties": {
    "name": "9844 VASSE HIGHWAY PEERABEELUP 6260",
    "locID": "LOC000179344132",
    "tech": "SATELLITE",
    "upgrade": "NULL_NA",
    "gnaf_pid": "GAWA_719224844",
    "tech_change_status": "Not Planned"
   }
  },
  {
   "type": "Feature",
   "geometry": {
    "type": "Point",
    "coordinates": [
     115.77985774,
     -34.3302978
    ]
   },
   "properties": {
    "name": "9883 VASSE HIGHWAY PEERABEELUP 6260",
    "locID": "LOC100079622937",
    "tech": "NULL",
    "upgrade": "NULL_NA",
    "gnaf_pid": "GAWA_719224845",
    "tech_change_status": "Not Planned"
   }
  },
  {
   "type": "Feature",
   "geometry": {
    "type": "Point",
    "coordinates": [
     115.75111527,
     -34.35652747
    ]
   },
   "properties": {
    "name": "192 ETHEL ROAD PEERABEELUP 6260",
    "locID": "LOC100087578908",
    "tech": "NULL",
    "upgrade": "NULL_NA",
    "gnaf_pid": "GAWA_719225335",
    "tech_change_status": "Not Planned"
   }
  },
  {
   "type": "Feature",
   "geometry": {
    "type": "Point",
    "coordinates": [
     115.77129698,
     -34.32753595
    ]
   },
   "properties": {
    "name": "9842 VASSE HIGHWAY PEERABEELUP 6260",
    "locID": "LOC000133245987",
    "tech": "SATELLITE",
    "upgrade": "NULL_NA",
    "gnaf_pid": "GAWA_719225520",
    "tech_change_status": "Not Planned"
   }
  },
  {
   "type": "Feature",
   "geometry": {
    "type": "Point",
    "coordinates": [
     115.77563552,
     -34.33110207
    ]
   },
   "properties": {
    "name": "9882 VASSE HIGHWAY PEERABEELUP 6260",
    "locID": "LOC100071997955",
    "tech": "NULL",
    "upgrade": "NULL_NA",
    "gnaf_pid": "GAWA_719225708",
    "tech_change_status": "Not Planned"
   }
  },
  {
   "type": "Feature",
   "geometry": {
    "type": "Point",
    "coordinates": [
     115.76915436,
     -34.32442617
    ]
   },
   "properties": {
    "name": "9790 VASSE HIGHWAY PEERABEELUP 6260",
    "locID": "LOC100071997862",
    "tech": "SATELLITE",
    "upgrade": "NULL_NA",
    "gnaf_pid": "GAWA_719225887",
    "tech_change_status": "Not Planned"
   }
  }
 ]
}