{
 "type": "FeatureCollection",
 "generated": "2024-10-31T11:53:55.146510",
 "suburb": "TAKALARUP",
 "features": [
  {
   "type": "Feature",
   "geometry": {
    "type": "Point",
    "coordinates": [
     118.239877,
     -34.507368
    ]
   },
   "properties": {
    "name": "231 ARNOLDS ROAD TAKALARUP 6324",
    "locID": "LOC000100630926",
    "tech": "NULL",
    "upgrade": "NULL_NA",
    "gnaf_pid": "GAWA_162258702",
    "tech_change_status": "Not Planned"
   }
  },
  {
   "type": "Feature",
   "geometry": {
    "type": "Point",
    "coordinates": [
     118.227831,
     -34.536817
    ]
   },
   "properties": {
    "name": "39 ARNOLDS ROAD TAKALARUP 6324",
    "locID": "LOC000085272173",
    "tech": "SATELLITE",
    "upgrade": "NULL_NA",
    "gnaf_pid": "GAWA_162258703",
    "tech_change_status": "Not Planned"
   }
  },
  {
   "type": "Feature",
   "geometry": {
    "type": "Point",
    "coordinates": [
     118.1322,
     -34.650924
    ]
   },
   "properties": {
    "name": "374 BLOXIDGE ROAD TAKALARUP 6324",
    "locID": "LOC000100536892",
    "tech": "SATELLITE",
    "upgrade": "NULL_NA",
    "gnaf_pid": "GAWA_162259576",
    "tech_change_status": "Not Planned"
   }
  },
  {
   "type": "Feature",
   "geometry": {
    "type": "Point",
    "coordinates": [
     118.153121,
     -34.624081
    ]
   },
   "properties": {
    "name": "597 BLOXIDGE ROAD TAKALARUP 6324",
    "locID": "LOC000013634864",
    "tech": "NULL",
    "upgrade": "NULL_NA",
    "gnaf_pid": "GAWA_162259578",
    "tech_change_status": "Not Planned"
   }
  },
  {
   "type": "Feature",
   "geometry": {
    "type": "Point",
    "coordinates": [
     118.19548,
     -34.65095
    ]
   },
   "properties": {
    "name": "974 BLOXIDGE ROAD TAKALARUP 6324",
    "locID": "LOC000100336919",
    "tech": "NULL",
    "upgrade": "NULL_NA",
    "gnaf_pid": "GAWA_162259579",
    "tech_change_status": "Not Planned"
   }
  },
  {
   "type": "Feature",
   "geometry": {
    "type": "Point",
    "coordinates": [
     118.18713296,
     -34.49929872
    ]
   },
   "properties": {
    "name": "1064 BRANSON ROAD TAKALARUP 6324",
    "locID": "LOC000027808471",
    "tech": "NULL",
    "upgrade": "NULL_NA",
    "gnaf_pid": "GAWA_162259756",
    "tech_change_status": "Not Planned"
   }
  },
  {
   "type": "Feature",
   "geometry": {
    "type": "Point",
    "coordinates": [
     118.104327,
     -34.493072
    ]
   },
   "properties": {
    "name": "332 BRANSON ROAD TAKALARUP 6324",
    "locID": "LOC000092464755",
    "tech": "NULL",
    "upgrade": "NULL_NA",
    "gnaf_pid": "GAWA_162259757",
    "tech_change_status": "Not Planned"
   }
  },
  {
   "type": "Feature",
   "geometry": {
    "type": "Point",
    "coordinates": [
     118.131093,
     -34.496902
    ]
   },
   "properties": {
    "name": "560 BRANSON ROAD TAKALARUP 6324",
    "locID": "LOC000034480035",
    "tech": "SATELLITE",
    "upgrade": "NULL_NA",
    "gnaf_pid": "GAWA_162259758",
    "tech_change_status": "Not Planned"
   }
  },
  {
   "type": "Feature",
   "geometry": {
    "type": "Point",
    "coordinates": [
     117.95454973,
     -34.6607629
    ]
   },
   "properties": {
    "name": "4128 CHESTER PASS ROAD TAKALARUP 6324",
    "locID": "LOC000108795862",
    "tech": "SATELLITE",
    "upgrade": "NULL_NA",
    "gnaf_pid": "GAWA_162260902",
    "tech_change_status": "Not Planned"
   }
  },
  {
   "type": "Feature",
   "geometry": {
    "type": "Point",
    "coordinates": [
     117.99236708,
     -34.63007016
    ]
   },
   "properties": {
    "name": "4562 CHESTER PASS ROAD TAKALARUP 6324",
    "locID": "LOC000108961160",
    "tech": "SATELLITE",
    "upgrade": "NULL_NA",
    "gnaf_pid": "GAWA_162260903",
    "tech_change_status": "Not Planned"
   }
  },
  {
   "type": "Feature",
   "geometry": {
    "type": "Point",
    "coordinates": [
     117.993505,
     -34.599523
    ]
   },
   "properties": {
    "name": "4842 CHESTER PASS ROAD TAKALARUP 6324",
    "locID": "LOC000029548373",
    "tech": "NULL",
    "upgrade": "NULL_NA",
    "gnaf_pid": "GAWA_162260904",
    "tech_change_status": "Not Planned"
   }
  },
  {
   "type": "Feature",
   "geometry": {
    "type": "Point",
    "coordinates": [
     118.00052591,
     -34.58043203
    ]
   },
   "properties": {
    "name": "5114 CHESTER PASS ROAD TAKALARUP 6324",
    "locID": "LOC000047999175",
    "tech": "NULL",
    "upgrade": "NULL_NA",
    "gnaf_pid": "GAWA_162260905",
    "tech_change_status": "Not Planned"
   }
  },
  {
   "type": "Feature",
   "geometry": {
    "type": "Point",
    "coordinates": [
     118.02463162,
     -34.55669282
    ]
   },
   "properties": {
    "name": "5432 CHESTER PASS ROAD TAKALARUP 6324",
    "locID": "LOC000069346123",
    "tech": "NULL",
    "upgrade": "NULL_NA",
    "gnaf_pid": "GAWA_162260906",
    "tech_change_status": "Not Planned"
   }
  },
  {
   "type": "Feature",
   "geometry": {
    "type": "Point",
    "coordinates": [
     118.06085781,
     -34.50353254
    ]
   },
   "properties": {
    "name": "5990 CHESTER PASS ROAD TAKALARUP 6324",
    "locID": "LOC000059213463",
    "tech": "NULL",
    "upgrade": "NULL_NA",
    "gnaf_pid": "GAWA_162260907",
    "tech_change_status": "Not Planned"
   }
  },
  {
   "type": "Feature",
   "geometry": {
    "type": "Point",
    "coordinates": [
     118.135969,
     -34.533464
    ]
   },
   "properties": {
    "name": "1099 CHILLINUP ROAD TAKALARUP 6324",
    "locID": "LOC000082309626",
    "tech": "NULL",
    "upgrade": "NULL_NA",
    "gnaf_pid": "GAWA_162260917",
    "tech_change_status": "Not Planned"
   }
  },
  {
   "type": "Feature",
   "geometry": {
    "type": "Point",
    "coordinates": [
     118.150259,
     -34.533478
    ]
   },
   "properties": {
    "name": "1233 CHILLINUP ROAD TAKALARUP 6324",
    "locID": "LOC000007804206",
    "tech": "SATELLITE",
    "upgrade": "NULL_NA",
    "gnaf_pid": "GAWA_162260918",
    "tech_change_status": "Not Planned"
   }
  },
  {
   "type": "Feature",
   "geometry": {
    "type": "Point",
    "coordinates": [
     118.179075,
     -34.533608
    ]
   },
   "properties": {
    "name": "1643 CHILLINUP ROAD TAKALARUP 6324",
    "locID": "LOC000087413909",
    "tech": "NULL",
    "upgrade": "NULL_NA",
    "gnaf_pid": "GAWA_162260919",
    "tech_change_status": "Not Planned"
   }
  },
  {
   "type": "Feature",
   "geometry": {
    "type": "Point",
    "coordinates": [
     118.311756,
     -34.515842
    ]
   },
   "properties": {
    "name": "2741 CHILLINUP ROAD TAKALARUP 6324",
    "locID": "LOC000064632518",
    "tech": "NULL",
    "upgrade": "NULL_NA",
    "gnaf_pid": "GAWA_162260920",
    "tech_change_status": "Not Planned"
   }
  },
  {
   "type": "Feature",
   "geometry": {
    "type": "Point",
    "coordinates": [
     118.08151973,
     -34.55689385
    ]
   },
   "properties": {
    "name": "820 CHILLINUP ROAD TAKALARUP 6324",
    "locID": "LOC000005691282",
    "tech": "SATELLITE",
    "upgrade": "NULL_NA",
    "gnaf_pid": "GAWA_162260922",
    "tech_change_status": "Not Planned"
   }
  },
  {
   "type": "Feature",
   "geometry": {
    "type": "Point",
    "coordinates": [
     118.121915,
     -34.53348
    ]
   },
   "properties": {
    "name": "911 CHILLINUP ROAD TAKALARUP 6324",
    "locID": "LOC000019086203",
    "tech": "SATELLITE",
    "upgrade": "NULL_NA",
    "gnaf_pid": "GAWA_162260923",
    "tech_change_status": "Not Planned"
   }
  },
  {
   "type": "Feature",
   "geometry": {
    "type": "Point",
    "coordinates": [
     118.268392,
     -34.525879
    ]
   },
   "properties": {
    "name": "137 COOPERS ROAD TAKALARUP 6324",
    "locID": "LOC000086316811",
    "tech": "SATELLITE",
    "upgrade": "NULL_NA",
    "gnaf_pid": "GAWA_162261319",
    "tech_change_status": "Not Planned"
   }
  },
  {
   "type": "Feature",
   "geometry": {
    "type": "Point",
    "coordinates": [
     118.295234,
     -34.521225
    ]
   },
   "properties": {
    "name": "198 COOPERS ROAD TAKALARUP 6324",
    "locID": "LOC000042212307",
    "tech": "NULL",
    "upgrade": "NULL_NA",
    "gnaf_pid": "GAWA_162261320",
    "tech_change_status": "Not Planned"
   }
  },
  {
   "type": "Feature",
   "geometry": {
    "type": "Point",
    "coordinates": [
     118.285543,
     -34.495632
    ]
   },
   "properties": {
    "name": "275 COOPERS ROAD TAKALARUP 6324",
    "locID": "LOC000030687589",
    "tech": "NULL",
    "upgrade": "NULL_NA",
    "gnaf_pid": "GAWA_162261321",
    "tech_change_status": "Not Planned"
   }
  },
  {
   "type": "Feature",
   "geometry": {
    "type": "Point",
    "coordinates": [
     118.081458,
     -34.646189
    ]
   },
   "properties": {
    "name": "2719 PALMDALE ROAD TAKALARUP 6324",
    "locID": "LOC000015408080",
    "tech": "NULL",
    "upgrade": "NULL_NA",
    "gnaf_pid": "GAWA_162267857",
    "tech_change_status": "Not Planned"
   }
  },
  {
   "type": "Feature",
   "geometry": {
    "type": "Point",
    "coordinates": [
     118.115265,
     -34.62035
    ]
   },
   "properties": {
    "name": "3006 PALMDALE ROAD TAKALARUP 6324",
    "locID": "LOC000104518501",
    "tech": "NULL",
    "upgrade": "NULL_NA",
    "gnaf_pid": "GAWA_162267858",
    "tech_change_status": "Not Planned"
   }
  },
  {
   "type": "Feature",
   "geometry": {
    "type": "Point",
    "coordinates": [
     118.064126,
     -34.581695
    ]
   },
   "properties": {
    "name": "3269 PALMDALE ROAD TAKALARUP 6324",
    "locID": "LOC000103903525",
    "tech": "NULL",
    "upgrade": "NULL_NA",
    "gnaf_pid": "GAWA_162267859",
    "tech_change_status": "Not Planned"
   }
  },
  {
   "type": "Feature",
   "geometry": {
    "type": "Point",
    "coordinates": [
     118.106405,
     -34.599422
    ]
   },
   "properties": {
    "name": "3273 PALMDALE ROAD TAKALARUP 6324",
    "locID": "LOC000079086632",
    "tech": "NULL",
    "upgrade": "NULL_NA",
    "gnaf_pid": "GAWA_162267860",
    "tech_change_status": "Not Planned"
   }
  },
  {
   "type": "Feature",
   "geometry": {
    "type": "Point",
    "coordinates": [
     118.08554501,
     -34.57319276
    ]
   },
   "properties": {
    "name": "3707 PALMDALE ROAD TAKALARUP 6324",
    "locID": "LOC000090692515",
    "tech": "NULL",
    "upgrade": "NULL_NA",
    "gnaf_pid": "GAWA_162267861",
    "tech_change_status": "Not Planned"
   }
  },
  {
   "type": "Feature",
   "geometry": {
    "type": "Point",
    "coordinates": [
     118.19493,
     -34.595577
    ]
   },
   "properties": {
    "name": "2597 PFEIFFER ROAD TAKALARUP 6324",
    "locID": "LOC000142462229",
    "tech": "SATELLITE",
    "upgrade": "NULL_NA",
    "gnaf_pid": "GAWA_162268133",
    "tech_change_status": "Not Planned"
   }
  },
  {
   "type": "Feature",
   "geometry": {
    "type": "Point",
    "coordinates": [
     118.132369,
     -34.594618
    ]
   },
   "properties": {
    "name": "166 STIRLING SCHOOL ROAD TAKALARUP 6324",
    "locID": "LOC000097180846",
    "tech": "SATELLITE",
    "upgrade": "NULL_NA",
    "gnaf_pid": "GAWA_162270042",
    "tech_change_status": "Not Planned"
   }
  },
  {
   "type": "Feature",
   "geometry": {
    "type": "Point",
    "coordinates": [
     118.156273,
     -34.566088
    ]
   },
   "properties": {
    "name": "315 STIRLING SCHOOL ROAD TAKALARUP 6324",
    "locID": "LOC000085300113",
    "tech": "SATELLITE",
    "upgrade": "NULL_NA",
    "gnaf_pid": "GAWA_162270043",
    "tech_change_status": "Not Planned"
   }
  },
  {
   "type": "Feature",
   "geometry": {
    "type": "Point",
    "coordinates": [
     118.1647,
     -34.595831
    ]
   },
   "properties": {
    "name": "478 STIRLING SCHOOL ROAD TAKALARUP 6324",
    "locID": "LOC000008731335",
    "tech": "NULL",
    "upgrade": "NULL_NA",
    "gnaf_pid": "GAWA_162270044",
    "tech_change_status": "Not Planned"
   }
  },
  {
   "type": "Feature",
   "geometry": {
    "type": "Point",
    "coordinates": [
     118.013377,
     -34.583516
    ]
   },
   "properties": {
    "name": "137 SYRED ROAD TAKALARUP 6324",
    "locID": "LOC000014620116",
    "tech": "NULL",
    "upgrade": "NULL_NA",
    "gnaf_pid": "GAWA_162270250",
    "tech_change_status": "Not Planned"
   }
  },
  {
   "type": "Feature",
   "geometry": {
    "type": "Point",
    "coordinates": [
     118.010931,
     -34.595677
    ]
   },
   "properties": {
    "name": "228 SYRED ROAD TAKALARUP 6324",
    "locID": "LOC000069116305",
    "tech": "NULL",
    "upgrade": "NULL_NA",
    "gnaf_pid": "GAWA_162270251",
    "tech_change_status": "Not Planned"
   }
  },
  {
   "type": "Feature",
   "geometry": {
    "type": "Point",
    "coordinates": [
     118.068766,
     -34.601995
    ]
   },
   "properties": {
    "name": "949 SYRED ROAD TAKALARUP 6324",
    "locID": "LOC000011990973",
    "tech": "SATELLITE",
    "upgrade": "NULL_NA",
    "gnaf_pid": "GAWA_162270253",
    "tech_change_status": "Not Planned"
   }
  },
  {
   "type": "Feature",
   "geometry": {
    "type": "Point",
    "coordinates": [
     118.01854071,
     -34.63209337
    ]
   },
   "properties": {
    "name": "1147 TAKALARUP ROAD TAKALARUP 6324",
    "locID": "LOC000103880949",
    "tech": "SATELLITE",
    "upgrade": "NULL_NA",
    "gnaf_pid": "GAWA_162270259",
    "tech_change_status": "Not Planned"
   }
  },
  {
   "type": "Feature",
   "geometry": {
    "type": "Point",
    "coordinates": [
     117.974981,
     -34.681288
    ]
   },
   "properties": {
    "name": "139 TAKALARUP ROAD TAKALARUP 6324",
    "locID": "LOC000086224065",
    "tech": "NULL",
    "upgrade": "NULL_NA",
    "gnaf_pid": "GAWA_162270260",
    "tech_change_status": "Not Planned"
   }
  },
  {
   "type": "Feature",
   "geometry": {
    "type": "Point",
    "coordinates": [
     117.988713,
     -34.67379
    ]
   },
   "properties": {
    "name": "503 TAKALARUP ROAD TAKALARUP 6324",
    "locID": "LOC000011424882",
    "tech": "NULL",
    "upgrade": "NULL_NA",
    "gnaf_pid": "GAWA_162270261",
    "tech_change_status": "Not Planned"
   }
  },
  {
   "type": "Feature",
   "geometry": {
    "type": "Point",
    "coordinates": [
     117.989653,
     -34.653205
    ]
   },
   "properties": {
    "name": "607 TAKALARUP ROAD TAKALARUP 6324",
    "locID": "LOC000089814387",
    "tech": "NULL",
    "upgrade": "NULL_NA",
    "gnaf_pid": "GAWA_162270262",
    "tech_change_status": "Not Planned"
   }
  },
  {
   "type": "Feature",
   "geometry": {
    "type": "Point",
    "coordinates": [
     118.01787637,
     -34.65062676
    ]
   },
   "properties": {
    "name": "891 TAKALARUP ROAD TAKALARUP 6324",
    "locID": "LOC000031478773",
    "tech": "NULL",
    "upgrade": "NULL_NA",
    "gnaf_pid": "GAWA_162270263",
    "tech_change_status": "Not Planned"
   }
  },
  {
   "type": "Feature",
   "geometry": {
    "type": "Point",
    "coordinates": [
     117.953279,
     -34.668364
    ]
   },
   "properties": {
    "name": "4028 CHESTER PASS ROAD TAKALARUP 6324",
    "locID": "LOC000020358026",
    "tech": "SATELLITE",
    "upgrade": "NULL_NA",
    "gnaf_pid": "GAWA_162276442",
    "tech_change_status": "Not Planned"
   }
  },
  {
   "type": "Feature",
   "geometry": {
    "type": "Point",
    "coordinates": [
     117.957986,
     -34.674539
    ]
   },
   "properties": {
    "name": "4038 CHESTER PASS ROAD TAKALARUP 6324",
    "locID": "LOC000004762141",
    "tech": "SATELLITE",
    "upgrade": "NULL_NA",
    "gnaf_pid": "GAWA_162276443",
    "tech_change_status": "Not Planned"
   }
  },
  {
   "type": "Feature",
   "geometry": {
    "type": "Point",
    "coordinates": [
     117.99608,
     -34.584269
    ]
   },
   "properties": {
    "name": "5054 CHESTER PASS ROAD TAKALARUP 6324",
    "locID": "LOC000090538009",
    "tech": "SATELLITE",
    "upgrade": "NULL_NA",
    "gnaf_pid": "GAWA_162276444",
    "tech_change_status": "Not Planned"
   }
  },
  {
   "type": "Feature",
   "geometry": {
    "type": "Point",
    "coordinates": [
     118.04421576,
     -34.53204838
    ]
   },
   "properties": {
    "name": "5780 CHESTER PASS ROAD TAKALARUP 6324",
    "locID": "LOC000108040177",
    "tech": "NULL",
    "upgrade": "NULL_NA",
    "gnaf_pid": "GAWA_162276445",
    "tech_change_status": "Not Planned"
   }
  },
  {
   "type": "Feature",
   "geometry": {
    "type": "Point",
    "coordinates": [
     118.18713296,
     -34.49929872
    ]
   },
   "properties": {
    "name": "1693 CHILLINUP ROAD TAKALARUP 6324",
    "locID": "LOC000028737229",
    "tech": "NULL",
    "upgrade": "NULL_NA",
    "gnaf_pid": "GAWA_162276449",
    "tech_change_status": "Not Planned"
   }
  },
  {
   "type": "Feature",
   "geometry": {
    "type": "Point",
    "coordinates": [
     118.04421576,
     -34.53204838
    ]
   },
   "properties": {
    "name": "215 CHILLINUP ROAD TAKALARUP 6324",
    "locID": "LOC000018687362",
    "tech": "NULL",
    "upgrade": "NULL_NA",
    "gnaf_pid": "GAWA_162276450",
    "tech_change_status": "Not Planned"
   }
  },
  {
   "type": "Feature",
   "geometry": {
    "type": "Point",
    "coordinates": [
     118.10191443,
     -34.65086882
    ]
   },
   "properties": {
    "name": "2714 PALMDALE ROAD TAKALARUP 6324",
    "locID": "LOC000006486627",
    "tech": "SATELLITE",
    "upgrade": "NULL_NA",
    "gnaf_pid": "GAWA_162278844",
    "tech_change_status": "Not Planned"
   }
  },
  {
   "type": "Feature",
   "geometry": {
    "type": "Point",
    "coordinates": [
     118.03678356,
     -34.59460508
    ]
   },
   "properties": {
    "name": "599 SYRED ROAD TAKALARUP 6324",
    "locID": "LOC000067765446",
    "tech": "SATELLITE",
    "upgrade": "NULL_NA",
    "gnaf_pid": "GAWA_162279702",
    "tech_change_status": "Not Planned"
   }
  },
  {
   "type": "Feature",
   "geometry": {
    "type": "Point",
    "coordinates": [
     118.050457,
     -34.625786
    ]
   },
   "properties": {
    "name": "1258 TAKALARUP ROAD TAKALARUP 6324",
    "locID": "LOC000005664213",
    "tech": "SATELLITE",
    "upgrade": "NULL_NA",
    "gnaf_pid": "GAWA_162279703",
    "tech_change_status": "Not Planned"
   }
  },
  {
   "type": "Feature",
   "geometry": {
    "type": "Point",
    "coordinates": [
     118.053971,
     -34.622367
    ]
   },
   "properties": {
    "name": "1304 TAKALARUP ROAD TAKALARUP 6324",
    "locID": "LOC000002153697",
    "tech": "SATELLITE",
    "upgrade": "NULL_NA",
    "gnaf_pid": "GAWA_162279704",
    "tech_change_status": "Not Planned"
   }
  },
  {
   "type": "Feature",
   "geometry": {
    "type": "Point",
    "coordinates": [
     117.96537013,
     -34.65957862
    ]
   },
   "properties": {
    "name": "4184 CHESTER PASS ROAD TAKALARUP 6324",
    "locID": "LOC000082447785",
    "tech": "SATELLITE",
    "upgrade": "NULL_NA",
    "gnaf_pid": "GAWA_162638640",
    "tech_change_status": "Not Planned"
   }
  },
  {
   "type": "Feature",
   "geometry": {
    "type": "Point",
    "coordinates": [
     118.06042245,
     -34.62620796
    ]
   },
   "properties": {
    "name": "116 PETTIT RISE TAKALARUP 6324",
    "locID": "LOC000051772731",
    "tech": "SATELLITE",
    "upgrade": "NULL_NA",
    "gnaf_pid": "GAWA_163006899",
    "tech_change_status": "Not Planned"
   }
  },
  {
   "type": "Feature",
   "geometry": {
    "type": "Point",
    "coordinates": [
     117.95549107,
     -34.66309686
    ]
   },
   "properties": {
    "name": "4094 CHESTER PASS ROAD TAKALARUP 6324",
    "locID": "LOC000148384814",
    "tech": "SATELLITE",
    "upgrade": "NULL_NA",
    "gnaf_pid": "GAWA_718713635",
    "tech_change_status": "Not Planned"
   }
  },
  {
   "type": "Feature",
   "geometry": {
    "type": "Point",
    "coordinates": [
     118.05376581,
     -34.625167
    ]
   },
   "properties": {
    "name": "22 PETTIT RISE TAKALARUP 6324",
    "locID": "LOC000109607123",
    "tech": "SATELLITE",
    "upgrade": "NULL_NA",
    "gnaf_pid": "GAWA_718717288",
    "tech_change_status": "Not Planned"
   }
  },
  {
   "type": "Feature",
   "geometry": {
    "type": "Point",
    "coordinates": [
     118.06536374,
     -34.62576346
    ]
   },
   "properties": {
    "name": "149 PETTIT RISE TAKALARUP 6324",
    "locID": "LOC100072002929",
    "tech": "NULL",
    "upgrade": "NULL_NA",
    "gnaf_pid": "GAWA_719041240",
    "tech_change_status": "Not Planned"
   }
  },
  {
   "type": "Feature",
   "geometry": {
    "type": "Point",
    "coordinates": [
     117.95844915,
     -34.65948414
    ]
   },
   "properties": {
    "name": "4186 CHESTER PASS ROAD TAKALARUP 6324",
    "locID": "LOC000163541958",
    "tech": "SATELLITE",
    "upgrade": "NULL_NA",
    "gnaf_pid": "GAWA_719148171",
    "tech_change_status": "Not Planned"
   }
  }
 ]
}