{
 "type": "FeatureCollection",
 "generated": "2026-04-21T12:17:35.361251",
 "suburb": "TEESDALE",
 "features": [
  {
   "type": "Feature",
   "geometry": {
    "type": "Point",
    "coordinates": [
     116.01059,
     -32.73267
    ]
   },
   "properties": {
    "name": "128 FARLEY ROAD TEESDALE 6213",
    "locID": "LOC000033787342",
    "tech": "NULL",
    "upgrade": "NULL_NA",
    "gnaf_pid": "GAWA_160915188",
    "tech_change_status": "Not Planned"
   }
  },
  {
   "type": "Feature",
   "geometry": {
    "type": "Point",
    "coordinates": [
     116.01095,
     -32.72729
    ]
   },
   "properties": {
    "name": "84 FARLEY ROAD TEESDALE 6213",
    "locID": "LOC000042528837",
    "tech": "SATELLITE",
    "upgrade": "NULL_NA",
    "gnaf_pid": "GAWA_160915189",
    "tech_change_status": "Not Planned"
   }
  },
  {
   "type": "Feature",
   "geometry": {
    "type": "Point",
    "coordinates": [
     116.01605,
     -32.71375
    ]
   },
   "properties": {
    "name": "8 IRWIN ROAD TEESDALE 6213",
    "locID": "LOC000060063053",
    "tech": "WIRELESS",
    "upgrade": "NULL_NA",
    "gnaf_pid": "GAWA_160916487",
    "tech_change_status": "Not Planned"
   }
  },
  {
   "type": "Feature",
   "geometry": {
    "type": "Point",
    "coordinates": [
     116.02138,
     -32.71138
    ]
   },
   "properties": {
    "name": "11 MARRINUP ROAD TEESDALE 6213",
    "locID": "LOC000132868694",
    "tech": "WIRELESS",
    "upgrade": "NULL_NA",
    "gnaf_pid": "GAWA_160917442",
    "tech_change_status": "Not Planned"
   }
  },
  {
   "type": "Feature",
   "geometry": {
    "type": "Point",
    "coordinates": [
     115.98943,
     -32.7042
    ]
   },
   "properties": {
    "name": "1561 PINJARRA-WILLIAMS ROAD TEESDALE 6213",
    "locID": "LOC000084279222",
    "tech": "WIRELESS",
    "upgrade": "NULL_NA",
    "gnaf_pid": "GAWA_160918837",
    "tech_change_status": "Not Planned"
   }
  },
  {
   "type": "Feature",
   "geometry": {
    "type": "Point",
    "coordinates": [
     115.99331,
     -32.70847
    ]
   },
   "properties": {
    "name": "1602 PINJARRA-WILLIAMS ROAD TEESDALE 6213",
    "locID": "LOC000071853620",
    "tech": "WIRELESS",
    "upgrade": "NULL_NA",
    "gnaf_pid": "GAWA_160918838",
    "tech_change_status": "Not Planned"
   }
  },
  {
   "type": "Feature",
   "geometry": {
    "type": "Point",
    "coordinates": [
     116.00489383,
     -32.71124362
    ]
   },
   "properties": {
    "name": "1717 PINJARRA-WILLIAMS ROAD TEESDALE 6213",
    "locID": "LOC000105385426",
    "tech": "WIRELESS",
    "upgrade": "NULL_NA",
    "gnaf_pid": "GAWA_160918839",
    "tech_change_status": "Not Planned"
   }
  },
  {
   "type": "Feature",
   "geometry": {
    "type": "Point",
    "coordinates": [
     116.01059,
     -32.72903
    ]
   },
   "properties": {
    "name": "108 FARLEY ROAD TEESDALE 6213",
    "locID": "LOC000058030088",
    "tech": "NULL",
    "upgrade": "NULL_NA",
    "gnaf_pid": "GAWA_160927229",
    "tech_change_status": "Not Planned"
   }
  },
  {
   "type": "Feature",
   "geometry": {
    "type": "Point",
    "coordinates": [
     116.00737,
     -32.73784
    ]
   },
   "properties": {
    "name": "224 FARLEY ROAD TEESDALE 6213",
    "locID": "LOC000094372507",
    "tech": "SATELLITE",
    "upgrade": "NULL_NA",
    "gnaf_pid": "GAWA_160927230",
    "tech_change_status": "Not Planned"
   }
  },
  {
   "type": "Feature",
   "geometry": {
    "type": "Point",
    "coordinates": [
     115.98726,
     -32.70789
    ]
   },
   "properties": {
    "name": "1578 PINJARRA-WILLIAMS ROAD TEESDALE 6213",
    "locID": "LOC000058163620",
    "tech": "WIRELESS",
    "upgrade": "NULL_NA",
    "gnaf_pid": "GAWA_160929463",
    "tech_change_status": "Not Planned"
   }
  },
  {
   "type": "Feature",
   "geometry": {
    "type": "Point",
    "coordinates": [
     116.00408,
     -32.71533
    ]
   },
   "properties": {
    "name": "1720 PINJARRA-WILLIAMS ROAD TEESDALE 6213",
    "locID": "LOC000086619116",
    "tech": "WIRELESS",
    "upgrade": "NULL_NA",
    "gnaf_pid": "GAWA_160929464",
    "tech_change_status": "Not Planned"
   }
  },
  {
   "type": "Feature",
   "geometry": {
    "type": "Point",
    "coordinates": [
     116.01000857,
     -32.71468276
    ]
   },
   "properties": {
    "name": "1811 PINJARRA-WILLIAMS ROAD TEESDALE 6213",
    "locID": "LOC000031977654",
    "tech": "WIRELESS",
    "upgrade": "NULL_NA",
    "gnaf_pid": "GAWA_160929465",
    "tech_change_status": "Not Planned",
    "program_type": "Fixed Wireless and Satellite Upgrade Program",
    "target_eligibility_quarter": "NA"
   }
  },
  {
   "type": "Feature",
   "geometry": {
    "type": "Point",
    "coordinates": [
     116.01180286,
     -32.72496408
    ]
   },
   "properties": {
    "name": "55 HELIO ROAD TEESDALE 6213",
    "locID": "LOC000093054721",
    "tech": "NULL",
    "upgrade": "NULL_NA",
    "gnaf_pid": "GAWA_161030089",
    "tech_change_status": "Not Planned"
   }
  },
  {
   "type": "Feature",
   "geometry": {
    "type": "Point",
    "coordinates": [
     115.9994,
     -32.71415
    ]
   },
   "properties": {
    "name": "5257 SCARP ROAD TEESDALE 6213",
    "locID": "LOC000006202557",
    "tech": "WIRELESS",
    "upgrade": "NULL_NA",
    "gnaf_pid": "GAWA_161032618",
    "tech_change_status": "Not Planned",
    "program_type": "Fixed Wireless and Satellite Upgrade Program",
    "target_eligibility_quarter": "NA"
   }
  },
  {
   "type": "Feature",
   "geometry": {
    "type": "Point",
    "coordinates": [
     116.03144646,
     -32.7519091
    ]
   },
   "properties": {
    "name": "17 TEESDALE ROAD TEESDALE 6213",
    "locID": "LOC000105385426",
    "tech": "WIRELESS",
    "upgrade": "NULL_NA",
    "gnaf_pid": "GAWA_161041660",
    "tech_change_status": "Not Planned"
   }
  },
  {
   "type": "Feature",
   "geometry": {
    "type": "Point",
    "coordinates": [
     116.009103,
     -32.711325
    ]
   },
   "properties": {
    "name": "99 IRWIN ROAD TEESDALE 6213",
    "locID": "LOC000031501806",
    "tech": "WIRELESS",
    "upgrade": "NULL_NA",
    "gnaf_pid": "GAWA_161483627",
    "tech_change_status": "Not Planned",
    "program_type": "Fixed Wireless and Satellite Upgrade Program",
    "target_eligibility_quarter": "NA"
   }
  },
  {
   "type": "Feature",
   "geometry": {
    "type": "Point",
    "coordinates": [
     116.013365,
     -32.71037
    ]
   },
   "properties": {
    "name": "101 IRWIN ROAD TEESDALE 6213",
    "locID": "LOC000040142473",
    "tech": "WIRELESS",
    "upgrade": "NULL_NA",
    "gnaf_pid": "GAWA_162391252",
    "tech_change_status": "Not Planned",
    "program_type": "Fixed Wireless and Satellite Upgrade Program",
    "target_eligibility_quarter": "NA"
   }
  },
  {
   "type": "Feature",
   "geometry": {
    "type": "Point",
    "coordinates": [
     115.995087,
     -32.704215
    ]
   },
   "properties": {
    "name": "5180 SCARP ROAD TEESDALE 6213",
    "locID": "LOC000060280660",
    "tech": "WIRELESS",
    "upgrade": "NULL_NA",
    "gnaf_pid": "GAWA_162392704",
    "tech_change_status": "Not Planned"
   }
  },
  {
   "type": "Feature",
   "geometry": {
    "type": "Point",
    "coordinates": [
     116.03822533,
     -32.75533818
    ]
   },
   "properties": {
    "name": "384 TEESDALE ROAD TEESDALE 6213",
    "locID": "LOC000152797018",
    "tech": "WIRELESS",
    "upgrade": "NULL_NA",
    "gnaf_pid": "GAWA_718300368",
    "tech_change_status": "Not Planned"
   }
  },
  {
   "type": "Feature",
   "geometry": {
    "type": "Point",
    "coordinates": [
     116.01462455,
     -32.74435455
    ]
   },
   "properties": {
    "name": "261 FARLEY ROAD TEESDALE 6213",
    "locID": "LOC100078072544",
    "tech": "NULL",
    "upgrade": "NULL_NA",
    "gnaf_pid": "GAWA_720360521",
    "tech_change_status": "Not Planned"
   }
  }
 ]
}