{
 "type": "FeatureCollection",
 "generated": "2026-06-25T14:43:09.041044",
 "suburb": "TENTERDEN",
 "features": [
  {
   "type": "Feature",
   "geometry": {
    "type": "Point",
    "coordinates": [
     117.5557274,
     -34.36379902
    ]
   },
   "properties": {
    "name": "43 TRIMMER STREET TENTERDEN 6322",
    "locID": "LOC000007875459",
    "tech": "WIRELESS",
    "upgrade": "NULL_NA",
    "gnaf_pid": "GAWA_146982304",
    "tech_change_status": "Not Planned",
    "program_type": "Fixed Wireless and Satellite Upgrade Program",
    "target_eligibility_quarter": "NA"
   }
  },
  {
   "type": "Feature",
   "geometry": {
    "type": "Point",
    "coordinates": [
     117.55496049,
     -34.36303073
    ]
   },
   "properties": {
    "name": "47 TRIMMER STREET TENTERDEN 6322",
    "locID": "LOC000065429455",
    "tech": "WIRELESS",
    "upgrade": "NULL_NA",
    "gnaf_pid": "GAWA_146993076",
    "tech_change_status": "Not Planned",
    "program_type": "Fixed Wireless and Satellite Upgrade Program",
    "target_eligibility_quarter": "NA"
   }
  },
  {
   "type": "Feature",
   "geometry": {
    "type": "Point",
    "coordinates": [
     117.56101857,
     -34.36817961
    ]
   },
   "properties": {
    "name": "48 CLIMIE STREET TENTERDEN 6322",
    "locID": "LOC000043474516",
    "tech": "WIRELESS",
    "upgrade": "NULL_NA",
    "gnaf_pid": "GAWA_147345669",
    "tech_change_status": "Not Planned",
    "program_type": "Fixed Wireless and Satellite Upgrade Program",
    "target_eligibility_quarter": "NA"
   }
  },
  {
   "type": "Feature",
   "geometry": {
    "type": "Point",
    "coordinates": [
     117.55130247,
     -34.36343346
    ]
   },
   "properties": {
    "name": "155 FENWICK STREET TENTERDEN 6322",
    "locID": "LOC000090336169",
    "tech": "WIRELESS",
    "upgrade": "NULL_NA",
    "gnaf_pid": "GAWA_147345674",
    "tech_change_status": "Not Planned",
    "program_type": "Fixed Wireless and Satellite Upgrade Program",
    "target_eligibility_quarter": "NA"
   }
  },
  {
   "type": "Feature",
   "geometry": {
    "type": "Point",
    "coordinates": [
     117.55887633,
     -34.37038255
    ]
   },
   "properties": {
    "name": "82 CLIMIE STREET TENTERDEN 6322",
    "locID": "LOC000014655766",
    "tech": "WIRELESS",
    "upgrade": "NULL_NA",
    "gnaf_pid": "GAWA_147347372",
    "tech_change_status": "Not Planned",
    "program_type": "Fixed Wireless and Satellite Upgrade Program",
    "target_eligibility_quarter": "NA"
   }
  },
  {
   "type": "Feature",
   "geometry": {
    "type": "Point",
    "coordinates": [
     117.55300283,
     -34.36249126
    ]
   },
   "properties": {
    "name": "56 FENWICK STREET TENTERDEN 6322",
    "locID": "LOC000108856296",
    "tech": "WIRELESS",
    "upgrade": "NULL_NA",
    "gnaf_pid": "GAWA_147347375",
    "tech_change_status": "Not Planned",
    "program_type": "Fixed Wireless and Satellite Upgrade Program",
    "target_eligibility_quarter": "NA"
   }
  },
  {
   "type": "Feature",
   "geometry": {
    "type": "Point",
    "coordinates": [
     117.56093062,
     -34.36896923
    ]
   },
   "properties": {
    "name": "70 CLIMIE STREET TENTERDEN 6322",
    "locID": "LOC100077367914",
    "tech": "WIRELESS",
    "upgrade": "NULL_NA",
    "gnaf_pid": "GAWA_147350427",
    "tech_change_status": "Not Planned",
    "program_type": "Fixed Wireless and Satellite Upgrade Program",
    "target_eligibility_quarter": "NA"
   }
  },
  {
   "type": "Feature",
   "geometry": {
    "type": "Point",
    "coordinates": [
     117.55865558,
     -34.36673265
    ]
   },
   "properties": {
    "name": "63 TRIMMER STREET TENTERDEN 6322",
    "locID": "LOC000072226375",
    "tech": "WIRELESS",
    "upgrade": "NULL_NA",
    "gnaf_pid": "GAWA_147355614",
    "tech_change_status": "Not Planned",
    "program_type": "Fixed Wireless and Satellite Upgrade Program",
    "target_eligibility_quarter": "NA"
   }
  },
  {
   "type": "Feature",
   "geometry": {
    "type": "Point",
    "coordinates": [
     117.55356054,
     -34.36305009
    ]
   },
   "properties": {
    "name": "52 FENWICK STREET TENTERDEN 6322",
    "locID": "LOC000178203540",
    "tech": "WIRELESS",
    "upgrade": "NULL_NA",
    "gnaf_pid": "GAWA_147355616",
    "tech_change_status": "Not Planned",
    "program_type": "Fixed Wireless and Satellite Upgrade Program",
    "target_eligibility_quarter": "NA"
   }
  },
  {
   "type": "Feature",
   "geometry": {
    "type": "Point",
    "coordinates": [
     117.56411712,
     -34.36992892
    ]
   },
   "properties": {
    "name": "12 TRIMMER STREET TENTERDEN 6322",
    "locID": "LOC000077878656",
    "tech": "WIRELESS",
    "upgrade": "NULL_NA",
    "gnaf_pid": "GAWA_147361723"
   }
  },
  {
   "type": "Feature",
   "geometry": {
    "type": "Point",
    "coordinates": [
     117.55344478,
     -34.36137424
    ]
   },
   "properties": {
    "name": "123 TRIMMER STREET TENTERDEN 6322",
    "locID": "LOC000077878656",
    "tech": "WIRELESS",
    "upgrade": "NULL_NA",
    "gnaf_pid": "GAWA_147380762"
   }
  },
  {
   "type": "Feature",
   "geometry": {
    "type": "Point",
    "coordinates": [
     117.56641646,
     -34.36569033
    ]
   },
   "properties": {
    "name": "32 LUNT ROAD TENTERDEN 6322",
    "locID": "LOC000103315719",
    "tech": "WIRELESS",
    "upgrade": "NULL_NA",
    "gnaf_pid": "GAWA_147384823",
    "tech_change_status": "Not Planned",
    "program_type": "Fixed Wireless and Satellite Upgrade Program",
    "target_eligibility_quarter": "NA"
   }
  },
  {
   "type": "Feature",
   "geometry": {
    "type": "Point",
    "coordinates": [
     117.56905155,
     -34.36584204
    ]
   },
   "properties": {
    "name": "46 LUNT ROAD TENTERDEN 6322",
    "locID": "LOC000019537908",
    "tech": "WIRELESS",
    "upgrade": "NULL_NA",
    "gnaf_pid": "GAWA_147384824",
    "tech_change_status": "Not Planned",
    "program_type": "Fixed Wireless and Satellite Upgrade Program",
    "target_eligibility_quarter": "NA"
   }
  },
  {
   "type": "Feature",
   "geometry": {
    "type": "Point",
    "coordinates": [
     117.61491987,
     -34.38213288
    ]
   },
   "properties": {
    "name": "LOT 12 CHINNINUP ROAD TENTERDEN 6322",
    "locID": "LOC000072878498",
    "tech": "WIRELESS",
    "upgrade": "NULL_NA",
    "gnaf_pid": "GAWA_148294911",
    "tech_change_status": "Not Planned",
    "program_type": "Fixed Wireless and Satellite Upgrade Program",
    "target_eligibility_quarter": "NA"
   }
  },
  {
   "type": "Feature",
   "geometry": {
    "type": "Point",
    "coordinates": [
     117.55694204,
     -34.37155749
    ]
   },
   "properties": {
    "name": "32 CLIMIE STREET TENTERDEN 6322",
    "locID": "LOC000012949108",
    "tech": "WIRELESS",
    "upgrade": "NULL_NA",
    "gnaf_pid": "GAWA_149067721",
    "tech_change_status": "Not Planned",
    "program_type": "Fixed Wireless and Satellite Upgrade Program",
    "target_eligibility_quarter": "NA"
   }
  },
  {
   "type": "Feature",
   "geometry": {
    "type": "Point",
    "coordinates": [
     117.54705966,
     -34.35492486
    ]
   },
   "properties": {
    "name": "83 TRIMMER STREET TENTERDEN 6322",
    "locID": "LOC000072226375",
    "tech": "WIRELESS",
    "upgrade": "NULL_NA",
    "gnaf_pid": "GAWA_149067736",
    "tech_change_status": "Not Planned",
    "program_type": "Fixed Wireless and Satellite Upgrade Program",
    "target_eligibility_quarter": "NA"
   }
  },
  {
   "type": "Feature",
   "geometry": {
    "type": "Point",
    "coordinates": [
     117.29031,
     -34.45002
    ]
   },
   "properties": {
    "name": "LOT 1 LAKELANDS ROAD TENTERDEN 6322",
    "locID": "LOC000142820654",
    "tech": "SATELLITE",
    "upgrade": "NULL_NA",
    "gnaf_pid": "GAWA_161558423",
    "tech_change_status": "Not Planned"
   }
  },
  {
   "type": "Feature",
   "geometry": {
    "type": "Point",
    "coordinates": [
     117.55661811,
     -34.36703197
    ]
   },
   "properties": {
    "name": "12 FENWICK STREET TENTERDEN 6322",
    "locID": "LOC000046560587",
    "tech": "WIRELESS",
    "upgrade": "NULL_NA",
    "gnaf_pid": "GAWA_161600651",
    "tech_change_status": "Not Planned",
    "program_type": "Fixed Wireless and Satellite Upgrade Program",
    "target_eligibility_quarter": "NA"
   }
  },
  {
   "type": "Feature",
   "geometry": {
    "type": "Point",
    "coordinates": [
     117.36615612,
     -34.41134861
    ]
   },
   "properties": {
    "name": "LOT 5 PARSONS ROAD TENTERDEN 6322",
    "locID": "LOC000108533056",
    "tech": "WIRELESS",
    "upgrade": "NULL_NA",
    "gnaf_pid": "GAWA_162802009",
    "tech_change_status": "Not Planned",
    "program_type": "Fixed Wireless and Satellite Upgrade Program",
    "target_eligibility_quarter": "NA"
   }
  },
  {
   "type": "Feature",
   "geometry": {
    "type": "Point",
    "coordinates": [
     117.54725078,
     -34.36821177
    ]
   },
   "properties": {
    "name": "LOT 15 ALBANY HIGHWAY TENTERDEN 6322",
    "locID": "LOC000043481844",
    "tech": "WIRELESS",
    "upgrade": "NULL_NA",
    "gnaf_pid": "GAWA_162816671",
    "tech_change_status": "Not Planned",
    "program_type": "Fixed Wireless and Satellite Upgrade Program",
    "target_eligibility_quarter": "NA"
   }
  },
  {
   "type": "Feature",
   "geometry": {
    "type": "Point",
    "coordinates": [
     117.54944146,
     -34.36856645
    ]
   },
   "properties": {
    "name": "LOT 28 ALBANY HIGHWAY TENTERDEN 6322",
    "locID": "LOC000043481844",
    "tech": "WIRELESS",
    "upgrade": "NULL_NA",
    "gnaf_pid": "GAWA_162816672",
    "tech_change_status": "Not Planned",
    "program_type": "Fixed Wireless and Satellite Upgrade Program",
    "target_eligibility_quarter": "NA"
   }
  },
  {
   "type": "Feature",
   "geometry": {
    "type": "Point",
    "coordinates": [
     117.47080975,
     -34.39274531
    ]
   },
   "properties": {
    "name": "704 NUNIJUP ROAD TENTERDEN 6322",
    "locID": "LOC000049887506",
    "tech": "WIRELESS",
    "upgrade": "NULL_NA",
    "gnaf_pid": "GAWA_162874625",
    "tech_change_status": "Not Planned",
    "program_type": "Fixed Wireless and Satellite Upgrade Program",
    "target_eligibility_quarter": "NA"
   }
  },
  {
   "type": "Feature",
   "geometry": {
    "type": "Point",
    "coordinates": [
     117.54355021,
     -34.35476968
    ]
   },
   "properties": {
    "name": "28571 ALBANY HIGHWAY TENTERDEN 6322",
    "locID": "LOC000043481844",
    "tech": "WIRELESS",
    "upgrade": "NULL_NA",
    "gnaf_pid": "GAWA_162875276",
    "tech_change_status": "Not Planned",
    "program_type": "Fixed Wireless and Satellite Upgrade Program",
    "target_eligibility_quarter": "NA"
   }
  },
  {
   "type": "Feature",
   "geometry": {
    "type": "Point",
    "coordinates": [
     117.54077974,
     -34.35814475
    ]
   },
   "properties": {
    "name": "28596 ALBANY HIGHWAY TENTERDEN 6322",
    "locID": "LOC000029567505",
    "tech": "WIRELESS",
    "upgrade": "NULL_NA",
    "gnaf_pid": "GAWA_162875277",
    "tech_change_status": "Not Planned",
    "program_type": "Fixed Wireless and Satellite Upgrade Program",
    "target_eligibility_quarter": "NA"
   }
  },
  {
   "type": "Feature",
   "geometry": {
    "type": "Point",
    "coordinates": [
     117.54737244,
     -34.35870875
    ]
   },
   "properties": {
    "name": "28619 ALBANY HIGHWAY TENTERDEN 6322",
    "locID": "LOC000071666513",
    "tech": "WIRELESS",
    "upgrade": "NULL_NA",
    "gnaf_pid": "GAWA_162875278",
    "tech_change_status": "Not Planned",
    "program_type": "Fixed Wireless and Satellite Upgrade Program",
    "target_eligibility_quarter": "NA"
   }
  },
  {
   "type": "Feature",
   "geometry": {
    "type": "Point",
    "coordinates": [
     117.54645336,
     -34.38184944
    ]
   },
   "properties": {
    "name": "28864 ALBANY HIGHWAY TENTERDEN 6322",
    "locID": "LOC000022750368",
    "tech": "WIRELESS",
    "upgrade": "NULL_NA",
    "gnaf_pid": "GAWA_162875279",
    "tech_change_status": "Not Planned",
    "program_type": "Fixed Wireless and Satellite Upgrade Program",
    "target_eligibility_quarter": "NA"
   }
  },
  {
   "type": "Feature",
   "geometry": {
    "type": "Point",
    "coordinates": [
     117.55800044,
     -34.38317706
    ]
   },
   "properties": {
    "name": "28895 ALBANY HIGHWAY TENTERDEN 6322",
    "locID": "LOC000095522560",
    "tech": "WIRELESS",
    "upgrade": "NULL_NA",
    "gnaf_pid": "GAWA_162875280",
    "tech_change_status": "Not Planned",
    "program_type": "Fixed Wireless and Satellite Upgrade Program",
    "target_eligibility_quarter": "NA"
   }
  },
  {
   "type": "Feature",
   "geometry": {
    "type": "Point",
    "coordinates": [
     117.55108139,
     -34.39683979
    ]
   },
   "properties": {
    "name": "29030 ALBANY HIGHWAY TENTERDEN 6322",
    "locID": "LOC000007907005",
    "tech": "WIRELESS",
    "upgrade": "NULL_NA",
    "gnaf_pid": "GAWA_162875281",
    "tech_change_status": "Not Planned",
    "program_type": "Fixed Wireless and Satellite Upgrade Program",
    "target_eligibility_quarter": "NA"
   }
  },
  {
   "type": "Feature",
   "geometry": {
    "type": "Point",
    "coordinates": [
     117.56742109,
     -34.36650599
    ]
   },
   "properties": {
    "name": "27 ARCHERS ROAD TENTERDEN 6322",
    "locID": "LOC000082363174",
    "tech": "WIRELESS",
    "upgrade": "NULL_NA",
    "gnaf_pid": "GAWA_162875292",
    "tech_change_status": "Not Planned",
    "program_type": "Fixed Wireless and Satellite Upgrade Program",
    "target_eligibility_quarter": "NA"
   }
  },
  {
   "type": "Feature",
   "geometry": {
    "type": "Point",
    "coordinates": [
     117.57949699,
     -34.39040468
    ]
   },
   "properties": {
    "name": "281 ARCHERS ROAD TENTERDEN 6322",
    "locID": "LOC000066090080",
    "tech": "WIRELESS",
    "upgrade": "NULL_NA",
    "gnaf_pid": "GAWA_162875293",
    "tech_change_status": "Not Planned",
    "program_type": "Fixed Wireless and Satellite Upgrade Program",
    "target_eligibility_quarter": "NA"
   }
  },
  {
   "type": "Feature",
   "geometry": {
    "type": "Point",
    "coordinates": [
     117.5824722,
     -34.39675327
    ]
   },
   "properties": {
    "name": "349 ARCHERS ROAD TENTERDEN 6322",
    "locID": "LOC000104119639",
    "tech": "WIRELESS",
    "upgrade": "NULL_NA",
    "gnaf_pid": "GAWA_162875294",
    "tech_change_status": "Not Planned",
    "program_type": "Fixed Wireless and Satellite Upgrade Program",
    "target_eligibility_quarter": "NA"
   }
  },
  {
   "type": "Feature",
   "geometry": {
    "type": "Point",
    "coordinates": [
     117.56805965,
     -34.36723574
    ]
   },
   "properties": {
    "name": "43 ARCHERS ROAD TENTERDEN 6322",
    "locID": "LOC000107465309",
    "tech": "WIRELESS",
    "upgrade": "NULL_NA",
    "gnaf_pid": "GAWA_162875295",
    "tech_change_status": "Not Planned",
    "program_type": "Fixed Wireless and Satellite Upgrade Program",
    "target_eligibility_quarter": "NA"
   }
  },
  {
   "type": "Feature",
   "geometry": {
    "type": "Point",
    "coordinates": [
     117.57821486,
     -34.38320921
    ]
   },
   "properties": {
    "name": "244 CHINNINUP ROAD TENTERDEN 6322",
    "locID": "LOC000072878498",
    "tech": "WIRELESS",
    "upgrade": "NULL_NA",
    "gnaf_pid": "GAWA_162875661",
    "tech_change_status": "Not Planned",
    "program_type": "Fixed Wireless and Satellite Upgrade Program",
    "target_eligibility_quarter": "NA"
   }
  },
  {
   "type": "Feature",
   "geometry": {
    "type": "Point",
    "coordinates": [
     117.23937485,
     -34.36166601
    ]
   },
   "properties": {
    "name": "1442 FRANKLAND-CRANBROOK ROAD TENTERDEN 6322",
    "locID": "LOC000100483725",
    "tech": "NULL",
    "upgrade": "NULL_NA",
    "gnaf_pid": "GAWA_162876059",
    "tech_change_status": "Not Planned"
   }
  },
  {
   "type": "Feature",
   "geometry": {
    "type": "Point",
    "coordinates": [
     117.43459103,
     -34.45645836
    ]
   },
   "properties": {
    "name": "300 GREENVALE ROAD TENTERDEN 6322",
    "locID": "LOC000023680827",
    "tech": "WIRELESS",
    "upgrade": "NULL_NA",
    "gnaf_pid": "GAWA_162876212",
    "tech_change_status": "Eligible to Order",
    "program_type": "Fixed Wireless and Satellite Upgrade Program",
    "target_eligibility_quarter": "NA"
   }
  },
  {
   "type": "Feature",
   "geometry": {
    "type": "Point",
    "coordinates": [
     117.43703373,
     -34.38562621
    ]
   },
   "properties": {
    "name": "500 INVERDON ROAD TENTERDEN 6322",
    "locID": "LOC000084360690",
    "tech": "WIRELESS",
    "upgrade": "NULL_NA",
    "gnaf_pid": "GAWA_162876325",
    "tech_change_status": "Not Planned",
    "program_type": "Fixed Wireless and Satellite Upgrade Program",
    "target_eligibility_quarter": "NA"
   }
  },
  {
   "type": "Feature",
   "geometry": {
    "type": "Point",
    "coordinates": [
     117.40719275,
     -34.35559969
    ]
   },
   "properties": {
    "name": "366 KOONJE ROAD TENTERDEN 6322",
    "locID": "LOC000045566346",
    "tech": "WIRELESS",
    "upgrade": "NULL_NA",
    "gnaf_pid": "GAWA_162876542",
    "tech_change_status": "Not Planned",
    "program_type": "Fixed Wireless and Satellite Upgrade Program",
    "target_eligibility_quarter": "NA"
   }
  },
  {
   "type": "Feature",
   "geometry": {
    "type": "Point",
    "coordinates": [
     117.27788287,
     -34.45537461
    ]
   },
   "properties": {
    "name": "250 LAKELANDS ROAD TENTERDEN 6322",
    "locID": "LOC000042187393",
    "tech": "SATELLITE",
    "upgrade": "NULL_NA",
    "gnaf_pid": "GAWA_162876571",
    "tech_change_status": "Not Planned"
   }
  },
  {
   "type": "Feature",
   "geometry": {
    "type": "Point",
    "coordinates": [
     117.35550496,
     -34.42147333
    ]
   },
   "properties": {
    "name": "48 LAKESIDE ROAD TENTERDEN 6322",
    "locID": "LOC000073902354",
    "tech": "WIRELESS",
    "upgrade": "NULL_NA",
    "gnaf_pid": "GAWA_162876572",
    "tech_change_status": "Not Planned",
    "program_type": "Fixed Wireless and Satellite Upgrade Program",
    "target_eligibility_quarter": "NA"
   }
  },
  {
   "type": "Feature",
   "geometry": {
    "type": "Point",
    "coordinates": [
     117.57759031,
     -34.36146654
    ]
   },
   "properties": {
    "name": "149 LUNT ROAD TENTERDEN 6322",
    "locID": "LOC000070715808",
    "tech": "WIRELESS",
    "upgrade": "NULL_NA",
    "gnaf_pid": "GAWA_162876638",
    "tech_change_status": "Not Planned",
    "program_type": "Fixed Wireless and Satellite Upgrade Program",
    "target_eligibility_quarter": "NA"
   }
  },
  {
   "type": "Feature",
   "geometry": {
    "type": "Point",
    "coordinates": [
     117.58229844,
     -34.35595086
    ]
   },
   "properties": {
    "name": "151 LUNT ROAD TENTERDEN 6322",
    "locID": "LOC000099275699",
    "tech": "WIRELESS",
    "upgrade": "NULL_NA",
    "gnaf_pid": "GAWA_162876639",
    "tech_change_status": "Not Planned",
    "program_type": "Fixed Wireless and Satellite Upgrade Program",
    "target_eligibility_quarter": "NA"
   }
  },
  {
   "type": "Feature",
   "geometry": {
    "type": "Point",
    "coordinates": [
     117.58815129,
     -34.36871182
    ]
   },
   "properties": {
    "name": "182 LUNT ROAD TENTERDEN 6322",
    "locID": "LOC000039960755",
    "tech": "WIRELESS",
    "upgrade": "NULL_NA",
    "gnaf_pid": "GAWA_162876640",
    "tech_change_status": "Not Planned",
    "program_type": "Fixed Wireless and Satellite Upgrade Program",
    "target_eligibility_quarter": "NA"
   }
  },
  {
   "type": "Feature",
   "geometry": {
    "type": "Point",
    "coordinates": [
     117.61591648,
     -34.35640047
    ]
   },
   "properties": {
    "name": "515 LUNT ROAD TENTERDEN 6322",
    "locID": "LOC000057927681",
    "tech": "NULL",
    "upgrade": "NULL_NA",
    "gnaf_pid": "GAWA_162876641",
    "tech_change_status": "Not Planned"
   }
  },
  {
   "type": "Feature",
   "geometry": {
    "type": "Point",
    "coordinates": [
     117.62246381,
     -34.35639112
    ]
   },
   "properties": {
    "name": "517 LUNT ROAD TENTERDEN 6322",
    "locID": "LOC000019012279",
    "tech": "NULL",
    "upgrade": "NULL_NA",
    "gnaf_pid": "GAWA_162876642",
    "tech_change_status": "Not Planned"
   }
  },
  {
   "type": "Feature",
   "geometry": {
    "type": "Point",
    "coordinates": [
     117.6576363,
     -34.35004723
    ]
   },
   "properties": {
    "name": "813 LUNT ROAD TENTERDEN 6322",
    "locID": "LOC000091106538",
    "tech": "SATELLITE",
    "upgrade": "NULL_NA",
    "gnaf_pid": "GAWA_162876643",
    "tech_change_status": "Not Planned"
   }
  },
  {
   "type": "Feature",
   "geometry": {
    "type": "Point",
    "coordinates": [
     117.57932989,
     -34.37664838
    ]
   },
   "properties": {
    "name": "42 LYNDALE ROAD TENTERDEN 6322",
    "locID": "LOC000037602583",
    "tech": "WIRELESS",
    "upgrade": "NULL_NA",
    "gnaf_pid": "GAWA_162876644",
    "tech_change_status": "Not Planned",
    "program_type": "Fixed Wireless and Satellite Upgrade Program",
    "target_eligibility_quarter": "NA"
   }
  },
  {
   "type": "Feature",
   "geometry": {
    "type": "Point",
    "coordinates": [
     117.35933154,
     -34.46308954
    ]
   },
   "properties": {
    "name": "1604 MALLAWILLUP ROAD TENTERDEN 6322",
    "locID": "LOC000069558547",
    "tech": "WIRELESS",
    "upgrade": "NULL_NA",
    "gnaf_pid": "GAWA_162876685",
    "tech_change_status": "Not Planned",
    "program_type": "Fixed Wireless and Satellite Upgrade Program",
    "target_eligibility_quarter": "NA"
   }
  },
  {
   "type": "Feature",
   "geometry": {
    "type": "Point",
    "coordinates": [
     117.45583501,
     -34.4363935
    ]
   },
   "properties": {
    "name": "1251 MARTAGALLUP ROAD TENTERDEN 6322",
    "locID": "LOC000014536902",
    "tech": "WIRELESS",
    "upgrade": "NULL_NA",
    "gnaf_pid": "GAWA_162876710",
    "tech_change_status": "Not Planned",
    "program_type": "Fixed Wireless and Satellite Upgrade Program",
    "target_eligibility_quarter": "NA"
   }
  },
  {
   "type": "Feature",
   "geometry": {
    "type": "Point",
    "coordinates": [
     117.55087833,
     -34.3405111
    ]
   },
   "properties": {
    "name": "77 MOSGIEL ROAD TENTERDEN 6322",
    "locID": "LOC000050046827",
    "tech": "WIRELESS",
    "upgrade": "NULL_NA",
    "gnaf_pid": "GAWA_162876804",
    "tech_change_status": "Not Planned",
    "program_type": "Fixed Wireless and Satellite Upgrade Program",
    "target_eligibility_quarter": "NA"
   }
  },
  {
   "type": "Feature",
   "geometry": {
    "type": "Point",
    "coordinates": [
     117.55087833,
     -34.3405111
    ]
   },
   "properties": {
    "name": "79 MOSGIEL ROAD TENTERDEN 6322",
    "locID": "LOC000086095552",
    "tech": "WIRELESS",
    "upgrade": "NULL_NA",
    "gnaf_pid": "GAWA_162876805",
    "tech_change_status": "Not Planned",
    "program_type": "Fixed Wireless and Satellite Upgrade Program",
    "target_eligibility_quarter": "NA"
   }
  },
  {
   "type": "Feature",
   "geometry": {
    "type": "Point",
    "coordinates": [
     117.53917452,
     -34.34047777
    ]
   },
   "properties": {
    "name": "81 MOSGIEL ROAD TENTERDEN 6322",
    "locID": "LOC000016297492",
    "tech": "WIRELESS",
    "upgrade": "NULL_NA",
    "gnaf_pid": "GAWA_162876806",
    "tech_change_status": "Not Planned",
    "program_type": "Fixed Wireless and Satellite Upgrade Program",
    "target_eligibility_quarter": "NA"
   }
  },
  {
   "type": "Feature",
   "geometry": {
    "type": "Point",
    "coordinates": [
     117.3062397,
     -34.37987711
    ]
   },
   "properties": {
    "name": "196 NUKENNULLUP ROAD TENTERDEN 6322",
    "locID": "LOC000046480850",
    "tech": "SATELLITE",
    "upgrade": "NULL_NA",
    "gnaf_pid": "GAWA_162876952",
    "tech_change_status": "Not Planned"
   }
  },
  {
   "type": "Feature",
   "geometry": {
    "type": "Point",
    "coordinates": [
     117.30550962,
     -34.43223401
    ]
   },
   "properties": {
    "name": "662 NUKENNULLUP ROAD TENTERDEN 6322",
    "locID": "LOC000045623820",
    "tech": "WIRELESS",
    "upgrade": "NULL_NA",
    "gnaf_pid": "GAWA_162876953",
    "tech_change_status": "Not Planned",
    "program_type": "Fixed Wireless and Satellite Upgrade Program",
    "target_eligibility_quarter": "NA"
   }
  },
  {
   "type": "Feature",
   "geometry": {
    "type": "Point",
    "coordinates": [
     117.54662926,
     -34.37092864
    ]
   },
   "properties": {
    "name": "14 NUNIJUP ROAD TENTERDEN 6322",
    "locID": "LOC000064450160",
    "tech": "WIRELESS",
    "upgrade": "NULL_NA",
    "gnaf_pid": "GAWA_162876954",
    "tech_change_status": "Not Planned",
    "program_type": "Fixed Wireless and Satellite Upgrade Program",
    "target_eligibility_quarter": "NA"
   }
  },
  {
   "type": "Feature",
   "geometry": {
    "type": "Point",
    "coordinates": [
     117.5365149,
     -34.39006202
    ]
   },
   "properties": {
    "name": "173 NUNIJUP ROAD TENTERDEN 6322",
    "locID": "LOC000043738786",
    "tech": "WIRELESS",
    "upgrade": "NULL_NA",
    "gnaf_pid": "GAWA_162876955",
    "tech_change_status": "Not Planned",
    "program_type": "Fixed Wireless and Satellite Upgrade Program",
    "target_eligibility_quarter": "NA"
   }
  },
  {
   "type": "Feature",
   "geometry": {
    "type": "Point",
    "coordinates": [
     117.51715733,
     -34.38026649
    ]
   },
   "properties": {
    "name": "294 NUNIJUP ROAD TENTERDEN 6322",
    "locID": "LOC000046411066",
    "tech": "WIRELESS",
    "upgrade": "NULL_NA",
    "gnaf_pid": "GAWA_162876956",
    "tech_change_status": "Not Planned",
    "program_type": "Fixed Wireless and Satellite Upgrade Program",
    "target_eligibility_quarter": "NA"
   }
  },
  {
   "type": "Feature",
   "geometry": {
    "type": "Point",
    "coordinates": [
     117.50793045,
     -34.39564689
    ]
   },
   "properties": {
    "name": "391 NUNIJUP ROAD TENTERDEN 6322",
    "locID": "LOC000020433497",
    "tech": "WIRELESS",
    "upgrade": "NULL_NA",
    "gnaf_pid": "GAWA_162876957",
    "tech_change_status": "Not Planned",
    "program_type": "Fixed Wireless and Satellite Upgrade Program",
    "target_eligibility_quarter": "NA"
   }
  },
  {
   "type": "Feature",
   "geometry": {
    "type": "Point",
    "coordinates": [
     117.48999331,
     -34.41518809
    ]
   },
   "properties": {
    "name": "861 NUNIJUP ROAD TENTERDEN 6322",
    "locID": "LOC000080060158",
    "tech": "SATELLITE",
    "upgrade": "NULL_NA",
    "gnaf_pid": "GAWA_162876958",
    "tech_change_status": "Not Planned"
   }
  },
  {
   "type": "Feature",
   "geometry": {
    "type": "Point",
    "coordinates": [
     117.40502971,
     -34.46218438
    ]
   },
   "properties": {
    "name": "376 NUNIJUP ROAD SOUTH TENTERDEN 6322",
    "locID": "LOC000021535993",
    "tech": "WIRELESS",
    "upgrade": "NULL_NA",
    "gnaf_pid": "GAWA_162876960",
    "tech_change_status": "Not Planned",
    "program_type": "Fixed Wireless and Satellite Upgrade Program",
    "target_eligibility_quarter": "NA"
   }
  },
  {
   "type": "Feature",
   "geometry": {
    "type": "Point",
    "coordinates": [
     117.39572678,
     -34.4261276
    ]
   },
   "properties": {
    "name": "161 PARSONS ROAD TENTERDEN 6322",
    "locID": "LOC000154979731",
    "tech": "WIRELESS",
    "upgrade": "NULL_NA",
    "gnaf_pid": "GAWA_162877042",
    "tech_change_status": "Not Planned",
    "program_type": "Fixed Wireless and Satellite Upgrade Program",
    "target_eligibility_quarter": "NA"
   }
  },
  {
   "type": "Feature",
   "geometry": {
    "type": "Point",
    "coordinates": [
     117.37580413,
     -34.40956083
    ]
   },
   "properties": {
    "name": "212 PARSONS ROAD TENTERDEN 6322",
    "locID": "LOC000029568157",
    "tech": "WIRELESS",
    "upgrade": "NULL_NA",
    "gnaf_pid": "GAWA_162877043",
    "tech_change_status": "Not Planned",
    "program_type": "Fixed Wireless and Satellite Upgrade Program",
    "target_eligibility_quarter": "NA"
   }
  },
  {
   "type": "Feature",
   "geometry": {
    "type": "Point",
    "coordinates": [
     117.36997653,
     -34.43013567
    ]
   },
   "properties": {
    "name": "341 PARSONS ROAD TENTERDEN 6322",
    "locID": "LOC000037285798",
    "tech": "WIRELESS",
    "upgrade": "NULL_NA",
    "gnaf_pid": "GAWA_162877044",
    "tech_change_status": "Not Planned",
    "program_type": "Fixed Wireless and Satellite Upgrade Program",
    "target_eligibility_quarter": "NA"
   }
  },
  {
   "type": "Feature",
   "geometry": {
    "type": "Point",
    "coordinates": [
     117.37580413,
     -34.40956083
    ]
   },
   "properties": {
    "name": "368 PARSONS ROAD TENTERDEN 6322",
    "locID": "LOC000048653219",
    "tech": "WIRELESS",
    "upgrade": "NULL_NA",
    "gnaf_pid": "GAWA_162877045",
    "tech_change_status": "Not Planned",
    "program_type": "Fixed Wireless and Satellite Upgrade Program",
    "target_eligibility_quarter": "NA"
   }
  },
  {
   "type": "Feature",
   "geometry": {
    "type": "Point",
    "coordinates": [
     117.33047403,
     -34.42309675
    ]
   },
   "properties": {
    "name": "681 PARSONS ROAD TENTERDEN 6322",
    "locID": "LOC000020382802",
    "tech": "WIRELESS",
    "upgrade": "NULL_NA",
    "gnaf_pid": "GAWA_162877046",
    "tech_change_status": "Not Planned",
    "program_type": "Fixed Wireless and Satellite Upgrade Program",
    "target_eligibility_quarter": "NA"
   }
  },
  {
   "type": "Feature",
   "geometry": {
    "type": "Point",
    "coordinates": [
     117.64131054,
     -34.39459894
    ]
   },
   "properties": {
    "name": "215 PEARCE ROAD TENTERDEN 6322",
    "locID": "LOC000021531692",
    "tech": "WIRELESS",
    "upgrade": "NULL_NA",
    "gnaf_pid": "GAWA_162877051",
    "tech_change_status": "Not Planned",
    "program_type": "Fixed Wireless and Satellite Upgrade Program",
    "target_eligibility_quarter": "NA"
   }
  },
  {
   "type": "Feature",
   "geometry": {
    "type": "Point",
    "coordinates": [
     117.60463439,
     -34.33959942
    ]
   },
   "properties": {
    "name": "230 PINJALUP ROAD TENTERDEN 6322",
    "locID": "LOC000054063173",
    "tech": "WIRELESS",
    "upgrade": "NULL_NA",
    "gnaf_pid": "GAWA_162877068",
    "tech_change_status": "Not Planned",
    "program_type": "Fixed Wireless and Satellite Upgrade Program",
    "target_eligibility_quarter": "NA"
   }
  },
  {
   "type": "Feature",
   "geometry": {
    "type": "Point",
    "coordinates": [
     117.59599448,
     -34.3394073
    ]
   },
   "properties": {
    "name": "372 PINJALUP ROAD TENTERDEN 6322",
    "locID": "LOC000079518236",
    "tech": "WIRELESS",
    "upgrade": "NULL_NA",
    "gnaf_pid": "GAWA_162877069",
    "tech_change_status": "Not Planned",
    "program_type": "Fixed Wireless and Satellite Upgrade Program",
    "target_eligibility_quarter": "NA"
   }
  },
  {
   "type": "Feature",
   "geometry": {
    "type": "Point",
    "coordinates": [
     117.60599846,
     -34.36053209
    ]
   },
   "properties": {
    "name": "48 PINJALUP ROAD TENTERDEN 6322",
    "locID": "LOC000057168950",
    "tech": "WIRELESS",
    "upgrade": "NULL_NA",
    "gnaf_pid": "GAWA_162877070",
    "tech_change_status": "Not Planned",
    "program_type": "Fixed Wireless and Satellite Upgrade Program",
    "target_eligibility_quarter": "NA"
   }
  },
  {
   "type": "Feature",
   "geometry": {
    "type": "Point",
    "coordinates": [
     117.25021662,
     -34.43370205
    ]
   },
   "properties": {
    "name": "1109 POORRARECUP ROAD TENTERDEN 6322",
    "locID": "LOC000142454230",
    "tech": "WIRELESS",
    "upgrade": "NULL_NA",
    "gnaf_pid": "GAWA_162877097",
    "tech_change_status": "Not Planned",
    "program_type": "Fixed Wireless and Satellite Upgrade Program",
    "target_eligibility_quarter": "NA"
   }
  },
  {
   "type": "Feature",
   "geometry": {
    "type": "Point",
    "coordinates": [
     117.2362232,
     -34.38159905
    ]
   },
   "properties": {
    "name": "417 POORRARECUP ROAD TENTERDEN 6322",
    "locID": "LOC000107600093",
    "tech": "WIRELESS",
    "upgrade": "NULL_NA",
    "gnaf_pid": "GAWA_162877098",
    "tech_change_status": "Not Planned",
    "program_type": "Fixed Wireless and Satellite Upgrade Program",
    "target_eligibility_quarter": "NA"
   }
  },
  {
   "type": "Feature",
   "geometry": {
    "type": "Point",
    "coordinates": [
     117.23356703,
     -34.3995393
    ]
   },
   "properties": {
    "name": "733 POORRARECUP ROAD TENTERDEN 6322",
    "locID": "LOC000104013823",
    "tech": "WIRELESS",
    "upgrade": "NULL_NA",
    "gnaf_pid": "GAWA_162877099",
    "tech_change_status": "Not Planned",
    "program_type": "Fixed Wireless and Satellite Upgrade Program",
    "target_eligibility_quarter": "NA"
   }
  },
  {
   "type": "Feature",
   "geometry": {
    "type": "Point",
    "coordinates": [
     117.56093467,
     -34.35276025
    ]
   },
   "properties": {
    "name": "423 RONALDSHAW ROAD TENTERDEN 6322",
    "locID": "LOC000054662050",
    "tech": "WIRELESS",
    "upgrade": "NULL_NA",
    "gnaf_pid": "GAWA_162877211",
    "tech_change_status": "Not Planned",
    "program_type": "Fixed Wireless and Satellite Upgrade Program",
    "target_eligibility_quarter": "NA"
   }
  },
  {
   "type": "Feature",
   "geometry": {
    "type": "Point",
    "coordinates": [
     117.55943215,
     -34.35387278
    ]
   },
   "properties": {
    "name": "437 RONALDSHAW ROAD TENTERDEN 6322",
    "locID": "LOC000099147062",
    "tech": "WIRELESS",
    "upgrade": "NULL_NA",
    "gnaf_pid": "GAWA_162877212",
    "tech_change_status": "Not Planned",
    "program_type": "Fixed Wireless and Satellite Upgrade Program",
    "target_eligibility_quarter": "NA"
   }
  },
  {
   "type": "Feature",
   "geometry": {
    "type": "Point",
    "coordinates": [
     117.55883163,
     -34.35515791
    ]
   },
   "properties": {
    "name": "459 RONALDSHAW ROAD TENTERDEN 6322",
    "locID": "LOC000108792860",
    "tech": "WIRELESS",
    "upgrade": "NULL_NA",
    "gnaf_pid": "GAWA_162877213",
    "tech_change_status": "Not Planned",
    "program_type": "Fixed Wireless and Satellite Upgrade Program",
    "target_eligibility_quarter": "NA"
   }
  },
  {
   "type": "Feature",
   "geometry": {
    "type": "Point",
    "coordinates": [
     117.55833082,
     -34.35601899
    ]
   },
   "properties": {
    "name": "461 RONALDSHAW ROAD TENTERDEN 6322",
    "locID": "LOC000005729379",
    "tech": "WIRELESS",
    "upgrade": "NULL_NA",
    "gnaf_pid": "GAWA_162877214",
    "tech_change_status": "Not Planned",
    "program_type": "Fixed Wireless and Satellite Upgrade Program",
    "target_eligibility_quarter": "NA"
   }
  },
  {
   "type": "Feature",
   "geometry": {
    "type": "Point",
    "coordinates": [
     117.55378573,
     -34.35176039
    ]
   },
   "properties": {
    "name": "488 RONALDSHAW ROAD TENTERDEN 6322",
    "locID": "LOC000093885113",
    "tech": "WIRELESS",
    "upgrade": "NULL_NA",
    "gnaf_pid": "GAWA_162877216",
    "tech_change_status": "Not Planned",
    "program_type": "Fixed Wireless and Satellite Upgrade Program",
    "target_eligibility_quarter": "NA"
   }
  },
  {
   "type": "Feature",
   "geometry": {
    "type": "Point",
    "coordinates": [
     117.37965155,
     -34.38101284
    ]
   },
   "properties": {
    "name": "1219 STOCKYARD ROAD TENTERDEN 6322",
    "locID": "LOC000098534274",
    "tech": "WIRELESS",
    "upgrade": "NULL_NA",
    "gnaf_pid": "GAWA_162877362",
    "tech_change_status": "Not Planned",
    "program_type": "Fixed Wireless and Satellite Upgrade Program",
    "target_eligibility_quarter": "NA"
   }
  },
  {
   "type": "Feature",
   "geometry": {
    "type": "Point",
    "coordinates": [
     117.27294028,
     -34.36388592
    ]
   },
   "properties": {
    "name": "124 STOCKYARD ROAD TENTERDEN 6322",
    "locID": "LOC000030618375",
    "tech": "WIRELESS",
    "upgrade": "NULL_NA",
    "gnaf_pid": "GAWA_162877363",
    "tech_change_status": "Not Planned",
    "program_type": "Fixed Wireless and Satellite Upgrade Program",
    "target_eligibility_quarter": "NA"
   }
  },
  {
   "type": "Feature",
   "geometry": {
    "type": "Point",
    "coordinates": [
     117.39555246,
     -34.39814273
    ]
   },
   "properties": {
    "name": "1425 STOCKYARD ROAD TENTERDEN 6322",
    "locID": "LOC000044556722",
    "tech": "WIRELESS",
    "upgrade": "NULL_NA",
    "gnaf_pid": "GAWA_162877364",
    "tech_change_status": "Not Planned",
    "program_type": "Fixed Wireless and Satellite Upgrade Program",
    "target_eligibility_quarter": "NA"
   }
  },
  {
   "type": "Feature",
   "geometry": {
    "type": "Point",
    "coordinates": [
     117.40321452,
     -34.40557783
    ]
   },
   "properties": {
    "name": "1483 STOCKYARD ROAD TENTERDEN 6322",
    "locID": "LOC000100394199",
    "tech": "SATELLITE",
    "upgrade": "NULL_NA",
    "gnaf_pid": "GAWA_162877365",
    "tech_change_status": "Not Planned"
   }
  },
  {
   "type": "Feature",
   "geometry": {
    "type": "Point",
    "coordinates": [
     117.39754716,
     -34.41218754
    ]
   },
   "properties": {
    "name": "1617 STOCKYARD ROAD TENTERDEN 6322",
    "locID": "LOC000085208492",
    "tech": "WIRELESS",
    "upgrade": "NULL_NA",
    "gnaf_pid": "GAWA_162877366",
    "tech_change_status": "Not Planned",
    "program_type": "Fixed Wireless and Satellite Upgrade Program",
    "target_eligibility_quarter": "NA"
   }
  },
  {
   "type": "Feature",
   "geometry": {
    "type": "Point",
    "coordinates": [
     117.41165482,
     -34.41277177
    ]
   },
   "properties": {
    "name": "1637 STOCKYARD ROAD TENTERDEN 6322",
    "locID": "LOC000071694094",
    "tech": "WIRELESS",
    "upgrade": "NULL_NA",
    "gnaf_pid": "GAWA_162877367",
    "tech_change_status": "Not Planned",
    "program_type": "Fixed Wireless and Satellite Upgrade Program",
    "target_eligibility_quarter": "NA"
   }
  },
  {
   "type": "Feature",
   "geometry": {
    "type": "Point",
    "coordinates": [
     117.41625796,
     -34.40934844
    ]
   },
   "properties": {
    "name": "1681 STOCKYARD ROAD TENTERDEN 6322",
    "locID": "LOC000089202596",
    "tech": "WIRELESS",
    "upgrade": "NULL_NA",
    "gnaf_pid": "GAWA_162877368",
    "tech_change_status": "Not Planned",
    "program_type": "Fixed Wireless and Satellite Upgrade Program",
    "target_eligibility_quarter": "NA"
   }
  },
  {
   "type": "Feature",
   "geometry": {
    "type": "Point",
    "coordinates": [
     117.43454455,
     -34.42771519
    ]
   },
   "properties": {
    "name": "1808 STOCKYARD ROAD TENTERDEN 6322",
    "locID": "LOC000069674666",
    "tech": "WIRELESS",
    "upgrade": "NULL_NA",
    "gnaf_pid": "GAWA_162877369",
    "tech_change_status": "Not Planned",
    "program_type": "Fixed Wireless and Satellite Upgrade Program",
    "target_eligibility_quarter": "NA"
   }
  },
  {
   "type": "Feature",
   "geometry": {
    "type": "Point",
    "coordinates": [
     117.34460339,
     -34.38481699
    ]
   },
   "properties": {
    "name": "884 STOCKYARD ROAD TENTERDEN 6322",
    "locID": "LOC000063183362",
    "tech": "SATELLITE",
    "upgrade": "NULL_NA",
    "gnaf_pid": "GAWA_162877370",
    "tech_change_status": "Not Planned"
   }
  },
  {
   "type": "Feature",
   "geometry": {
    "type": "Point",
    "coordinates": [
     117.28880114,
     -34.43222701
    ]
   },
   "properties": {
    "name": "548 TUCKERS ROAD TENTERDEN 6322",
    "locID": "LOC000091693723",
    "tech": "WIRELESS",
    "upgrade": "NULL_NA",
    "gnaf_pid": "GAWA_162877589",
    "tech_change_status": "Not Planned",
    "program_type": "Fixed Wireless and Satellite Upgrade Program",
    "target_eligibility_quarter": "NA"
   }
  },
  {
   "type": "Feature",
   "geometry": {
    "type": "Point",
    "coordinates": [
     117.52688378,
     -34.34895426
    ]
   },
   "properties": {
    "name": "122 YERIMINUP ROAD TENTERDEN 6322",
    "locID": "LOC000022837239",
    "tech": "WIRELESS",
    "upgrade": "NULL_NA",
    "gnaf_pid": "GAWA_162877750",
    "tech_change_status": "Not Planned",
    "program_type": "Fixed Wireless and Satellite Upgrade Program",
    "target_eligibility_quarter": "NA"
   }
  },
  {
   "type": "Feature",
   "geometry": {
    "type": "Point",
    "coordinates": [
     117.54077974,
     -34.35814475
    ]
   },
   "properties": {
    "name": "19 YERIMINUP ROAD TENTERDEN 6322",
    "locID": "LOC000043585092",
    "tech": "WIRELESS",
    "upgrade": "NULL_NA",
    "gnaf_pid": "GAWA_162877751",
    "tech_change_status": "Not Planned",
    "program_type": "Fixed Wireless and Satellite Upgrade Program",
    "target_eligibility_quarter": "NA"
   }
  },
  {
   "type": "Feature",
   "geometry": {
    "type": "Point",
    "coordinates": [
     117.53609611,
     -34.35109019
    ]
   },
   "properties": {
    "name": "74 YERIMINUP ROAD TENTERDEN 6322",
    "locID": "LOC000035451382",
    "tech": "WIRELESS",
    "upgrade": "NULL_NA",
    "gnaf_pid": "GAWA_162877752",
    "tech_change_status": "Not Planned",
    "program_type": "Fixed Wireless and Satellite Upgrade Program",
    "target_eligibility_quarter": "NA"
   }
  },
  {
   "type": "Feature",
   "geometry": {
    "type": "Point",
    "coordinates": [
     117.63094541,
     -34.39366789
    ]
   },
   "properties": {
    "name": "LOT 19 PEARCE ROAD TENTERDEN 6322",
    "locID": "LOC000021531692",
    "tech": "WIRELESS",
    "upgrade": "NULL_NA",
    "gnaf_pid": "GAWA_163053027",
    "tech_change_status": "Not Planned",
    "program_type": "Fixed Wireless and Satellite Upgrade Program",
    "target_eligibility_quarter": "NA"
   }
  },
  {
   "type": "Feature",
   "geometry": {
    "type": "Point",
    "coordinates": [
     117.54253127,
     -34.37185047
    ]
   },
   "properties": {
    "name": "24 NUNIJUP ROAD TENTERDEN 6322",
    "locID": "LOC000133402353",
    "tech": "WIRELESS",
    "upgrade": "NULL_NA",
    "gnaf_pid": "GAWA_718757911",
    "tech_change_status": "Not Planned",
    "program_type": "Fixed Wireless and Satellite Upgrade Program",
    "target_eligibility_quarter": "NA"
   }
  },
  {
   "type": "Feature",
   "geometry": {
    "type": "Point",
    "coordinates": [
     117.53917452,
     -34.34047777
    ]
   },
   "properties": {
    "name": "LOT 41 MOSGIEL ROAD TENTERDEN 6322",
    "locID": "LOC000050046827",
    "tech": "WIRELESS",
    "upgrade": "NULL_NA",
    "gnaf_pid": "GAWA_718934906",
    "tech_change_status": "Not Planned",
    "program_type": "Fixed Wireless and Satellite Upgrade Program",
    "target_eligibility_quarter": "NA"
   }
  },
  {
   "type": "Feature",
   "geometry": {
    "type": "Point",
    "coordinates": [
     117.55460621,
     -34.36409773
    ]
   },
   "properties": {
    "name": "46 FENWICK STREET TENTERDEN 6322",
    "locID": "LOC000108900539",
    "tech": "WIRELESS",
    "upgrade": "NULL_NA",
    "gnaf_pid": "GAWA_719303141",
    "tech_change_status": "Not Planned",
    "program_type": "Fixed Wireless and Satellite Upgrade Program",
    "target_eligibility_quarter": "NA"
   }
  },
  {
   "type": "Feature",
   "geometry": {
    "type": "Point",
    "coordinates": [
     117.56254336,
     -34.34879893
    ]
   },
   "properties": {
    "name": "6 GARDINER STREET TENTERDEN 6322",
    "locID": "LOC000046479848",
    "tech": "WIRELESS",
    "upgrade": "NULL_NA",
    "gnaf_pid": "GAWA_719303142",
    "tech_change_status": "Not Planned",
    "program_type": "Fixed Wireless and Satellite Upgrade Program",
    "target_eligibility_quarter": "NA"
   }
  },
  {
   "type": "Feature",
   "geometry": {
    "type": "Point",
    "coordinates": [
     117.55106516,
     -34.37566343
    ]
   },
   "properties": {
    "name": "4 CLIMIE STREET TENTERDEN 6322",
    "locID": "LOC100078102535",
    "tech": "WIRELESS",
    "upgrade": "NULL_NA",
    "gnaf_pid": "GAWA_719303182",
    "tech_change_status": "Not Planned",
    "program_type": "Fixed Wireless and Satellite Upgrade Program",
    "target_eligibility_quarter": "NA"
   }
  },
  {
   "type": "Feature",
   "geometry": {
    "type": "Point",
    "coordinates": [
     117.55369857,
     -34.37513722
    ]
   },
   "properties": {
    "name": "16 CLIMIE STREET TENTERDEN 6322",
    "locID": "LOC000043474516",
    "tech": "WIRELESS",
    "upgrade": "NULL_NA",
    "gnaf_pid": "GAWA_719303183",
    "tech_change_status": "Not Planned",
    "program_type": "Fixed Wireless and Satellite Upgrade Program",
    "target_eligibility_quarter": "NA"
   }
  },
  {
   "type": "Feature",
   "geometry": {
    "type": "Point",
    "coordinates": [
     117.54575306,
     -34.35228902
    ]
   },
   "properties": {
    "name": "93 TRIMMER STREET TENTERDEN 6322",
    "locID": "LOC000090336633",
    "tech": "WIRELESS",
    "upgrade": "NULL_NA",
    "gnaf_pid": "GAWA_719303219",
    "tech_change_status": "Not Planned",
    "program_type": "Fixed Wireless and Satellite Upgrade Program",
    "target_eligibility_quarter": "NA"
   }
  },
  {
   "type": "Feature",
   "geometry": {
    "type": "Point",
    "coordinates": [
     117.5647282,
     -34.35140458
    ]
   },
   "properties": {
    "name": "13 BREWER STREET TENTERDEN 6322",
    "locID": "LOC100079623004",
    "tech": "WIRELESS",
    "upgrade": "NULL_NA",
    "gnaf_pid": "GAWA_719303625",
    "tech_change_status": "Not Planned",
    "program_type": "Fixed Wireless and Satellite Upgrade Program",
    "target_eligibility_quarter": "NA"
   }
  },
  {
   "type": "Feature",
   "geometry": {
    "type": "Point",
    "coordinates": [
     117.55128936,
     -34.36731564
    ]
   },
   "properties": {
    "name": "17 BROOKING STREET TENTERDEN 6322",
    "locID": "LOC000030688012",
    "tech": "WIRELESS",
    "upgrade": "NULL_NA",
    "gnaf_pid": "GAWA_719303669",
    "tech_change_status": "Not Planned",
    "program_type": "Fixed Wireless and Satellite Upgrade Program",
    "target_eligibility_quarter": "NA"
   }
  },
  {
   "type": "Feature",
   "geometry": {
    "type": "Point",
    "coordinates": [
     117.36997653,
     -34.43013567
    ]
   },
   "properties": {
    "name": "339 PARSONS ROAD TENTERDEN 6322",
    "locID": "LOC000020382802",
    "tech": "WIRELESS",
    "upgrade": "NULL_NA",
    "gnaf_pid": "GAWA_719303682",
    "tech_change_status": "Not Planned",
    "program_type": "Fixed Wireless and Satellite Upgrade Program",
    "target_eligibility_quarter": "NA"
   }
  },
  {
   "type": "Feature",
   "geometry": {
    "type": "Point",
    "coordinates": [
     117.5620387,
     -34.35215911
    ]
   },
   "properties": {
    "name": "6 BREWER STREET TENTERDEN 6322",
    "locID": "LOC000003694288",
    "tech": "WIRELESS",
    "upgrade": "NULL_NA",
    "gnaf_pid": "GAWA_719303689",
    "tech_change_status": "Not Planned",
    "program_type": "Fixed Wireless and Satellite Upgrade Program",
    "target_eligibility_quarter": "NA"
   }
  },
  {
   "type": "Feature",
   "geometry": {
    "type": "Point",
    "coordinates": [
     117.55880539,
     -34.3708655
    ]
   },
   "properties": {
    "name": "9 TOWNSEND STREET TENTERDEN 6322",
    "locID": "LOC000088893837",
    "tech": "WIRELESS",
    "upgrade": "NULL_NA",
    "gnaf_pid": "GAWA_719304126",
    "tech_change_status": "Not Planned",
    "program_type": "Fixed Wireless and Satellite Upgrade Program",
    "target_eligibility_quarter": "NA"
   }
  },
  {
   "type": "Feature",
   "geometry": {
    "type": "Point",
    "coordinates": [
     117.56204525,
     -34.35613463
    ]
   },
   "properties": {
    "name": "24 MOORE STREET TENTERDEN 6322",
    "locID": "LOC000024558928",
    "tech": "WIRELESS",
    "upgrade": "NULL_NA",
    "gnaf_pid": "GAWA_719304136",
    "tech_change_status": "Not Planned",
    "program_type": "Fixed Wireless and Satellite Upgrade Program",
    "target_eligibility_quarter": "NA"
   }
  },
  {
   "type": "Feature",
   "geometry": {
    "type": "Point",
    "coordinates": [
     117.55213162,
     -34.36673762
    ]
   },
   "properties": {
    "name": "21 BROOKING STREET TENTERDEN 6322",
    "locID": "LOC100079389412",
    "tech": "WIRELESS",
    "upgrade": "NULL_NA",
    "gnaf_pid": "GAWA_719304176",
    "tech_change_status": "Not Planned",
    "program_type": "Fixed Wireless and Satellite Upgrade Program",
    "target_eligibility_quarter": "NA"
   }
  },
  {
   "type": "Feature",
   "geometry": {
    "type": "Point",
    "coordinates": [
     117.54835257,
     -34.37007855
    ]
   },
   "properties": {
    "name": "3 BROOKING STREET TENTERDEN 6322",
    "locID": "LOC100078102056",
    "tech": "WIRELESS",
    "upgrade": "NULL_NA",
    "gnaf_pid": "GAWA_719304184",
    "tech_change_status": "Not Planned",
    "program_type": "Fixed Wireless and Satellite Upgrade Program",
    "target_eligibility_quarter": "NA"
   }
  },
  {
   "type": "Feature",
   "geometry": {
    "type": "Point",
    "coordinates": [
     117.55854588,
     -34.37316424
    ]
   },
   "properties": {
    "name": "6 TOWNSEND STREET TENTERDEN 6322",
    "locID": "LOC000088893837",
    "tech": "WIRELESS",
    "upgrade": "NULL_NA",
    "gnaf_pid": "GAWA_719304224",
    "tech_change_status": "Not Planned",
    "program_type": "Fixed Wireless and Satellite Upgrade Program",
    "target_eligibility_quarter": "NA"
   }
  },
  {
   "type": "Feature",
   "geometry": {
    "type": "Point",
    "coordinates": [
     117.56004623,
     -34.36883877
    ]
   },
   "properties": {
    "name": "15 TRIMMER STREET TENTERDEN 6322",
    "locID": "LOC100078647071",
    "tech": "WIRELESS",
    "upgrade": "NULL_NA",
    "gnaf_pid": "GAWA_719304368",
    "tech_change_status": "Not Planned",
    "program_type": "Fixed Wireless and Satellite Upgrade Program",
    "target_eligibility_quarter": "NA"
   }
  },
  {
   "type": "Feature",
   "geometry": {
    "type": "Point",
    "coordinates": [
     117.55600627,
     -34.36407842
    ]
   },
   "properties": {
    "name": "41 TRIMMER STREET TENTERDEN 6322",
    "locID": "LOC000190237400",
    "tech": "WIRELESS",
    "upgrade": "NULL_NA",
    "gnaf_pid": "GAWA_719304369",
    "tech_change_status": "Not Planned",
    "program_type": "Fixed Wireless and Satellite Upgrade Program",
    "target_eligibility_quarter": "NA"
   }
  },
  {
   "type": "Feature",
   "geometry": {
    "type": "Point",
    "coordinates": [
     117.55656402,
     -34.36463723
    ]
   },
   "properties": {
    "name": "37 TRIMMER STREET TENTERDEN 6322",
    "locID": "LOC000012871619",
    "tech": "WIRELESS",
    "upgrade": "NULL_NA",
    "gnaf_pid": "GAWA_719304393",
    "tech_change_status": "Not Planned",
    "program_type": "Fixed Wireless and Satellite Upgrade Program",
    "target_eligibility_quarter": "NA"
   }
  },
  {
   "type": "Feature",
   "geometry": {
    "type": "Point",
    "coordinates": [
     117.56255929,
     -34.35503578
    ]
   },
   "properties": {
    "name": "18 MOORE STREET TENTERDEN 6322",
    "locID": "LOC000073420191",
    "tech": "WIRELESS",
    "upgrade": "NULL_NA",
    "gnaf_pid": "GAWA_719304463",
    "tech_change_status": "Not Planned",
    "program_type": "Fixed Wireless and Satellite Upgrade Program",
    "target_eligibility_quarter": "NA"
   }
  },
  {
   "type": "Feature",
   "geometry": {
    "type": "Point",
    "coordinates": [
     117.5480818,
     -34.36410148
    ]
   },
   "properties": {
    "name": "6 SAW STREET TENTERDEN 6322",
    "locID": "LOC000104381351",
    "tech": "WIRELESS",
    "upgrade": "NULL_NA",
    "gnaf_pid": "GAWA_719304661",
    "tech_change_status": "Not Planned",
    "program_type": "Fixed Wireless and Satellite Upgrade Program",
    "target_eligibility_quarter": "NA"
   }
  },
  {
   "type": "Feature",
   "geometry": {
    "type": "Point",
    "coordinates": [
     117.55289248,
     -34.36892242
    ]
   },
   "properties": {
    "name": "7 WARBURTON STREET TENTERDEN 6322",
    "locID": "LOC000027845569",
    "tech": "WIRELESS",
    "upgrade": "NULL_NA",
    "gnaf_pid": "GAWA_719304667",
    "tech_change_status": "Not Planned",
    "program_type": "Fixed Wireless and Satellite Upgrade Program",
    "target_eligibility_quarter": "NA"
   }
  },
  {
   "type": "Feature",
   "geometry": {
    "type": "Point",
    "coordinates": [
     117.56078473,
     -34.35439806
    ]
   },
   "properties": {
    "name": "14 HERBERT STREET TENTERDEN 6322",
    "locID": "LOC000069206593",
    "tech": "WIRELESS",
    "upgrade": "NULL_NA",
    "gnaf_pid": "GAWA_719304668",
    "tech_change_status": "Not Planned",
    "program_type": "Fixed Wireless and Satellite Upgrade Program",
    "target_eligibility_quarter": "NA"
   }
  },
  {
   "type": "Feature",
   "geometry": {
    "type": "Point",
    "coordinates": [
     117.56341981,
     -34.36923028
    ]
   },
   "properties": {
    "name": "8 TRIMMER STREET TENTERDEN 6322",
    "locID": "LOC000072226375",
    "tech": "WIRELESS",
    "upgrade": "NULL_NA",
    "gnaf_pid": "GAWA_719304896",
    "tech_change_status": "Not Planned",
    "program_type": "Fixed Wireless and Satellite Upgrade Program",
    "target_eligibility_quarter": "NA"
   }
  },
  {
   "type": "Feature",
   "geometry": {
    "type": "Point",
    "coordinates": [
     117.56345466,
     -34.36728952
    ]
   },
   "properties": {
    "name": "56 CLIMIE STREET TENTERDEN 6322",
    "locID": "LOC000078755001",
    "tech": "WIRELESS",
    "upgrade": "NULL_NA",
    "gnaf_pid": "GAWA_719304922",
    "tech_change_status": "Not Planned",
    "program_type": "Fixed Wireless and Satellite Upgrade Program",
    "target_eligibility_quarter": "NA"
   }
  },
  {
   "type": "Feature",
   "geometry": {
    "type": "Point",
    "coordinates": [
     117.56164971,
     -34.35697988
    ]
   },
   "properties": {
    "name": "28 MOORE STREET TENTERDEN 6322",
    "locID": "LOC000012016846",
    "tech": "WIRELESS",
    "upgrade": "NULL_NA",
    "gnaf_pid": "GAWA_719305017",
    "tech_change_status": "Not Planned",
    "program_type": "Fixed Wireless and Satellite Upgrade Program",
    "target_eligibility_quarter": "NA"
   }
  },
  {
   "type": "Feature",
   "geometry": {
    "type": "Point",
    "coordinates": [
     117.54892407,
     -34.36352345
    ]
   },
   "properties": {
    "name": "10 SAW STREET TENTERDEN 6322",
    "locID": "LOC000073073651",
    "tech": "WIRELESS",
    "upgrade": "NULL_NA",
    "gnaf_pid": "GAWA_719305194",
    "tech_change_status": "Not Planned",
    "program_type": "Fixed Wireless and Satellite Upgrade Program",
    "target_eligibility_quarter": "NA"
   }
  },
  {
   "type": "Feature",
   "geometry": {
    "type": "Point",
    "coordinates": [
     117.54711256,
     -34.36508317
    ]
   },
   "properties": {
    "name": "2 SAW STREET TENTERDEN 6322",
    "locID": "LOC000104381351",
    "tech": "WIRELESS",
    "upgrade": "NULL_NA",
    "gnaf_pid": "GAWA_719305528",
    "tech_change_status": "Not Planned",
    "program_type": "Fixed Wireless and Satellite Upgrade Program",
    "target_eligibility_quarter": "NA"
   }
  },
  {
   "type": "Feature",
   "geometry": {
    "type": "Point",
    "coordinates": [
     117.56234831,
     -34.37114284
    ]
   },
   "properties": {
    "name": "3 TRIMMER STREET TENTERDEN 6322",
    "locID": "LOC000081245071",
    "tech": "WIRELESS",
    "upgrade": "NULL_NA",
    "gnaf_pid": "GAWA_719305546",
    "tech_change_status": "Not Planned",
    "program_type": "Fixed Wireless and Satellite Upgrade Program",
    "target_eligibility_quarter": "NA"
   }
  },
  {
   "type": "Feature",
   "geometry": {
    "type": "Point",
    "coordinates": [
     117.56335036,
     -34.35334518
    ]
   },
   "properties": {
    "name": "12 MOORE STREET TENTERDEN 6322",
    "locID": "LOC000035323290",
    "tech": "WIRELESS",
    "upgrade": "NULL_NA",
    "gnaf_pid": "GAWA_719305706",
    "tech_change_status": "Not Planned",
    "program_type": "Fixed Wireless and Satellite Upgrade Program",
    "target_eligibility_quarter": "NA"
   }
  },
  {
   "type": "Feature",
   "geometry": {
    "type": "Point",
    "coordinates": [
     117.55383935,
     -34.36332946
    ]
   },
   "properties": {
    "name": "50 FENWICK STREET TENTERDEN 6322",
    "locID": "LOC000071374556",
    "tech": "WIRELESS",
    "upgrade": "NULL_NA",
    "gnaf_pid": "GAWA_719305746",
    "tech_change_status": "Not Planned",
    "program_type": "Fixed Wireless and Satellite Upgrade Program",
    "target_eligibility_quarter": "NA"
   }
  },
  {
   "type": "Feature",
   "geometry": {
    "type": "Point",
    "coordinates": [
     117.55373494,
     -34.36834428
    ]
   },
   "properties": {
    "name": "24 BROOKING STREET TENTERDEN 6322",
    "locID": "LOC000100492175",
    "tech": "WIRELESS",
    "upgrade": "NULL_NA",
    "gnaf_pid": "GAWA_719305933",
    "tech_change_status": "Not Planned",
    "program_type": "Fixed Wireless and Satellite Upgrade Program",
    "target_eligibility_quarter": "NA"
   }
  },
  {
   "type": "Feature",
   "geometry": {
    "type": "Point",
    "coordinates": [
     117.55971359,
     -34.37177415
    ]
   },
   "properties": {
    "name": "10 TOWNSEND STREET TENTERDEN 6322",
    "locID": "LOC000133147394",
    "tech": "WIRELESS",
    "upgrade": "NULL_NA",
    "gnaf_pid": "GAWA_719305934",
    "tech_change_status": "Not Planned",
    "program_type": "Fixed Wireless and Satellite Upgrade Program",
    "target_eligibility_quarter": "NA"
   }
  },
  {
   "type": "Feature",
   "geometry": {
    "type": "Point",
    "coordinates": [
     117.55468165,
     -34.36275136
    ]
   },
   "properties": {
    "name": "49 TRIMMER STREET TENTERDEN 6322",
    "locID": "LOC000032089916",
    "tech": "WIRELESS",
    "upgrade": "NULL_NA",
    "gnaf_pid": "GAWA_719305938",
    "tech_change_status": "Not Planned",
    "program_type": "Fixed Wireless and Satellite Upgrade Program",
    "target_eligibility_quarter": "NA"
   }
  },
  {
   "type": "Feature",
   "geometry": {
    "type": "Point",
    "coordinates": [
     117.55810888,
     -34.37016827
    ]
   },
   "properties": {
    "name": "36 CLIMIE STREET TENTERDEN 6322",
    "locID": "LOC000101438813",
    "tech": "WIRELESS",
    "upgrade": "NULL_NA",
    "gnaf_pid": "GAWA_719306055",
    "tech_change_status": "Not Planned",
    "program_type": "Fixed Wireless and Satellite Upgrade Program",
    "target_eligibility_quarter": "NA"
   }
  },
  {
   "type": "Feature",
   "geometry": {
    "type": "Point",
    "coordinates": [
     117.56074253,
     -34.36953588
    ]
   },
   "properties": {
    "name": "9 TRIMMER STREET TENTERDEN 6322",
    "locID": "LOC000090441751",
    "tech": "WIRELESS",
    "upgrade": "NULL_NA",
    "gnaf_pid": "GAWA_719306174",
    "tech_change_status": "Not Planned",
    "program_type": "Fixed Wireless and Satellite Upgrade Program",
    "target_eligibility_quarter": "NA"
   }
  },
  {
   "type": "Feature",
   "geometry": {
    "type": "Point",
    "coordinates": [
     117.54650016,
     -34.36255794
    ]
   },
   "properties": {
    "name": "3 SAW STREET TENTERDEN 6322",
    "locID": "LOC000073073651",
    "tech": "WIRELESS",
    "upgrade": "NULL_NA",
    "gnaf_pid": "GAWA_719306199",
    "tech_change_status": "Not Planned",
    "program_type": "Fixed Wireless and Satellite Upgrade Program",
    "target_eligibility_quarter": "NA"
   }
  },
  {
   "type": "Feature",
   "geometry": {
    "type": "Point",
    "coordinates": [
     117.55328169,
     -34.36277068
    ]
   },
   "properties": {
    "name": "54 FENWICK STREET TENTERDEN 6322",
    "locID": "LOC100085191484",
    "tech": "WIRELESS",
    "upgrade": "NULL_NA",
    "gnaf_pid": "GAWA_719306203",
    "tech_change_status": "Not Planned",
    "program_type": "Fixed Wireless and Satellite Upgrade Program",
    "target_eligibility_quarter": "NA"
   }
  },
  {
   "type": "Feature",
   "geometry": {
    "type": "Point",
    "coordinates": [
     117.56181676,
     -34.36762318
    ]
   },
   "properties": {
    "name": "52 CLIMIE STREET TENTERDEN 6322",
    "locID": "LOC000092907065",
    "tech": "WIRELESS",
    "upgrade": "NULL_NA",
    "gnaf_pid": "GAWA_719306238",
    "tech_change_status": "Not Planned",
    "program_type": "Fixed Wireless and Satellite Upgrade Program",
    "target_eligibility_quarter": "NA"
   }
  },
  {
   "type": "Feature",
   "geometry": {
    "type": "Point",
    "coordinates": [
     117.56251399,
     -34.35061766
    ]
   },
   "properties": {
    "name": "7 BREWER STREET TENTERDEN 6322",
    "locID": "LOC000003694288",
    "tech": "WIRELESS",
    "upgrade": "NULL_NA",
    "gnaf_pid": "GAWA_719306283",
    "tech_change_status": "Not Planned",
    "program_type": "Fixed Wireless and Satellite Upgrade Program",
    "target_eligibility_quarter": "NA"
   }
  },
  {
   "type": "Feature",
   "geometry": {
    "type": "Point",
    "coordinates": [
     117.55770354,
     -34.37374245
    ]
   },
   "properties": {
    "name": "2 TOWNSEND STREET TENTERDEN 6322",
    "locID": "LOC000133147394",
    "tech": "WIRELESS",
    "upgrade": "NULL_NA",
    "gnaf_pid": "GAWA_719306460",
    "tech_change_status": "Not Planned",
    "program_type": "Fixed Wireless and Satellite Upgrade Program",
    "target_eligibility_quarter": "NA"
   }
  },
  {
   "type": "Feature",
   "geometry": {
    "type": "Point",
    "coordinates": [
     117.55311248,
     -34.36117887
    ]
   },
   "properties": {
    "name": "29 GILLAM STREET TENTERDEN 6322",
    "locID": "LOC000083210088",
    "tech": "WIRELESS",
    "upgrade": "NULL_NA",
    "gnaf_pid": "GAWA_719306703",
    "tech_change_status": "Not Planned",
    "program_type": "Fixed Wireless and Satellite Upgrade Program",
    "target_eligibility_quarter": "NA"
   }
  },
  {
   "type": "Feature",
   "geometry": {
    "type": "Point",
    "coordinates": [
     117.5549171,
     -34.37023984
    ]
   },
   "properties": {
    "name": "15 WARBURTON STREET TENTERDEN 6322",
    "locID": "LOC000016347982",
    "tech": "WIRELESS",
    "upgrade": "NULL_NA",
    "gnaf_pid": "GAWA_719306704",
    "tech_change_status": "Not Planned",
    "program_type": "Fixed Wireless and Satellite Upgrade Program",
    "target_eligibility_quarter": "NA"
   }
  },
  {
   "type": "Feature",
   "geometry": {
    "type": "Point",
    "coordinates": [
     117.56295482,
     -34.35419051
    ]
   },
   "properties": {
    "name": "14 MOORE STREET TENTERDEN 6322",
    "locID": "LOC000103856953",
    "tech": "WIRELESS",
    "upgrade": "NULL_NA",
    "gnaf_pid": "GAWA_719306708",
    "tech_change_status": "Not Planned",
    "program_type": "Fixed Wireless and Satellite Upgrade Program",
    "target_eligibility_quarter": "NA"
   }
  },
  {
   "type": "Feature",
   "geometry": {
    "type": "Point",
    "coordinates": [
     117.55620973,
     -34.3657043
    ]
   },
   "properties": {
    "name": "36 FENWICK STREET TENTERDEN 6322",
    "locID": "LOC000027853461",
    "tech": "WIRELESS",
    "upgrade": "NULL_NA",
    "gnaf_pid": "GAWA_719306738",
    "tech_change_status": "Not Planned",
    "program_type": "Fixed Wireless and Satellite Upgrade Program",
    "target_eligibility_quarter": "NA"
   }
  },
  {
   "type": "Feature",
   "geometry": {
    "type": "Point",
    "coordinates": [
     117.55705205,
     -34.36512615
    ]
   },
   "properties": {
    "name": "38 BROOKING STREET TENTERDEN 6322",
    "locID": "LOC100078102056",
    "tech": "WIRELESS",
    "upgrade": "NULL_NA",
    "gnaf_pid": "GAWA_719306792",
    "tech_change_status": "Not Planned",
    "program_type": "Fixed Wireless and Satellite Upgrade Program",
    "target_eligibility_quarter": "NA"
   }
  },
  {
   "type": "Feature",
   "geometry": {
    "type": "Point",
    "coordinates": [
     117.56251376,
     -34.36832122
    ]
   },
   "properties": {
    "name": "10 TRIMMER STREET TENTERDEN 6322",
    "locID": "LOC000065429455",
    "tech": "WIRELESS",
    "upgrade": "NULL_NA",
    "gnaf_pid": "GAWA_719306923",
    "tech_change_status": "Not Planned",
    "program_type": "Fixed Wireless and Satellite Upgrade Program",
    "target_eligibility_quarter": "NA"
   }
  },
  {
   "type": "Feature",
   "geometry": {
    "type": "Point",
    "coordinates": [
     117.56155761,
     -34.3501915
    ]
   },
   "properties": {
    "name": "3 BREWER STREET TENTERDEN 6322",
    "locID": "LOC000087406367",
    "tech": "WIRELESS",
    "upgrade": "NULL_NA",
    "gnaf_pid": "GAWA_719306982",
    "tech_change_status": "Not Planned",
    "program_type": "Fixed Wireless and Satellite Upgrade Program",
    "target_eligibility_quarter": "NA"
   }
  },
  {
   "type": "Feature",
   "geometry": {
    "type": "Point",
    "coordinates": [
     117.53829828,
     -34.34375921
    ]
   },
   "properties": {
    "name": "46 MOSGIEL ROAD TENTERDEN 6322",
    "locID": "LOC100087606169",
    "tech": "WIRELESS",
    "upgrade": "NULL_NA",
    "gnaf_pid": "GAWA_719403794",
    "tech_change_status": "Not Planned",
    "program_type": "Fixed Wireless and Satellite Upgrade Program",
    "target_eligibility_quarter": "NA"
   }
  },
  {
   "type": "Feature",
   "geometry": {
    "type": "Point",
    "coordinates": [
     117.54600246,
     -34.36905566
    ]
   },
   "properties": {
    "name": "28710 ALBANY HIGHWAY TENTERDEN 6322",
    "locID": "LOC000109645888",
    "tech": "WIRELESS",
    "upgrade": "NULL_NA",
    "gnaf_pid": "GAWA_719498923",
    "tech_change_status": "Not Planned",
    "program_type": "Fixed Wireless and Satellite Upgrade Program",
    "target_eligibility_quarter": "NA"
   }
  },
  {
   "type": "Feature",
   "geometry": {
    "type": "Point",
    "coordinates": [
     117.67287441,
     -34.40733882
    ]
   },
   "properties": {
    "name": "1344 CHINNINUP ROAD TENTERDEN 6322",
    "locID": "LOC000142444931",
    "tech": "SATELLITE",
    "upgrade": "NULL_NA",
    "gnaf_pid": "GAWA_719644250",
    "tech_change_status": "Not Planned"
   }
  },
  {
   "type": "Feature",
   "geometry": {
    "type": "Point",
    "coordinates": [
     117.55045706,
     -34.37313821
    ]
   },
   "properties": {
    "name": "28759 ALBANY HIGHWAY TENTERDEN 6322",
    "locID": "LOC000108454956",
    "tech": "WIRELESS",
    "upgrade": "NULL_NA",
    "gnaf_pid": "GAWA_719646198",
    "tech_change_status": "Not Planned",
    "program_type": "Fixed Wireless and Satellite Upgrade Program",
    "target_eligibility_quarter": "NA"
   }
  },
  {
   "type": "Feature",
   "geometry": {
    "type": "Point",
    "coordinates": [
     117.5268797,
     -34.37642053
    ]
   },
   "properties": {
    "name": "160 NUNIJUP ROAD TENTERDEN 6322",
    "locID": "LOC000046411066",
    "tech": "WIRELESS",
    "upgrade": "NULL_NA",
    "gnaf_pid": "GAWA_719647574",
    "tech_change_status": "Not Planned",
    "program_type": "Fixed Wireless and Satellite Upgrade Program",
    "target_eligibility_quarter": "NA"
   }
  },
  {
   "type": "Feature",
   "geometry": {
    "type": "Point",
    "coordinates": [
     117.56061784,
     -34.35333443
    ]
   },
   "properties": {
    "name": "435 RONALDSHAW ROAD TENTERDEN 6322",
    "locID": "LOC000179857972",
    "tech": "WIRELESS",
    "upgrade": "NULL_NA",
    "gnaf_pid": "GAWA_719673319",
    "tech_change_status": "Not Planned",
    "program_type": "Fixed Wireless and Satellite Upgrade Program",
    "target_eligibility_quarter": "NA"
   }
  },
  {
   "type": "Feature",
   "geometry": {
    "type": "Point",
    "coordinates": [
     117.29030621,
     -34.45001522
    ]
   },
   "properties": {
    "name": "248 LAKELANDS ROAD TENTERDEN 6322",
    "locID": "LOC000142820654",
    "tech": "SATELLITE",
    "upgrade": "NULL_NA",
    "gnaf_pid": "GAWA_719674957",
    "tech_change_status": "Not Planned"
   }
  },
  {
   "type": "Feature",
   "geometry": {
    "type": "Point",
    "coordinates": [
     117.66922241,
     -34.38893762
    ]
   },
   "properties": {
    "name": "1135 CHINNINUP ROAD TENTERDEN 6322",
    "locID": "LOC100071998852",
    "tech": "WIRELESS",
    "upgrade": "NULL_NA",
    "gnaf_pid": "GAWA_719676719",
    "tech_change_status": "Not Planned",
    "program_type": "Fixed Wireless and Satellite Upgrade Program",
    "target_eligibility_quarter": "NA"
   }
  },
  {
   "type": "Feature",
   "geometry": {
    "type": "Point",
    "coordinates": [
     117.40426309,
     -34.39855016
    ]
   },
   "properties": {
    "name": "1423 STOCKYARD ROAD TENTERDEN 6322",
    "locID": "LOC100074652345",
    "tech": "WIRELESS",
    "upgrade": "NULL_NA",
    "gnaf_pid": "GAWA_720362967",
    "tech_change_status": "Not Planned",
    "program_type": "Fixed Wireless and Satellite Upgrade Program",
    "target_eligibility_quarter": "NA"
   }
  },
  {
   "type": "Feature",
   "geometry": {
    "type": "Point",
    "coordinates": [
     117.60798121,
     -34.36487457
    ]
   },
   "properties": {
    "name": "LOT 51 LUNT ROAD TENTERDEN 6322",
    "locID": "LOC000057927681",
    "tech": "NULL",
    "upgrade": "NULL_NA",
    "gnaf_pid": "GAWA_720725231",
    "tech_change_status": "Not Planned"
   }
  },
  {
   "type": "Feature",
   "geometry": {
    "type": "Point",
    "coordinates": [
     117.5784172,
     -34.36710134
    ]
   },
   "properties": {
    "name": "126 LUNT ROAD TENTERDEN 6322",
    "locID": "LOC100087606195",
    "tech": "WIRELESS",
    "upgrade": "NULL_NA",
    "gnaf_pid": "GAWA_720893079",
    "tech_change_status": "Not Planned",
    "program_type": "Fixed Wireless and Satellite Upgrade Program",
    "target_eligibility_quarter": "NA"
   }
  },
  {
   "type": "Feature",
   "geometry": {
    "type": "Point",
    "coordinates": [
     117.49358005,
     -34.35115867
    ]
   },
   "properties": {
    "name": "109 KAREELA ROAD TENTERDEN 6322",
    "locID": "LOC000069413504",
    "tech": "WIRELESS",
    "upgrade": "NULL_NA",
    "gnaf_pid": "GAWA_721405611",
    "tech_change_status": "Not Planned",
    "program_type": "Fixed Wireless and Satellite Upgrade Program",
    "target_eligibility_quarter": "NA"
   }
  }
 ]
}