{
 "type": "FeatureCollection",
 "generated": "2024-10-31T12:32:51.706551",
 "suburb": "WAEEL",
 "features": [
  {
   "type": "Feature",
   "geometry": {
    "type": "Point",
    "coordinates": [
     117.200661,
     -31.581098
    ]
   },
   "properties": {
    "name": "180 BAXTER ROAD WAEEL 6407",
    "locID": "LOC000031503250",
    "tech": "SATELLITE",
    "upgrade": "NULL_NA",
    "gnaf_pid": "GAWA_162485185",
    "tech_change_status": "Not Planned"
   }
  },
  {
   "type": "Feature",
   "geometry": {
    "type": "Point",
    "coordinates": [
     117.10035808,
     -31.6583077
    ]
   },
   "properties": {
    "name": "833 BULGIN ROAD WAEEL 6407",
    "locID": "LOC000048768694",
    "tech": "SATELLITE",
    "upgrade": "NULL_NA",
    "gnaf_pid": "GAWA_162485505",
    "tech_change_status": "Not Planned"
   }
  },
  {
   "type": "Feature",
   "geometry": {
    "type": "Point",
    "coordinates": [
     117.109946,
     -31.662698
    ]
   },
   "properties": {
    "name": "975 BULGIN ROAD WAEEL 6407",
    "locID": "LOC000082754644",
    "tech": "NULL",
    "upgrade": "NULL_NA",
    "gnaf_pid": "GAWA_162485506",
    "tech_change_status": "Not Planned"
   }
  },
  {
   "type": "Feature",
   "geometry": {
    "type": "Point",
    "coordinates": [
     117.100432,
     -31.649948
    ]
   },
   "properties": {
    "name": "337 BURGES ROAD WAEEL 6407",
    "locID": "LOC000063949710",
    "tech": "NULL",
    "upgrade": "NULL_NA",
    "gnaf_pid": "GAWA_162485530",
    "tech_change_status": "Not Planned"
   }
  },
  {
   "type": "Feature",
   "geometry": {
    "type": "Point",
    "coordinates": [
     117.177236,
     -31.6869036
    ]
   },
   "properties": {
    "name": "122 COLEMAN ROAD WAEEL 6407",
    "locID": "LOC000068000124",
    "tech": "NULL",
    "upgrade": "NULL_NA",
    "gnaf_pid": "GAWA_162485940",
    "tech_change_status": "Not Planned"
   }
  },
  {
   "type": "Feature",
   "geometry": {
    "type": "Point",
    "coordinates": [
     117.15109258,
     -31.71562774
    ]
   },
   "properties": {
    "name": "141 COLEMAN ROAD WAEEL 6407",
    "locID": "LOC000079109041",
    "tech": "SATELLITE",
    "upgrade": "NULL_NA",
    "gnaf_pid": "GAWA_162485941",
    "tech_change_status": "Not Planned"
   }
  },
  {
   "type": "Feature",
   "geometry": {
    "type": "Point",
    "coordinates": [
     117.097563,
     -31.629321
    ]
   },
   "properties": {
    "name": "58 COLLINS ROAD WAEEL 6407",
    "locID": "LOC000087034909",
    "tech": "SATELLITE",
    "upgrade": "NULL_NA",
    "gnaf_pid": "GAWA_162485961",
    "tech_change_status": "Not Planned"
   }
  },
  {
   "type": "Feature",
   "geometry": {
    "type": "Point",
    "coordinates": [
     117.18114476,
     -31.61976454
    ]
   },
   "properties": {
    "name": "355 DENNIS ROAD WAEEL 6407",
    "locID": "LOC000011565908",
    "tech": "NULL",
    "upgrade": "NULL_NA",
    "gnaf_pid": "GAWA_162486241",
    "tech_change_status": "Not Planned"
   }
  },
  {
   "type": "Feature",
   "geometry": {
    "type": "Point",
    "coordinates": [
     117.040748,
     -31.54888
    ]
   },
   "properties": {
    "name": "4789 DOWERIN-MECKERING ROAD WAEEL 6407",
    "locID": "LOC000031186784",
    "tech": "SATELLITE",
    "upgrade": "NULL_NA",
    "gnaf_pid": "GAWA_162486331",
    "tech_change_status": "Not Planned"
   }
  },
  {
   "type": "Feature",
   "geometry": {
    "type": "Point",
    "coordinates": [
     117.079743,
     -31.619356
    ]
   },
   "properties": {
    "name": "11316 GREAT EASTERN HIGHWAY WAEEL 6407",
    "locID": "LOC000076661500",
    "tech": "NULL",
    "upgrade": "NULL_NA",
    "gnaf_pid": "GAWA_162486920",
    "tech_change_status": "Not Planned"
   }
  },
  {
   "type": "Feature",
   "geometry": {
    "type": "Point",
    "coordinates": [
     117.120875,
     -31.630508
    ]
   },
   "properties": {
    "name": "11724 GREAT EASTERN HIGHWAY WAEEL 6407",
    "locID": "LOC000083019718",
    "tech": "SATELLITE",
    "upgrade": "NULL_NA",
    "gnaf_pid": "GAWA_162486921",
    "tech_change_status": "Not Planned"
   }
  },
  {
   "type": "Feature",
   "geometry": {
    "type": "Point",
    "coordinates": [
     117.171068,
     -31.644563
    ]
   },
   "properties": {
    "name": "12200 GREAT EASTERN HIGHWAY WAEEL 6407",
    "locID": "LOC000095863002",
    "tech": "NULL",
    "upgrade": "NULL_NA",
    "gnaf_pid": "GAWA_162486922",
    "tech_change_status": "Not Planned"
   }
  },
  {
   "type": "Feature",
   "geometry": {
    "type": "Point",
    "coordinates": [
     117.197862,
     -31.659845
    ]
   },
   "properties": {
    "name": "12486 GREAT EASTERN HIGHWAY WAEEL 6407",
    "locID": "LOC000092668562",
    "tech": "NULL",
    "upgrade": "NULL_NA",
    "gnaf_pid": "GAWA_162486923",
    "tech_change_status": "Not Planned"
   }
  },
  {
   "type": "Feature",
   "geometry": {
    "type": "Point",
    "coordinates": [
     117.10603366,
     -31.57254943
    ]
   },
   "properties": {
    "name": "393 HOPKINS ROAD WAEEL 6407",
    "locID": "LOC000083083207",
    "tech": "NULL",
    "upgrade": "NULL_NA",
    "gnaf_pid": "GAWA_162487284",
    "tech_change_status": "Not Planned"
   }
  },
  {
   "type": "Feature",
   "geometry": {
    "type": "Point",
    "coordinates": [
     117.09485506,
     -31.53110368
    ]
   },
   "properties": {
    "name": "237 LEESONS ROAD WAEEL 6407",
    "locID": "LOC000008668911",
    "tech": "NULL",
    "upgrade": "NULL_NA",
    "gnaf_pid": "GAWA_162487771",
    "tech_change_status": "Not Planned"
   }
  },
  {
   "type": "Feature",
   "geometry": {
    "type": "Point",
    "coordinates": [
     117.143314,
     -31.533605
    ]
   },
   "properties": {
    "name": "1101 MOUNT ANNE ROAD WAEEL 6407",
    "locID": "LOC000079028994",
    "tech": "NULL",
    "upgrade": "NULL_NA",
    "gnaf_pid": "GAWA_162488369",
    "tech_change_status": "Not Planned"
   }
  },
  {
   "type": "Feature",
   "geometry": {
    "type": "Point",
    "coordinates": [
     117.157764,
     -31.528431
    ]
   },
   "properties": {
    "name": "1210 MOUNT ANNE ROAD WAEEL 6407",
    "locID": "LOC000104417168",
    "tech": "NULL",
    "upgrade": "NULL_NA",
    "gnaf_pid": "GAWA_162488370",
    "tech_change_status": "Not Planned"
   }
  },
  {
   "type": "Feature",
   "geometry": {
    "type": "Point",
    "coordinates": [
     117.1528931,
     -31.58281831
    ]
   },
   "properties": {
    "name": "494 MOUNT ANNE ROAD WAEEL 6407",
    "locID": "LOC000083278690",
    "tech": "SATELLITE",
    "upgrade": "NULL_NA",
    "gnaf_pid": "GAWA_162488371",
    "tech_change_status": "Not Planned"
   }
  },
  {
   "type": "Feature",
   "geometry": {
    "type": "Point",
    "coordinates": [
     117.15342229,
     -31.56688903
    ]
   },
   "properties": {
    "name": "752 MOUNT ANNE ROAD WAEEL 6407",
    "locID": "LOC000086327707",
    "tech": "NULL",
    "upgrade": "NULL_NA",
    "gnaf_pid": "GAWA_162488372",
    "tech_change_status": "Not Planned"
   }
  },
  {
   "type": "Feature",
   "geometry": {
    "type": "Point",
    "coordinates": [
     117.183197,
     -31.656843
    ]
   },
   "properties": {
    "name": "168 MUSSARED ROAD WAEEL 6407",
    "locID": "LOC000068881022",
    "tech": "NULL",
    "upgrade": "NULL_NA",
    "gnaf_pid": "GAWA_162488410",
    "tech_change_status": "Not Planned"
   }
  },
  {
   "type": "Feature",
   "geometry": {
    "type": "Point",
    "coordinates": [
     117.163644,
     -31.633649
    ]
   },
   "properties": {
    "name": "245 STOKES ROAD WAEEL 6407",
    "locID": "LOC000002138379",
    "tech": "NULL",
    "upgrade": "NULL_NA",
    "gnaf_pid": "GAWA_162490098",
    "tech_change_status": "Not Planned"
   }
  },
  {
   "type": "Feature",
   "geometry": {
    "type": "Point",
    "coordinates": [
     117.179185,
     -31.730148
    ]
   },
   "properties": {
    "name": "90 TOMALOCKIN ROAD WAEEL 6407",
    "locID": "LOC000008694704",
    "tech": "SATELLITE",
    "upgrade": "NULL_NA",
    "gnaf_pid": "GAWA_162490342",
    "tech_change_status": "Not Planned"
   }
  },
  {
   "type": "Feature",
   "geometry": {
    "type": "Point",
    "coordinates": [
     117.18183749,
     -31.55458128
    ]
   },
   "properties": {
    "name": "1123 WOONWOORING ROAD WAEEL 6407",
    "locID": "LOC000099110332",
    "tech": "NULL",
    "upgrade": "NULL_NA",
    "gnaf_pid": "GAWA_162490957",
    "tech_change_status": "Not Planned"
   }
  },
  {
   "type": "Feature",
   "geometry": {
    "type": "Point",
    "coordinates": [
     117.1809605,
     -31.58987342
    ]
   },
   "properties": {
    "name": "583 DENNIS ROAD WAEEL 6407",
    "locID": "LOC000046045668",
    "tech": "SATELLITE",
    "upgrade": "NULL_NA",
    "gnaf_pid": "GAWA_162494297",
    "tech_change_status": "Not Planned"
   }
  },
  {
   "type": "Feature",
   "geometry": {
    "type": "Point",
    "coordinates": [
     117.09485506,
     -31.53110368
    ]
   },
   "properties": {
    "name": "238 LEESONS ROAD WAEEL 6407",
    "locID": "LOC000054559949",
    "tech": "NULL",
    "upgrade": "NULL_NA",
    "gnaf_pid": "GAWA_162760643",
    "tech_change_status": "Not Planned"
   }
  }
 ]
}