{
 "type": "FeatureCollection",
 "generated": "2024-12-09T09:49:25.674966",
 "suburb": "WEST RIVER",
 "features": [
  {
   "type": "Feature",
   "geometry": {
    "type": "Point",
    "coordinates": [
     119.74942,
     -33.4412
    ]
   },
   "properties": {
    "name": "1555 FITZGERALD ROAD WEST RIVER 6346",
    "locID": "LOC000073420601",
    "tech": "SATELLITE",
    "upgrade": "NULL_NA",
    "gnaf_pid": "GAWA_161029479",
    "tech_change_status": "Not Planned"
   }
  },
  {
   "type": "Feature",
   "geometry": {
    "type": "Point",
    "coordinates": [
     119.70137,
     -33.41467
    ]
   },
   "properties": {
    "name": "1598 FITZGERALD ROAD WEST RIVER 6346",
    "locID": "LOC000065360487",
    "tech": "NULL",
    "upgrade": "NULL_NA",
    "gnaf_pid": "GAWA_161029480",
    "tech_change_status": "Not Planned"
   }
  },
  {
   "type": "Feature",
   "geometry": {
    "type": "Point",
    "coordinates": [
     119.70327,
     -33.46926
    ]
   },
   "properties": {
    "name": "2113 FITZGERALD ROAD WEST RIVER 6346",
    "locID": "LOC000100981461",
    "tech": "SATELLITE",
    "upgrade": "NULL_NA",
    "gnaf_pid": "GAWA_161029481",
    "tech_change_status": "Not Planned"
   }
  },
  {
   "type": "Feature",
   "geometry": {
    "type": "Point",
    "coordinates": [
     119.60416,
     -33.48514
    ]
   },
   "properties": {
    "name": "2790 FITZGERALD ROAD WEST RIVER 6346",
    "locID": "LOC000005635010",
    "tech": "SATELLITE",
    "upgrade": "NULL_NA",
    "gnaf_pid": "GAWA_161029482",
    "tech_change_status": "Not Planned"
   }
  },
  {
   "type": "Feature",
   "geometry": {
    "type": "Point",
    "coordinates": [
     119.52318,
     -33.76742
    ]
   },
   "properties": {
    "name": "6719 FITZGERALD ROAD WEST RIVER 6346",
    "locID": "LOC000089508620",
    "tech": "NULL",
    "upgrade": "NULL_NA",
    "gnaf_pid": "GAWA_161029483",
    "tech_change_status": "Not Planned"
   }
  },
  {
   "type": "Feature",
   "geometry": {
    "type": "Point",
    "coordinates": [
     119.71566,
     -33.62403
    ]
   },
   "properties": {
    "name": "1133 KOORNONG ROAD WEST RIVER 6346",
    "locID": "LOC000108020312",
    "tech": "SATELLITE",
    "upgrade": "NULL_NA",
    "gnaf_pid": "GAWA_161030950",
    "tech_change_status": "Not Planned"
   }
  },
  {
   "type": "Feature",
   "geometry": {
    "type": "Point",
    "coordinates": [
     119.68282,
     -33.58953
    ]
   },
   "properties": {
    "name": "1649 KOORNONG ROAD WEST RIVER 6346",
    "locID": "LOC000047763955",
    "tech": "SATELLITE",
    "upgrade": "NULL_NA",
    "gnaf_pid": "GAWA_161030951",
    "tech_change_status": "Not Planned"
   }
  },
  {
   "type": "Feature",
   "geometry": {
    "type": "Point",
    "coordinates": [
     119.67051,
     -33.57256
    ]
   },
   "properties": {
    "name": "1833 KOORNONG ROAD WEST RIVER 6346",
    "locID": "LOC000037724276",
    "tech": "SATELLITE",
    "upgrade": "NULL_NA",
    "gnaf_pid": "GAWA_161030952",
    "tech_change_status": "Not Planned"
   }
  },
  {
   "type": "Feature",
   "geometry": {
    "type": "Point",
    "coordinates": [
     119.65811,
     -33.55547
    ]
   },
   "properties": {
    "name": "1963 KOORNONG ROAD WEST RIVER 6346",
    "locID": "LOC000018141661",
    "tech": "SATELLITE",
    "upgrade": "NULL_NA",
    "gnaf_pid": "GAWA_161030953",
    "tech_change_status": "Not Planned"
   }
  },
  {
   "type": "Feature",
   "geometry": {
    "type": "Point",
    "coordinates": [
     119.64532,
     -33.53761
    ]
   },
   "properties": {
    "name": "2185 KOORNONG ROAD WEST RIVER 6346",
    "locID": "LOC000069685112",
    "tech": "SATELLITE",
    "upgrade": "NULL_NA",
    "gnaf_pid": "GAWA_161030954",
    "tech_change_status": "Not Planned"
   }
  },
  {
   "type": "Feature",
   "geometry": {
    "type": "Point",
    "coordinates": [
     119.67839163,
     -33.51403823
    ]
   },
   "properties": {
    "name": "2486 KOORNONG ROAD WEST RIVER 6346",
    "locID": "LOC000071577360",
    "tech": "NULL",
    "upgrade": "NULL_NA",
    "gnaf_pid": "GAWA_161030955",
    "tech_change_status": "Not Planned"
   }
  },
  {
   "type": "Feature",
   "geometry": {
    "type": "Point",
    "coordinates": [
     119.54643805,
     -33.46280645
    ]
   },
   "properties": {
    "name": "3767 KOORNONG ROAD WEST RIVER 6346",
    "locID": "LOC000063344913",
    "tech": "NULL",
    "upgrade": "NULL_NA",
    "gnaf_pid": "GAWA_161030956",
    "tech_change_status": "Not Planned"
   }
  },
  {
   "type": "Feature",
   "geometry": {
    "type": "Point",
    "coordinates": [
     119.72447,
     -33.38854
    ]
   },
   "properties": {
    "name": "2957 LONG CREEK ROAD WEST RIVER 6346",
    "locID": "LOC000101620176",
    "tech": "NULL",
    "upgrade": "NULL_NA",
    "gnaf_pid": "GAWA_161031134",
    "tech_change_status": "Not Planned"
   }
  },
  {
   "type": "Feature",
   "geometry": {
    "type": "Point",
    "coordinates": [
     119.68767,
     -33.34882
    ]
   },
   "properties": {
    "name": "3549 LONG CREEK ROAD WEST RIVER 6346",
    "locID": "LOC000018582176",
    "tech": "NULL",
    "upgrade": "NULL_NA",
    "gnaf_pid": "GAWA_161031135",
    "tech_change_status": "Not Planned"
   }
  },
  {
   "type": "Feature",
   "geometry": {
    "type": "Point",
    "coordinates": [
     119.72701,
     -33.68174
    ]
   },
   "properties": {
    "name": "21681 SOUTH COAST HIGHWAY WEST RIVER 6346",
    "locID": "LOC000039043616",
    "tech": "NULL",
    "upgrade": "NULL_NA",
    "gnaf_pid": "GAWA_161032827",
    "tech_change_status": "Not Planned"
   }
  },
  {
   "type": "Feature",
   "geometry": {
    "type": "Point",
    "coordinates": [
     119.73469,
     -33.64696
    ]
   },
   "properties": {
    "name": "21710 SOUTH COAST HIGHWAY WEST RIVER 6346",
    "locID": "LOC000033714478",
    "tech": "NULL",
    "upgrade": "NULL_NA",
    "gnaf_pid": "GAWA_161032828",
    "tech_change_status": "Not Planned"
   }
  },
  {
   "type": "Feature",
   "geometry": {
    "type": "Point",
    "coordinates": [
     119.68409,
     -33.64822
    ]
   },
   "properties": {
    "name": "21934 SOUTH COAST HIGHWAY WEST RIVER 6346",
    "locID": "LOC000030617682",
    "tech": "NULL",
    "upgrade": "NULL_NA",
    "gnaf_pid": "GAWA_161032829",
    "tech_change_status": "Not Planned"
   }
  },
  {
   "type": "Feature",
   "geometry": {
    "type": "Point",
    "coordinates": [
     119.64989,
     -33.67337
    ]
   },
   "properties": {
    "name": "22374 SOUTH COAST HIGHWAY WEST RIVER 6346",
    "locID": "LOC000020374632",
    "tech": "NULL",
    "upgrade": "NULL_NA",
    "gnaf_pid": "GAWA_161032830",
    "tech_change_status": "Not Planned"
   }
  },
  {
   "type": "Feature",
   "geometry": {
    "type": "Point",
    "coordinates": [
     119.63779361,
     -33.69192029
    ]
   },
   "properties": {
    "name": "22570 SOUTH COAST HIGHWAY WEST RIVER 6346",
    "locID": "LOC000030622150",
    "tech": "NULL",
    "upgrade": "NULL_NA",
    "gnaf_pid": "GAWA_161032831",
    "tech_change_status": "Not Planned"
   }
  },
  {
   "type": "Feature",
   "geometry": {
    "type": "Point",
    "coordinates": [
     119.49619,
     -33.75223
    ]
   },
   "properties": {
    "name": "24147 SOUTH COAST HIGHWAY WEST RIVER 6346",
    "locID": "LOC000031468612",
    "tech": "SATELLITE",
    "upgrade": "NULL_NA",
    "gnaf_pid": "GAWA_161032832",
    "tech_change_status": "Not Planned"
   }
  },
  {
   "type": "Feature",
   "geometry": {
    "type": "Point",
    "coordinates": [
     119.66888236,
     -33.4435889
    ]
   },
   "properties": {
    "name": "3347 AERODROME ROAD WEST RIVER 6346",
    "locID": "LOC000101425514",
    "tech": "SATELLITE",
    "upgrade": "NULL_NA",
    "gnaf_pid": "GAWA_161038958",
    "tech_change_status": "Not Planned"
   }
  },
  {
   "type": "Feature",
   "geometry": {
    "type": "Point",
    "coordinates": [
     119.64101,
     -33.39718
    ]
   },
   "properties": {
    "name": "3814 AERODROME ROAD WEST RIVER 6346",
    "locID": "LOC000085521756",
    "tech": "NULL",
    "upgrade": "NULL_NA",
    "gnaf_pid": "GAWA_161038959",
    "tech_change_status": "Not Planned"
   }
  },
  {
   "type": "Feature",
   "geometry": {
    "type": "Point",
    "coordinates": [
     119.68265357,
     -33.70890043
    ]
   },
   "properties": {
    "name": "22369 SOUTH COAST HIGHWAY WEST RIVER 6346",
    "locID": "LOC000096080031",
    "tech": "SATELLITE",
    "upgrade": "NULL_NA",
    "gnaf_pid": "GAWA_161041466",
    "tech_change_status": "Not Planned"
   }
  },
  {
   "type": "Feature",
   "geometry": {
    "type": "Point",
    "coordinates": [
     119.65978641,
     -33.7332131
    ]
   },
   "properties": {
    "name": "189 WEST RIVER ROAD WEST RIVER 6346",
    "locID": "LOC000086389908",
    "tech": "NULL",
    "upgrade": "NULL_NA",
    "gnaf_pid": "GAWA_161041782",
    "tech_change_status": "Not Planned"
   }
  },
  {
   "type": "Feature",
   "geometry": {
    "type": "Point",
    "coordinates": [
     119.65577436,
     -33.38342376
    ]
   },
   "properties": {
    "name": "5926 MALLEE ROAD WEST RIVER 6346",
    "locID": "LOC000042554911",
    "tech": "NULL",
    "upgrade": "NULL_NA",
    "gnaf_pid": "GAWA_161513489",
    "tech_change_status": "Not Planned"
   }
  },
  {
   "type": "Feature",
   "geometry": {
    "type": "Point",
    "coordinates": [
     119.66937451,
     -33.36629147
    ]
   },
   "properties": {
    "name": "6202 MALLEE ROAD WEST RIVER 6346",
    "locID": "LOC000022042966",
    "tech": "SATELLITE",
    "upgrade": "NULL_NA",
    "gnaf_pid": "GAWA_161513490",
    "tech_change_status": "Not Planned"
   }
  },
  {
   "type": "Feature",
   "geometry": {
    "type": "Point",
    "coordinates": [
     119.61481,
     -33.63495
    ]
   },
   "properties": {
    "name": "1244 WEST RIVER ROAD WEST RIVER 6346",
    "locID": "LOC000110932451",
    "tech": "NULL",
    "upgrade": "NULL_NA",
    "gnaf_pid": "GAWA_161995820",
    "tech_change_status": "Not Planned"
   }
  },
  {
   "type": "Feature",
   "geometry": {
    "type": "Point",
    "coordinates": [
     119.77788512,
     -33.46908713
    ]
   },
   "properties": {
    "name": "2308 AERODROME ROAD WEST RIVER 6346",
    "locID": "LOC000067626820",
    "tech": "SATELLITE",
    "upgrade": "NULL_NA",
    "gnaf_pid": "GAWA_162484799",
    "tech_change_status": "Not Planned"
   }
  },
  {
   "type": "Feature",
   "geometry": {
    "type": "Point",
    "coordinates": [
     119.50894548,
     -33.66173078
    ]
   },
   "properties": {
    "name": "467 COOMBEE ROAD WEST RIVER 6346",
    "locID": "LOC000116483762",
    "tech": "NULL",
    "upgrade": "NULL_NA",
    "gnaf_pid": "GAWA_162486004",
    "tech_change_status": "Not Planned"
   }
  },
  {
   "type": "Feature",
   "geometry": {
    "type": "Point",
    "coordinates": [
     119.58855027,
     -33.49890073
    ]
   },
   "properties": {
    "name": "3020 FITZGERALD ROAD WEST RIVER 6346",
    "locID": "LOC000161005112",
    "tech": "SATELLITE",
    "upgrade": "NULL_NA",
    "gnaf_pid": "GAWA_162486555",
    "tech_change_status": "Not Planned"
   }
  },
  {
   "type": "Feature",
   "geometry": {
    "type": "Point",
    "coordinates": [
     119.63077876,
     -33.51744157
    ]
   },
   "properties": {
    "name": "3093 FITZGERALD ROAD WEST RIVER 6346",
    "locID": "LOC000009484436",
    "tech": "SATELLITE",
    "upgrade": "NULL_NA",
    "gnaf_pid": "GAWA_162486556",
    "tech_change_status": "Not Planned"
   }
  },
  {
   "type": "Feature",
   "geometry": {
    "type": "Point",
    "coordinates": [
     119.58127153,
     -33.55547004
    ]
   },
   "properties": {
    "name": "3563 FITZGERALD ROAD WEST RIVER 6346",
    "locID": "LOC000059637258",
    "tech": "SATELLITE",
    "upgrade": "NULL_NA",
    "gnaf_pid": "GAWA_162486557",
    "tech_change_status": "Not Planned"
   }
  },
  {
   "type": "Feature",
   "geometry": {
    "type": "Point",
    "coordinates": [
     119.54222572,
     -33.54169893
    ]
   },
   "properties": {
    "name": "3604 FITZGERALD ROAD WEST RIVER 6346",
    "locID": "LOC000161005112",
    "tech": "SATELLITE",
    "upgrade": "NULL_NA",
    "gnaf_pid": "GAWA_162486558",
    "tech_change_status": "Not Planned"
   }
  },
  {
   "type": "Feature",
   "geometry": {
    "type": "Point",
    "coordinates": [
     119.62010644,
     -33.74410457
    ]
   },
   "properties": {
    "name": "2410 OLD ONGERUP ROAD WEST RIVER 6346",
    "locID": "LOC000133142922",
    "tech": "NULL",
    "upgrade": "NULL_NA",
    "gnaf_pid": "GAWA_162488798",
    "tech_change_status": "Not Planned"
   }
  },
  {
   "type": "Feature",
   "geometry": {
    "type": "Point",
    "coordinates": [
     119.60547441,
     -33.68742332
    ]
   },
   "properties": {
    "name": "22824 SOUTH COAST HIGHWAY WEST RIVER 6346",
    "locID": "LOC000025704497",
    "tech": "NULL",
    "upgrade": "NULL_NA",
    "gnaf_pid": "GAWA_162489945",
    "tech_change_status": "Not Planned"
   }
  },
  {
   "type": "Feature",
   "geometry": {
    "type": "Point",
    "coordinates": [
     119.56656507,
     -33.68543142
    ]
   },
   "properties": {
    "name": "23222 SOUTH COAST HIGHWAY WEST RIVER 6346",
    "locID": "LOC000003700965",
    "tech": "SATELLITE",
    "upgrade": "NULL_NA",
    "gnaf_pid": "GAWA_162489946",
    "tech_change_status": "Not Planned"
   }
  },
  {
   "type": "Feature",
   "geometry": {
    "type": "Point",
    "coordinates": [
     119.63055855,
     -33.65346086
    ]
   },
   "properties": {
    "name": "1092 WEST RIVER ROAD WEST RIVER 6346",
    "locID": "LOC000110652770",
    "tech": "NULL",
    "upgrade": "NULL_NA",
    "gnaf_pid": "GAWA_162490750",
    "tech_change_status": "Not Planned"
   }
  },
  {
   "type": "Feature",
   "geometry": {
    "type": "Point",
    "coordinates": [
     119.60558556,
     -33.61464458
    ]
   },
   "properties": {
    "name": "1632 WEST RIVER ROAD WEST RIVER 6346",
    "locID": "LOC000111943576",
    "tech": "SATELLITE",
    "upgrade": "NULL_NA",
    "gnaf_pid": "GAWA_162490751",
    "tech_change_status": "Not Planned"
   }
  },
  {
   "type": "Feature",
   "geometry": {
    "type": "Point",
    "coordinates": [
     119.59133833,
     -33.57444367
    ]
   },
   "properties": {
    "name": "2002 WEST RIVER ROAD WEST RIVER 6346",
    "locID": "LOC000111234682",
    "tech": "NULL",
    "upgrade": "NULL_NA",
    "gnaf_pid": "GAWA_162490753",
    "tech_change_status": "Not Planned"
   }
  },
  {
   "type": "Feature",
   "geometry": {
    "type": "Point",
    "coordinates": [
     119.59870823,
     -33.59368646
    ]
   },
   "properties": {
    "name": "1834 WEST RIVER ROAD WEST RIVER 6346",
    "locID": "LOC000110823736",
    "tech": "SATELLITE",
    "upgrade": "NULL_NA",
    "gnaf_pid": "GAWA_162765691",
    "tech_change_status": "Not Planned"
   }
  },
  {
   "type": "Feature",
   "geometry": {
    "type": "Point",
    "coordinates": [
     119.5996862,
     -33.70568961
    ]
   },
   "properties": {
    "name": "24581 SOUTH COAST HIGHWAY WEST RIVER 6346",
    "locID": "LOC000151486795",
    "tech": "SATELLITE",
    "upgrade": "NULL_NA",
    "gnaf_pid": "GAWA_719170258",
    "tech_change_status": "Not Planned"
   }
  }
 ]
}