{
 "type": "FeatureCollection",
 "generated": "2024-12-28T03:49:42.439560",
 "suburb": "WESTWOOD",
 "features": [
  {
   "type": "Feature",
   "geometry": {
    "type": "Point",
    "coordinates": [
     117.39177266,
     -33.58919633
    ]
   },
   "properties": {
    "name": "269 CORNWALL ROAD WESTWOOD 6316",
    "locID": "LOC000019414631",
    "tech": "NULL",
    "upgrade": "NULL_NA",
    "gnaf_pid": "GAWA_162000397",
    "tech_change_status": "Not Planned"
   }
  },
  {
   "type": "Feature",
   "geometry": {
    "type": "Point",
    "coordinates": [
     117.38008944,
     -33.63247399
    ]
   },
   "properties": {
    "name": "776 CORNWALL ROAD WESTWOOD 6316",
    "locID": "LOC000094310255",
    "tech": "NULL",
    "upgrade": "NULL_NA",
    "gnaf_pid": "GAWA_162000398",
    "tech_change_status": "Not Planned"
   }
  },
  {
   "type": "Feature",
   "geometry": {
    "type": "Point",
    "coordinates": [
     117.418717,
     -33.623548
    ]
   },
   "properties": {
    "name": "26620 GREAT SOUTHERN HIGHWAY WESTWOOD 6316",
    "locID": "LOC000002962066",
    "tech": "NULL",
    "upgrade": "NULL_NA",
    "gnaf_pid": "GAWA_162000861",
    "tech_change_status": "Not Planned"
   }
  },
  {
   "type": "Feature",
   "geometry": {
    "type": "Point",
    "coordinates": [
     117.345324,
     -33.558661
    ]
   },
   "properties": {
    "name": "595 JOHNSTON ROAD WESTWOOD 6316",
    "locID": "LOC000102232003",
    "tech": "NULL",
    "upgrade": "NULL_NA",
    "gnaf_pid": "GAWA_162001097",
    "tech_change_status": "Not Planned"
   }
  },
  {
   "type": "Feature",
   "geometry": {
    "type": "Point",
    "coordinates": [
     117.347118,
     -33.545133
    ]
   },
   "properties": {
    "name": "723 JOHNSTON ROAD WESTWOOD 6316",
    "locID": "LOC000048372557",
    "tech": "NULL",
    "upgrade": "NULL_NA",
    "gnaf_pid": "GAWA_162001098",
    "tech_change_status": "Not Planned"
   }
  },
  {
   "type": "Feature",
   "geometry": {
    "type": "Point",
    "coordinates": [
     117.40091714,
     -33.60076876
    ]
   },
   "properties": {
    "name": "190 NEWSTEAD ROAD WESTWOOD 6316",
    "locID": "LOC000011080721",
    "tech": "NULL",
    "upgrade": "NULL_NA",
    "gnaf_pid": "GAWA_162001872",
    "tech_change_status": "Not Planned"
   }
  },
  {
   "type": "Feature",
   "geometry": {
    "type": "Point",
    "coordinates": [
     117.40105319,
     -33.6079353
    ]
   },
   "properties": {
    "name": "197 NEWSTEAD ROAD WESTWOOD 6316",
    "locID": "LOC000064268619",
    "tech": "NULL",
    "upgrade": "NULL_NA",
    "gnaf_pid": "GAWA_162001873",
    "tech_change_status": "Not Planned"
   }
  },
  {
   "type": "Feature",
   "geometry": {
    "type": "Point",
    "coordinates": [
     117.40091714,
     -33.60076876
    ]
   },
   "properties": {
    "name": "208 NEWSTEAD ROAD WESTWOOD 6316",
    "locID": "LOC000084162190",
    "tech": "NULL",
    "upgrade": "NULL_NA",
    "gnaf_pid": "GAWA_162001874",
    "tech_change_status": "Not Planned"
   }
  },
  {
   "type": "Feature",
   "geometry": {
    "type": "Point",
    "coordinates": [
     117.34423186,
     -33.63752785
    ]
   },
   "properties": {
    "name": "1408 ONSLOW ROAD WESTWOOD 6316",
    "locID": "LOC000100758483",
    "tech": "NULL",
    "upgrade": "NULL_NA",
    "gnaf_pid": "GAWA_162002055",
    "tech_change_status": "Not Planned"
   }
  },
  {
   "type": "Feature",
   "geometry": {
    "type": "Point",
    "coordinates": [
     117.4209896,
     -33.64679147
    ]
   },
   "properties": {
    "name": "744 ONSLOW ROAD WESTWOOD 6316",
    "locID": "LOC000094293645",
    "tech": "SATELLITE",
    "upgrade": "NULL_NA",
    "gnaf_pid": "GAWA_162002056",
    "tech_change_status": "Not Planned"
   }
  },
  {
   "type": "Feature",
   "geometry": {
    "type": "Point",
    "coordinates": [
     117.282054,
     -33.58881
    ]
   },
   "properties": {
    "name": "1425 ORCHARD ROAD WESTWOOD 6316",
    "locID": "LOC000107420530",
    "tech": "SATELLITE",
    "upgrade": "NULL_NA",
    "gnaf_pid": "GAWA_162002071",
    "tech_change_status": "Not Planned"
   }
  },
  {
   "type": "Feature",
   "geometry": {
    "type": "Point",
    "coordinates": [
     117.324804,
     -33.580697
    ]
   },
   "properties": {
    "name": "989 ORCHARD ROAD WESTWOOD 6316",
    "locID": "LOC000086270951",
    "tech": "NULL",
    "upgrade": "NULL_NA",
    "gnaf_pid": "GAWA_162002072",
    "tech_change_status": "Not Planned"
   }
  },
  {
   "type": "Feature",
   "geometry": {
    "type": "Point",
    "coordinates": [
     117.312341,
     -33.615351
    ]
   },
   "properties": {
    "name": "542 RIVER ROAD WESTWOOD 6316",
    "locID": "LOC000007043616",
    "tech": "NULL",
    "upgrade": "NULL_NA",
    "gnaf_pid": "GAWA_162002225",
    "tech_change_status": "Not Planned"
   }
  },
  {
   "type": "Feature",
   "geometry": {
    "type": "Point",
    "coordinates": [
     117.362773,
     -33.566996
    ]
   },
   "properties": {
    "name": "2668 ROBINSON ROAD WESTWOOD 6316",
    "locID": "LOC000065004040",
    "tech": "NULL",
    "upgrade": "NULL_NA",
    "gnaf_pid": "GAWA_162002240",
    "tech_change_status": "Not Planned"
   }
  },
  {
   "type": "Feature",
   "geometry": {
    "type": "Point",
    "coordinates": [
     117.409659,
     -33.635888
    ]
   },
   "properties": {
    "name": "1126 WARBURTON ROAD WESTWOOD 6316",
    "locID": "LOC000133185131",
    "tech": "SATELLITE",
    "upgrade": "NULL_NA",
    "gnaf_pid": "GAWA_162003170",
    "tech_change_status": "Not Planned"
   }
  },
  {
   "type": "Feature",
   "geometry": {
    "type": "Point",
    "coordinates": [
     117.32101513,
     -33.54838779
    ]
   },
   "properties": {
    "name": "245 WESTWOOD ROAD WESTWOOD 6316",
    "locID": "LOC000022011843",
    "tech": "NULL",
    "upgrade": "NULL_NA",
    "gnaf_pid": "GAWA_162591723",
    "tech_change_status": "Not Planned"
   }
  },
  {
   "type": "Feature",
   "geometry": {
    "type": "Point",
    "coordinates": [
     117.22953574,
     -33.65068722
    ]
   },
   "properties": {
    "name": "465 MISSION ROAD WESTWOOD 6316",
    "locID": "LOC100078086322",
    "tech": "NULL",
    "upgrade": "NULL_NA",
    "gnaf_pid": "GAWA_719148247",
    "tech_change_status": "Not Planned"
   }
  }
 ]
}