{
 "type": "FeatureCollection",
 "generated": "2024-11-17T20:58:02.728062",
 "suburb": "YANMAH",
 "features": [
  {
   "type": "Feature",
   "geometry": {
    "type": "Point",
    "coordinates": [
     116.02193153,
     -34.19497911
    ]
   },
   "properties": {
    "name": "LOT 11 MITCHELLDEAN ROAD YANMAH 6258",
    "locID": "LOC000113397480",
    "tech": "SATELLITE",
    "upgrade": "NULL_NA",
    "gnaf_pid": "GAWA_162819986",
    "tech_change_status": "Not Planned"
   }
  },
  {
   "type": "Feature",
   "geometry": {
    "type": "Point",
    "coordinates": [
     116.0654222,
     -34.17429964
    ]
   },
   "properties": {
    "name": "123 BUTLER ROAD YANMAH 6258",
    "locID": "LOC000112264852",
    "tech": "NULL",
    "upgrade": "NULL_NA",
    "gnaf_pid": "GAWA_163377625",
    "tech_change_status": "Not Planned"
   }
  },
  {
   "type": "Feature",
   "geometry": {
    "type": "Point",
    "coordinates": [
     116.03409416,
     -34.21476136
    ]
   },
   "properties": {
    "name": "184 DEADMANS GULLY ROAD YANMAH 6258",
    "locID": "LOC000111786055",
    "tech": "SATELLITE",
    "upgrade": "NULL_NA",
    "gnaf_pid": "GAWA_163378446",
    "tech_change_status": "Not Planned"
   }
  },
  {
   "type": "Feature",
   "geometry": {
    "type": "Point",
    "coordinates": [
     116.00763061,
     -34.21348597
    ]
   },
   "properties": {
    "name": "135 DOAKS ROAD YANMAH 6258",
    "locID": "LOC000110268498",
    "tech": "NULL",
    "upgrade": "NULL_NA",
    "gnaf_pid": "GAWA_163378604",
    "tech_change_status": "Not Planned"
   }
  },
  {
   "type": "Feature",
   "geometry": {
    "type": "Point",
    "coordinates": [
     116.00581348,
     -34.21074163
    ]
   },
   "properties": {
    "name": "169 DOAKS ROAD YANMAH 6258",
    "locID": "LOC000111864178",
    "tech": "NULL",
    "upgrade": "NULL_NA",
    "gnaf_pid": "GAWA_163378605",
    "tech_change_status": "Not Planned"
   }
  },
  {
   "type": "Feature",
   "geometry": {
    "type": "Point",
    "coordinates": [
     116.00246272,
     -34.22317521
    ]
   },
   "properties": {
    "name": "45 DOAKS ROAD YANMAH 6258",
    "locID": "LOC000110294117",
    "tech": "NULL",
    "upgrade": "NULL_NA",
    "gnaf_pid": "GAWA_163378606",
    "tech_change_status": "Not Planned"
   }
  },
  {
   "type": "Feature",
   "geometry": {
    "type": "Point",
    "coordinates": [
     116.01159861,
     -34.21940171
    ]
   },
   "properties": {
    "name": "62 DOAKS ROAD YANMAH 6258",
    "locID": "LOC000113370980",
    "tech": "SATELLITE",
    "upgrade": "NULL_NA",
    "gnaf_pid": "GAWA_163378607",
    "tech_change_status": "Not Planned"
   }
  },
  {
   "type": "Feature",
   "geometry": {
    "type": "Point",
    "coordinates": [
     116.00103649,
     -34.21630819
    ]
   },
   "properties": {
    "name": "63 DOAKS ROAD YANMAH 6258",
    "locID": "LOC000113404904",
    "tech": "NULL",
    "upgrade": "NULL_NA",
    "gnaf_pid": "GAWA_163378608",
    "tech_change_status": "Not Planned"
   }
  },
  {
   "type": "Feature",
   "geometry": {
    "type": "Point",
    "coordinates": [
     116.05667071,
     -34.17401034
    ]
   },
   "properties": {
    "name": "138 DONNELLY ROAD YANMAH 6258",
    "locID": "LOC000113887273",
    "tech": "SATELLITE",
    "upgrade": "NULL_NA",
    "gnaf_pid": "GAWA_163378647",
    "tech_change_status": "Not Planned"
   }
  },
  {
   "type": "Feature",
   "geometry": {
    "type": "Point",
    "coordinates": [
     116.04509017,
     -34.17012887
    ]
   },
   "properties": {
    "name": "203 DONNELLY ROAD YANMAH 6258",
    "locID": "LOC000112283552",
    "tech": "NULL",
    "upgrade": "NULL_NA",
    "gnaf_pid": "GAWA_163378648",
    "tech_change_status": "Not Planned"
   }
  },
  {
   "type": "Feature",
   "geometry": {
    "type": "Point",
    "coordinates": [
     116.03775967,
     -34.16666294
    ]
   },
   "properties": {
    "name": "355 DONNELLY ROAD YANMAH 6258",
    "locID": "LOC000113987792",
    "tech": "SATELLITE",
    "upgrade": "NULL_NA",
    "gnaf_pid": "GAWA_163378649",
    "tech_change_status": "Not Planned"
   }
  },
  {
   "type": "Feature",
   "geometry": {
    "type": "Point",
    "coordinates": [
     116.03364522,
     -34.16214164
    ]
   },
   "properties": {
    "name": "431 DONNELLY ROAD YANMAH 6258",
    "locID": "LOC000112695366",
    "tech": "NULL",
    "upgrade": "NULL_NA",
    "gnaf_pid": "GAWA_163378650",
    "tech_change_status": "Not Planned"
   }
  },
  {
   "type": "Feature",
   "geometry": {
    "type": "Point",
    "coordinates": [
     116.03350607,
     -34.15325987
    ]
   },
   "properties": {
    "name": "448 DONNELLY ROAD YANMAH 6258",
    "locID": "LOC000112733265",
    "tech": "SATELLITE",
    "upgrade": "NULL_NA",
    "gnaf_pid": "GAWA_163378651",
    "tech_change_status": "Not Planned"
   }
  },
  {
   "type": "Feature",
   "geometry": {
    "type": "Point",
    "coordinates": [
     116.02388153,
     -34.1561638
    ]
   },
   "properties": {
    "name": "526 DONNELLY ROAD YANMAH 6258",
    "locID": "LOC000111060190",
    "tech": "NULL",
    "upgrade": "NULL_NA",
    "gnaf_pid": "GAWA_163378652",
    "tech_change_status": "Not Planned"
   }
  },
  {
   "type": "Feature",
   "geometry": {
    "type": "Point",
    "coordinates": [
     116.05746296,
     -34.17790795
    ]
   },
   "properties": {
    "name": "72 DONNELLY ROAD YANMAH 6258",
    "locID": "LOC000111147149",
    "tech": "NULL",
    "upgrade": "NULL_NA",
    "gnaf_pid": "GAWA_163378653",
    "tech_change_status": "Not Planned"
   }
  },
  {
   "type": "Feature",
   "geometry": {
    "type": "Point",
    "coordinates": [
     116.01824596,
     -34.16985977
    ]
   },
   "properties": {
    "name": "124 EPHRAIM GULLY GROVE YANMAH 6258",
    "locID": "LOC000110241530",
    "tech": "NULL",
    "upgrade": "NULL_NA",
    "gnaf_pid": "GAWA_163378980",
    "tech_change_status": "Not Planned"
   }
  },
  {
   "type": "Feature",
   "geometry": {
    "type": "Point",
    "coordinates": [
     116.01572398,
     -34.18177931
    ]
   },
   "properties": {
    "name": "15 EPHRAIM GULLY GROVE YANMAH 6258",
    "locID": "LOC000110374215",
    "tech": "SATELLITE",
    "upgrade": "NULL_NA",
    "gnaf_pid": "GAWA_163378981",
    "tech_change_status": "Not Planned"
   }
  },
  {
   "type": "Feature",
   "geometry": {
    "type": "Point",
    "coordinates": [
     116.01572398,
     -34.18177931
    ]
   },
   "properties": {
    "name": "3 EPHRAIM GULLY GROVE YANMAH 6258",
    "locID": "LOC000113930091",
    "tech": "NULL",
    "upgrade": "NULL_NA",
    "gnaf_pid": "GAWA_163378982",
    "tech_change_status": "Not Planned"
   }
  },
  {
   "type": "Feature",
   "geometry": {
    "type": "Point",
    "coordinates": [
     116.01885577,
     -34.17960921
    ]
   },
   "properties": {
    "name": "48 EPHRAIM GULLY GROVE YANMAH 6258",
    "locID": "LOC000112723358",
    "tech": "SATELLITE",
    "upgrade": "NULL_NA",
    "gnaf_pid": "GAWA_163378983",
    "tech_change_status": "Not Planned"
   }
  },
  {
   "type": "Feature",
   "geometry": {
    "type": "Point",
    "coordinates": [
     116.01959688,
     -34.17702932
    ]
   },
   "properties": {
    "name": "72 EPHRAIM GULLY GROVE YANMAH 6258",
    "locID": "LOC000110681467",
    "tech": "SATELLITE",
    "upgrade": "NULL_NA",
    "gnaf_pid": "GAWA_163378984",
    "tech_change_status": "Not Planned"
   }
  },
  {
   "type": "Feature",
   "geometry": {
    "type": "Point",
    "coordinates": [
     116.00355139,
     -34.2060784
    ]
   },
   "properties": {
    "name": "67 FRYERS ROAD YANMAH 6258",
    "locID": "LOC000113374964",
    "tech": "NULL",
    "upgrade": "NULL_NA",
    "gnaf_pid": "GAWA_163379359",
    "tech_change_status": "Not Planned"
   }
  },
  {
   "type": "Feature",
   "geometry": {
    "type": "Point",
    "coordinates": [
     116.05047205,
     -34.23153147
    ]
   },
   "properties": {
    "name": "1008 GRAPHITE ROAD YANMAH 6258",
    "locID": "LOC000112684794",
    "tech": "NULL",
    "upgrade": "NULL_NA",
    "gnaf_pid": "GAWA_163379639",
    "tech_change_status": "Not Planned"
   }
  },
  {
   "type": "Feature",
   "geometry": {
    "type": "Point",
    "coordinates": [
     116.03823576,
     -34.22914278
    ]
   },
   "properties": {
    "name": "1124 GRAPHITE ROAD YANMAH 6258",
    "locID": "LOC000110817767",
    "tech": "NULL",
    "upgrade": "NULL_NA",
    "gnaf_pid": "GAWA_163379640",
    "tech_change_status": "Not Planned"
   }
  },
  {
   "type": "Feature",
   "geometry": {
    "type": "Point",
    "coordinates": [
     115.97955238,
     -34.21466504
    ]
   },
   "properties": {
    "name": "1728 GRAPHITE ROAD YANMAH 6258",
    "locID": "LOC000111310396",
    "tech": "NULL",
    "upgrade": "NULL_NA",
    "gnaf_pid": "GAWA_163379642",
    "tech_change_status": "Not Planned"
   }
  },
  {
   "type": "Feature",
   "geometry": {
    "type": "Point",
    "coordinates": [
     115.98857643,
     -34.20991881
    ]
   },
   "properties": {
    "name": "135 JONES ROAD YANMAH 6258",
    "locID": "LOC000112474796",
    "tech": "NULL",
    "upgrade": "NULL_NA",
    "gnaf_pid": "GAWA_163380705",
    "tech_change_status": "Not Planned"
   }
  },
  {
   "type": "Feature",
   "geometry": {
    "type": "Point",
    "coordinates": [
     115.98953458,
     -34.206424
    ]
   },
   "properties": {
    "name": "181 JONES ROAD YANMAH 6258",
    "locID": "LOC000113536312",
    "tech": "SATELLITE",
    "upgrade": "NULL_NA",
    "gnaf_pid": "GAWA_163380706",
    "tech_change_status": "Not Planned"
   }
  },
  {
   "type": "Feature",
   "geometry": {
    "type": "Point",
    "coordinates": [
     115.98979879,
     -34.20450882
    ]
   },
   "properties": {
    "name": "223 JONES ROAD YANMAH 6258",
    "locID": "LOC000113441370",
    "tech": "NULL",
    "upgrade": "NULL_NA",
    "gnaf_pid": "GAWA_163380708",
    "tech_change_status": "Not Planned"
   }
  },
  {
   "type": "Feature",
   "geometry": {
    "type": "Point",
    "coordinates": [
     115.99099469,
     -34.19583351
    ]
   },
   "properties": {
    "name": "263 JONES ROAD YANMAH 6258",
    "locID": "LOC000112489021",
    "tech": "SATELLITE",
    "upgrade": "NULL_NA",
    "gnaf_pid": "GAWA_163380709",
    "tech_change_status": "Not Planned"
   }
  },
  {
   "type": "Feature",
   "geometry": {
    "type": "Point",
    "coordinates": [
     115.98409987,
     -34.2178025
    ]
   },
   "properties": {
    "name": "31 JONES ROAD YANMAH 6258",
    "locID": "LOC000111068771",
    "tech": "NULL",
    "upgrade": "NULL_NA",
    "gnaf_pid": "GAWA_163380710",
    "tech_change_status": "Not Planned"
   }
  },
  {
   "type": "Feature",
   "geometry": {
    "type": "Point",
    "coordinates": [
     116.00182798,
     -34.19630696
    ]
   },
   "properties": {
    "name": "338 JONES ROAD YANMAH 6258",
    "locID": "LOC000112671208",
    "tech": "SATELLITE",
    "upgrade": "NULL_NA",
    "gnaf_pid": "GAWA_163380711",
    "tech_change_status": "Not Planned"
   }
  },
  {
   "type": "Feature",
   "geometry": {
    "type": "Point",
    "coordinates": [
     115.99671914,
     -34.19583746
    ]
   },
   "properties": {
    "name": "339 JONES ROAD YANMAH 6258",
    "locID": "LOC000112599999",
    "tech": "NULL",
    "upgrade": "NULL_NA",
    "gnaf_pid": "GAWA_163380712",
    "tech_change_status": "Not Planned"
   }
  },
  {
   "type": "Feature",
   "geometry": {
    "type": "Point",
    "coordinates": [
     115.99568353,
     -34.19039015
    ]
   },
   "properties": {
    "name": "397 JONES ROAD YANMAH 6258",
    "locID": "LOC000112142933",
    "tech": "SATELLITE",
    "upgrade": "NULL_NA",
    "gnaf_pid": "GAWA_163380713",
    "tech_change_status": "Not Planned"
   }
  },
  {
   "type": "Feature",
   "geometry": {
    "type": "Point",
    "coordinates": [
     116.00311908,
     -34.19135655
    ]
   },
   "properties": {
    "name": "440 JONES ROAD YANMAH 6258",
    "locID": "LOC000113528840",
    "tech": "NULL",
    "upgrade": "NULL_NA",
    "gnaf_pid": "GAWA_163380714",
    "tech_change_status": "Not Planned"
   }
  },
  {
   "type": "Feature",
   "geometry": {
    "type": "Point",
    "coordinates": [
     116.00803104,
     -34.18166079
    ]
   },
   "properties": {
    "name": "459 JONES ROAD YANMAH 6258",
    "locID": "LOC000112538791",
    "tech": "NULL",
    "upgrade": "NULL_NA",
    "gnaf_pid": "GAWA_163380715",
    "tech_change_status": "Not Planned"
   }
  },
  {
   "type": "Feature",
   "geometry": {
    "type": "Point",
    "coordinates": [
     116.00311908,
     -34.19135655
    ]
   },
   "properties": {
    "name": "460 JONES ROAD YANMAH 6258",
    "locID": "LOC000111830683",
    "tech": "SATELLITE",
    "upgrade": "NULL_NA",
    "gnaf_pid": "GAWA_163380716",
    "tech_change_status": "Not Planned"
   }
  },
  {
   "type": "Feature",
   "geometry": {
    "type": "Point",
    "coordinates": [
     116.01192442,
     -34.18899688
    ]
   },
   "properties": {
    "name": "508 JONES ROAD YANMAH 6258",
    "locID": "LOC000110413611",
    "tech": "SATELLITE",
    "upgrade": "NULL_NA",
    "gnaf_pid": "GAWA_163380717",
    "tech_change_status": "Not Planned"
   }
  },
  {
   "type": "Feature",
   "geometry": {
    "type": "Point",
    "coordinates": [
     116.0155226,
     -34.18873804
    ]
   },
   "properties": {
    "name": "560 JONES ROAD YANMAH 6258",
    "locID": "LOC000111734675",
    "tech": "NULL",
    "upgrade": "NULL_NA",
    "gnaf_pid": "GAWA_163380718",
    "tech_change_status": "Not Planned"
   }
  },
  {
   "type": "Feature",
   "geometry": {
    "type": "Point",
    "coordinates": [
     116.01572398,
     -34.18177931
    ]
   },
   "properties": {
    "name": "595 JONES ROAD YANMAH 6258",
    "locID": "LOC000113680106",
    "tech": "NULL",
    "upgrade": "NULL_NA",
    "gnaf_pid": "GAWA_163380719",
    "tech_change_status": "Not Planned"
   }
  },
  {
   "type": "Feature",
   "geometry": {
    "type": "Point",
    "coordinates": [
     115.99069292,
     -34.19965132
    ]
   },
   "properties": {
    "name": "10 LADYCROFT ROAD YANMAH 6258",
    "locID": "LOC000111105289",
    "tech": "SATELLITE",
    "upgrade": "NULL_NA",
    "gnaf_pid": "GAWA_163381131",
    "tech_change_status": "Not Planned"
   }
  },
  {
   "type": "Feature",
   "geometry": {
    "type": "Point",
    "coordinates": [
     115.98652965,
     -34.19809766
    ]
   },
   "properties": {
    "name": "86 LADYCROFT ROAD YANMAH 6258",
    "locID": "LOC000110582654",
    "tech": "SATELLITE",
    "upgrade": "NULL_NA",
    "gnaf_pid": "GAWA_163381132",
    "tech_change_status": "Not Planned"
   }
  },
  {
   "type": "Feature",
   "geometry": {
    "type": "Point",
    "coordinates": [
     116.02686617,
     -34.21637495
    ]
   },
   "properties": {
    "name": "150 MITCHELLDEAN ROAD YANMAH 6258",
    "locID": "LOC000110661801",
    "tech": "NULL",
    "upgrade": "NULL_NA",
    "gnaf_pid": "GAWA_163382148",
    "tech_change_status": "Not Planned"
   }
  },
  {
   "type": "Feature",
   "geometry": {
    "type": "Point",
    "coordinates": [
     116.02057465,
     -34.21962725
    ]
   },
   "properties": {
    "name": "167 MITCHELLDEAN ROAD YANMAH 6258",
    "locID": "LOC000111705101",
    "tech": "SATELLITE",
    "upgrade": "NULL_NA",
    "gnaf_pid": "GAWA_163382149",
    "tech_change_status": "Not Planned"
   }
  },
  {
   "type": "Feature",
   "geometry": {
    "type": "Point",
    "coordinates": [
     116.02604204,
     -34.21247258
    ]
   },
   "properties": {
    "name": "230 MITCHELLDEAN ROAD YANMAH 6258",
    "locID": "LOC000113716979",
    "tech": "NULL",
    "upgrade": "NULL_NA",
    "gnaf_pid": "GAWA_163382150",
    "tech_change_status": "Not Planned"
   }
  },
  {
   "type": "Feature",
   "geometry": {
    "type": "Point",
    "coordinates": [
     116.01233142,
     -34.20564918
    ]
   },
   "properties": {
    "name": "323 MITCHELLDEAN ROAD YANMAH 6258",
    "locID": "LOC000112256010",
    "tech": "SATELLITE",
    "upgrade": "NULL_NA",
    "gnaf_pid": "GAWA_163382151",
    "tech_change_status": "Not Planned"
   }
  },
  {
   "type": "Feature",
   "geometry": {
    "type": "Point",
    "coordinates": [
     116.01233142,
     -34.20564918
    ]
   },
   "properties": {
    "name": "326 MITCHELLDEAN ROAD YANMAH 6258",
    "locID": "LOC000111414569",
    "tech": "NULL",
    "upgrade": "NULL_NA",
    "gnaf_pid": "GAWA_163382152",
    "tech_change_status": "Not Planned"
   }
  },
  {
   "type": "Feature",
   "geometry": {
    "type": "Point",
    "coordinates": [
     116.01891037,
     -34.20169832
    ]
   },
   "properties": {
    "name": "372 MITCHELLDEAN ROAD YANMAH 6258",
    "locID": "LOC000110961452",
    "tech": "NULL",
    "upgrade": "NULL_NA",
    "gnaf_pid": "GAWA_163382153",
    "tech_change_status": "Not Planned"
   }
  },
  {
   "type": "Feature",
   "geometry": {
    "type": "Point",
    "coordinates": [
     116.0147173,
     -34.20024114
    ]
   },
   "properties": {
    "name": "407 MITCHELLDEAN ROAD YANMAH 6258",
    "locID": "LOC000111354153",
    "tech": "NULL",
    "upgrade": "NULL_NA",
    "gnaf_pid": "GAWA_163382154",
    "tech_change_status": "Not Planned"
   }
  },
  {
   "type": "Feature",
   "geometry": {
    "type": "Point",
    "coordinates": [
     116.01599984,
     -34.19685692
    ]
   },
   "properties": {
    "name": "433 MITCHELLDEAN ROAD YANMAH 6258",
    "locID": "LOC000112098464",
    "tech": "NULL",
    "upgrade": "NULL_NA",
    "gnaf_pid": "GAWA_163382155",
    "tech_change_status": "Not Planned"
   }
  },
  {
   "type": "Feature",
   "geometry": {
    "type": "Point",
    "coordinates": [
     116.01599984,
     -34.19685692
    ]
   },
   "properties": {
    "name": "473 MITCHELLDEAN ROAD YANMAH 6258",
    "locID": "LOC000111376966",
    "tech": "NULL",
    "upgrade": "NULL_NA",
    "gnaf_pid": "GAWA_163382156",
    "tech_change_status": "Not Planned"
   }
  },
  {
   "type": "Feature",
   "geometry": {
    "type": "Point",
    "coordinates": [
     116.01770407,
     -34.19287538
    ]
   },
   "properties": {
    "name": "509 MITCHELLDEAN ROAD YANMAH 6258",
    "locID": "LOC000111044092",
    "tech": "NULL",
    "upgrade": "NULL_NA",
    "gnaf_pid": "GAWA_163382157",
    "tech_change_status": "Not Planned"
   }
  },
  {
   "type": "Feature",
   "geometry": {
    "type": "Point",
    "coordinates": [
     116.01878489,
     -34.19023137
    ]
   },
   "properties": {
    "name": "527 MITCHELLDEAN ROAD YANMAH 6258",
    "locID": "LOC000113397480",
    "tech": "SATELLITE",
    "upgrade": "NULL_NA",
    "gnaf_pid": "GAWA_163382158",
    "tech_change_status": "Not Planned"
   }
  },
  {
   "type": "Feature",
   "geometry": {
    "type": "Point",
    "coordinates": [
     116.01899652,
     -34.18967498
    ]
   },
   "properties": {
    "name": "535 MITCHELLDEAN ROAD YANMAH 6258",
    "locID": "LOC000113566080",
    "tech": "SATELLITE",
    "upgrade": "NULL_NA",
    "gnaf_pid": "GAWA_163382159",
    "tech_change_status": "Not Planned"
   }
  },
  {
   "type": "Feature",
   "geometry": {
    "type": "Point",
    "coordinates": [
     116.01801749,
     -34.18895247
    ]
   },
   "properties": {
    "name": "551 MITCHELLDEAN ROAD YANMAH 6258",
    "locID": "LOC000111265999",
    "tech": "NULL",
    "upgrade": "NULL_NA",
    "gnaf_pid": "GAWA_163382160",
    "tech_change_status": "Not Planned"
   }
  },
  {
   "type": "Feature",
   "geometry": {
    "type": "Point",
    "coordinates": [
     116.035313,
     -34.22497142
    ]
   },
   "properties": {
    "name": "61 MITCHELLDEAN ROAD YANMAH 6258",
    "locID": "LOC000113751916",
    "tech": "NULL",
    "upgrade": "NULL_NA",
    "gnaf_pid": "GAWA_163382161",
    "tech_change_status": "Not Planned"
   }
  },
  {
   "type": "Feature",
   "geometry": {
    "type": "Point",
    "coordinates": [
     116.03090422,
     -34.17498522
    ]
   },
   "properties": {
    "name": "702 MITCHELLDEAN ROAD YANMAH 6258",
    "locID": "LOC000111656440",
    "tech": "NULL",
    "upgrade": "NULL_NA",
    "gnaf_pid": "GAWA_163382163",
    "tech_change_status": "Not Planned"
   }
  },
  {
   "type": "Feature",
   "geometry": {
    "type": "Point",
    "coordinates": [
     116.02050366,
     -34.17517849
    ]
   },
   "properties": {
    "name": "705 MITCHELLDEAN ROAD YANMAH 6258",
    "locID": "LOC000110833795",
    "tech": "SATELLITE",
    "upgrade": "NULL_NA",
    "gnaf_pid": "GAWA_163382164",
    "tech_change_status": "Not Planned"
   }
  },
  {
   "type": "Feature",
   "geometry": {
    "type": "Point",
    "coordinates": [
     116.01824596,
     -34.16985977
    ]
   },
   "properties": {
    "name": "765 MITCHELLDEAN ROAD YANMAH 6258",
    "locID": "LOC000110271572",
    "tech": "NULL",
    "upgrade": "NULL_NA",
    "gnaf_pid": "GAWA_163382165",
    "tech_change_status": "Not Planned"
   }
  },
  {
   "type": "Feature",
   "geometry": {
    "type": "Point",
    "coordinates": [
     116.02950486,
     -34.17037909
    ]
   },
   "properties": {
    "name": "810 MITCHELLDEAN ROAD YANMAH 6258",
    "locID": "LOC000110536058",
    "tech": "SATELLITE",
    "upgrade": "NULL_NA",
    "gnaf_pid": "GAWA_163382166",
    "tech_change_status": "Not Planned"
   }
  },
  {
   "type": "Feature",
   "geometry": {
    "type": "Point",
    "coordinates": [
     115.97800468,
     -34.20466676
    ]
   },
   "properties": {
    "name": "128 PAGANINI ROAD YANMAH 6258",
    "locID": "LOC000111637008",
    "tech": "SATELLITE",
    "upgrade": "NULL_NA",
    "gnaf_pid": "GAWA_163382950",
    "tech_change_status": "Not Planned"
   }
  },
  {
   "type": "Feature",
   "geometry": {
    "type": "Point",
    "coordinates": [
     115.97386969,
     -34.19136931
    ]
   },
   "properties": {
    "name": "280 PAGANINI ROAD YANMAH 6258",
    "locID": "LOC000110845785",
    "tech": "NULL",
    "upgrade": "NULL_NA",
    "gnaf_pid": "GAWA_163382951",
    "tech_change_status": "Not Planned"
   }
  },
  {
   "type": "Feature",
   "geometry": {
    "type": "Point",
    "coordinates": [
     115.97737678,
     -34.20983584
    ]
   },
   "properties": {
    "name": "64 PAGANINI ROAD YANMAH 6258",
    "locID": "LOC000110363640",
    "tech": "SATELLITE",
    "upgrade": "NULL_NA",
    "gnaf_pid": "GAWA_163382952",
    "tech_change_status": "Not Planned"
   }
  },
  {
   "type": "Feature",
   "geometry": {
    "type": "Point",
    "coordinates": [
     116.02832522,
     -34.2006419
    ]
   },
   "properties": {
    "name": "1070 RALSTON ROAD YANMAH 6258",
    "locID": "LOC000111186888",
    "tech": "SATELLITE",
    "upgrade": "NULL_NA",
    "gnaf_pid": "GAWA_163383639",
    "tech_change_status": "Not Planned"
   }
  },
  {
   "type": "Feature",
   "geometry": {
    "type": "Point",
    "coordinates": [
     116.00680525,
     -34.16086579
    ]
   },
   "properties": {
    "name": "159 SEARS ROAD YANMAH 6258",
    "locID": "LOC000111482365",
    "tech": "NULL",
    "upgrade": "NULL_NA",
    "gnaf_pid": "GAWA_163384158",
    "tech_change_status": "Not Planned"
   }
  },
  {
   "type": "Feature",
   "geometry": {
    "type": "Point",
    "coordinates": [
     116.00976043,
     -34.16360582
    ]
   },
   "properties": {
    "name": "87 SEARS ROAD YANMAH 6258",
    "locID": "LOC000112051184",
    "tech": "NULL",
    "upgrade": "NULL_NA",
    "gnaf_pid": "GAWA_163384159",
    "tech_change_status": "Not Planned"
   }
  },
  {
   "type": "Feature",
   "geometry": {
    "type": "Point",
    "coordinates": [
     116.0893815,
     -34.18516692
    ]
   },
   "properties": {
    "name": "296 YANMAH ROAD YANMAH 6258",
    "locID": "LOC000113663423",
    "tech": "NULL",
    "upgrade": "NULL_NA",
    "gnaf_pid": "GAWA_163386473",
    "tech_change_status": "Not Planned"
   }
  },
  {
   "type": "Feature",
   "geometry": {
    "type": "Point",
    "coordinates": [
     116.06574789,
     -34.18166444
    ]
   },
   "properties": {
    "name": "472 YANMAH ROAD YANMAH 6258",
    "locID": "LOC000110640160",
    "tech": "NULL",
    "upgrade": "NULL_NA",
    "gnaf_pid": "GAWA_163386474",
    "tech_change_status": "Not Planned"
   }
  },
  {
   "type": "Feature",
   "geometry": {
    "type": "Point",
    "coordinates": [
     116.05872924,
     -34.182322
    ]
   },
   "properties": {
    "name": "538 YANMAH ROAD YANMAH 6258",
    "locID": "LOC000112630683",
    "tech": "SATELLITE",
    "upgrade": "NULL_NA",
    "gnaf_pid": "GAWA_163386475",
    "tech_change_status": "Not Planned"
   }
  },
  {
   "type": "Feature",
   "geometry": {
    "type": "Point",
    "coordinates": [
     116.02878998,
     -34.19196171
    ]
   },
   "properties": {
    "name": "833 YANMAH ROAD YANMAH 6258",
    "locID": "LOC000111503609",
    "tech": "SATELLITE",
    "upgrade": "NULL_NA",
    "gnaf_pid": "GAWA_163386476",
    "tech_change_status": "Not Planned"
   }
  },
  {
   "type": "Feature",
   "geometry": {
    "type": "Point",
    "coordinates": [
     116.02456012,
     -34.18753016
    ]
   },
   "properties": {
    "name": "913 YANMAH ROAD YANMAH 6258",
    "locID": "LOC000111447332",
    "tech": "NULL",
    "upgrade": "NULL_NA",
    "gnaf_pid": "GAWA_163386477",
    "tech_change_status": "Not Planned"
   }
  },
  {
   "type": "Feature",
   "geometry": {
    "type": "Point",
    "coordinates": [
     116.03510014,
     -34.21142178
    ]
   },
   "properties": {
    "name": "7696 DEADMANS GULLY ROAD YANMAH 6258",
    "locID": "LOC000111786055",
    "tech": "SATELLITE",
    "upgrade": "NULL_NA",
    "gnaf_pid": "GAWA_163388324",
    "tech_change_status": "Not Planned"
   }
  },
  {
   "type": "Feature",
   "geometry": {
    "type": "Point",
    "coordinates": [
     116.04342265,
     -34.16336799
    ]
   },
   "properties": {
    "name": "9449 DONNELLY ROAD YANMAH 6258",
    "locID": "LOC000142477868",
    "tech": "SATELLITE",
    "upgrade": "NULL_NA",
    "gnaf_pid": "GAWA_163388434",
    "tech_change_status": "Not Planned"
   }
  },
  {
   "type": "Feature",
   "geometry": {
    "type": "Point",
    "coordinates": [
     116.00270577,
     -34.20048607
    ]
   },
   "properties": {
    "name": "288 JONES ROAD YANMAH 6258",
    "locID": "LOC000111993840",
    "tech": "NULL",
    "upgrade": "NULL_NA",
    "gnaf_pid": "GAWA_163394272",
    "tech_change_status": "Not Planned"
   }
  },
  {
   "type": "Feature",
   "geometry": {
    "type": "Point",
    "coordinates": [
     116.035313,
     -34.22497142
    ]
   },
   "properties": {
    "name": "82 MITCHELLDEAN ROAD YANMAH 6258",
    "locID": "LOC000114813816",
    "tech": "NULL",
    "upgrade": "NULL_NA",
    "gnaf_pid": "GAWA_163395098",
    "tech_change_status": "Not Planned"
   }
  },
  {
   "type": "Feature",
   "geometry": {
    "type": "Point",
    "coordinates": [
     116.06376488,
     -34.17079538
    ]
   },
   "properties": {
    "name": "110 RAPOFF ROAD YANMAH 6258",
    "locID": "LOC000115063150",
    "tech": "SATELLITE",
    "upgrade": "NULL_NA",
    "gnaf_pid": "GAWA_163395326",
    "tech_change_status": "Not Planned"
   }
  },
  {
   "type": "Feature",
   "geometry": {
    "type": "Point",
    "coordinates": [
     116.05238473,
     -34.1675171
    ]
   },
   "properties": {
    "name": "15 RAPOFF ROAD YANMAH 6258",
    "locID": "LOC000113005089",
    "tech": "SATELLITE",
    "upgrade": "NULL_NA",
    "gnaf_pid": "GAWA_163395327",
    "tech_change_status": "Not Planned"
   }
  },
  {
   "type": "Feature",
   "geometry": {
    "type": "Point",
    "coordinates": [
     116.05238473,
     -34.1675171
    ]
   },
   "properties": {
    "name": "21 RAPOFF ROAD YANMAH 6258",
    "locID": "LOC000115010641",
    "tech": "NULL",
    "upgrade": "NULL_NA",
    "gnaf_pid": "GAWA_163395328",
    "tech_change_status": "Not Planned"
   }
  },
  {
   "type": "Feature",
   "geometry": {
    "type": "Point",
    "coordinates": [
     116.05703714,
     -34.16861313
    ]
   },
   "properties": {
    "name": "29 RAPOFF ROAD YANMAH 6258",
    "locID": "LOC000114702369",
    "tech": "SATELLITE",
    "upgrade": "NULL_NA",
    "gnaf_pid": "GAWA_163395329",
    "tech_change_status": "Not Planned"
   }
  },
  {
   "type": "Feature",
   "geometry": {
    "type": "Point",
    "coordinates": [
     116.0155392,
     -34.21127616
    ]
   },
   "properties": {
    "name": "283 MITCHELLDEAN ROAD YANMAH 6258",
    "locID": "LOC000150798142",
    "tech": "SATELLITE",
    "upgrade": "NULL_NA",
    "gnaf_pid": "GAWA_718629733",
    "tech_change_status": "Not Planned"
   }
  },
  {
   "type": "Feature",
   "geometry": {
    "type": "Point",
    "coordinates": [
     116.01697926,
     -34.16519276
    ]
   },
   "properties": {
    "name": "85 SEARS ROAD YANMAH 6258",
    "locID": "LOC000150801146",
    "tech": "SATELLITE",
    "upgrade": "NULL_NA",
    "gnaf_pid": "GAWA_718717854",
    "tech_change_status": "Not Planned"
   }
  },
  {
   "type": "Feature",
   "geometry": {
    "type": "Point",
    "coordinates": [
     116.02955165,
     -34.20522707
    ]
   },
   "properties": {
    "name": "1027 RALSTON ROAD YANMAH 6258",
    "locID": "LOC000150802367",
    "tech": "NULL",
    "upgrade": "NULL_NA",
    "gnaf_pid": "GAWA_718758494",
    "tech_change_status": "Not Planned"
   }
  },
  {
   "type": "Feature",
   "geometry": {
    "type": "Point",
    "coordinates": [
     116.01725424,
     -34.16169887
    ]
   },
   "properties": {
    "name": "15 SEARS ROAD YANMAH 6258",
    "locID": "LOC000111482365",
    "tech": "NULL",
    "upgrade": "NULL_NA",
    "gnaf_pid": "GAWA_718758919",
    "tech_change_status": "Not Planned"
   }
  },
  {
   "type": "Feature",
   "geometry": {
    "type": "Point",
    "coordinates": [
     116.00976043,
     -34.16360582
    ]
   },
   "properties": {
    "name": "97 SEARS ROAD YANMAH 6258",
    "locID": "LOC000150802403",
    "tech": "SATELLITE",
    "upgrade": "NULL_NA",
    "gnaf_pid": "GAWA_718758920",
    "tech_change_status": "Not Planned"
   }
  },
  {
   "type": "Feature",
   "geometry": {
    "type": "Point",
    "coordinates": [
     116.02294334,
     -34.19143091
    ]
   },
   "properties": {
    "name": "526 MITCHELLDEAN ROAD YANMAH 6258",
    "locID": "LOC100071996055",
    "tech": "SATELLITE",
    "upgrade": "NULL_NA",
    "gnaf_pid": "GAWA_719199696",
    "tech_change_status": "Not Planned"
   }
  },
  {
   "type": "Feature",
   "geometry": {
    "type": "Point",
    "coordinates": [
     116.06011846,
     -34.18520951
    ]
   },
   "properties": {
    "name": "338 YANMAH ROAD YANMAH 6258",
    "locID": "LOC000112671208",
    "tech": "SATELLITE",
    "upgrade": "NULL_NA",
    "gnaf_pid": "GAWA_719502666",
    "tech_change_status": "Not Planned"
   }
  }
 ]
}