{
 "type": "FeatureCollection",
 "generated": "2024-11-13T10:11:21.249056",
 "suburb": "BALDINA",
 "features": [
  {
   "type": "Feature",
   "geometry": {
    "type": "Point",
    "coordinates": [
     139.04901447,
     -33.70318026
    ]
   },
   "properties": {
    "name": "LOT 276 BRUCE ROAD BALDINA 5417",
    "locID": "LOC000142948607",
    "tech": "SATELLITE",
    "upgrade": "NULL_NA",
    "gnaf_pid": "GASA_424292093",
    "tech_change_status": "Not Planned"
   }
  },
  {
   "type": "Feature",
   "geometry": {
    "type": "Point",
    "coordinates": [
     139.07583299,
     -33.68045676
    ]
   },
   "properties": {
    "name": "LOT 277 BRUCE ROAD BALDINA 5417",
    "locID": "LOC000142948607",
    "tech": "SATELLITE",
    "upgrade": "NULL_NA",
    "gnaf_pid": "GASA_424292094",
    "tech_change_status": "Not Planned"
   }
  },
  {
   "type": "Feature",
   "geometry": {
    "type": "Point",
    "coordinates": [
     139.06362063,
     -33.68475474
    ]
   },
   "properties": {
    "name": "LOT 278 BRUCE ROAD BALDINA 5417",
    "locID": "LOC000142948607",
    "tech": "SATELLITE",
    "upgrade": "NULL_NA",
    "gnaf_pid": "GASA_424292095",
    "tech_change_status": "Not Planned"
   }
  },
  {
   "type": "Feature",
   "geometry": {
    "type": "Point",
    "coordinates": [
     139.03088539,
     -33.6907853
    ]
   },
   "properties": {
    "name": "LOT 304 BRUCE ROAD BALDINA 5417",
    "locID": "LOC000142948607",
    "tech": "SATELLITE",
    "upgrade": "NULL_NA",
    "gnaf_pid": "GASA_424292096",
    "tech_change_status": "Not Planned"
   }
  },
  {
   "type": "Feature",
   "geometry": {
    "type": "Point",
    "coordinates": [
     139.10744466,
     -33.6519764
    ]
   },
   "properties": {
    "name": "LOT 139 EASTERN ROAD BALDINA 5417",
    "locID": "LOC000148250334",
    "tech": "NULL",
    "upgrade": "NULL_NA",
    "gnaf_pid": "GASA_424299155",
    "tech_change_status": "Not Planned"
   }
  },
  {
   "type": "Feature",
   "geometry": {
    "type": "Point",
    "coordinates": [
     139.09593155,
     -33.65309887
    ]
   },
   "properties": {
    "name": "LOT 1 EASTERN ROAD BALDINA 5417",
    "locID": "LOC000148244204",
    "tech": "NULL",
    "upgrade": "NULL_NA",
    "gnaf_pid": "GASA_424601019",
    "tech_change_status": "Not Planned"
   }
  },
  {
   "type": "Feature",
   "geometry": {
    "type": "Point",
    "coordinates": [
     139.09416221,
     -33.68477765
    ]
   },
   "properties": {
    "name": "1018 BRUCE ROAD BALDINA 5417",
    "locID": "LOC000148241969",
    "tech": "NULL",
    "upgrade": "NULL_NA",
    "gnaf_pid": "GASA_425302592",
    "tech_change_status": "Not Planned"
   }
  },
  {
   "type": "Feature",
   "geometry": {
    "type": "Point",
    "coordinates": [
     139.04041125,
     -33.69258428
    ]
   },
   "properties": {
    "name": "490 BRUCE ROAD BALDINA 5417",
    "locID": "LOC000148403096",
    "tech": "NULL",
    "upgrade": "NULL_NA",
    "gnaf_pid": "GASA_425302593",
    "tech_change_status": "Not Planned"
   }
  },
  {
   "type": "Feature",
   "geometry": {
    "type": "Point",
    "coordinates": [
     139.04235454,
     -33.72544457
    ]
   },
   "properties": {
    "name": "1351 GOYDER HIGHWAY BALDINA 5417",
    "locID": "LOC000148403792",
    "tech": "NULL",
    "upgrade": "NULL_NA",
    "gnaf_pid": "GASA_425303388",
    "tech_change_status": "Not Planned"
   }
  },
  {
   "type": "Feature",
   "geometry": {
    "type": "Point",
    "coordinates": [
     139.03055606,
     -33.7195779
    ]
   },
   "properties": {
    "name": "LOT 70 GOYDER HIGHWAY BALDINA 5417",
    "locID": "LOC000148265037",
    "tech": "NULL",
    "upgrade": "NULL_NA",
    "gnaf_pid": "GASA_425582041",
    "tech_change_status": "Not Planned"
   }
  },
  {
   "type": "Feature",
   "geometry": {
    "type": "Point",
    "coordinates": [
     139.03670617,
     -33.72006037
    ]
   },
   "properties": {
    "name": "LOT 70C GOYDER HIGHWAY BALDINA 5417",
    "locID": "LOC000148265037",
    "tech": "NULL",
    "upgrade": "NULL_NA",
    "gnaf_pid": "GASA_425582042",
    "tech_change_status": "Not Planned"
   }
  },
  {
   "type": "Feature",
   "geometry": {
    "type": "Point",
    "coordinates": [
     139.0316272,
     -33.66573503
    ]
   },
   "properties": {
    "name": "462 EASTERN ROAD BALDINA 5417",
    "locID": "LOC000148250334",
    "tech": "NULL",
    "upgrade": "NULL_NA",
    "gnaf_pid": "GASA_425598317",
    "tech_change_status": "Not Planned"
   }
  },
  {
   "type": "Feature",
   "geometry": {
    "type": "Point",
    "coordinates": [
     139.03191317,
     -33.69724165
    ]
   },
   "properties": {
    "name": "LOT 100 GOYDER HIGHWAY BALDINA 5417",
    "locID": "LOC000148403792",
    "tech": "NULL",
    "upgrade": "NULL_NA",
    "gnaf_pid": "GASA_425710604",
    "tech_change_status": "Not Planned"
   }
  },
  {
   "type": "Feature",
   "geometry": {
    "type": "Point",
    "coordinates": [
     139.03424503,
     -33.71103441
    ]
   },
   "properties": {
    "name": "LOT 68 GOYDER HIGHWAY BALDINA 5417",
    "locID": "LOC000148403792",
    "tech": "NULL",
    "upgrade": "NULL_NA",
    "gnaf_pid": "GASA_425710605",
    "tech_change_status": "Not Planned"
   }
  },
  {
   "type": "Feature",
   "geometry": {
    "type": "Point",
    "coordinates": [
     139.10400785,
     -33.67500706
    ]
   },
   "properties": {
    "name": "LOT 21 EASTERN ROAD BALDINA 5417",
    "locID": "LOC000148244204",
    "tech": "NULL",
    "upgrade": "NULL_NA",
    "gnaf_pid": "GASA_425845071",
    "tech_change_status": "Not Planned"
   }
  },
  {
   "type": "Feature",
   "geometry": {
    "type": "Point",
    "coordinates": [
     139.10411397,
     -33.72466688
    ]
   },
   "properties": {
    "name": "LOT 62 GOYDER HIGHWAY BALDINA 5417",
    "locID": "LOC000148403792",
    "tech": "NULL",
    "upgrade": "NULL_NA",
    "gnaf_pid": "GASA_425845608",
    "tech_change_status": "Not Planned"
   }
  },
  {
   "type": "Feature",
   "geometry": {
    "type": "Point",
    "coordinates": [
     139.03736561,
     -33.65133373
    ]
   },
   "properties": {
    "name": "LOT 108 EASTERN ROAD BALDINA 5417",
    "locID": "LOC000148250334",
    "tech": "NULL",
    "upgrade": "NULL_NA",
    "gnaf_pid": "GASA_720185080",
    "tech_change_status": "Not Planned"
   }
  },
  {
   "type": "Feature",
   "geometry": {
    "type": "Point",
    "coordinates": [
     139.05614443,
     -33.67733249
    ]
   },
   "properties": {
    "name": "LOT 308 BRUCE ROAD BALDINA 5417",
    "locID": "LOC000142948607",
    "tech": "SATELLITE",
    "upgrade": "NULL_NA",
    "gnaf_pid": "GASA_720185292",
    "tech_change_status": "Not Planned"
   }
  },
  {
   "type": "Feature",
   "geometry": {
    "type": "Point",
    "coordinates": [
     139.10756627,
     -33.63564764
    ]
   },
   "properties": {
    "name": "LOT 140 EASTERN ROAD BALDINA 5417",
    "locID": "LOC000148250334",
    "tech": "NULL",
    "upgrade": "NULL_NA",
    "gnaf_pid": "GASA_720187446",
    "tech_change_status": "Not Planned"
   }
  },
  {
   "type": "Feature",
   "geometry": {
    "type": "Point",
    "coordinates": [
     139.05189291,
     -33.67611314
    ]
   },
   "properties": {
    "name": "LOT 306 BRUCE ROAD BALDINA 5417",
    "locID": "LOC000142948607",
    "tech": "SATELLITE",
    "upgrade": "NULL_NA",
    "gnaf_pid": "GASA_720188472",
    "tech_change_status": "Not Planned"
   }
  },
  {
   "type": "Feature",
   "geometry": {
    "type": "Point",
    "coordinates": [
     139.0625109,
     -33.67185396
    ]
   },
   "properties": {
    "name": "LOT 219 EASTERN ROAD BALDINA 5417",
    "locID": "LOC000148250334",
    "tech": "NULL",
    "upgrade": "NULL_NA",
    "gnaf_pid": "GASA_720188781",
    "tech_change_status": "Not Planned"
   }
  },
  {
   "type": "Feature",
   "geometry": {
    "type": "Point",
    "coordinates": [
     139.05614087,
     -33.67631471
    ]
   },
   "properties": {
    "name": "LOT 307 BRUCE ROAD BALDINA 5417",
    "locID": "LOC000142948607",
    "tech": "SATELLITE",
    "upgrade": "NULL_NA",
    "gnaf_pid": "GASA_720188960",
    "tech_change_status": "Not Planned"
   }
  },
  {
   "type": "Feature",
   "geometry": {
    "type": "Point",
    "coordinates": [
     139.07198839,
     -33.63690009
    ]
   },
   "properties": {
    "name": "LOT 311 CAROONA ROAD BALDINA 5417",
    "locID": "LOC000148243555",
    "tech": "NULL",
    "upgrade": "NULL_NA",
    "gnaf_pid": "GASA_720190207",
    "tech_change_status": "Not Planned"
   }
  },
  {
   "type": "Feature",
   "geometry": {
    "type": "Point",
    "coordinates": [
     139.04755799,
     -33.72654675
    ]
   },
   "properties": {
    "name": "LOT 313 GOYDER HIGHWAY BALDINA 5417",
    "locID": "LOC000148403792",
    "tech": "NULL",
    "upgrade": "NULL_NA",
    "gnaf_pid": "GASA_720190582",
    "tech_change_status": "Not Planned"
   }
  },
  {
   "type": "Feature",
   "geometry": {
    "type": "Point",
    "coordinates": [
     139.17073265,
     -33.66463413
    ]
   },
   "properties": {
    "name": "LOT 113 EASTERN ROAD BALDINA 5417",
    "locID": "LOC000148250334",
    "tech": "NULL",
    "upgrade": "NULL_NA",
    "gnaf_pid": "GASA_721274417",
    "tech_change_status": "Not Planned"
   }
  }
 ]
}