{
 "type": "FeatureCollection",
 "generated": "2024-12-23T06:33:41.031313",
 "suburb": "CALTOWIE WEST",
 "features": [
  {
   "type": "Feature",
   "geometry": {
    "type": "Point",
    "coordinates": [
     138.38986869,
     -33.1188356
    ]
   },
   "properties": {
    "name": "LOT 3 GLADSTONE-APPILA ROAD CALTOWIE WEST 5490",
    "locID": "LOC000131351054",
    "tech": "WIRELESS",
    "upgrade": "NULL_NA",
    "gnaf_pid": "GASA_424107355",
    "tech_change_status": "Not Planned",
    "program_type": "Fixed Wireless and Satellite Upgrade Program",
    "target_eligibility_quarter": "NA"
   }
  },
  {
   "type": "Feature",
   "geometry": {
    "type": "Point",
    "coordinates": [
     138.38408732,
     -33.16686027
    ]
   },
   "properties": {
    "name": "LOT 101 LAURA-CALTOWIE ROAD CALTOWIE WEST 5490",
    "locID": "LOC000150220436",
    "tech": "WIRELESS",
    "upgrade": "NULL_NA",
    "gnaf_pid": "GASA_424185541",
    "tech_change_status": "Not Planned"
   }
  },
  {
   "type": "Feature",
   "geometry": {
    "type": "Point",
    "coordinates": [
     138.39280741,
     -33.17539883
    ]
   },
   "properties": {
    "name": "LOT 114 LAURA-CALTOWIE ROAD CALTOWIE WEST 5490",
    "locID": "LOC000150220427",
    "tech": "NULL",
    "upgrade": "NULL_NA",
    "gnaf_pid": "GASA_424185542",
    "tech_change_status": "Not Planned"
   }
  },
  {
   "type": "Feature",
   "geometry": {
    "type": "Point",
    "coordinates": [
     138.3706736,
     -33.18103569
    ]
   },
   "properties": {
    "name": "LOT 2 LAURA-CALTOWIE ROAD CALTOWIE WEST 5490",
    "locID": "LOC000150220427",
    "tech": "NULL",
    "upgrade": "NULL_NA",
    "gnaf_pid": "GASA_424185543",
    "tech_change_status": "Not Planned"
   }
  },
  {
   "type": "Feature",
   "geometry": {
    "type": "Point",
    "coordinates": [
     138.43041363,
     -33.16684502
    ]
   },
   "properties": {
    "name": "LOT 4 LAURA-CALTOWIE ROAD CALTOWIE WEST 5490",
    "locID": "LOC000150220427",
    "tech": "NULL",
    "upgrade": "NULL_NA",
    "gnaf_pid": "GASA_424185544",
    "tech_change_status": "Not Planned"
   }
  },
  {
   "type": "Feature",
   "geometry": {
    "type": "Point",
    "coordinates": [
     138.40950085,
     -33.17238563
    ]
   },
   "properties": {
    "name": "LOT 99 LAURA-CALTOWIE ROAD CALTOWIE WEST 5490",
    "locID": "LOC000150220427",
    "tech": "NULL",
    "upgrade": "NULL_NA",
    "gnaf_pid": "GASA_424185545",
    "tech_change_status": "Not Planned"
   }
  },
  {
   "type": "Feature",
   "geometry": {
    "type": "Point",
    "coordinates": [
     138.36862867,
     -33.18946331
    ]
   },
   "properties": {
    "name": "LOT 104 LAURA-CALTOWIE ROAD CALTOWIE WEST 5490",
    "locID": "LOC000150220427",
    "tech": "NULL",
    "upgrade": "NULL_NA",
    "gnaf_pid": "GASA_424312871",
    "tech_change_status": "Not Planned"
   }
  },
  {
   "type": "Feature",
   "geometry": {
    "type": "Point",
    "coordinates": [
     138.39716767,
     -33.16134078
    ]
   },
   "properties": {
    "name": "LOT 321 LAURA-CALTOWIE ROAD CALTOWIE WEST 5490",
    "locID": "LOC000150220427",
    "tech": "NULL",
    "upgrade": "NULL_NA",
    "gnaf_pid": "GASA_424312873",
    "tech_change_status": "Not Planned"
   }
  },
  {
   "type": "Feature",
   "geometry": {
    "type": "Point",
    "coordinates": [
     138.39250317,
     -33.14352605
    ]
   },
   "properties": {
    "name": "LOT 1 STONE HUT-CALTOWIE ROAD CALTOWIE WEST 5490",
    "locID": "LOC100079006959",
    "tech": "NULL",
    "upgrade": "NULL_NA",
    "gnaf_pid": "GASA_424334392",
    "tech_change_status": "Not Planned"
   }
  },
  {
   "type": "Feature",
   "geometry": {
    "type": "Point",
    "coordinates": [
     138.38541349,
     -33.12572992
    ]
   },
   "properties": {
    "name": "LOT 336 STONE HUT-CALTOWIE ROAD CALTOWIE WEST 5490",
    "locID": "LOC000150220249",
    "tech": "NULL",
    "upgrade": "NULL_NA",
    "gnaf_pid": "GASA_424334396",
    "tech_change_status": "Not Planned"
   }
  },
  {
   "type": "Feature",
   "geometry": {
    "type": "Point",
    "coordinates": [
     138.37493818,
     -33.12255575
    ]
   },
   "properties": {
    "name": "LOT 359 STONE HUT-CALTOWIE ROAD CALTOWIE WEST 5490",
    "locID": "LOC000150220249",
    "tech": "NULL",
    "upgrade": "NULL_NA",
    "gnaf_pid": "GASA_424334398",
    "tech_change_status": "Not Planned"
   }
  },
  {
   "type": "Feature",
   "geometry": {
    "type": "Point",
    "coordinates": [
     138.3909856,
     -33.15362498
    ]
   },
   "properties": {
    "name": "LOT 50 STONE HUT-CALTOWIE ROAD CALTOWIE WEST 5490",
    "locID": "LOC100079006959",
    "tech": "NULL",
    "upgrade": "NULL_NA",
    "gnaf_pid": "GASA_424405297",
    "tech_change_status": "Not Planned"
   }
  },
  {
   "type": "Feature",
   "geometry": {
    "type": "Point",
    "coordinates": [
     138.35883792,
     -33.15395078
    ]
   },
   "properties": {
    "name": "1273 GLADSTONE-APPILA ROAD CALTOWIE WEST 5490",
    "locID": "LOC100078855815",
    "tech": "WIRELESS",
    "upgrade": "NULL_NA",
    "gnaf_pid": "GASA_425107814",
    "tech_change_status": "Not Planned"
   }
  },
  {
   "type": "Feature",
   "geometry": {
    "type": "Point",
    "coordinates": [
     138.36365863,
     -33.15160526
    ]
   },
   "properties": {
    "name": "1326 GLADSTONE-APPILA ROAD CALTOWIE WEST 5490",
    "locID": "LOC000150220381",
    "tech": "WIRELESS",
    "upgrade": "NULL_NA",
    "gnaf_pid": "GASA_425107815",
    "tech_change_status": "Not Planned"
   }
  },
  {
   "type": "Feature",
   "geometry": {
    "type": "Point",
    "coordinates": [
     138.3835782,
     -33.11715549
    ]
   },
   "properties": {
    "name": "1760 GLADSTONE-APPILA ROAD CALTOWIE WEST 5490",
    "locID": "LOC000150220399",
    "tech": "WIRELESS",
    "upgrade": "NULL_NA",
    "gnaf_pid": "GASA_425107816",
    "tech_change_status": "Not Planned",
    "program_type": "Fixed Wireless and Satellite Upgrade Program",
    "target_eligibility_quarter": "NA"
   }
  },
  {
   "type": "Feature",
   "geometry": {
    "type": "Point",
    "coordinates": [
     138.38220773,
     -33.14949067
    ]
   },
   "properties": {
    "name": "277 LANG ROAD CALTOWIE WEST 5490",
    "locID": "LOC000150220404",
    "tech": "WIRELESS",
    "upgrade": "NULL_NA",
    "gnaf_pid": "GASA_425109077",
    "tech_change_status": "Not Planned"
   }
  },
  {
   "type": "Feature",
   "geometry": {
    "type": "Point",
    "coordinates": [
     138.38434586,
     -33.15303527
    ]
   },
   "properties": {
    "name": "321 LANG ROAD CALTOWIE WEST 5490",
    "locID": "LOC000150220415",
    "tech": "WIRELESS",
    "upgrade": "NULL_NA",
    "gnaf_pid": "GASA_425109078",
    "tech_change_status": "Not Planned"
   }
  },
  {
   "type": "Feature",
   "geometry": {
    "type": "Point",
    "coordinates": [
     138.41259154,
     -33.16311143
    ]
   },
   "properties": {
    "name": "1104 LAURA-CALTOWIE ROAD CALTOWIE WEST 5490",
    "locID": "LOC000150220427",
    "tech": "NULL",
    "upgrade": "NULL_NA",
    "gnaf_pid": "GASA_425109116",
    "tech_change_status": "Not Planned"
   }
  },
  {
   "type": "Feature",
   "geometry": {
    "type": "Point",
    "coordinates": [
     138.4277017,
     -33.16006528
    ]
   },
   "properties": {
    "name": "1249 LAURA-CALTOWIE ROAD CALTOWIE WEST 5490",
    "locID": "LOC000150220436",
    "tech": "WIRELESS",
    "upgrade": "NULL_NA",
    "gnaf_pid": "GASA_425109117",
    "tech_change_status": "Not Planned"
   }
  },
  {
   "type": "Feature",
   "geometry": {
    "type": "Point",
    "coordinates": [
     138.43121382,
     -33.16053052
    ]
   },
   "properties": {
    "name": "1282 LAURA-CALTOWIE ROAD CALTOWIE WEST 5490",
    "locID": "LOC000150220443",
    "tech": "WIRELESS",
    "upgrade": "NULL_NA",
    "gnaf_pid": "GASA_425109118",
    "tech_change_status": "Not Planned"
   }
  },
  {
   "type": "Feature",
   "geometry": {
    "type": "Point",
    "coordinates": [
     138.37701306,
     -33.17343825
    ]
   },
   "properties": {
    "name": "749 LAURA-CALTOWIE ROAD CALTOWIE WEST 5490",
    "locID": "LOC000150220462",
    "tech": "WIRELESS",
    "upgrade": "NULL_NA",
    "gnaf_pid": "GASA_425109120",
    "tech_change_status": "Not Planned"
   }
  },
  {
   "type": "Feature",
   "geometry": {
    "type": "Point",
    "coordinates": [
     138.39532355,
     -33.19560902
    ]
   },
   "properties": {
    "name": "380 MCKENZIE ROAD CALTOWIE WEST 5490",
    "locID": "LOC000150220470",
    "tech": "WIRELESS",
    "upgrade": "NULL_NA",
    "gnaf_pid": "GASA_425109644",
    "tech_change_status": "Not Planned",
    "program_type": "Fixed Wireless and Satellite Upgrade Program",
    "target_eligibility_quarter": "NA"
   }
  },
  {
   "type": "Feature",
   "geometry": {
    "type": "Point",
    "coordinates": [
     138.42604481,
     -33.20662117
    ]
   },
   "properties": {
    "name": "44 MCKENZIE ROAD CALTOWIE WEST 5490",
    "locID": "LOC000150220489",
    "tech": "SATELLITE",
    "upgrade": "NULL_NA",
    "gnaf_pid": "GASA_425109645",
    "tech_change_status": "Not Planned"
   }
  },
  {
   "type": "Feature",
   "geometry": {
    "type": "Point",
    "coordinates": [
     138.36566731,
     -33.19433449
    ]
   },
   "properties": {
    "name": "657 MCKENZIE ROAD CALTOWIE WEST 5490",
    "locID": "LOC000150220491",
    "tech": "WIRELESS",
    "upgrade": "NULL_NA",
    "gnaf_pid": "GASA_425109646",
    "tech_change_status": "Not Planned",
    "program_type": "Fixed Wireless and Satellite Upgrade Program",
    "target_eligibility_quarter": "NA"
   }
  },
  {
   "type": "Feature",
   "geometry": {
    "type": "Point",
    "coordinates": [
     138.41023081,
     -33.1472795
    ]
   },
   "properties": {
    "name": "1189 STONE HUT-CALTOWIE ROAD CALTOWIE WEST 5490",
    "locID": "LOC000142380950",
    "tech": "SATELLITE",
    "upgrade": "NULL_NA",
    "gnaf_pid": "GASA_425112301",
    "tech_change_status": "Not Planned"
   }
  },
  {
   "type": "Feature",
   "geometry": {
    "type": "Point",
    "coordinates": [
     138.36717369,
     -33.12671393
    ]
   },
   "properties": {
    "name": "715 STONE HUT-CALTOWIE ROAD CALTOWIE WEST 5490",
    "locID": "LOC100079006959",
    "tech": "NULL",
    "upgrade": "NULL_NA",
    "gnaf_pid": "GASA_425112303",
    "tech_change_status": "Not Planned"
   }
  },
  {
   "type": "Feature",
   "geometry": {
    "type": "Point",
    "coordinates": [
     138.39070852,
     -33.13291502
    ]
   },
   "properties": {
    "name": "945 STONE HUT-CALTOWIE ROAD CALTOWIE WEST 5490",
    "locID": "LOC000150220518",
    "tech": "WIRELESS",
    "upgrade": "NULL_NA",
    "gnaf_pid": "GASA_425112304",
    "tech_change_status": "Not Planned"
   }
  },
  {
   "type": "Feature",
   "geometry": {
    "type": "Point",
    "coordinates": [
     138.40125279,
     -33.17704105
    ]
   },
   "properties": {
    "name": "109 HEFFERNAN ROAD CALTOWIE WEST 5490",
    "locID": "LOC000150220539",
    "tech": "WIRELESS",
    "upgrade": "NULL_NA",
    "gnaf_pid": "GASA_425189502",
    "tech_change_status": "Not Planned",
    "program_type": "Fixed Wireless and Satellite Upgrade Program",
    "target_eligibility_quarter": "NA"
   }
  },
  {
   "type": "Feature",
   "geometry": {
    "type": "Point",
    "coordinates": [
     138.33948535,
     -33.13170144
    ]
   },
   "properties": {
    "name": "LOT 11 STONE HUT-CALTOWIE ROAD CALTOWIE WEST 5490",
    "locID": "LOC100079006959",
    "tech": "NULL",
    "upgrade": "NULL_NA",
    "gnaf_pid": "GASA_425724963",
    "tech_change_status": "Not Planned"
   }
  },
  {
   "type": "Feature",
   "geometry": {
    "type": "Point",
    "coordinates": [
     138.41924544,
     -33.1890165
    ]
   },
   "properties": {
    "name": "LOT 170 HEFFERNAN ROAD CALTOWIE WEST 5490",
    "locID": "LOC000150220539",
    "tech": "WIRELESS",
    "upgrade": "NULL_NA",
    "gnaf_pid": "GASA_719514805",
    "tech_change_status": "Not Planned",
    "program_type": "Fixed Wireless and Satellite Upgrade Program",
    "target_eligibility_quarter": "NA"
   }
  },
  {
   "type": "Feature",
   "geometry": {
    "type": "Point",
    "coordinates": [
     138.40156888,
     -33.11163661
    ]
   },
   "properties": {
    "name": "LOT 332N STONE HUT-CALTOWIE ROAD CALTOWIE WEST 5490",
    "locID": "LOC100079006959",
    "tech": "NULL",
    "upgrade": "NULL_NA",
    "gnaf_pid": "GASA_719515097",
    "tech_change_status": "Not Planned"
   }
  },
  {
   "type": "Feature",
   "geometry": {
    "type": "Point",
    "coordinates": [
     138.39703099,
     -33.18229594
    ]
   },
   "properties": {
    "name": "LOT 386 HEFFERNAN ROAD CALTOWIE WEST 5490",
    "locID": "LOC000150220539",
    "tech": "WIRELESS",
    "upgrade": "NULL_NA",
    "gnaf_pid": "GASA_719515301",
    "tech_change_status": "Not Planned",
    "program_type": "Fixed Wireless and Satellite Upgrade Program",
    "target_eligibility_quarter": "NA"
   }
  },
  {
   "type": "Feature",
   "geometry": {
    "type": "Point",
    "coordinates": [
     138.39074567,
     -33.20316122
    ]
   },
   "properties": {
    "name": "LOT 180 MCKENZIE ROAD CALTOWIE WEST 5490",
    "locID": "LOC100072076577",
    "tech": "WIRELESS",
    "upgrade": "NULL_NA",
    "gnaf_pid": "GASA_719515697",
    "tech_change_status": "Not Planned",
    "program_type": "Fixed Wireless and Satellite Upgrade Program",
    "target_eligibility_quarter": "NA"
   }
  },
  {
   "type": "Feature",
   "geometry": {
    "type": "Point",
    "coordinates": [
     138.41358891,
     -33.1797567
    ]
   },
   "properties": {
    "name": "LOT 98 HEFFERNAN ROAD CALTOWIE WEST 5490",
    "locID": "LOC100071966987",
    "tech": "NULL",
    "upgrade": "NULL_NA",
    "gnaf_pid": "GASA_719516023",
    "tech_change_status": "Not Planned"
   }
  },
  {
   "type": "Feature",
   "geometry": {
    "type": "Point",
    "coordinates": [
     138.36089961,
     -33.20652321
    ]
   },
   "properties": {
    "name": "LOT 377 GLADSTONE-APPILA ROAD CALTOWIE WEST 5490",
    "locID": "LOC100078855815",
    "tech": "WIRELESS",
    "upgrade": "NULL_NA",
    "gnaf_pid": "GASA_719519763",
    "tech_change_status": "Not Planned"
   }
  },
  {
   "type": "Feature",
   "geometry": {
    "type": "Point",
    "coordinates": [
     138.37649987,
     -33.10651078
    ]
   },
   "properties": {
    "name": "LOT 333 GLADSTONE-APPILA ROAD CALTOWIE WEST 5490",
    "locID": "LOC100078855815",
    "tech": "WIRELESS",
    "upgrade": "NULL_NA",
    "gnaf_pid": "GASA_719519837",
    "tech_change_status": "Not Planned"
   }
  },
  {
   "type": "Feature",
   "geometry": {
    "type": "Point",
    "coordinates": [
     138.3757022,
     -33.11323265
    ]
   },
   "properties": {
    "name": "LOT 360 GLADSTONE-APPILA ROAD CALTOWIE WEST 5490",
    "locID": "LOC100078855815",
    "tech": "WIRELESS",
    "upgrade": "NULL_NA",
    "gnaf_pid": "GASA_719520650",
    "tech_change_status": "Not Planned"
   }
  },
  {
   "type": "Feature",
   "geometry": {
    "type": "Point",
    "coordinates": [
     138.41252,
     -33.12088581
    ]
   },
   "properties": {
    "name": "LOT 327 STONE HUT-CALTOWIE ROAD CALTOWIE WEST 5490",
    "locID": "LOC000150220161",
    "tech": "WIRELESS",
    "upgrade": "NULL_NA",
    "gnaf_pid": "GASA_719521162",
    "tech_change_status": "Not Planned"
   }
  },
  {
   "type": "Feature",
   "geometry": {
    "type": "Point",
    "coordinates": [
     138.41499249,
     -33.10857962
    ]
   },
   "properties": {
    "name": "LOT 325 YARROWIE ROAD CALTOWIE WEST 5490",
    "locID": "LOC100071966757",
    "tech": "WIRELESS",
    "upgrade": "NULL_NA",
    "gnaf_pid": "GASA_719521557",
    "tech_change_status": "Not Planned",
    "program_type": "Fixed Wireless and Satellite Upgrade Program",
    "target_eligibility_quarter": "NA"
   }
  },
  {
   "type": "Feature",
   "geometry": {
    "type": "Point",
    "coordinates": [
     138.375561,
     -33.2070532
    ]
   },
   "properties": {
    "name": "LOT 178E MCKENZIE ROAD CALTOWIE WEST 5490",
    "locID": "LOC000150220491",
    "tech": "WIRELESS",
    "upgrade": "NULL_NA",
    "gnaf_pid": "GASA_719861663",
    "tech_change_status": "Not Planned",
    "program_type": "Fixed Wireless and Satellite Upgrade Program",
    "target_eligibility_quarter": "NA"
   }
  }
 ]
}