{
 "type": "FeatureCollection",
 "generated": "2024-12-23T06:58:14.911108",
 "suburb": "CHANDADA",
 "features": [
  {
   "type": "Feature",
   "geometry": {
    "type": "Point",
    "coordinates": [
     134.6393583,
     -32.70149174
    ]
   },
   "properties": {
    "name": "LOT 36 BLACKHILL ROAD CHANDADA 5680",
    "locID": "LOC100079006370",
    "tech": "NULL",
    "upgrade": "NULL_NA",
    "gnaf_pid": "GASA_424290033",
    "tech_change_status": "Not Planned"
   }
  },
  {
   "type": "Feature",
   "geometry": {
    "type": "Point",
    "coordinates": [
     134.70989431,
     -32.67248297
    ]
   },
   "properties": {
    "name": "LOT 23 MCEVOY ROAD CHANDADA 5680",
    "locID": "LOC000131622442",
    "tech": "SATELLITE",
    "upgrade": "NULL_NA",
    "gnaf_pid": "GASA_424317225",
    "tech_change_status": "Not Planned"
   }
  },
  {
   "type": "Feature",
   "geometry": {
    "type": "Point",
    "coordinates": [
     134.74314098,
     -32.78439231
    ]
   },
   "properties": {
    "name": "LOT 5 PARLA PEAK ROAD CHANDADA 5680",
    "locID": "LOC000142385005",
    "tech": "SATELLITE",
    "upgrade": "NULL_NA",
    "gnaf_pid": "GASA_424323989",
    "tech_change_status": "Not Planned"
   }
  },
  {
   "type": "Feature",
   "geometry": {
    "type": "Point",
    "coordinates": [
     134.65632364,
     -32.67579224
    ]
   },
   "properties": {
    "name": "LOT 20 MCEVOY ROAD CHANDADA 5680",
    "locID": "LOC000131622442",
    "tech": "SATELLITE",
    "upgrade": "NULL_NA",
    "gnaf_pid": "GASA_424522409",
    "tech_change_status": "Not Planned"
   }
  },
  {
   "type": "Feature",
   "geometry": {
    "type": "Point",
    "coordinates": [
     134.63289424,
     -32.77300804
    ]
   },
   "properties": {
    "name": "LOT 13 STREAKY BAY ROAD CHANDADA 5680",
    "locID": "LOC000131561073",
    "tech": "NULL",
    "upgrade": "NULL_NA",
    "gnaf_pid": "GASA_424806355",
    "tech_change_status": "Not Planned"
   }
  },
  {
   "type": "Feature",
   "geometry": {
    "type": "Point",
    "coordinates": [
     134.68508945,
     -32.74843582
    ]
   },
   "properties": {
    "name": "LOT 399 STREAKY BAY ROAD CHANDADA 5680",
    "locID": "LOC000131561073",
    "tech": "NULL",
    "upgrade": "NULL_NA",
    "gnaf_pid": "GASA_424806358",
    "tech_change_status": "Not Planned"
   }
  },
  {
   "type": "Feature",
   "geometry": {
    "type": "Point",
    "coordinates": [
     134.67180933,
     -32.75557018
    ]
   },
   "properties": {
    "name": "LOT 68 STREAKY BAY ROAD CHANDADA 5680",
    "locID": "LOC000131561073",
    "tech": "NULL",
    "upgrade": "NULL_NA",
    "gnaf_pid": "GASA_424806359",
    "tech_change_status": "Not Planned"
   }
  },
  {
   "type": "Feature",
   "geometry": {
    "type": "Point",
    "coordinates": [
     134.67340363,
     -32.75520014
    ]
   },
   "properties": {
    "name": "LOT 72 STREAKY BAY ROAD CHANDADA 5680",
    "locID": "LOC000131561073",
    "tech": "NULL",
    "upgrade": "NULL_NA",
    "gnaf_pid": "GASA_424806361",
    "tech_change_status": "Not Planned"
   }
  },
  {
   "type": "Feature",
   "geometry": {
    "type": "Point",
    "coordinates": [
     134.61648041,
     -32.71611854
    ]
   },
   "properties": {
    "name": "497 BLACKHILL ROAD CHANDADA 5680",
    "locID": "LOC100079006370",
    "tech": "NULL",
    "upgrade": "NULL_NA",
    "gnaf_pid": "GASA_424954658",
    "tech_change_status": "Not Planned"
   }
  },
  {
   "type": "Feature",
   "geometry": {
    "type": "Point",
    "coordinates": [
     134.68563558,
     -32.84618452
    ]
   },
   "properties": {
    "name": "1074 INKSTER ROAD CHANDADA 5680",
    "locID": "LOC000131622367",
    "tech": "NULL",
    "upgrade": "NULL_NA",
    "gnaf_pid": "GASA_424957291",
    "tech_change_status": "Not Planned"
   }
  },
  {
   "type": "Feature",
   "geometry": {
    "type": "Point",
    "coordinates": [
     134.67465857,
     -32.75606601
    ]
   },
   "properties": {
    "name": "20 INKSTER ROAD CHANDADA 5680",
    "locID": "LOC000131556711",
    "tech": "NULL",
    "upgrade": "NULL_NA",
    "gnaf_pid": "GASA_424957292",
    "tech_change_status": "Not Planned"
   }
  },
  {
   "type": "Feature",
   "geometry": {
    "type": "Point",
    "coordinates": [
     134.67223677,
     -32.78074881
    ]
   },
   "properties": {
    "name": "294 INKSTER ROAD CHANDADA 5680",
    "locID": "LOC000131561115",
    "tech": "SATELLITE",
    "upgrade": "NULL_NA",
    "gnaf_pid": "GASA_424957293",
    "tech_change_status": "Not Planned"
   }
  },
  {
   "type": "Feature",
   "geometry": {
    "type": "Point",
    "coordinates": [
     134.68003246,
     -32.72461354
    ]
   },
   "properties": {
    "name": "338 MORONEY ROAD CHANDADA 5680",
    "locID": "LOC000131561209",
    "tech": "SATELLITE",
    "upgrade": "NULL_NA",
    "gnaf_pid": "GASA_424958835",
    "tech_change_status": "Not Planned"
   }
  },
  {
   "type": "Feature",
   "geometry": {
    "type": "Point",
    "coordinates": [
     134.68107841,
     -32.69963826
    ]
   },
   "properties": {
    "name": "628 MORONEY ROAD CHANDADA 5680",
    "locID": "LOC000131565477",
    "tech": "SATELLITE",
    "upgrade": "NULL_NA",
    "gnaf_pid": "GASA_424958836",
    "tech_change_status": "Not Planned"
   }
  },
  {
   "type": "Feature",
   "geometry": {
    "type": "Point",
    "coordinates": [
     134.711132,
     -32.797337
    ]
   },
   "properties": {
    "name": "288 PARLA PEAK ROAD CHANDADA 5680",
    "locID": "LOC000131561056",
    "tech": "SATELLITE",
    "upgrade": "NULL_NA",
    "gnaf_pid": "GASA_424959621",
    "tech_change_status": "Not Planned"
   }
  },
  {
   "type": "Feature",
   "geometry": {
    "type": "Point",
    "coordinates": [
     134.71104835,
     -32.79719232
    ]
   },
   "properties": {
    "name": "289 PARLA PEAK ROAD CHANDADA 5680",
    "locID": "LOC000131561087",
    "tech": "NULL",
    "upgrade": "NULL_NA",
    "gnaf_pid": "GASA_424959622",
    "tech_change_status": "Not Planned"
   }
  },
  {
   "type": "Feature",
   "geometry": {
    "type": "Point",
    "coordinates": [
     134.72984308,
     -32.78476939
    ]
   },
   "properties": {
    "name": "516 PARLA PEAK ROAD CHANDADA 5680",
    "locID": "LOC000131565386",
    "tech": "NULL",
    "upgrade": "NULL_NA",
    "gnaf_pid": "GASA_424959623",
    "tech_change_status": "Not Planned"
   }
  },
  {
   "type": "Feature",
   "geometry": {
    "type": "Point",
    "coordinates": [
     134.58310131,
     -32.76580762
    ]
   },
   "properties": {
    "name": "2886 STREAKY BAY ROAD CHANDADA 5680",
    "locID": "LOC000131561060",
    "tech": "NULL",
    "upgrade": "NULL_NA",
    "gnaf_pid": "GASA_424961266",
    "tech_change_status": "Not Planned"
   }
  },
  {
   "type": "Feature",
   "geometry": {
    "type": "Point",
    "coordinates": [
     134.58324273,
     -32.76564871
    ]
   },
   "properties": {
    "name": "2887 STREAKY BAY ROAD CHANDADA 5680",
    "locID": "LOC000131561073",
    "tech": "NULL",
    "upgrade": "NULL_NA",
    "gnaf_pid": "GASA_424961267",
    "tech_change_status": "Not Planned"
   }
  },
  {
   "type": "Feature",
   "geometry": {
    "type": "Point",
    "coordinates": [
     134.64563913,
     -32.75448479
    ]
   },
   "properties": {
    "name": "3485 STREAKY BAY ROAD CHANDADA 5680",
    "locID": "LOC000131561221",
    "tech": "NULL",
    "upgrade": "NULL_NA",
    "gnaf_pid": "GASA_424961268",
    "tech_change_status": "Not Planned"
   }
  },
  {
   "type": "Feature",
   "geometry": {
    "type": "Point",
    "coordinates": [
     134.67226898,
     -32.75494975
    ]
   },
   "properties": {
    "name": "3740 STREAKY BAY ROAD CHANDADA 5680",
    "locID": "LOC000131561297",
    "tech": "NULL",
    "upgrade": "NULL_NA",
    "gnaf_pid": "GASA_424961270",
    "tech_change_status": "Not Planned"
   }
  },
  {
   "type": "Feature",
   "geometry": {
    "type": "Point",
    "coordinates": [
     134.67386458,
     -32.75466786
    ]
   },
   "properties": {
    "name": "3754 STREAKY BAY ROAD CHANDADA 5680",
    "locID": "LOC000131561307",
    "tech": "NULL",
    "upgrade": "NULL_NA",
    "gnaf_pid": "GASA_424961271",
    "tech_change_status": "Not Planned"
   }
  },
  {
   "type": "Feature",
   "geometry": {
    "type": "Point",
    "coordinates": [
     134.68385074,
     -32.75266873
    ]
   },
   "properties": {
    "name": "3852 STREAKY BAY ROAD CHANDADA 5680",
    "locID": "LOC000131565258",
    "tech": "SATELLITE",
    "upgrade": "NULL_NA",
    "gnaf_pid": "GASA_424961272",
    "tech_change_status": "Not Planned"
   }
  },
  {
   "type": "Feature",
   "geometry": {
    "type": "Point",
    "coordinates": [
     134.70174331,
     -32.74741605
    ]
   },
   "properties": {
    "name": "4029 STREAKY BAY ROAD CHANDADA 5680",
    "locID": "LOC000131565317",
    "tech": "NULL",
    "upgrade": "NULL_NA",
    "gnaf_pid": "GASA_424961273",
    "tech_change_status": "Not Planned"
   }
  },
  {
   "type": "Feature",
   "geometry": {
    "type": "Point",
    "coordinates": [
     134.68305514,
     -32.81176412
    ]
   },
   "properties": {
    "name": "3174 YANDRA ROAD CHANDADA 5680",
    "locID": "LOC000131707952",
    "tech": "SATELLITE",
    "upgrade": "NULL_NA",
    "gnaf_pid": "GASA_424962222",
    "tech_change_status": "Not Planned"
   }
  },
  {
   "type": "Feature",
   "geometry": {
    "type": "Point",
    "coordinates": [
     134.63874576,
     -32.65926827
    ]
   },
   "properties": {
    "name": "1225 MCEVOY ROAD CHANDADA 5680",
    "locID": "LOC000131622442",
    "tech": "SATELLITE",
    "upgrade": "NULL_NA",
    "gnaf_pid": "GASA_425074840",
    "tech_change_status": "Not Planned"
   }
  },
  {
   "type": "Feature",
   "geometry": {
    "type": "Point",
    "coordinates": [
     134.57023647,
     -32.73819952
    ]
   },
   "properties": {
    "name": "LOT 79 MCDONALD ROAD CHANDADA 5680",
    "locID": "LOC000148245581",
    "tech": "SATELLITE",
    "upgrade": "NULL_NA",
    "gnaf_pid": "GASA_425582788",
    "tech_change_status": "Not Planned"
   }
  },
  {
   "type": "Feature",
   "geometry": {
    "type": "Point",
    "coordinates": [
     134.7327523,
     -32.74827092
    ]
   },
   "properties": {
    "name": "LOT 3 STREAKY BAY ROAD CHANDADA 5680",
    "locID": "LOC000131561073",
    "tech": "NULL",
    "upgrade": "NULL_NA",
    "gnaf_pid": "GASA_425724992",
    "tech_change_status": "Not Planned"
   }
  },
  {
   "type": "Feature",
   "geometry": {
    "type": "Point",
    "coordinates": [
     134.73900875,
     -32.67030247
    ]
   },
   "properties": {
    "name": "LOT 24 MCEVOY ROAD CHANDADA 5680",
    "locID": "LOC000131622442",
    "tech": "SATELLITE",
    "upgrade": "NULL_NA",
    "gnaf_pid": "GASA_720186299",
    "tech_change_status": "Not Planned"
   }
  },
  {
   "type": "Feature",
   "geometry": {
    "type": "Point",
    "coordinates": [
     134.67313024,
     -32.75568186
    ]
   },
   "properties": {
    "name": "LOT 74 STREAKY BAY ROAD CHANDADA 5680",
    "locID": "LOC000131561073",
    "tech": "NULL",
    "upgrade": "NULL_NA",
    "gnaf_pid": "GASA_720301505",
    "tech_change_status": "Not Planned"
   }
  },
  {
   "type": "Feature",
   "geometry": {
    "type": "Point",
    "coordinates": [
     134.67228299,
     -32.75629518
    ]
   },
   "properties": {
    "name": "LOT 78 STREAKY BAY ROAD CHANDADA 5680",
    "locID": "LOC000131561073",
    "tech": "NULL",
    "upgrade": "NULL_NA",
    "gnaf_pid": "GASA_720303817",
    "tech_change_status": "Not Planned"
   }
  },
  {
   "type": "Feature",
   "geometry": {
    "type": "Point",
    "coordinates": [
     134.6776554,
     -32.75464758
    ]
   },
   "properties": {
    "name": "LOT 89 STREAKY BAY ROAD CHANDADA 5680",
    "locID": "LOC000131561073",
    "tech": "NULL",
    "upgrade": "NULL_NA",
    "gnaf_pid": "GASA_720413961",
    "tech_change_status": "Not Planned"
   }
  }
 ]
}