{
 "type": "FeatureCollection",
 "generated": "2024-11-13T13:46:15.338406",
 "suburb": "CULTANA",
 "features": [
  {
   "type": "Feature",
   "geometry": {
    "type": "Point",
    "coordinates": [
     137.655698,
     -32.555738
    ]
   },
   "properties": {
    "name": "1289 CAROONA ROAD CULTANA 5700",
    "locID": "LOC100071957893",
    "tech": "NULL",
    "upgrade": "NULL_NA",
    "gnaf_pid": "GASA_425581344",
    "tech_change_status": "Not Planned"
   }
  },
  {
   "type": "Feature",
   "geometry": {
    "type": "Point",
    "coordinates": [
     137.40437687,
     -32.98717849
    ]
   },
   "properties": {
    "name": "1146 IRON KNOB ROAD CULTANA 5700",
    "locID": "LOC000142385476",
    "tech": "SATELLITE",
    "upgrade": "NULL_NA",
    "gnaf_pid": "GASA_425582367",
    "tech_change_status": "Not Planned"
   }
  },
  {
   "type": "Feature",
   "geometry": {
    "type": "Point",
    "coordinates": [
     137.67888521,
     -32.54031979
    ]
   },
   "properties": {
    "name": "1011 CAROONA ROAD CULTANA 5700",
    "locID": "LOC100071956911",
    "tech": "WIRELESS",
    "upgrade": "NULL_NA",
    "gnaf_pid": "GASA_425598113",
    "tech_change_status": "Not Planned",
    "program_type": "Fixed Wireless and Satellite Upgrade Program",
    "target_eligibility_quarter": "NA"
   }
  },
  {
   "type": "Feature",
   "geometry": {
    "type": "Point",
    "coordinates": [
     137.75306876,
     -32.68468244
    ]
   },
   "properties": {
    "name": "1 CLANCEY COURT CULTANA 5700",
    "locID": "LOC000006817338",
    "tech": "WIRELESS",
    "upgrade": "NULL_NA",
    "gnaf_pid": "GASA_425598131",
    "tech_change_status": "Not Planned",
    "program_type": "Fixed Wireless and Satellite Upgrade Program",
    "target_eligibility_quarter": "NA"
   }
  },
  {
   "type": "Feature",
   "geometry": {
    "type": "Point",
    "coordinates": [
     137.75223427,
     -32.68314045
    ]
   },
   "properties": {
    "name": "1 SALMON PLACE CULTANA 5700",
    "locID": "LOC000053988057",
    "tech": "FTTN",
    "upgrade": "FTTP_SA",
    "gnaf_pid": "GASA_425599912",
    "tech_change_status": "Eligible to Order",
    "program_type": "On-Demand N2P SDU/MDU Simple",
    "target_eligibility_quarter": "NA"
   }
  },
  {
   "type": "Feature",
   "geometry": {
    "type": "Point",
    "coordinates": [
     137.37043173,
     -32.68592231
    ]
   },
   "properties": {
    "name": "LOT 6 EYRE HIGHWAY CULTANA 5700",
    "locID": "LOC000094092317",
    "tech": "FTTP",
    "upgrade": "NULL_NA",
    "gnaf_pid": "GASA_425710013"
   }
  },
  {
   "type": "Feature",
   "geometry": {
    "type": "Point",
    "coordinates": [
     137.39706722,
     -32.93771033
    ]
   },
   "properties": {
    "name": "LOT 379 IRON KNOB ROAD CULTANA 5700",
    "locID": "LOC000142385476",
    "tech": "SATELLITE",
    "upgrade": "NULL_NA",
    "gnaf_pid": "GASA_425721598",
    "tech_change_status": "Not Planned"
   }
  },
  {
   "type": "Feature",
   "geometry": {
    "type": "Point",
    "coordinates": [
     137.67672614,
     -32.54137704
    ]
   },
   "properties": {
    "name": "10 CAROONA ROAD CULTANA 5700",
    "locID": "LOC100071956911",
    "tech": "WIRELESS",
    "upgrade": "NULL_NA",
    "gnaf_pid": "GASA_425726136",
    "tech_change_status": "Not Planned",
    "program_type": "Fixed Wireless and Satellite Upgrade Program",
    "target_eligibility_quarter": "NA"
   }
  },
  {
   "type": "Feature",
   "geometry": {
    "type": "Point",
    "coordinates": [
     137.23790151,
     -32.75010989
    ]
   },
   "properties": {
    "name": "LOT 81 EYRE HIGHWAY CULTANA 5700",
    "locID": "LOC100071959584",
    "tech": "NULL",
    "upgrade": "NULL_NA",
    "gnaf_pid": "GASA_719512852",
    "tech_change_status": "Not Planned"
   }
  },
  {
   "type": "Feature",
   "geometry": {
    "type": "Point",
    "coordinates": [
     137.54317073,
     -32.93156605
    ]
   },
   "properties": {
    "name": "LOT 66 LINCOLN HIGHWAY CULTANA 5700",
    "locID": "LOC100072076499",
    "tech": "NULL",
    "upgrade": "NULL_NA",
    "gnaf_pid": "GASA_719517229",
    "tech_change_status": "Not Planned"
   }
  },
  {
   "type": "Feature",
   "geometry": {
    "type": "Point",
    "coordinates": [
     137.69120378,
     -32.65056456
    ]
   },
   "properties": {
    "name": "LOT 269 CAROONA ROAD CULTANA 5700",
    "locID": "LOC000131752711",
    "tech": "WIRELESS",
    "upgrade": "NULL_NA",
    "gnaf_pid": "GASA_719859870",
    "tech_change_status": "Not Planned",
    "program_type": "Fixed Wireless and Satellite Upgrade Program",
    "target_eligibility_quarter": "NA"
   }
  }
 ]
}