{
 "type": "FeatureCollection",
 "generated": "2024-11-13T15:36:22.029721",
 "suburb": "FRANKLYN",
 "features": [
  {
   "type": "Feature",
   "geometry": {
    "type": "Point",
    "coordinates": [
     139.04760568,
     -33.13198151
    ]
   },
   "properties": {
    "name": "LOT 211 FRANKLYN ROAD FRANKLYN 5421",
    "locID": "LOC100071966505",
    "tech": "NULL",
    "upgrade": "NULL_NA",
    "gnaf_pid": "GASA_425581917",
    "tech_change_status": "Not Planned"
   }
  },
  {
   "type": "Feature",
   "geometry": {
    "type": "Point",
    "coordinates": [
     139.12993618,
     -33.11134092
    ]
   },
   "properties": {
    "name": "LOT 542 FRANKLYN ROAD FRANKLYN 5421",
    "locID": "LOC100071966505",
    "tech": "NULL",
    "upgrade": "NULL_NA",
    "gnaf_pid": "GASA_425581919",
    "tech_change_status": "Not Planned"
   }
  },
  {
   "type": "Feature",
   "geometry": {
    "type": "Point",
    "coordinates": [
     139.0913939,
     -33.13153275
    ]
   },
   "properties": {
    "name": "1724 FRANKLYN ROAD FRANKLYN 5421",
    "locID": "LOC000150224337",
    "tech": "SATELLITE",
    "upgrade": "NULL_NA",
    "gnaf_pid": "GASA_425720754",
    "tech_change_status": "Not Planned"
   }
  }
 ]
}