{
 "type": "FeatureCollection",
 "generated": "2025-02-10T02:05:06.368646",
 "suburb": "GIFFORD HILL",
 "features": [
  {
   "type": "Feature",
   "geometry": {
    "type": "Point",
    "coordinates": [
     139.21671346,
     -35.15231606
    ]
   },
   "properties": {
    "name": "LOT 1182 KOEHLER ROAD GIFFORD HILL 5253",
    "locID": "LOC000113053783",
    "tech": "WIRELESS",
    "upgrade": "NULL_NA",
    "gnaf_pid": "GASA_424312096",
    "tech_change_status": "Not Planned",
    "program_type": "Fixed Wireless and Satellite Upgrade Program",
    "target_eligibility_quarter": "NA"
   }
  },
  {
   "type": "Feature",
   "geometry": {
    "type": "Point",
    "coordinates": [
     139.26142293,
     -35.15158527
    ]
   },
   "properties": {
    "name": "148 BRINKLEY ROAD GIFFORD HILL 5253",
    "locID": "LOC000115002748",
    "tech": "WIRELESS",
    "upgrade": "NULL_NA",
    "gnaf_pid": "GASA_424697033",
    "tech_change_status": "Not Planned",
    "program_type": "Fixed Wireless and Satellite Upgrade Program",
    "target_eligibility_quarter": "NA"
   }
  },
  {
   "type": "Feature",
   "geometry": {
    "type": "Point",
    "coordinates": [
     139.25786541,
     -35.15808949
    ]
   },
   "properties": {
    "name": "228 BRINKLEY ROAD GIFFORD HILL 5253",
    "locID": "LOC100078648675",
    "tech": "WIRELESS",
    "upgrade": "NULL_NA",
    "gnaf_pid": "GASA_424697034",
    "tech_change_status": "Not Planned",
    "program_type": "Fixed Wireless and Satellite Upgrade Program",
    "target_eligibility_quarter": "NA"
   }
  },
  {
   "type": "Feature",
   "geometry": {
    "type": "Point",
    "coordinates": [
     139.244262,
     -35.176325
    ]
   },
   "properties": {
    "name": "468 BRINKLEY ROAD GIFFORD HILL 5253",
    "locID": "LOC000114728210",
    "tech": "WIRELESS",
    "upgrade": "NULL_NA",
    "gnaf_pid": "GASA_424697035",
    "tech_change_status": "Not Planned",
    "program_type": "Fixed Wireless and Satellite Upgrade Program",
    "target_eligibility_quarter": "NA"
   }
  },
  {
   "type": "Feature",
   "geometry": {
    "type": "Point",
    "coordinates": [
     139.19534577,
     -35.15591454
    ]
   },
   "properties": {
    "name": "44 BRUSHLEIGH LANE GIFFORD HILL 5253",
    "locID": "LOC000112863767",
    "tech": "WIRELESS",
    "upgrade": "NULL_NA",
    "gnaf_pid": "GASA_424697162",
    "tech_change_status": "Not Planned",
    "program_type": "Fixed Wireless and Satellite Upgrade Program",
    "target_eligibility_quarter": "NA"
   }
  },
  {
   "type": "Feature",
   "geometry": {
    "type": "Point",
    "coordinates": [
     139.19372994,
     -35.15928825
    ]
   },
   "properties": {
    "name": "4 BRUSHLEIGH LANE GIFFORD HILL 5253",
    "locID": "LOC000115074617",
    "tech": "SATELLITE",
    "upgrade": "WIRELESS",
    "gnaf_pid": "GASA_424697163",
    "tech_change_status": "Eligible to Order",
    "program_type": "Fixed Wireless and Satellite Upgrade Program",
    "target_eligibility_quarter": "NA"
   }
  },
  {
   "type": "Feature",
   "geometry": {
    "type": "Point",
    "coordinates": [
     139.22289296,
     -35.15774847
    ]
   },
   "properties": {
    "name": "103 KOEHLER ROAD GIFFORD HILL 5253",
    "locID": "LOC000113053783",
    "tech": "WIRELESS",
    "upgrade": "NULL_NA",
    "gnaf_pid": "GASA_424702261",
    "tech_change_status": "Not Planned",
    "program_type": "Fixed Wireless and Satellite Upgrade Program",
    "target_eligibility_quarter": "NA"
   }
  },
  {
   "type": "Feature",
   "geometry": {
    "type": "Point",
    "coordinates": [
     139.219256,
     -35.15285
    ]
   },
   "properties": {
    "name": "174 KOEHLER ROAD GIFFORD HILL 5253",
    "locID": "LOC000114594567",
    "tech": "WIRELESS",
    "upgrade": "NULL_NA",
    "gnaf_pid": "GASA_424702262",
    "tech_change_status": "Not Planned",
    "program_type": "Fixed Wireless and Satellite Upgrade Program",
    "target_eligibility_quarter": "NA"
   }
  },
  {
   "type": "Feature",
   "geometry": {
    "type": "Point",
    "coordinates": [
     139.21768406,
     -35.1526257
    ]
   },
   "properties": {
    "name": "189 KOEHLER ROAD GIFFORD HILL 5253",
    "locID": "LOC000114710249",
    "tech": "WIRELESS",
    "upgrade": "NULL_NA",
    "gnaf_pid": "GASA_424702263",
    "tech_change_status": "Not Planned",
    "program_type": "Fixed Wireless and Satellite Upgrade Program",
    "target_eligibility_quarter": "NA"
   }
  },
  {
   "type": "Feature",
   "geometry": {
    "type": "Point",
    "coordinates": [
     139.19380194,
     -35.1570673
    ]
   },
   "properties": {
    "name": "405 POPE ROAD GIFFORD HILL 5253",
    "locID": "LOC000113237077",
    "tech": "WIRELESS",
    "upgrade": "NULL_NA",
    "gnaf_pid": "GASA_424706606",
    "tech_change_status": "Not Planned",
    "program_type": "Fixed Wireless and Satellite Upgrade Program",
    "target_eligibility_quarter": "NA"
   }
  },
  {
   "type": "Feature",
   "geometry": {
    "type": "Point",
    "coordinates": [
     139.18863523,
     -35.17113285
    ]
   },
   "properties": {
    "name": "569 POPE ROAD GIFFORD HILL 5253",
    "locID": "LOC000114207343",
    "tech": "WIRELESS",
    "upgrade": "NULL_NA",
    "gnaf_pid": "GASA_424706607",
    "tech_change_status": "Not Planned",
    "program_type": "Fixed Wireless and Satellite Upgrade Program",
    "target_eligibility_quarter": "NA"
   }
  },
  {
   "type": "Feature",
   "geometry": {
    "type": "Point",
    "coordinates": [
     139.20859592,
     -35.16379569
    ]
   },
   "properties": {
    "name": "157 USHER ROAD GIFFORD HILL 5253",
    "locID": "LOC000114439783",
    "tech": "WIRELESS",
    "upgrade": "NULL_NA",
    "gnaf_pid": "GASA_424710017",
    "tech_change_status": "Not Planned",
    "program_type": "Fixed Wireless and Satellite Upgrade Program",
    "target_eligibility_quarter": "NA"
   }
  },
  {
   "type": "Feature",
   "geometry": {
    "type": "Point",
    "coordinates": [
     139.20915462,
     -35.16379439
    ]
   },
   "properties": {
    "name": "163 USHER ROAD GIFFORD HILL 5253",
    "locID": "LOC000114932458",
    "tech": "WIRELESS",
    "upgrade": "NULL_NA",
    "gnaf_pid": "GASA_424710018",
    "tech_change_status": "Not Planned",
    "program_type": "Fixed Wireless and Satellite Upgrade Program",
    "target_eligibility_quarter": "NA"
   }
  },
  {
   "type": "Feature",
   "geometry": {
    "type": "Point",
    "coordinates": [
     139.21285839,
     -35.16380528
    ]
   },
   "properties": {
    "name": "197 USHER ROAD GIFFORD HILL 5253",
    "locID": "LOC000114390687",
    "tech": "WIRELESS",
    "upgrade": "NULL_NA",
    "gnaf_pid": "GASA_424710019",
    "tech_change_status": "Not Planned",
    "program_type": "Fixed Wireless and Satellite Upgrade Program",
    "target_eligibility_quarter": "NA"
   }
  },
  {
   "type": "Feature",
   "geometry": {
    "type": "Point",
    "coordinates": [
     139.21644324,
     -35.1635601
    ]
   },
   "properties": {
    "name": "229 USHER ROAD GIFFORD HILL 5253",
    "locID": "LOC000114349072",
    "tech": "WIRELESS",
    "upgrade": "NULL_NA",
    "gnaf_pid": "GASA_424710020",
    "tech_change_status": "Not Planned",
    "program_type": "Fixed Wireless and Satellite Upgrade Program",
    "target_eligibility_quarter": "NA"
   }
  },
  {
   "type": "Feature",
   "geometry": {
    "type": "Point",
    "coordinates": [
     139.20149786,
     -35.1643855
    ]
   },
   "properties": {
    "name": "93 USHER ROAD GIFFORD HILL 5253",
    "locID": "LOC000114770786",
    "tech": "WIRELESS",
    "upgrade": "NULL_NA",
    "gnaf_pid": "GASA_424710021",
    "tech_change_status": "Not Planned",
    "program_type": "Fixed Wireless and Satellite Upgrade Program",
    "target_eligibility_quarter": "NA"
   }
  },
  {
   "type": "Feature",
   "geometry": {
    "type": "Point",
    "coordinates": [
     139.26293937,
     -35.14876574
    ]
   },
   "properties": {
    "name": "114 BRINKLEY ROAD GIFFORD HILL 5253",
    "locID": "LOC000152040014",
    "tech": "WIRELESS",
    "upgrade": "NULL_NA",
    "gnaf_pid": "GASA_424900144",
    "tech_change_status": "Not Planned",
    "program_type": "Fixed Wireless and Satellite Upgrade Program",
    "target_eligibility_quarter": "NA"
   }
  }
 ]
}