{
 "type": "FeatureCollection",
 "generated": "2024-11-13T18:02:34.460204",
 "suburb": "INGLEWOOD",
 "features": [
  {
   "type": "Feature",
   "geometry": {
    "type": "Point",
    "coordinates": [
     138.77816606,
     -34.8315101
    ]
   },
   "properties": {
    "name": "LOT 3 MURRAY ROAD INGLEWOOD 5133",
    "locID": "LOC000112950861",
    "tech": "WIRELESS",
    "upgrade": "NULL_NA",
    "gnaf_pid": "GASA_424194253",
    "tech_change_status": "Not Planned",
    "program_type": "Fixed Wireless and Satellite Upgrade Program",
    "target_eligibility_quarter": "Dec 2024"
   }
  },
  {
   "type": "Feature",
   "geometry": {
    "type": "Point",
    "coordinates": [
     138.77592337,
     -34.82343094
    ]
   },
   "properties": {
    "name": "LOT 51 NICHOLLS ROAD INGLEWOOD 5133",
    "locID": "LOC000075901650",
    "tech": "WIRELESS",
    "upgrade": "NULL_NA",
    "gnaf_pid": "GASA_424195534",
    "tech_change_status": "Not Planned",
    "program_type": "Fixed Wireless and Satellite Upgrade Program",
    "target_eligibility_quarter": "Dec 2024"
   }
  },
  {
   "type": "Feature",
   "geometry": {
    "type": "Point",
    "coordinates": [
     138.77816606,
     -34.8315101
    ]
   },
   "properties": {
    "name": "LOT 2 MURRAY ROAD INGLEWOOD 5133",
    "locID": "LOC000114915529",
    "tech": "WIRELESS",
    "upgrade": "NULL_NA",
    "gnaf_pid": "GASA_424227074",
    "tech_change_status": "Not Planned",
    "program_type": "Fixed Wireless and Satellite Upgrade Program",
    "target_eligibility_quarter": "Dec 2024"
   }
  },
  {
   "type": "Feature",
   "geometry": {
    "type": "Point",
    "coordinates": [
     138.77550001,
     -34.8348398
    ]
   },
   "properties": {
    "name": "LOT 5 PITMAN ROAD INGLEWOOD 5133",
    "locID": "LOC000116221888",
    "tech": "WIRELESS",
    "upgrade": "NULL_NA",
    "gnaf_pid": "GASA_424227697",
    "tech_change_status": "Not Planned",
    "program_type": "Fixed Wireless and Satellite Upgrade Program",
    "target_eligibility_quarter": "Dec 2024"
   }
  },
  {
   "type": "Feature",
   "geometry": {
    "type": "Point",
    "coordinates": [
     138.80301794,
     -34.78648639
    ]
   },
   "properties": {
    "name": "LOT 605 RICHARDSON ROAD INGLEWOOD 5133",
    "locID": "LOC000114696209",
    "tech": "SATELLITE",
    "upgrade": "NULL_NA",
    "gnaf_pid": "GASA_424228210",
    "tech_change_status": "Not Planned"
   }
  },
  {
   "type": "Feature",
   "geometry": {
    "type": "Point",
    "coordinates": [
     138.80301794,
     -34.78648639
    ]
   },
   "properties": {
    "name": "LOT 616 RICHARDSON ROAD INGLEWOOD 5133",
    "locID": "LOC000114696209",
    "tech": "SATELLITE",
    "upgrade": "NULL_NA",
    "gnaf_pid": "GASA_424228215",
    "tech_change_status": "Not Planned"
   }
  },
  {
   "type": "Feature",
   "geometry": {
    "type": "Point",
    "coordinates": [
     138.78012631,
     -34.80746499
    ]
   },
   "properties": {
    "name": "LOT 489 CHAPMAN ROAD INGLEWOOD 5133",
    "locID": "LOC000130367201",
    "tech": "WIRELESS",
    "upgrade": "NULL_NA",
    "gnaf_pid": "GASA_424294024",
    "tech_change_status": "Not Planned",
    "program_type": "Fixed Wireless and Satellite Upgrade Program",
    "target_eligibility_quarter": "Dec 2024"
   }
  },
  {
   "type": "Feature",
   "geometry": {
    "type": "Point",
    "coordinates": [
     138.77939521,
     -34.82617271
    ]
   },
   "properties": {
    "name": "LOT 21 MURRAY ROAD INGLEWOOD 5133",
    "locID": "LOC000112950861",
    "tech": "WIRELESS",
    "upgrade": "NULL_NA",
    "gnaf_pid": "GASA_424344067",
    "tech_change_status": "Not Planned",
    "program_type": "Fixed Wireless and Satellite Upgrade Program",
    "target_eligibility_quarter": "Dec 2024"
   }
  },
  {
   "type": "Feature",
   "geometry": {
    "type": "Point",
    "coordinates": [
     138.79525515,
     -34.77111769
    ]
   },
   "properties": {
    "name": "122 AIRSTRIP ROAD INGLEWOOD 5133",
    "locID": "LOC000037017050",
    "tech": "SATELLITE",
    "upgrade": "NULL_NA",
    "gnaf_pid": "GASA_424654807",
    "tech_change_status": "Not Planned"
   }
  },
  {
   "type": "Feature",
   "geometry": {
    "type": "Point",
    "coordinates": [
     138.78620028,
     -34.80110301
    ]
   },
   "properties": {
    "name": "172 BURNS ROAD INGLEWOOD 5133",
    "locID": "LOC000105529342",
    "tech": "NULL",
    "upgrade": "NULL_NA",
    "gnaf_pid": "GASA_424656322",
    "tech_change_status": "Not Planned"
   }
  },
  {
   "type": "Feature",
   "geometry": {
    "type": "Point",
    "coordinates": [
     138.78113111,
     -34.81348856
    ]
   },
   "properties": {
    "name": "117 CHAPMAN ROAD INGLEWOOD 5133",
    "locID": "LOC000093540139",
    "tech": "WIRELESS",
    "upgrade": "NULL_NA",
    "gnaf_pid": "GASA_424656539",
    "tech_change_status": "Not Planned",
    "program_type": "Fixed Wireless and Satellite Upgrade Program",
    "target_eligibility_quarter": "Dec 2024"
   }
  },
  {
   "type": "Feature",
   "geometry": {
    "type": "Point",
    "coordinates": [
     138.78092003,
     -34.81263409
    ]
   },
   "properties": {
    "name": "127 CHAPMAN ROAD INGLEWOOD 5133",
    "locID": "LOC000042225154",
    "tech": "WIRELESS",
    "upgrade": "NULL_NA",
    "gnaf_pid": "GASA_424656540",
    "tech_change_status": "Not Planned",
    "program_type": "Fixed Wireless and Satellite Upgrade Program",
    "target_eligibility_quarter": "Dec 2024"
   }
  },
  {
   "type": "Feature",
   "geometry": {
    "type": "Point",
    "coordinates": [
     138.78089511,
     -34.81252367
    ]
   },
   "properties": {
    "name": "129 CHAPMAN ROAD INGLEWOOD 5133",
    "locID": "LOC000059127909",
    "tech": "SATELLITE",
    "upgrade": "NULL_NA",
    "gnaf_pid": "GASA_424656541",
    "tech_change_status": "Not Planned"
   }
  },
  {
   "type": "Feature",
   "geometry": {
    "type": "Point",
    "coordinates": [
     138.78270972,
     -34.82236035
    ]
   },
   "properties": {
    "name": "17 CHAPMAN ROAD INGLEWOOD 5133",
    "locID": "LOC000051050668",
    "tech": "WIRELESS",
    "upgrade": "NULL_NA",
    "gnaf_pid": "GASA_424656542",
    "tech_change_status": "Not Planned",
    "program_type": "Fixed Wireless and Satellite Upgrade Program",
    "target_eligibility_quarter": "Dec 2024"
   }
  },
  {
   "type": "Feature",
   "geometry": {
    "type": "Point",
    "coordinates": [
     138.78278837,
     -34.82231612
    ]
   },
   "properties": {
    "name": "18 CHAPMAN ROAD INGLEWOOD 5133",
    "locID": "LOC000030287785",
    "tech": "WIRELESS",
    "upgrade": "NULL_NA",
    "gnaf_pid": "GASA_424656543",
    "tech_change_status": "Not Planned",
    "program_type": "Fixed Wireless and Satellite Upgrade Program",
    "target_eligibility_quarter": "Dec 2024"
   }
  },
  {
   "type": "Feature",
   "geometry": {
    "type": "Point",
    "coordinates": [
     138.78171172,
     -34.81660689
    ]
   },
   "properties": {
    "name": "83 CHAPMAN ROAD INGLEWOOD 5133",
    "locID": "LOC000107224518",
    "tech": "WIRELESS",
    "upgrade": "NULL_NA",
    "gnaf_pid": "GASA_424656545",
    "tech_change_status": "Not Planned",
    "program_type": "Fixed Wireless and Satellite Upgrade Program",
    "target_eligibility_quarter": "Dec 2024"
   }
  },
  {
   "type": "Feature",
   "geometry": {
    "type": "Point",
    "coordinates": [
     138.7817365,
     -34.81596011
    ]
   },
   "properties": {
    "name": "90 CHAPMAN ROAD INGLEWOOD 5133",
    "locID": "LOC100078861054",
    "tech": "WIRELESS",
    "upgrade": "NULL_NA",
    "gnaf_pid": "GASA_424656546",
    "tech_change_status": "Not Planned",
    "program_type": "Fixed Wireless and Satellite Upgrade Program",
    "target_eligibility_quarter": "Dec 2024"
   }
  },
  {
   "type": "Feature",
   "geometry": {
    "type": "Point",
    "coordinates": [
     138.78701407,
     -34.79163772
    ]
   },
   "properties": {
    "name": "398 MILLBROOK ROAD INGLEWOOD 5133",
    "locID": "LOC000032636937",
    "tech": "SATELLITE",
    "upgrade": "NULL_NA",
    "gnaf_pid": "GASA_424661303",
    "tech_change_status": "Not Planned"
   }
  },
  {
   "type": "Feature",
   "geometry": {
    "type": "Point",
    "coordinates": [
     138.785426,
     -34.790284
    ]
   },
   "properties": {
    "name": "422 MILLBROOK ROAD INGLEWOOD 5133",
    "locID": "LOC000070548314",
    "tech": "WIRELESS",
    "upgrade": "NULL_NA",
    "gnaf_pid": "GASA_424661304",
    "tech_change_status": "Not Planned",
    "program_type": "Fixed Wireless and Satellite Upgrade Program",
    "target_eligibility_quarter": "Dec 2024"
   }
  },
  {
   "type": "Feature",
   "geometry": {
    "type": "Point",
    "coordinates": [
     138.778262,
     -34.831766
    ]
   },
   "properties": {
    "name": "73 MURRAY ROAD INGLEWOOD 5133",
    "locID": "LOC000037184166",
    "tech": "WIRELESS",
    "upgrade": "NULL_NA",
    "gnaf_pid": "GASA_424661801",
    "tech_change_status": "Not Planned",
    "program_type": "Fixed Wireless and Satellite Upgrade Program",
    "target_eligibility_quarter": "Dec 2024"
   }
  },
  {
   "type": "Feature",
   "geometry": {
    "type": "Point",
    "coordinates": [
     138.77056899,
     -34.82407843
    ]
   },
   "properties": {
    "name": "1908 NORTH EAST ROAD INGLEWOOD 5133",
    "locID": "LOC000013333800",
    "tech": "SATELLITE",
    "upgrade": "NULL_NA",
    "gnaf_pid": "GASA_424662311",
    "tech_change_status": "Not Planned"
   }
  },
  {
   "type": "Feature",
   "geometry": {
    "type": "Point",
    "coordinates": [
     138.77138427,
     -34.82336834
    ]
   },
   "properties": {
    "name": "1918 NORTH EAST ROAD INGLEWOOD 5133",
    "locID": "LOC000081486793",
    "tech": "SATELLITE",
    "upgrade": "NULL_NA",
    "gnaf_pid": "GASA_424662312",
    "tech_change_status": "Not Planned"
   }
  },
  {
   "type": "Feature",
   "geometry": {
    "type": "Point",
    "coordinates": [
     138.77275687,
     -34.82342152
    ]
   },
   "properties": {
    "name": "1932 NORTH EAST ROAD INGLEWOOD 5133",
    "locID": "LOC000183907747",
    "tech": "WIRELESS",
    "upgrade": "NULL_NA",
    "gnaf_pid": "GASA_424662313",
    "tech_change_status": "Not Planned",
    "program_type": "Fixed Wireless and Satellite Upgrade Program",
    "target_eligibility_quarter": "Dec 2024"
   }
  },
  {
   "type": "Feature",
   "geometry": {
    "type": "Point",
    "coordinates": [
     138.77397295,
     -34.82381693
    ]
   },
   "properties": {
    "name": "1944 NORTH EAST ROAD INGLEWOOD 5133",
    "locID": "LOC000019260956",
    "tech": "SATELLITE",
    "upgrade": "NULL_NA",
    "gnaf_pid": "GASA_424662314",
    "tech_change_status": "Not Planned"
   }
  },
  {
   "type": "Feature",
   "geometry": {
    "type": "Point",
    "coordinates": [
     138.78236456,
     -34.82879362
    ]
   },
   "properties": {
    "name": "639 PARACOMBE ROAD INGLEWOOD 5133",
    "locID": "LOC000006239905",
    "tech": "WIRELESS",
    "upgrade": "NULL_NA",
    "gnaf_pid": "GASA_424662805",
    "tech_change_status": "Not Planned",
    "program_type": "Fixed Wireless and Satellite Upgrade Program",
    "target_eligibility_quarter": "Dec 2024"
   }
  },
  {
   "type": "Feature",
   "geometry": {
    "type": "Point",
    "coordinates": [
     138.77548727,
     -34.83460792
    ]
   },
   "properties": {
    "name": "23 PITMAN ROAD INGLEWOOD 5133",
    "locID": "LOC000077100499",
    "tech": "SATELLITE",
    "upgrade": "NULL_NA",
    "gnaf_pid": "GASA_424663074",
    "tech_change_status": "Not Planned"
   }
  },
  {
   "type": "Feature",
   "geometry": {
    "type": "Point",
    "coordinates": [
     138.79709187,
     -34.77095443
    ]
   },
   "properties": {
    "name": "138 AIRSTRIP ROAD INGLEWOOD 5133",
    "locID": "LOC000113347273",
    "tech": "SATELLITE",
    "upgrade": "NULL_NA",
    "gnaf_pid": "GASA_424695357",
    "tech_change_status": "Not Planned"
   }
  },
  {
   "type": "Feature",
   "geometry": {
    "type": "Point",
    "coordinates": [
     138.80096635,
     -34.77112457
    ]
   },
   "properties": {
    "name": "176 AIRSTRIP ROAD INGLEWOOD 5133",
    "locID": "LOC000114596744",
    "tech": "SATELLITE",
    "upgrade": "NULL_NA",
    "gnaf_pid": "GASA_424695358",
    "tech_change_status": "Not Planned"
   }
  },
  {
   "type": "Feature",
   "geometry": {
    "type": "Point",
    "coordinates": [
     138.80550445,
     -34.77396437
    ]
   },
   "properties": {
    "name": "230 AIRSTRIP ROAD INGLEWOOD 5133",
    "locID": "LOC000115112927",
    "tech": "SATELLITE",
    "upgrade": "NULL_NA",
    "gnaf_pid": "GASA_424695359",
    "tech_change_status": "Not Planned"
   }
  },
  {
   "type": "Feature",
   "geometry": {
    "type": "Point",
    "coordinates": [
     138.80807606,
     -34.77488896
    ]
   },
   "properties": {
    "name": "254 AIRSTRIP ROAD INGLEWOOD 5133",
    "locID": "LOC000114598256",
    "tech": "SATELLITE",
    "upgrade": "NULL_NA",
    "gnaf_pid": "GASA_424695360",
    "tech_change_status": "Not Planned"
   }
  },
  {
   "type": "Feature",
   "geometry": {
    "type": "Point",
    "coordinates": [
     138.80941995,
     -34.77524819
    ]
   },
   "properties": {
    "name": "268 AIRSTRIP ROAD INGLEWOOD 5133",
    "locID": "LOC000112983492",
    "tech": "NULL",
    "upgrade": "NULL_NA",
    "gnaf_pid": "GASA_424695361",
    "tech_change_status": "Not Planned"
   }
  },
  {
   "type": "Feature",
   "geometry": {
    "type": "Point",
    "coordinates": [
     138.81229329,
     -34.77522928
    ]
   },
   "properties": {
    "name": "296 AIRSTRIP ROAD INGLEWOOD 5133",
    "locID": "LOC000113121109",
    "tech": "SATELLITE",
    "upgrade": "NULL_NA",
    "gnaf_pid": "GASA_424695362",
    "tech_change_status": "Not Planned"
   }
  },
  {
   "type": "Feature",
   "geometry": {
    "type": "Point",
    "coordinates": [
     138.77111627,
     -34.8260792
    ]
   },
   "properties": {
    "name": "108 BLACKHILL ROAD INGLEWOOD 5133",
    "locID": "LOC000113340607",
    "tech": "WIRELESS",
    "upgrade": "NULL_NA",
    "gnaf_pid": "GASA_424696486",
    "tech_change_status": "Not Planned",
    "program_type": "Fixed Wireless and Satellite Upgrade Program",
    "target_eligibility_quarter": "Dec 2024"
   }
  },
  {
   "type": "Feature",
   "geometry": {
    "type": "Point",
    "coordinates": [
     138.7726349,
     -34.82486221
    ]
   },
   "properties": {
    "name": "127 BLACKHILL ROAD INGLEWOOD 5133",
    "locID": "LOC000114184860",
    "tech": "SATELLITE",
    "upgrade": "NULL_NA",
    "gnaf_pid": "GASA_424696487",
    "tech_change_status": "Not Planned"
   }
  },
  {
   "type": "Feature",
   "geometry": {
    "type": "Point",
    "coordinates": [
     138.77330639,
     -34.82414131
    ]
   },
   "properties": {
    "name": "137 BLACKHILL ROAD INGLEWOOD 5133",
    "locID": "LOC000114685827",
    "tech": "WIRELESS",
    "upgrade": "NULL_NA",
    "gnaf_pid": "GASA_424696488",
    "tech_change_status": "Not Planned",
    "program_type": "Fixed Wireless and Satellite Upgrade Program",
    "target_eligibility_quarter": "Dec 2024"
   }
  },
  {
   "type": "Feature",
   "geometry": {
    "type": "Point",
    "coordinates": [
     138.77337026,
     -34.82408733
    ]
   },
   "properties": {
    "name": "139 BLACKHILL ROAD INGLEWOOD 5133",
    "locID": "LOC000114823056",
    "tech": "WIRELESS",
    "upgrade": "NULL_NA",
    "gnaf_pid": "GASA_424696489",
    "tech_change_status": "Not Planned",
    "program_type": "Fixed Wireless and Satellite Upgrade Program",
    "target_eligibility_quarter": "Dec 2024"
   }
  },
  {
   "type": "Feature",
   "geometry": {
    "type": "Point",
    "coordinates": [
     138.76800633,
     -34.82878948
    ]
   },
   "properties": {
    "name": "64 BLACKHILL ROAD INGLEWOOD 5133",
    "locID": "LOC000113085127",
    "tech": "WIRELESS",
    "upgrade": "NULL_NA",
    "gnaf_pid": "GASA_424696490",
    "tech_change_status": "Not Planned",
    "program_type": "Fixed Wireless and Satellite Upgrade Program",
    "target_eligibility_quarter": "Dec 2024"
   }
  },
  {
   "type": "Feature",
   "geometry": {
    "type": "Point",
    "coordinates": [
     138.79206209,
     -34.80383904
    ]
   },
   "properties": {
    "name": "107 BURNS ROAD INGLEWOOD 5133",
    "locID": "LOC000112849530",
    "tech": "SATELLITE",
    "upgrade": "NULL_NA",
    "gnaf_pid": "GASA_424697295",
    "tech_change_status": "Not Planned"
   }
  },
  {
   "type": "Feature",
   "geometry": {
    "type": "Point",
    "coordinates": [
     138.79160328,
     -34.8035615
    ]
   },
   "properties": {
    "name": "112 BURNS ROAD INGLEWOOD 5133",
    "locID": "LOC000114856600",
    "tech": "SATELLITE",
    "upgrade": "NULL_NA",
    "gnaf_pid": "GASA_424697296",
    "tech_change_status": "Not Planned"
   }
  },
  {
   "type": "Feature",
   "geometry": {
    "type": "Point",
    "coordinates": [
     138.79080867,
     -34.80355329
    ]
   },
   "properties": {
    "name": "119 BURNS ROAD INGLEWOOD 5133",
    "locID": "LOC000114110987",
    "tech": "SATELLITE",
    "upgrade": "NULL_NA",
    "gnaf_pid": "GASA_424697297",
    "tech_change_status": "Not Planned"
   }
  },
  {
   "type": "Feature",
   "geometry": {
    "type": "Point",
    "coordinates": [
     138.79025983,
     -34.80340414
    ]
   },
   "properties": {
    "name": "124 BURNS ROAD INGLEWOOD 5133",
    "locID": "LOC000114372528",
    "tech": "SATELLITE",
    "upgrade": "NULL_NA",
    "gnaf_pid": "GASA_424697298",
    "tech_change_status": "Not Planned"
   }
  },
  {
   "type": "Feature",
   "geometry": {
    "type": "Point",
    "coordinates": [
     138.78908576,
     -34.8034095
    ]
   },
   "properties": {
    "name": "135 BURNS ROAD INGLEWOOD 5133",
    "locID": "LOC000114594816",
    "tech": "NULL",
    "upgrade": "NULL_NA",
    "gnaf_pid": "GASA_424697299",
    "tech_change_status": "Not Planned"
   }
  },
  {
   "type": "Feature",
   "geometry": {
    "type": "Point",
    "coordinates": [
     138.78786541,
     -34.80293434
    ]
   },
   "properties": {
    "name": "147 BURNS ROAD INGLEWOOD 5133",
    "locID": "LOC000114314792",
    "tech": "SATELLITE",
    "upgrade": "NULL_NA",
    "gnaf_pid": "GASA_424697300",
    "tech_change_status": "Not Planned"
   }
  },
  {
   "type": "Feature",
   "geometry": {
    "type": "Point",
    "coordinates": [
     138.78778276,
     -34.80272541
    ]
   },
   "properties": {
    "name": "150 BURNS ROAD INGLEWOOD 5133",
    "locID": "LOC000114157762",
    "tech": "SATELLITE",
    "upgrade": "NULL_NA",
    "gnaf_pid": "GASA_424697301",
    "tech_change_status": "Not Planned"
   }
  },
  {
   "type": "Feature",
   "geometry": {
    "type": "Point",
    "coordinates": [
     138.78662695,
     -34.80139769
    ]
   },
   "properties": {
    "name": "168 BURNS ROAD INGLEWOOD 5133",
    "locID": "LOC000113106367",
    "tech": "SATELLITE",
    "upgrade": "NULL_NA",
    "gnaf_pid": "GASA_424697302",
    "tech_change_status": "Not Planned"
   }
  },
  {
   "type": "Feature",
   "geometry": {
    "type": "Point",
    "coordinates": [
     138.78607561,
     -34.80152156
    ]
   },
   "properties": {
    "name": "176 BURNS ROAD INGLEWOOD 5133",
    "locID": "LOC000113195918",
    "tech": "NULL",
    "upgrade": "NULL_NA",
    "gnaf_pid": "GASA_424697303",
    "tech_change_status": "Not Planned"
   }
  },
  {
   "type": "Feature",
   "geometry": {
    "type": "Point",
    "coordinates": [
     138.79313665,
     -34.80386333
    ]
   },
   "properties": {
    "name": "96 BURNS ROAD INGLEWOOD 5133",
    "locID": "LOC000114171299",
    "tech": "SATELLITE",
    "upgrade": "NULL_NA",
    "gnaf_pid": "GASA_424697304",
    "tech_change_status": "Not Planned"
   }
  },
  {
   "type": "Feature",
   "geometry": {
    "type": "Point",
    "coordinates": [
     138.78099034,
     -34.81262362
    ]
   },
   "properties": {
    "name": "128 CHAPMAN ROAD INGLEWOOD 5133",
    "locID": "LOC000035517898",
    "tech": "SATELLITE",
    "upgrade": "NULL_NA",
    "gnaf_pid": "GASA_424697745",
    "tech_change_status": "Not Planned"
   }
  },
  {
   "type": "Feature",
   "geometry": {
    "type": "Point",
    "coordinates": [
     138.78223237,
     -34.81943445
    ]
   },
   "properties": {
    "name": "51 CHAPMAN ROAD INGLEWOOD 5133",
    "locID": "LOC000113150418",
    "tech": "WIRELESS",
    "upgrade": "NULL_NA",
    "gnaf_pid": "GASA_424697746",
    "tech_change_status": "Not Planned",
    "program_type": "Fixed Wireless and Satellite Upgrade Program",
    "target_eligibility_quarter": "Dec 2024"
   }
  },
  {
   "type": "Feature",
   "geometry": {
    "type": "Point",
    "coordinates": [
     138.78212514,
     -34.81856747
    ]
   },
   "properties": {
    "name": "61 CHAPMAN ROAD INGLEWOOD 5133",
    "locID": "LOC000114694977",
    "tech": "WIRELESS",
    "upgrade": "NULL_NA",
    "gnaf_pid": "GASA_424697747",
    "tech_change_status": "Not Planned",
    "program_type": "Fixed Wireless and Satellite Upgrade Program",
    "target_eligibility_quarter": "Dec 2024"
   }
  },
  {
   "type": "Feature",
   "geometry": {
    "type": "Point",
    "coordinates": [
     138.78224431,
     -34.81847344
    ]
   },
   "properties": {
    "name": "62 CHAPMAN ROAD INGLEWOOD 5133",
    "locID": "LOC000114310281",
    "tech": "SATELLITE",
    "upgrade": "NULL_NA",
    "gnaf_pid": "GASA_424697748",
    "tech_change_status": "Not Planned"
   }
  },
  {
   "type": "Feature",
   "geometry": {
    "type": "Point",
    "coordinates": [
     138.78158713,
     -34.81605308
    ]
   },
   "properties": {
    "name": "89 CHAPMAN ROAD INGLEWOOD 5133",
    "locID": "LOC100078648046",
    "tech": "WIRELESS",
    "upgrade": "NULL_NA",
    "gnaf_pid": "GASA_424697749",
    "tech_change_status": "Not Planned",
    "program_type": "Fixed Wireless and Satellite Upgrade Program",
    "target_eligibility_quarter": "Dec 2024"
   }
  },
  {
   "type": "Feature",
   "geometry": {
    "type": "Point",
    "coordinates": [
     138.7814465,
     -34.81530022
    ]
   },
   "properties": {
    "name": "97 CHAPMAN ROAD INGLEWOOD 5133",
    "locID": "LOC000114385375",
    "tech": "WIRELESS",
    "upgrade": "NULL_NA",
    "gnaf_pid": "GASA_424697750",
    "tech_change_status": "Not Planned",
    "program_type": "Fixed Wireless and Satellite Upgrade Program",
    "target_eligibility_quarter": "Dec 2024"
   }
  },
  {
   "type": "Feature",
   "geometry": {
    "type": "Point",
    "coordinates": [
     138.79966469,
     -34.81004807
    ]
   },
   "properties": {
    "name": "127 FIDLERS HILL ROAD INGLEWOOD 5133",
    "locID": "LOC000113316429",
    "tech": "SATELLITE",
    "upgrade": "NULL_NA",
    "gnaf_pid": "GASA_424699562",
    "tech_change_status": "Not Planned"
   }
  },
  {
   "type": "Feature",
   "geometry": {
    "type": "Point",
    "coordinates": [
     138.80545726,
     -34.80332787
    ]
   },
   "properties": {
    "name": "229 FIDLERS HILL ROAD INGLEWOOD 5133",
    "locID": "LOC100081923226",
    "tech": "WIRELESS",
    "upgrade": "NULL_NA",
    "gnaf_pid": "GASA_424699563",
    "tech_change_status": "Not Planned",
    "program_type": "Fixed Wireless and Satellite Upgrade Program",
    "target_eligibility_quarter": "Dec 2024"
   }
  },
  {
   "type": "Feature",
   "geometry": {
    "type": "Point",
    "coordinates": [
     138.80509533,
     -34.80032054
    ]
   },
   "properties": {
    "name": "188 MILLBROOK ROAD INGLEWOOD 5133",
    "locID": "LOC000114544131",
    "tech": "SATELLITE",
    "upgrade": "NULL_NA",
    "gnaf_pid": "GASA_424704196",
    "tech_change_status": "Not Planned"
   }
  },
  {
   "type": "Feature",
   "geometry": {
    "type": "Point",
    "coordinates": [
     138.79922525,
     -34.79605062
    ]
   },
   "properties": {
    "name": "261 MILLBROOK ROAD INGLEWOOD 5133",
    "locID": "LOC000107574921",
    "tech": "SATELLITE",
    "upgrade": "NULL_NA",
    "gnaf_pid": "GASA_424704197",
    "tech_change_status": "Not Planned"
   }
  },
  {
   "type": "Feature",
   "geometry": {
    "type": "Point",
    "coordinates": [
     138.79935064,
     -34.79586628
    ]
   },
   "properties": {
    "name": "262 MILLBROOK ROAD INGLEWOOD 5133",
    "locID": "LOC000114782823",
    "tech": "SATELLITE",
    "upgrade": "NULL_NA",
    "gnaf_pid": "GASA_424704198",
    "tech_change_status": "Not Planned"
   }
  },
  {
   "type": "Feature",
   "geometry": {
    "type": "Point",
    "coordinates": [
     138.79738811,
     -34.79606732
    ]
   },
   "properties": {
    "name": "281 MILLBROOK ROAD INGLEWOOD 5133",
    "locID": "LOC000114378457",
    "tech": "NULL",
    "upgrade": "NULL_NA",
    "gnaf_pid": "GASA_424704199",
    "tech_change_status": "Not Planned"
   }
  },
  {
   "type": "Feature",
   "geometry": {
    "type": "Point",
    "coordinates": [
     138.79604499,
     -34.79501844
    ]
   },
   "properties": {
    "name": "299 MILLBROOK ROAD INGLEWOOD 5133",
    "locID": "LOC000114672292",
    "tech": "SATELLITE",
    "upgrade": "NULL_NA",
    "gnaf_pid": "GASA_424704200",
    "tech_change_status": "Not Planned"
   }
  },
  {
   "type": "Feature",
   "geometry": {
    "type": "Point",
    "coordinates": [
     138.79307884,
     -34.79503904
    ]
   },
   "properties": {
    "name": "327 MILLBROOK ROAD INGLEWOOD 5133",
    "locID": "LOC000112796631",
    "tech": "SATELLITE",
    "upgrade": "NULL_NA",
    "gnaf_pid": "GASA_424704201",
    "tech_change_status": "Not Planned"
   }
  },
  {
   "type": "Feature",
   "geometry": {
    "type": "Point",
    "coordinates": [
     138.79098279,
     -34.79438266
    ]
   },
   "properties": {
    "name": "349 MILLBROOK ROAD INGLEWOOD 5133",
    "locID": "LOC000114906024",
    "tech": "SATELLITE",
    "upgrade": "NULL_NA",
    "gnaf_pid": "GASA_424704202",
    "tech_change_status": "Not Planned"
   }
  },
  {
   "type": "Feature",
   "geometry": {
    "type": "Point",
    "coordinates": [
     138.79062021,
     -34.7942991
    ]
   },
   "properties": {
    "name": "351 MILLBROOK ROAD INGLEWOOD 5133",
    "locID": "LOC000114546961",
    "tech": "SATELLITE",
    "upgrade": "NULL_NA",
    "gnaf_pid": "GASA_424704203",
    "tech_change_status": "Not Planned"
   }
  },
  {
   "type": "Feature",
   "geometry": {
    "type": "Point",
    "coordinates": [
     138.78985261,
     -34.79365229
    ]
   },
   "properties": {
    "name": "362 MILLBROOK ROAD INGLEWOOD 5133",
    "locID": "LOC000114654560",
    "tech": "SATELLITE",
    "upgrade": "NULL_NA",
    "gnaf_pid": "GASA_424704204",
    "tech_change_status": "Not Planned"
   }
  },
  {
   "type": "Feature",
   "geometry": {
    "type": "Point",
    "coordinates": [
     138.78681561,
     -34.79162345
    ]
   },
   "properties": {
    "name": "399 MILLBROOK ROAD INGLEWOOD 5133",
    "locID": "LOC000113140457",
    "tech": "SATELLITE",
    "upgrade": "NULL_NA",
    "gnaf_pid": "GASA_424704205",
    "tech_change_status": "Not Planned"
   }
  },
  {
   "type": "Feature",
   "geometry": {
    "type": "Point",
    "coordinates": [
     138.78644708,
     -34.79152759
    ]
   },
   "properties": {
    "name": "403 MILLBROOK ROAD INGLEWOOD 5133",
    "locID": "LOC000074892310",
    "tech": "NULL",
    "upgrade": "NULL_NA",
    "gnaf_pid": "GASA_424704206",
    "tech_change_status": "Not Planned"
   }
  },
  {
   "type": "Feature",
   "geometry": {
    "type": "Point",
    "coordinates": [
     138.81284089,
     -34.77759136
    ]
   },
   "properties": {
    "name": "164 MOUNT GAWLER ROAD INGLEWOOD 5133",
    "locID": "LOC000114182011",
    "tech": "SATELLITE",
    "upgrade": "NULL_NA",
    "gnaf_pid": "GASA_424704563",
    "tech_change_status": "Not Planned"
   }
  },
  {
   "type": "Feature",
   "geometry": {
    "type": "Point",
    "coordinates": [
     138.81315529,
     -34.78033248
    ]
   },
   "properties": {
    "name": "196 MOUNT GAWLER ROAD INGLEWOOD 5133",
    "locID": "LOC000114297723",
    "tech": "SATELLITE",
    "upgrade": "NULL_NA",
    "gnaf_pid": "GASA_424704564",
    "tech_change_status": "Not Planned"
   }
  },
  {
   "type": "Feature",
   "geometry": {
    "type": "Point",
    "coordinates": [
     138.81331571,
     -34.78400238
    ]
   },
   "properties": {
    "name": "242 MOUNT GAWLER ROAD INGLEWOOD 5133",
    "locID": "LOC000114235958",
    "tech": "SATELLITE",
    "upgrade": "NULL_NA",
    "gnaf_pid": "GASA_424704565",
    "tech_change_status": "Not Planned"
   }
  },
  {
   "type": "Feature",
   "geometry": {
    "type": "Point",
    "coordinates": [
     138.81277809,
     -34.78911038
    ]
   },
   "properties": {
    "name": "300 MOUNT GAWLER ROAD INGLEWOOD 5133",
    "locID": "LOC000114344863",
    "tech": "SATELLITE",
    "upgrade": "NULL_NA",
    "gnaf_pid": "GASA_424704566",
    "tech_change_status": "Not Planned"
   }
  },
  {
   "type": "Feature",
   "geometry": {
    "type": "Point",
    "coordinates": [
     138.81460627,
     -34.79381499
    ]
   },
   "properties": {
    "name": "358 MOUNT GAWLER ROAD INGLEWOOD 5133",
    "locID": "LOC000039973839",
    "tech": "SATELLITE",
    "upgrade": "NULL_NA",
    "gnaf_pid": "GASA_424704567",
    "tech_change_status": "Not Planned"
   }
  },
  {
   "type": "Feature",
   "geometry": {
    "type": "Point",
    "coordinates": [
     138.81681076,
     -34.79623519
    ]
   },
   "properties": {
    "name": "392 MOUNT GAWLER ROAD INGLEWOOD 5133",
    "locID": "LOC000113166883",
    "tech": "SATELLITE",
    "upgrade": "NULL_NA",
    "gnaf_pid": "GASA_424704568",
    "tech_change_status": "Not Planned"
   }
  },
  {
   "type": "Feature",
   "geometry": {
    "type": "Point",
    "coordinates": [
     138.77781456,
     -34.83492439
    ]
   },
   "properties": {
    "name": "110 MURRAY ROAD INGLEWOOD 5133",
    "locID": "LOC000114534856",
    "tech": "WIRELESS",
    "upgrade": "NULL_NA",
    "gnaf_pid": "GASA_424704922",
    "tech_change_status": "Not Planned",
    "program_type": "Fixed Wireless and Satellite Upgrade Program",
    "target_eligibility_quarter": "Dec 2024"
   }
  },
  {
   "type": "Feature",
   "geometry": {
    "type": "Point",
    "coordinates": [
     138.77901292,
     -34.82724232
    ]
   },
   "properties": {
    "name": "20 MURRAY ROAD INGLEWOOD 5133",
    "locID": "LOC000112911430",
    "tech": "WIRELESS",
    "upgrade": "NULL_NA",
    "gnaf_pid": "GASA_424704923",
    "tech_change_status": "Not Planned",
    "program_type": "Fixed Wireless and Satellite Upgrade Program",
    "target_eligibility_quarter": "Dec 2024"
   }
  },
  {
   "type": "Feature",
   "geometry": {
    "type": "Point",
    "coordinates": [
     138.77867024,
     -34.82901676
    ]
   },
   "properties": {
    "name": "40 MURRAY ROAD INGLEWOOD 5133",
    "locID": "LOC000115083302",
    "tech": "SATELLITE",
    "upgrade": "NULL_NA",
    "gnaf_pid": "GASA_424704924",
    "tech_change_status": "Not Planned"
   }
  },
  {
   "type": "Feature",
   "geometry": {
    "type": "Point",
    "coordinates": [
     138.77889689,
     -34.82591284
    ]
   },
   "properties": {
    "name": "4 MURRAY ROAD INGLEWOOD 5133",
    "locID": "LOC000115102797",
    "tech": "WIRELESS",
    "upgrade": "NULL_NA",
    "gnaf_pid": "GASA_424704925",
    "tech_change_status": "Not Planned",
    "program_type": "Fixed Wireless and Satellite Upgrade Program",
    "target_eligibility_quarter": "Dec 2024"
   }
  },
  {
   "type": "Feature",
   "geometry": {
    "type": "Point",
    "coordinates": [
     138.77853031,
     -34.83020258
    ]
   },
   "properties": {
    "name": "54 MURRAY ROAD INGLEWOOD 5133",
    "locID": "LOC000114558758",
    "tech": "WIRELESS",
    "upgrade": "NULL_NA",
    "gnaf_pid": "GASA_424704926",
    "tech_change_status": "Not Planned",
    "program_type": "Fixed Wireless and Satellite Upgrade Program",
    "target_eligibility_quarter": "Dec 2024"
   }
  },
  {
   "type": "Feature",
   "geometry": {
    "type": "Point",
    "coordinates": [
     138.77900059,
     -34.82594517
    ]
   },
   "properties": {
    "name": "5 MURRAY ROAD INGLEWOOD 5133",
    "locID": "LOC000114517282",
    "tech": "WIRELESS",
    "upgrade": "NULL_NA",
    "gnaf_pid": "GASA_424704927",
    "tech_change_status": "Not Planned",
    "program_type": "Fixed Wireless and Satellite Upgrade Program",
    "target_eligibility_quarter": "Dec 2024"
   }
  },
  {
   "type": "Feature",
   "geometry": {
    "type": "Point",
    "coordinates": [
     138.779135,
     -34.826279
    ]
   },
   "properties": {
    "name": "9 MURRAY ROAD INGLEWOOD 5133",
    "locID": "LOC000112950861",
    "tech": "WIRELESS",
    "upgrade": "NULL_NA",
    "gnaf_pid": "GASA_424704928",
    "tech_change_status": "Not Planned",
    "program_type": "Fixed Wireless and Satellite Upgrade Program",
    "target_eligibility_quarter": "Dec 2024"
   }
  },
  {
   "type": "Feature",
   "geometry": {
    "type": "Point",
    "coordinates": [
     138.77575773,
     -34.82347809
    ]
   },
   "properties": {
    "name": "13 NICHOLLS ROAD INGLEWOOD 5133",
    "locID": "LOC000114587012",
    "tech": "WIRELESS",
    "upgrade": "NULL_NA",
    "gnaf_pid": "GASA_424705207",
    "tech_change_status": "Not Planned",
    "program_type": "Fixed Wireless and Satellite Upgrade Program",
    "target_eligibility_quarter": "Dec 2024"
   }
  },
  {
   "type": "Feature",
   "geometry": {
    "type": "Point",
    "coordinates": [
     138.77590355,
     -34.82345705
    ]
   },
   "properties": {
    "name": "14 NICHOLLS ROAD INGLEWOOD 5133",
    "locID": "LOC000114838732",
    "tech": "WIRELESS",
    "upgrade": "NULL_NA",
    "gnaf_pid": "GASA_424705208",
    "tech_change_status": "Not Planned",
    "program_type": "Fixed Wireless and Satellite Upgrade Program",
    "target_eligibility_quarter": "Dec 2024"
   }
  },
  {
   "type": "Feature",
   "geometry": {
    "type": "Point",
    "coordinates": [
     138.77606865,
     -34.82325374
    ]
   },
   "properties": {
    "name": "17 NICHOLLS ROAD INGLEWOOD 5133",
    "locID": "LOC000112908124",
    "tech": "WIRELESS",
    "upgrade": "NULL_NA",
    "gnaf_pid": "GASA_424705209",
    "tech_change_status": "Not Planned",
    "program_type": "Fixed Wireless and Satellite Upgrade Program",
    "target_eligibility_quarter": "Dec 2024"
   }
  },
  {
   "type": "Feature",
   "geometry": {
    "type": "Point",
    "coordinates": [
     138.77649775,
     -34.82339689
    ]
   },
   "properties": {
    "name": "22 NICHOLLS ROAD INGLEWOOD 5133",
    "locID": "LOC000114358936",
    "tech": "WIRELESS",
    "upgrade": "NULL_NA",
    "gnaf_pid": "GASA_424705210",
    "tech_change_status": "Not Planned",
    "program_type": "Fixed Wireless and Satellite Upgrade Program",
    "target_eligibility_quarter": "Dec 2024"
   }
  },
  {
   "type": "Feature",
   "geometry": {
    "type": "Point",
    "coordinates": [
     138.77691335,
     -34.82357358
    ]
   },
   "properties": {
    "name": "25 NICHOLLS ROAD INGLEWOOD 5133",
    "locID": "LOC000113324374",
    "tech": "WIRELESS",
    "upgrade": "NULL_NA",
    "gnaf_pid": "GASA_424705211",
    "tech_change_status": "Not Planned",
    "program_type": "Fixed Wireless and Satellite Upgrade Program",
    "target_eligibility_quarter": "Dec 2024"
   }
  },
  {
   "type": "Feature",
   "geometry": {
    "type": "Point",
    "coordinates": [
     138.77697083,
     -34.82364734
    ]
   },
   "properties": {
    "name": "26 NICHOLLS ROAD INGLEWOOD 5133",
    "locID": "LOC000114651667",
    "tech": "WIRELESS",
    "upgrade": "NULL_NA",
    "gnaf_pid": "GASA_424705212",
    "tech_change_status": "Not Planned",
    "program_type": "Fixed Wireless and Satellite Upgrade Program",
    "target_eligibility_quarter": "Dec 2024"
   }
  },
  {
   "type": "Feature",
   "geometry": {
    "type": "Point",
    "coordinates": [
     138.77729019,
     -34.82381889
    ]
   },
   "properties": {
    "name": "31 NICHOLLS ROAD INGLEWOOD 5133",
    "locID": "LOC000114520147",
    "tech": "WIRELESS",
    "upgrade": "NULL_NA",
    "gnaf_pid": "GASA_424705213",
    "tech_change_status": "Not Planned",
    "program_type": "Fixed Wireless and Satellite Upgrade Program",
    "target_eligibility_quarter": "Dec 2024"
   }
  },
  {
   "type": "Feature",
   "geometry": {
    "type": "Point",
    "coordinates": [
     138.77480338,
     -34.82386054
    ]
   },
   "properties": {
    "name": "3 NICHOLLS ROAD INGLEWOOD 5133",
    "locID": "LOC000075901650",
    "tech": "WIRELESS",
    "upgrade": "NULL_NA",
    "gnaf_pid": "GASA_424705214",
    "tech_change_status": "Not Planned",
    "program_type": "Fixed Wireless and Satellite Upgrade Program",
    "target_eligibility_quarter": "Dec 2024"
   }
  },
  {
   "type": "Feature",
   "geometry": {
    "type": "Point",
    "coordinates": [
     138.77269808,
     -34.82326465
    ]
   },
   "properties": {
    "name": "1931 NORTH EAST ROAD INGLEWOOD 5133",
    "locID": "LOC000114925079",
    "tech": "WIRELESS",
    "upgrade": "NULL_NA",
    "gnaf_pid": "GASA_424705364",
    "tech_change_status": "Not Planned",
    "program_type": "Fixed Wireless and Satellite Upgrade Program",
    "target_eligibility_quarter": "Dec 2024"
   }
  },
  {
   "type": "Feature",
   "geometry": {
    "type": "Point",
    "coordinates": [
     138.77340117,
     -34.82360885
    ]
   },
   "properties": {
    "name": "1940 NORTH EAST ROAD INGLEWOOD 5133",
    "locID": "LOC000113269441",
    "tech": "WIRELESS",
    "upgrade": "NULL_NA",
    "gnaf_pid": "GASA_424705365",
    "tech_change_status": "Planned",
    "program_type": "Fixed Wireless and Satellite Upgrade Program",
    "target_eligibility_quarter": "Dec 2024"
   }
  },
  {
   "type": "Feature",
   "geometry": {
    "type": "Point",
    "coordinates": [
     138.77435286,
     -34.82397214
    ]
   },
   "properties": {
    "name": "1946 NORTH EAST ROAD INGLEWOOD 5133",
    "locID": "LOC000113292908",
    "tech": "WIRELESS",
    "upgrade": "NULL_NA",
    "gnaf_pid": "GASA_424705366",
    "tech_change_status": "Not Planned",
    "program_type": "Fixed Wireless and Satellite Upgrade Program",
    "target_eligibility_quarter": "Dec 2024"
   }
  },
  {
   "type": "Feature",
   "geometry": {
    "type": "Point",
    "coordinates": [
     138.77437915,
     -34.82398118
    ]
   },
   "properties": {
    "name": "1948 NORTH EAST ROAD INGLEWOOD 5133",
    "locID": "LOC000115024350",
    "tech": "WIRELESS",
    "upgrade": "NULL_NA",
    "gnaf_pid": "GASA_424705367",
    "tech_change_status": "Not Planned",
    "program_type": "Fixed Wireless and Satellite Upgrade Program",
    "target_eligibility_quarter": "Dec 2024"
   }
  },
  {
   "type": "Feature",
   "geometry": {
    "type": "Point",
    "coordinates": [
     138.77471742,
     -34.8240977
    ]
   },
   "properties": {
    "name": "1950 NORTH EAST ROAD INGLEWOOD 5133",
    "locID": "LOC000112830370",
    "tech": "WIRELESS",
    "upgrade": "NULL_NA",
    "gnaf_pid": "GASA_424705368",
    "tech_change_status": "Not Planned",
    "program_type": "Fixed Wireless and Satellite Upgrade Program",
    "target_eligibility_quarter": "Dec 2024"
   }
  },
  {
   "type": "Feature",
   "geometry": {
    "type": "Point",
    "coordinates": [
     138.77479338,
     -34.82411844
    ]
   },
   "properties": {
    "name": "1952 NORTH EAST ROAD INGLEWOOD 5133",
    "locID": "LOC000114790847",
    "tech": "WIRELESS",
    "upgrade": "NULL_NA",
    "gnaf_pid": "GASA_424705369",
    "tech_change_status": "Not Planned",
    "program_type": "Fixed Wireless and Satellite Upgrade Program",
    "target_eligibility_quarter": "Dec 2024"
   }
  },
  {
   "type": "Feature",
   "geometry": {
    "type": "Point",
    "coordinates": [
     138.77513175,
     -34.82413097
    ]
   },
   "properties": {
    "name": "1955 NORTH EAST ROAD INGLEWOOD 5133",
    "locID": "LOC000109287323",
    "tech": "WIRELESS",
    "upgrade": "NULL_NA",
    "gnaf_pid": "GASA_424705370",
    "tech_change_status": "Not Planned",
    "program_type": "Fixed Wireless and Satellite Upgrade Program",
    "target_eligibility_quarter": "Dec 2024"
   }
  },
  {
   "type": "Feature",
   "geometry": {
    "type": "Point",
    "coordinates": [
     138.77545508,
     -34.82435009
    ]
   },
   "properties": {
    "name": "1958 NORTH EAST ROAD INGLEWOOD 5133",
    "locID": "LOC000005473041",
    "tech": "WIRELESS",
    "upgrade": "NULL_NA",
    "gnaf_pid": "GASA_424705371",
    "tech_change_status": "Not Planned",
    "program_type": "Fixed Wireless and Satellite Upgrade Program",
    "target_eligibility_quarter": "Dec 2024"
   }
  },
  {
   "type": "Feature",
   "geometry": {
    "type": "Point",
    "coordinates": [
     138.77550368,
     -34.82437296
    ]
   },
   "properties": {
    "name": "1960 NORTH EAST ROAD INGLEWOOD 5133",
    "locID": "LOC000114660029",
    "tech": "WIRELESS",
    "upgrade": "NULL_NA",
    "gnaf_pid": "GASA_424705372",
    "tech_change_status": "Not Planned",
    "program_type": "Fixed Wireless and Satellite Upgrade Program",
    "target_eligibility_quarter": "Dec 2024"
   }
  },
  {
   "type": "Feature",
   "geometry": {
    "type": "Point",
    "coordinates": [
     138.77609527,
     -34.8247152
    ]
   },
   "properties": {
    "name": "1966 NORTH EAST ROAD INGLEWOOD 5133",
    "locID": "LOC000114455069",
    "tech": "WIRELESS",
    "upgrade": "NULL_NA",
    "gnaf_pid": "GASA_424705373",
    "tech_change_status": "Not Planned",
    "program_type": "Fixed Wireless and Satellite Upgrade Program",
    "target_eligibility_quarter": "Dec 2024"
   }
  },
  {
   "type": "Feature",
   "geometry": {
    "type": "Point",
    "coordinates": [
     138.77625923,
     -34.8247182
    ]
   },
   "properties": {
    "name": "1967 NORTH EAST ROAD INGLEWOOD 5133",
    "locID": "LOC000114090050",
    "tech": "WIRELESS",
    "upgrade": "NULL_NA",
    "gnaf_pid": "GASA_424705374",
    "tech_change_status": "Not Planned",
    "program_type": "Fixed Wireless and Satellite Upgrade Program",
    "target_eligibility_quarter": "Dec 2024"
   }
  },
  {
   "type": "Feature",
   "geometry": {
    "type": "Point",
    "coordinates": [
     138.77650062,
     -34.8248917
    ]
   },
   "properties": {
    "name": "1971 NORTH EAST ROAD INGLEWOOD 5133",
    "locID": "LOC000114588159",
    "tech": "SATELLITE",
    "upgrade": "NULL_NA",
    "gnaf_pid": "GASA_424705375",
    "tech_change_status": "Not Planned"
   }
  },
  {
   "type": "Feature",
   "geometry": {
    "type": "Point",
    "coordinates": [
     138.77650368,
     -34.82500674
    ]
   },
   "properties": {
    "name": "1972 NORTH EAST ROAD INGLEWOOD 5133",
    "locID": "LOC000114867125",
    "tech": "WIRELESS",
    "upgrade": "NULL_NA",
    "gnaf_pid": "GASA_424705376",
    "tech_change_status": "Not Planned",
    "program_type": "Fixed Wireless and Satellite Upgrade Program",
    "target_eligibility_quarter": "Dec 2024"
   }
  },
  {
   "type": "Feature",
   "geometry": {
    "type": "Point",
    "coordinates": [
     138.77719197,
     -34.82533722
    ]
   },
   "properties": {
    "name": "1978 NORTH EAST ROAD INGLEWOOD 5133",
    "locID": "LOC000114431780",
    "tech": "WIRELESS",
    "upgrade": "NULL_NA",
    "gnaf_pid": "GASA_424705377",
    "tech_change_status": "Not Planned",
    "program_type": "Fixed Wireless and Satellite Upgrade Program",
    "target_eligibility_quarter": "Dec 2024"
   }
  },
  {
   "type": "Feature",
   "geometry": {
    "type": "Point",
    "coordinates": [
     138.77723117,
     -34.8252517
    ]
   },
   "properties": {
    "name": "1979 NORTH EAST ROAD INGLEWOOD 5133",
    "locID": "LOC000112908032",
    "tech": "WIRELESS",
    "upgrade": "NULL_NA",
    "gnaf_pid": "GASA_424705378",
    "tech_change_status": "Not Planned",
    "program_type": "Fixed Wireless and Satellite Upgrade Program",
    "target_eligibility_quarter": "Dec 2024"
   }
  },
  {
   "type": "Feature",
   "geometry": {
    "type": "Point",
    "coordinates": [
     138.77735037,
     -34.82539422
    ]
   },
   "properties": {
    "name": "1980 NORTH EAST ROAD INGLEWOOD 5133",
    "locID": "LOC000113041206",
    "tech": "WIRELESS",
    "upgrade": "NULL_NA",
    "gnaf_pid": "GASA_424705379",
    "tech_change_status": "Not Planned",
    "program_type": "Fixed Wireless and Satellite Upgrade Program",
    "target_eligibility_quarter": "Dec 2024"
   }
  },
  {
   "type": "Feature",
   "geometry": {
    "type": "Point",
    "coordinates": [
     138.77765812,
     -34.82538801
    ]
   },
   "properties": {
    "name": "1983 NORTH EAST ROAD INGLEWOOD 5133",
    "locID": "LOC000114306831",
    "tech": "WIRELESS",
    "upgrade": "NULL_NA",
    "gnaf_pid": "GASA_424705380",
    "tech_change_status": "Not Planned",
    "program_type": "Fixed Wireless and Satellite Upgrade Program",
    "target_eligibility_quarter": "Dec 2024"
   }
  },
  {
   "type": "Feature",
   "geometry": {
    "type": "Point",
    "coordinates": [
     138.77815533,
     -34.82542753
    ]
   },
   "properties": {
    "name": "1987 NORTH EAST ROAD INGLEWOOD 5133",
    "locID": "LOC000113152497",
    "tech": "WIRELESS",
    "upgrade": "NULL_NA",
    "gnaf_pid": "GASA_424705381",
    "tech_change_status": "Not Planned",
    "program_type": "Fixed Wireless and Satellite Upgrade Program",
    "target_eligibility_quarter": "Dec 2024"
   }
  },
  {
   "type": "Feature",
   "geometry": {
    "type": "Point",
    "coordinates": [
     138.77824761,
     -34.82542752
    ]
   },
   "properties": {
    "name": "1989 NORTH EAST ROAD INGLEWOOD 5133",
    "locID": "LOC000114196541",
    "tech": "WIRELESS",
    "upgrade": "NULL_NA",
    "gnaf_pid": "GASA_424705382",
    "tech_change_status": "Not Planned",
    "program_type": "Fixed Wireless and Satellite Upgrade Program",
    "target_eligibility_quarter": "Dec 2024"
   }
  },
  {
   "type": "Feature",
   "geometry": {
    "type": "Point",
    "coordinates": [
     138.77914188,
     -34.82549459
    ]
   },
   "properties": {
    "name": "1997 NORTH EAST ROAD INGLEWOOD 5133",
    "locID": "LOC000107365602",
    "tech": "WIRELESS",
    "upgrade": "NULL_NA",
    "gnaf_pid": "GASA_424705383",
    "tech_change_status": "Not Planned",
    "program_type": "Fixed Wireless and Satellite Upgrade Program",
    "target_eligibility_quarter": "Dec 2024"
   }
  },
  {
   "type": "Feature",
   "geometry": {
    "type": "Point",
    "coordinates": [
     138.77923384,
     -34.82550641
    ]
   },
   "properties": {
    "name": "1999 NORTH EAST ROAD INGLEWOOD 5133",
    "locID": "LOC000114739539",
    "tech": "WIRELESS",
    "upgrade": "NULL_NA",
    "gnaf_pid": "GASA_424705384",
    "tech_change_status": "Not Planned",
    "program_type": "Fixed Wireless and Satellite Upgrade Program",
    "target_eligibility_quarter": "Dec 2024"
   }
  },
  {
   "type": "Feature",
   "geometry": {
    "type": "Point",
    "coordinates": [
     138.78232937,
     -34.8286899
    ]
   },
   "properties": {
    "name": "641 PARACOMBE ROAD INGLEWOOD 5133",
    "locID": "LOC000114272395",
    "tech": "WIRELESS",
    "upgrade": "NULL_NA",
    "gnaf_pid": "GASA_424705948",
    "tech_change_status": "Not Planned",
    "program_type": "Fixed Wireless and Satellite Upgrade Program",
    "target_eligibility_quarter": "Dec 2024"
   }
  },
  {
   "type": "Feature",
   "geometry": {
    "type": "Point",
    "coordinates": [
     138.78033734,
     -34.82737884
    ]
   },
   "properties": {
    "name": "671 PARACOMBE ROAD INGLEWOOD 5133",
    "locID": "LOC000114798069",
    "tech": "WIRELESS",
    "upgrade": "NULL_NA",
    "gnaf_pid": "GASA_424705949",
    "tech_change_status": "Not Planned",
    "program_type": "Fixed Wireless and Satellite Upgrade Program",
    "target_eligibility_quarter": "Dec 2024"
   }
  },
  {
   "type": "Feature",
   "geometry": {
    "type": "Point",
    "coordinates": [
     138.77552661,
     -34.83318008
    ]
   },
   "properties": {
    "name": "39 PITMAN ROAD INGLEWOOD 5133",
    "locID": "LOC000113259917",
    "tech": "WIRELESS",
    "upgrade": "NULL_NA",
    "gnaf_pid": "GASA_424706482",
    "tech_change_status": "Not Planned",
    "program_type": "Fixed Wireless and Satellite Upgrade Program",
    "target_eligibility_quarter": "Dec 2024"
   }
  },
  {
   "type": "Feature",
   "geometry": {
    "type": "Point",
    "coordinates": [
     138.79798524,
     -34.78741685
    ]
   },
   "properties": {
    "name": "100 RICHARDSON ROAD INGLEWOOD 5133",
    "locID": "LOC000113086283",
    "tech": "SATELLITE",
    "upgrade": "NULL_NA",
    "gnaf_pid": "GASA_424707440",
    "tech_change_status": "Not Planned"
   }
  },
  {
   "type": "Feature",
   "geometry": {
    "type": "Point",
    "coordinates": [
     138.79915918,
     -34.78683356
    ]
   },
   "properties": {
    "name": "113 RICHARDSON ROAD INGLEWOOD 5133",
    "locID": "LOC000113017127",
    "tech": "SATELLITE",
    "upgrade": "NULL_NA",
    "gnaf_pid": "GASA_424707441",
    "tech_change_status": "Not Planned"
   }
  },
  {
   "type": "Feature",
   "geometry": {
    "type": "Point",
    "coordinates": [
     138.79983747,
     -34.7869819
    ]
   },
   "properties": {
    "name": "118 RICHARDSON ROAD INGLEWOOD 5133",
    "locID": "LOC000113048675",
    "tech": "SATELLITE",
    "upgrade": "NULL_NA",
    "gnaf_pid": "GASA_424707442",
    "tech_change_status": "Not Planned"
   }
  },
  {
   "type": "Feature",
   "geometry": {
    "type": "Point",
    "coordinates": [
     138.80233835,
     -34.78673472
    ]
   },
   "properties": {
    "name": "142 RICHARDSON ROAD INGLEWOOD 5133",
    "locID": "LOC000114157620",
    "tech": "SATELLITE",
    "upgrade": "NULL_NA",
    "gnaf_pid": "GASA_424707443",
    "tech_change_status": "Not Planned"
   }
  },
  {
   "type": "Feature",
   "geometry": {
    "type": "Point",
    "coordinates": [
     138.80503887,
     -34.78568042
    ]
   },
   "properties": {
    "name": "171 RICHARDSON ROAD INGLEWOOD 5133",
    "locID": "LOC000114656345",
    "tech": "SATELLITE",
    "upgrade": "NULL_NA",
    "gnaf_pid": "GASA_424707445",
    "tech_change_status": "Not Planned"
   }
  },
  {
   "type": "Feature",
   "geometry": {
    "type": "Point",
    "coordinates": [
     138.8065825,
     -34.78598419
    ]
   },
   "properties": {
    "name": "186 RICHARDSON ROAD INGLEWOOD 5133",
    "locID": "LOC000114747692",
    "tech": "NULL",
    "upgrade": "NULL_NA",
    "gnaf_pid": "GASA_424707446",
    "tech_change_status": "Not Planned"
   }
  },
  {
   "type": "Feature",
   "geometry": {
    "type": "Point",
    "coordinates": [
     138.80933321,
     -34.78586082
    ]
   },
   "properties": {
    "name": "211 RICHARDSON ROAD INGLEWOOD 5133",
    "locID": "LOC000114101171",
    "tech": "SATELLITE",
    "upgrade": "NULL_NA",
    "gnaf_pid": "GASA_424707447",
    "tech_change_status": "Not Planned"
   }
  },
  {
   "type": "Feature",
   "geometry": {
    "type": "Point",
    "coordinates": [
     138.8107014,
     -34.78590072
    ]
   },
   "properties": {
    "name": "224 RICHARDSON ROAD INGLEWOOD 5133",
    "locID": "LOC000114281335",
    "tech": "SATELLITE",
    "upgrade": "NULL_NA",
    "gnaf_pid": "GASA_424707448",
    "tech_change_status": "Not Planned"
   }
  },
  {
   "type": "Feature",
   "geometry": {
    "type": "Point",
    "coordinates": [
     138.7967929,
     -34.79219791
    ]
   },
   "properties": {
    "name": "33 RICHARDSON ROAD INGLEWOOD 5133",
    "locID": "LOC000114696209",
    "tech": "SATELLITE",
    "upgrade": "NULL_NA",
    "gnaf_pid": "GASA_424707449",
    "tech_change_status": "Not Planned"
   }
  },
  {
   "type": "Feature",
   "geometry": {
    "type": "Point",
    "coordinates": [
     138.79681426,
     -34.79126516
    ]
   },
   "properties": {
    "name": "44 RICHARDSON ROAD INGLEWOOD 5133",
    "locID": "LOC000114384087",
    "tech": "NULL",
    "upgrade": "NULL_NA",
    "gnaf_pid": "GASA_424707450",
    "tech_change_status": "Not Planned"
   }
  },
  {
   "type": "Feature",
   "geometry": {
    "type": "Point",
    "coordinates": [
     138.79682282,
     -34.79068315
    ]
   },
   "properties": {
    "name": "51 RICHARDSON ROAD INGLEWOOD 5133",
    "locID": "LOC000107641483",
    "tech": "SATELLITE",
    "upgrade": "NULL_NA",
    "gnaf_pid": "GASA_424707451",
    "tech_change_status": "Not Planned"
   }
  },
  {
   "type": "Feature",
   "geometry": {
    "type": "Point",
    "coordinates": [
     138.796872,
     -34.787553
    ]
   },
   "properties": {
    "name": "89 RICHARDSON ROAD INGLEWOOD 5133",
    "locID": "LOC000114430933",
    "tech": "SATELLITE",
    "upgrade": "NULL_NA",
    "gnaf_pid": "GASA_424707452",
    "tech_change_status": "Not Planned"
   }
  },
  {
   "type": "Feature",
   "geometry": {
    "type": "Point",
    "coordinates": [
     138.79759502,
     -34.78730213
    ]
   },
   "properties": {
    "name": "97 RICHARDSON ROAD INGLEWOOD 5133",
    "locID": "LOC000114758183",
    "tech": "SATELLITE",
    "upgrade": "NULL_NA",
    "gnaf_pid": "GASA_424707453",
    "tech_change_status": "Not Planned"
   }
  },
  {
   "type": "Feature",
   "geometry": {
    "type": "Point",
    "coordinates": [
     138.78237223,
     -34.81935132
    ]
   },
   "properties": {
    "name": "52 CHAPMAN ROAD INGLEWOOD 5133",
    "locID": "LOC000130367168",
    "tech": "WIRELESS",
    "upgrade": "NULL_NA",
    "gnaf_pid": "GASA_424818740",
    "tech_change_status": "Not Planned",
    "program_type": "Fixed Wireless and Satellite Upgrade Program",
    "target_eligibility_quarter": "Dec 2024"
   }
  },
  {
   "type": "Feature",
   "geometry": {
    "type": "Point",
    "coordinates": [
     138.78222359,
     -34.81926988
    ]
   },
   "properties": {
    "name": "53 CHAPMAN ROAD INGLEWOOD 5133",
    "locID": "LOC000130367175",
    "tech": "WIRELESS",
    "upgrade": "NULL_NA",
    "gnaf_pid": "GASA_424818741",
    "tech_change_status": "Not Planned",
    "program_type": "Fixed Wireless and Satellite Upgrade Program",
    "target_eligibility_quarter": "Dec 2024"
   }
  },
  {
   "type": "Feature",
   "geometry": {
    "type": "Point",
    "coordinates": [
     138.78190546,
     -34.81710644
    ]
   },
   "properties": {
    "name": "77A CHAPMAN ROAD INGLEWOOD 5133",
    "locID": "LOC000130367181",
    "tech": "WIRELESS",
    "upgrade": "NULL_NA",
    "gnaf_pid": "GASA_424818742",
    "tech_change_status": "Not Planned",
    "program_type": "Fixed Wireless and Satellite Upgrade Program",
    "target_eligibility_quarter": "Dec 2024"
   }
  },
  {
   "type": "Feature",
   "geometry": {
    "type": "Point",
    "coordinates": [
     138.78189209,
     -34.81711788
    ]
   },
   "properties": {
    "name": "77B CHAPMAN ROAD INGLEWOOD 5133",
    "locID": "LOC000130367199",
    "tech": "SATELLITE",
    "upgrade": "NULL_NA",
    "gnaf_pid": "GASA_424818743",
    "tech_change_status": "Not Planned"
   }
  },
  {
   "type": "Feature",
   "geometry": {
    "type": "Point",
    "coordinates": [
     138.78189876,
     -34.817118
    ]
   },
   "properties": {
    "name": "77C CHAPMAN ROAD INGLEWOOD 5133",
    "locID": "LOC000130367201",
    "tech": "WIRELESS",
    "upgrade": "NULL_NA",
    "gnaf_pid": "GASA_424818744",
    "tech_change_status": "Not Planned",
    "program_type": "Fixed Wireless and Satellite Upgrade Program",
    "target_eligibility_quarter": "Dec 2024"
   }
  },
  {
   "type": "Feature",
   "geometry": {
    "type": "Point",
    "coordinates": [
     138.7961374,
     -34.81453186
    ]
   },
   "properties": {
    "name": "61 FIDLERS HILL ROAD INGLEWOOD 5133",
    "locID": "LOC000116205851",
    "tech": "SATELLITE",
    "upgrade": "NULL_NA",
    "gnaf_pid": "GASA_424820405",
    "tech_change_status": "Not Planned"
   }
  },
  {
   "type": "Feature",
   "geometry": {
    "type": "Point",
    "coordinates": [
     138.76700638,
     -34.83018004
    ]
   },
   "properties": {
    "name": "15 HEAD ROAD NORTH INGLEWOOD 5133",
    "locID": "LOC000116220815",
    "tech": "WIRELESS",
    "upgrade": "NULL_NA",
    "gnaf_pid": "GASA_424821438",
    "tech_change_status": "Not Planned",
    "program_type": "Fixed Wireless and Satellite Upgrade Program",
    "target_eligibility_quarter": "Dec 2024"
   }
  },
  {
   "type": "Feature",
   "geometry": {
    "type": "Point",
    "coordinates": [
     138.76687012,
     -34.83040821
    ]
   },
   "properties": {
    "name": "19A HEAD ROAD NORTH INGLEWOOD 5133",
    "locID": "LOC000116220889",
    "tech": "WIRELESS",
    "upgrade": "NULL_NA",
    "gnaf_pid": "GASA_424821439",
    "tech_change_status": "Not Planned",
    "program_type": "Fixed Wireless and Satellite Upgrade Program",
    "target_eligibility_quarter": "Dec 2024"
   }
  },
  {
   "type": "Feature",
   "geometry": {
    "type": "Point",
    "coordinates": [
     138.7668519,
     -34.83042914
    ]
   },
   "properties": {
    "name": "19B HEAD ROAD NORTH INGLEWOOD 5133",
    "locID": "LOC000116220889",
    "tech": "WIRELESS",
    "upgrade": "NULL_NA",
    "gnaf_pid": "GASA_424821440",
    "tech_change_status": "Not Planned",
    "program_type": "Fixed Wireless and Satellite Upgrade Program",
    "target_eligibility_quarter": "Dec 2024"
   }
  },
  {
   "type": "Feature",
   "geometry": {
    "type": "Point",
    "coordinates": [
     138.76683764,
     -34.83045374
    ]
   },
   "properties": {
    "name": "19C HEAD ROAD NORTH INGLEWOOD 5133",
    "locID": "LOC000116220891",
    "tech": "WIRELESS",
    "upgrade": "NULL_NA",
    "gnaf_pid": "GASA_424821441",
    "tech_change_status": "Not Planned",
    "program_type": "Fixed Wireless and Satellite Upgrade Program",
    "target_eligibility_quarter": "Dec 2024"
   }
  },
  {
   "type": "Feature",
   "geometry": {
    "type": "Point",
    "coordinates": [
     138.77221588,
     -34.82315276
    ]
   },
   "properties": {
    "name": "1927A NORTH EAST ROAD INGLEWOOD 5133",
    "locID": "LOC000116205795",
    "tech": "SATELLITE",
    "upgrade": "NULL_NA",
    "gnaf_pid": "GASA_424824885",
    "tech_change_status": "Not Planned"
   }
  },
  {
   "type": "Feature",
   "geometry": {
    "type": "Point",
    "coordinates": [
     138.77223527,
     -34.82314987
    ]
   },
   "properties": {
    "name": "1927B NORTH EAST ROAD INGLEWOOD 5133",
    "locID": "LOC000116205805",
    "tech": "NULL",
    "upgrade": "NULL_NA",
    "gnaf_pid": "GASA_424824886",
    "tech_change_status": "Not Planned"
   }
  },
  {
   "type": "Feature",
   "geometry": {
    "type": "Point",
    "coordinates": [
     138.77225814,
     -34.82315029
    ]
   },
   "properties": {
    "name": "1927C NORTH EAST ROAD INGLEWOOD 5133",
    "locID": "LOC000116205814",
    "tech": "WIRELESS",
    "upgrade": "NULL_NA",
    "gnaf_pid": "GASA_424824887",
    "tech_change_status": "Not Planned",
    "program_type": "Fixed Wireless and Satellite Upgrade Program",
    "target_eligibility_quarter": "Dec 2024"
   }
  },
  {
   "type": "Feature",
   "geometry": {
    "type": "Point",
    "coordinates": [
     138.77228393,
     -34.82314841
    ]
   },
   "properties": {
    "name": "1927D NORTH EAST ROAD INGLEWOOD 5133",
    "locID": "LOC000116205822",
    "tech": "SATELLITE",
    "upgrade": "NULL_NA",
    "gnaf_pid": "GASA_424824888",
    "tech_change_status": "Not Planned"
   }
  },
  {
   "type": "Feature",
   "geometry": {
    "type": "Point",
    "coordinates": [
     138.77891249,
     -34.82561181
    ]
   },
   "properties": {
    "name": "1994 NORTH EAST ROAD INGLEWOOD 5133",
    "locID": "LOC000116220862",
    "tech": "WIRELESS",
    "upgrade": "NULL_NA",
    "gnaf_pid": "GASA_424824889",
    "tech_change_status": "Not Planned",
    "program_type": "Fixed Wireless and Satellite Upgrade Program",
    "target_eligibility_quarter": "Dec 2024"
   }
  },
  {
   "type": "Feature",
   "geometry": {
    "type": "Point",
    "coordinates": [
     138.78651998,
     -34.82162977
    ]
   },
   "properties": {
    "name": "2077 NORTH EAST ROAD INGLEWOOD 5133",
    "locID": "LOC000116205833",
    "tech": "WIRELESS",
    "upgrade": "NULL_NA",
    "gnaf_pid": "GASA_424824890",
    "tech_change_status": "Not Planned",
    "program_type": "Fixed Wireless and Satellite Upgrade Program",
    "target_eligibility_quarter": "Dec 2024"
   }
  },
  {
   "type": "Feature",
   "geometry": {
    "type": "Point",
    "coordinates": [
     138.77555124,
     -34.83312687
    ]
   },
   "properties": {
    "name": "41A PITMAN ROAD INGLEWOOD 5133",
    "locID": "LOC000116221874",
    "tech": "WIRELESS",
    "upgrade": "NULL_NA",
    "gnaf_pid": "GASA_424826056",
    "tech_change_status": "Not Planned",
    "program_type": "Fixed Wireless and Satellite Upgrade Program",
    "target_eligibility_quarter": "Dec 2024"
   }
  },
  {
   "type": "Feature",
   "geometry": {
    "type": "Point",
    "coordinates": [
     138.77554943,
     -34.83312807
    ]
   },
   "properties": {
    "name": "41B PITMAN ROAD INGLEWOOD 5133",
    "locID": "LOC000116221888",
    "tech": "WIRELESS",
    "upgrade": "NULL_NA",
    "gnaf_pid": "GASA_424826057",
    "tech_change_status": "Not Planned",
    "program_type": "Fixed Wireless and Satellite Upgrade Program",
    "target_eligibility_quarter": "Dec 2024"
   }
  },
  {
   "type": "Feature",
   "geometry": {
    "type": "Point",
    "coordinates": [
     138.77621509,
     -34.82315874
    ]
   },
   "properties": {
    "name": "19 NICHOLLS ROAD INGLEWOOD 5133",
    "locID": "LOC000130367106",
    "tech": "WIRELESS",
    "upgrade": "NULL_NA",
    "gnaf_pid": "GASA_425066703",
    "tech_change_status": "Not Planned",
    "program_type": "Fixed Wireless and Satellite Upgrade Program",
    "target_eligibility_quarter": "Dec 2024"
   }
  },
  {
   "type": "Feature",
   "geometry": {
    "type": "Point",
    "coordinates": [
     138.802826,
     -34.786515
    ]
   },
   "properties": {
    "name": "147 RICHARDSON ROAD INGLEWOOD 5133",
    "locID": "LOC000130384127",
    "tech": "SATELLITE",
    "upgrade": "NULL_NA",
    "gnaf_pid": "GASA_425068098",
    "tech_change_status": "Not Planned"
   }
  },
  {
   "type": "Feature",
   "geometry": {
    "type": "Point",
    "coordinates": [
     138.79099616,
     -34.81997641
    ]
   },
   "properties": {
    "name": "LOT 511 NORTH EAST ROAD INGLEWOOD 5133",
    "locID": "LOC000114790847",
    "tech": "WIRELESS",
    "upgrade": "NULL_NA",
    "gnaf_pid": "GASA_425299287",
    "tech_change_status": "Not Planned",
    "program_type": "Fixed Wireless and Satellite Upgrade Program",
    "target_eligibility_quarter": "Dec 2024"
   }
  },
  {
   "type": "Feature",
   "geometry": {
    "type": "Point",
    "coordinates": [
     138.77078307,
     -34.82645441
    ]
   },
   "properties": {
    "name": "109 BLACKHILL ROAD INGLEWOOD 5133",
    "locID": "LOC000019268635",
    "tech": "SATELLITE",
    "upgrade": "NULL_NA",
    "gnaf_pid": "GASA_425358075",
    "tech_change_status": "Not Planned"
   }
  },
  {
   "type": "Feature",
   "geometry": {
    "type": "Point",
    "coordinates": [
     138.77471742,
     -34.8240977
    ]
   },
   "properties": {
    "name": "SHOP 1, 1950 NORTH EAST ROAD INGLEWOOD 5133",
    "locID": "LOC000180301761",
    "tech": "WIRELESS",
    "upgrade": "NULL_NA",
    "gnaf_pid": "GASA_425534206",
    "tech_change_status": "Not Planned",
    "program_type": "Fixed Wireless and Satellite Upgrade Program",
    "target_eligibility_quarter": "Dec 2024"
   }
  },
  {
   "type": "Feature",
   "geometry": {
    "type": "Point",
    "coordinates": [
     138.77471742,
     -34.8240977
    ]
   },
   "properties": {
    "name": "SHOP 2, 1950 NORTH EAST ROAD INGLEWOOD 5133",
    "locID": "LOC000112830370",
    "tech": "WIRELESS",
    "upgrade": "NULL_NA",
    "gnaf_pid": "GASA_425534207",
    "tech_change_status": "Not Planned",
    "program_type": "Fixed Wireless and Satellite Upgrade Program",
    "target_eligibility_quarter": "Dec 2024"
   }
  },
  {
   "type": "Feature",
   "geometry": {
    "type": "Point",
    "coordinates": [
     138.77471742,
     -34.8240977
    ]
   },
   "properties": {
    "name": "SHOP 3, 1950 NORTH EAST ROAD INGLEWOOD 5133",
    "locID": "LOC000180301761",
    "tech": "WIRELESS",
    "upgrade": "NULL_NA",
    "gnaf_pid": "GASA_425534208",
    "tech_change_status": "Not Planned",
    "program_type": "Fixed Wireless and Satellite Upgrade Program",
    "target_eligibility_quarter": "Dec 2024"
   }
  },
  {
   "type": "Feature",
   "geometry": {
    "type": "Point",
    "coordinates": [
     138.80304156,
     -34.8152631
    ]
   },
   "properties": {
    "name": "36 BALLANS ROAD INGLEWOOD 5133",
    "locID": "LOC000105735579",
    "tech": "NULL",
    "upgrade": "NULL_NA",
    "gnaf_pid": "GASA_425801533",
    "tech_change_status": "Not Planned"
   }
  },
  {
   "type": "Feature",
   "geometry": {
    "type": "Point",
    "coordinates": [
     138.795403,
     -34.818038
    ]
   },
   "properties": {
    "name": "16 FIDLERS HILL ROAD INGLEWOOD 5133",
    "locID": "LOC000130587524",
    "tech": "SATELLITE",
    "upgrade": "NULL_NA",
    "gnaf_pid": "GASA_425801932",
    "tech_change_status": "Not Planned"
   }
  },
  {
   "type": "Feature",
   "geometry": {
    "type": "Point",
    "coordinates": [
     138.794842,
     -34.818528
    ]
   },
   "properties": {
    "name": "9 FIDLERS HILL ROAD INGLEWOOD 5133",
    "locID": "LOC100078658577",
    "tech": "SATELLITE",
    "upgrade": "NULL_NA",
    "gnaf_pid": "GASA_425801934",
    "tech_change_status": "Not Planned"
   }
  },
  {
   "type": "Feature",
   "geometry": {
    "type": "Point",
    "coordinates": [
     138.81018722,
     -34.81111359
    ]
   },
   "properties": {
    "name": "49 MILLBROOK ROAD INGLEWOOD 5133",
    "locID": "LOC000150374300",
    "tech": "SATELLITE",
    "upgrade": "NULL_NA",
    "gnaf_pid": "GASA_425802500",
    "tech_change_status": "Not Planned"
   }
  },
  {
   "type": "Feature",
   "geometry": {
    "type": "Point",
    "coordinates": [
     138.79354026,
     -34.82158146
    ]
   },
   "properties": {
    "name": "23 TILMOUTH ROAD INGLEWOOD 5133",
    "locID": "LOC000186112244",
    "tech": "SATELLITE",
    "upgrade": "NULL_NA",
    "gnaf_pid": "GASA_425802974",
    "tech_change_status": "Not Planned"
   }
  },
  {
   "type": "Feature",
   "geometry": {
    "type": "Point",
    "coordinates": [
     138.772202,
     -34.82315138
    ]
   },
   "properties": {
    "name": "1927E NORTH EAST ROAD INGLEWOOD 5133",
    "locID": "LOC000108288780",
    "tech": "WIRELESS",
    "upgrade": "NULL_NA",
    "gnaf_pid": "GASA_719195093",
    "tech_change_status": "Not Planned",
    "program_type": "Fixed Wireless and Satellite Upgrade Program",
    "target_eligibility_quarter": "Dec 2024"
   }
  },
  {
   "type": "Feature",
   "geometry": {
    "type": "Point",
    "coordinates": [
     138.781191,
     -34.825024
    ]
   },
   "properties": {
    "name": "2018B PARACOMBE ROAD INGLEWOOD 5133",
    "locID": "LOC000114798069",
    "tech": "WIRELESS",
    "upgrade": "NULL_NA",
    "gnaf_pid": "GASA_721200930",
    "tech_change_status": "Not Planned",
    "program_type": "Fixed Wireless and Satellite Upgrade Program",
    "target_eligibility_quarter": "Dec 2024"
   }
  }
 ]
}