{
 "type": "FeatureCollection",
 "generated": "2024-12-23T13:55:43.883474",
 "suburb": "KOOLYWURTIE",
 "features": [
  {
   "type": "Feature",
   "geometry": {
    "type": "Point",
    "coordinates": [
     137.65102767,
     -34.64654234
    ]
   },
   "properties": {
    "name": "LOT 82 MOUNT RAT ROAD KOOLYWURTIE 5575",
    "locID": "LOC000116359710",
    "tech": "SATELLITE",
    "upgrade": "NULL_NA",
    "gnaf_pid": "GASA_424523036",
    "tech_change_status": "Not Planned"
   }
  },
  {
   "type": "Feature",
   "geometry": {
    "type": "Point",
    "coordinates": [
     137.5981957,
     -34.69855577
    ]
   },
   "properties": {
    "name": "19905 SPENCER HIGHWAY KOOLYWURTIE 5575",
    "locID": "LOC000116326404",
    "tech": "SATELLITE",
    "upgrade": "NULL_NA",
    "gnaf_pid": "GASA_424832444",
    "tech_change_status": "Not Planned"
   }
  },
  {
   "type": "Feature",
   "geometry": {
    "type": "Point",
    "coordinates": [
     137.58978388,
     -34.7160555
    ]
   },
   "properties": {
    "name": "62 BARKERS ROCKS ROAD KOOLYWURTIE 5575",
    "locID": "LOC000116332081",
    "tech": "WIRELESS",
    "upgrade": "NULL_NA",
    "gnaf_pid": "GASA_424833285",
    "tech_change_status": "Not Planned",
    "program_type": "Fixed Wireless and Satellite Upgrade Program",
    "target_eligibility_quarter": "NA"
   }
  },
  {
   "type": "Feature",
   "geometry": {
    "type": "Point",
    "coordinates": [
     137.53473319,
     -34.65646301
    ]
   },
   "properties": {
    "name": "1121 DIDLYAMULKA ROAD KOOLYWURTIE 5575",
    "locID": "LOC000116331528",
    "tech": "WIRELESS",
    "upgrade": "NULL_NA",
    "gnaf_pid": "GASA_424834488",
    "tech_change_status": "Not Planned",
    "program_type": "Fixed Wireless and Satellite Upgrade Program",
    "target_eligibility_quarter": "NA"
   }
  },
  {
   "type": "Feature",
   "geometry": {
    "type": "Point",
    "coordinates": [
     137.643962,
     -34.656327
    ]
   },
   "properties": {
    "name": "118 DIDLYAMULKA ROAD KOOLYWURTIE 5575",
    "locID": "LOC000116335621",
    "tech": "WIRELESS",
    "upgrade": "NULL_NA",
    "gnaf_pid": "GASA_424834489",
    "tech_change_status": "Not Planned",
    "program_type": "Fixed Wireless and Satellite Upgrade Program",
    "target_eligibility_quarter": "NA"
   }
  },
  {
   "type": "Feature",
   "geometry": {
    "type": "Point",
    "coordinates": [
     137.63782327,
     -34.65648485
    ]
   },
   "properties": {
    "name": "173 DIDLYAMULKA ROAD KOOLYWURTIE 5575",
    "locID": "LOC000116342106",
    "tech": "WIRELESS",
    "upgrade": "NULL_NA",
    "gnaf_pid": "GASA_424834490",
    "tech_change_status": "Not Planned",
    "program_type": "Fixed Wireless and Satellite Upgrade Program",
    "target_eligibility_quarter": "NA"
   }
  },
  {
   "type": "Feature",
   "geometry": {
    "type": "Point",
    "coordinates": [
     137.6184502,
     -34.65648977
    ]
   },
   "properties": {
    "name": "351 DIDLYAMULKA ROAD KOOLYWURTIE 5575",
    "locID": "LOC000116356080",
    "tech": "WIRELESS",
    "upgrade": "NULL_NA",
    "gnaf_pid": "GASA_424834491",
    "tech_change_status": "Not Planned",
    "program_type": "Fixed Wireless and Satellite Upgrade Program",
    "target_eligibility_quarter": "NA"
   }
  },
  {
   "type": "Feature",
   "geometry": {
    "type": "Point",
    "coordinates": [
     137.59848364,
     -34.6285298
    ]
   },
   "properties": {
    "name": "1 MOUNT RAT ROAD KOOLYWURTIE 5575",
    "locID": "LOC000116326208",
    "tech": "WIRELESS",
    "upgrade": "NULL_NA",
    "gnaf_pid": "GASA_424836673",
    "tech_change_status": "Not Planned",
    "program_type": "Fixed Wireless and Satellite Upgrade Program",
    "target_eligibility_quarter": "NA"
   }
  },
  {
   "type": "Feature",
   "geometry": {
    "type": "Point",
    "coordinates": [
     137.6364168,
     -34.64573542
    ]
   },
   "properties": {
    "name": "406 MOUNT RAT ROAD KOOLYWURTIE 5575",
    "locID": "LOC000116359710",
    "tech": "SATELLITE",
    "upgrade": "NULL_NA",
    "gnaf_pid": "GASA_424836675",
    "tech_change_status": "Not Planned"
   }
  },
  {
   "type": "Feature",
   "geometry": {
    "type": "Point",
    "coordinates": [
     137.6566966,
     -34.65132355
    ]
   },
   "properties": {
    "name": "787 SPARROW ROAD KOOLYWURTIE 5575",
    "locID": "LOC000116344256",
    "tech": "WIRELESS",
    "upgrade": "NULL_NA",
    "gnaf_pid": "GASA_424838556",
    "tech_change_status": "Not Planned",
    "program_type": "Fixed Wireless and Satellite Upgrade Program",
    "target_eligibility_quarter": "NA"
   }
  },
  {
   "type": "Feature",
   "geometry": {
    "type": "Point",
    "coordinates": [
     137.59803341,
     -34.64545733
    ]
   },
   "properties": {
    "name": "19315 SPENCER HIGHWAY KOOLYWURTIE 5575",
    "locID": "LOC000116326323",
    "tech": "WIRELESS",
    "upgrade": "NULL_NA",
    "gnaf_pid": "GASA_424838565",
    "tech_change_status": "Not Planned",
    "program_type": "Fixed Wireless and Satellite Upgrade Program",
    "target_eligibility_quarter": "NA"
   }
  },
  {
   "type": "Feature",
   "geometry": {
    "type": "Point",
    "coordinates": [
     137.59780309,
     -34.64896654
    ]
   },
   "properties": {
    "name": "19354 SPENCER HIGHWAY KOOLYWURTIE 5575",
    "locID": "LOC000116326334",
    "tech": "WIRELESS",
    "upgrade": "NULL_NA",
    "gnaf_pid": "GASA_424838566",
    "tech_change_status": "Not Planned",
    "program_type": "Fixed Wireless and Satellite Upgrade Program",
    "target_eligibility_quarter": "NA"
   }
  },
  {
   "type": "Feature",
   "geometry": {
    "type": "Point",
    "coordinates": [
     137.597991,
     -34.66154403
    ]
   },
   "properties": {
    "name": "19495 SPENCER HIGHWAY KOOLYWURTIE 5575",
    "locID": "LOC000116326347",
    "tech": "WIRELESS",
    "upgrade": "NULL_NA",
    "gnaf_pid": "GASA_424838567",
    "tech_change_status": "Not Planned",
    "program_type": "Fixed Wireless and Satellite Upgrade Program",
    "target_eligibility_quarter": "NA"
   }
  },
  {
   "type": "Feature",
   "geometry": {
    "type": "Point",
    "coordinates": [
     137.59782024,
     -34.66637319
    ]
   },
   "properties": {
    "name": "19548 SPENCER HIGHWAY KOOLYWURTIE 5575",
    "locID": "LOC000116326368",
    "tech": "WIRELESS",
    "upgrade": "NULL_NA",
    "gnaf_pid": "GASA_424838568",
    "tech_change_status": "Not Planned",
    "program_type": "Fixed Wireless and Satellite Upgrade Program",
    "target_eligibility_quarter": "NA"
   }
  },
  {
   "type": "Feature",
   "geometry": {
    "type": "Point",
    "coordinates": [
     137.59798647,
     -34.67775404
    ]
   },
   "properties": {
    "name": "19675 SPENCER HIGHWAY KOOLYWURTIE 5575",
    "locID": "LOC000116326375",
    "tech": "WIRELESS",
    "upgrade": "NULL_NA",
    "gnaf_pid": "GASA_424838569",
    "tech_change_status": "Not Planned",
    "program_type": "Fixed Wireless and Satellite Upgrade Program",
    "target_eligibility_quarter": "NA"
   }
  },
  {
   "type": "Feature",
   "geometry": {
    "type": "Point",
    "coordinates": [
     137.59804361,
     -34.69076679
    ]
   },
   "properties": {
    "name": "19818 SPENCER HIGHWAY KOOLYWURTIE 5575",
    "locID": "LOC000116326399",
    "tech": "WIRELESS",
    "upgrade": "NULL_NA",
    "gnaf_pid": "GASA_424838570",
    "tech_change_status": "Not Planned",
    "program_type": "Fixed Wireless and Satellite Upgrade Program",
    "target_eligibility_quarter": "NA"
   }
  },
  {
   "type": "Feature",
   "geometry": {
    "type": "Point",
    "coordinates": [
     137.59740723,
     -34.70441921
    ]
   },
   "properties": {
    "name": "19971 SPENCER HIGHWAY KOOLYWURTIE 5575",
    "locID": "LOC000116326415",
    "tech": "WIRELESS",
    "upgrade": "NULL_NA",
    "gnaf_pid": "GASA_424838571",
    "tech_change_status": "Not Planned",
    "program_type": "Fixed Wireless and Satellite Upgrade Program",
    "target_eligibility_quarter": "NA"
   }
  },
  {
   "type": "Feature",
   "geometry": {
    "type": "Point",
    "coordinates": [
     137.59647351,
     -34.70757331
    ]
   },
   "properties": {
    "name": "20006 SPENCER HIGHWAY KOOLYWURTIE 5575",
    "locID": "LOC000116326443",
    "tech": "WIRELESS",
    "upgrade": "NULL_NA",
    "gnaf_pid": "GASA_424838572",
    "tech_change_status": "Not Planned",
    "program_type": "Fixed Wireless and Satellite Upgrade Program",
    "target_eligibility_quarter": "NA"
   }
  },
  {
   "type": "Feature",
   "geometry": {
    "type": "Point",
    "coordinates": [
     137.59643738,
     -34.71515614
    ]
   },
   "properties": {
    "name": "20090 SPENCER HIGHWAY KOOLYWURTIE 5575",
    "locID": "LOC000116326458",
    "tech": "SATELLITE",
    "upgrade": "NULL_NA",
    "gnaf_pid": "GASA_424838573",
    "tech_change_status": "Not Planned"
   }
  },
  {
   "type": "Feature",
   "geometry": {
    "type": "Point",
    "coordinates": [
     137.52008111,
     -34.70757295
    ]
   },
   "properties": {
    "name": "3 TOMNEY ROAD KOOLYWURTIE 5575",
    "locID": "LOC000116339751",
    "tech": "WIRELESS",
    "upgrade": "NULL_NA",
    "gnaf_pid": "GASA_424839127",
    "tech_change_status": "Not Planned",
    "program_type": "Fixed Wireless and Satellite Upgrade Program",
    "target_eligibility_quarter": "NA"
   }
  },
  {
   "type": "Feature",
   "geometry": {
    "type": "Point",
    "coordinates": [
     137.6436926,
     -34.64269975
    ]
   },
   "properties": {
    "name": "10 CLIFT ROAD KOOLYWURTIE 5575",
    "locID": "LOC000131643537",
    "tech": "SATELLITE",
    "upgrade": "NULL_NA",
    "gnaf_pid": "GASA_424900542",
    "tech_change_status": "Not Planned"
   }
  },
  {
   "type": "Feature",
   "geometry": {
    "type": "Point",
    "coordinates": [
     137.55721211,
     -34.66512747
    ]
   },
   "properties": {
    "name": "1000 GUN CLUB ROAD KOOLYWURTIE 5575",
    "locID": "LOC000131647694",
    "tech": "WIRELESS",
    "upgrade": "NULL_NA",
    "gnaf_pid": "GASA_424901297",
    "tech_change_status": "Not Planned",
    "program_type": "Fixed Wireless and Satellite Upgrade Program",
    "target_eligibility_quarter": "NA"
   }
  },
  {
   "type": "Feature",
   "geometry": {
    "type": "Point",
    "coordinates": [
     137.5516953,
     -34.64573294
    ]
   },
   "properties": {
    "name": "1222 GUN CLUB ROAD KOOLYWURTIE 5575",
    "locID": "LOC000131656420",
    "tech": "WIRELESS",
    "upgrade": "NULL_NA",
    "gnaf_pid": "GASA_424901299",
    "tech_change_status": "Not Planned",
    "program_type": "Fixed Wireless and Satellite Upgrade Program",
    "target_eligibility_quarter": "NA"
   }
  },
  {
   "type": "Feature",
   "geometry": {
    "type": "Point",
    "coordinates": [
     137.57493001,
     -34.69575302
    ]
   },
   "properties": {
    "name": "623 GUN CLUB ROAD KOOLYWURTIE 5575",
    "locID": "LOC000131664997",
    "tech": "WIRELESS",
    "upgrade": "NULL_NA",
    "gnaf_pid": "GASA_424901300",
    "tech_change_status": "Not Planned",
    "program_type": "Fixed Wireless and Satellite Upgrade Program",
    "target_eligibility_quarter": "NA"
   }
  },
  {
   "type": "Feature",
   "geometry": {
    "type": "Point",
    "coordinates": [
     137.57336457,
     -34.69303628
    ]
   },
   "properties": {
    "name": "655 GUN CLUB ROAD KOOLYWURTIE 5575",
    "locID": "LOC000131665089",
    "tech": "WIRELESS",
    "upgrade": "NULL_NA",
    "gnaf_pid": "GASA_424901301",
    "tech_change_status": "Not Planned",
    "program_type": "Fixed Wireless and Satellite Upgrade Program",
    "target_eligibility_quarter": "NA"
   }
  },
  {
   "type": "Feature",
   "geometry": {
    "type": "Point",
    "coordinates": [
     137.57231604,
     -34.68541973
    ]
   },
   "properties": {
    "name": "238 KOOLYWURTIE CHURCH ROAD KOOLYWURTIE 5575",
    "locID": "LOC000131684732",
    "tech": "WIRELESS",
    "upgrade": "NULL_NA",
    "gnaf_pid": "GASA_424902680",
    "tech_change_status": "Not Planned",
    "program_type": "Fixed Wireless and Satellite Upgrade Program",
    "target_eligibility_quarter": "NA"
   }
  },
  {
   "type": "Feature",
   "geometry": {
    "type": "Point",
    "coordinates": [
     137.56139697,
     -34.68539503
    ]
   },
   "properties": {
    "name": "338 KOOLYWURTIE CHURCH ROAD KOOLYWURTIE 5575",
    "locID": "LOC000131635633",
    "tech": "WIRELESS",
    "upgrade": "NULL_NA",
    "gnaf_pid": "GASA_424902681",
    "tech_change_status": "Not Planned",
    "program_type": "Fixed Wireless and Satellite Upgrade Program",
    "target_eligibility_quarter": "NA"
   }
  },
  {
   "type": "Feature",
   "geometry": {
    "type": "Point",
    "coordinates": [
     137.54406738,
     -34.6855357
    ]
   },
   "properties": {
    "name": "497 KOOLYWURTIE CHURCH ROAD KOOLYWURTIE 5575",
    "locID": "LOC000131652264",
    "tech": "WIRELESS",
    "upgrade": "NULL_NA",
    "gnaf_pid": "GASA_424902683",
    "tech_change_status": "Not Planned",
    "program_type": "Fixed Wireless and Satellite Upgrade Program",
    "target_eligibility_quarter": "NA"
   }
  },
  {
   "type": "Feature",
   "geometry": {
    "type": "Point",
    "coordinates": [
     137.63616787,
     -34.63328147
    ]
   },
   "properties": {
    "name": "1385 MOUNT RAT WELLS ROAD KOOLYWURTIE 5575",
    "locID": "LOC000131660667",
    "tech": "NULL",
    "upgrade": "NULL_NA",
    "gnaf_pid": "GASA_424903260",
    "tech_change_status": "Not Planned"
   }
  },
  {
   "type": "Feature",
   "geometry": {
    "type": "Point",
    "coordinates": [
     137.64042199,
     -34.64342019
    ]
   },
   "properties": {
    "name": "43 MURCH ROAD KOOLYWURTIE 5575",
    "locID": "LOC000131647969",
    "tech": "SATELLITE",
    "upgrade": "NULL_NA",
    "gnaf_pid": "GASA_424903276",
    "tech_change_status": "Not Planned"
   }
  },
  {
   "type": "Feature",
   "geometry": {
    "type": "Point",
    "coordinates": [
     137.64009592,
     -34.64091808
    ]
   },
   "properties": {
    "name": "154 ROCKY GLEN ROAD KOOLYWURTIE 5575",
    "locID": "LOC000131664670",
    "tech": "WIRELESS",
    "upgrade": "NULL_NA",
    "gnaf_pid": "GASA_424904214",
    "tech_change_status": "Not Planned",
    "program_type": "Fixed Wireless and Satellite Upgrade Program",
    "target_eligibility_quarter": "NA"
   }
  },
  {
   "type": "Feature",
   "geometry": {
    "type": "Point",
    "coordinates": [
     137.59797872,
     -34.67716106
    ]
   },
   "properties": {
    "name": "19667 SPENCER HIGHWAY KOOLYWURTIE 5575",
    "locID": "LOC000131673255",
    "tech": "WIRELESS",
    "upgrade": "NULL_NA",
    "gnaf_pid": "GASA_424904759",
    "tech_change_status": "Not Planned",
    "program_type": "Fixed Wireless and Satellite Upgrade Program",
    "target_eligibility_quarter": "NA"
   }
  },
  {
   "type": "Feature",
   "geometry": {
    "type": "Point",
    "coordinates": [
     137.6070285,
     -34.64376516
    ]
   },
   "properties": {
    "name": "LOT 1 SPENCER HIGHWAY KOOLYWURTIE 5575",
    "locID": "LOC000116326404",
    "tech": "SATELLITE",
    "upgrade": "NULL_NA",
    "gnaf_pid": "GASA_424904760",
    "tech_change_status": "Not Planned"
   }
  },
  {
   "type": "Feature",
   "geometry": {
    "type": "Point",
    "coordinates": [
     137.62395124,
     -34.71858664
    ]
   },
   "properties": {
    "name": "304 SPICER ROAD KOOLYWURTIE 5575",
    "locID": "LOC000131631187",
    "tech": "WIRELESS",
    "upgrade": "NULL_NA",
    "gnaf_pid": "GASA_424904790",
    "tech_change_status": "Not Planned",
    "program_type": "Fixed Wireless and Satellite Upgrade Program",
    "target_eligibility_quarter": "NA"
   }
  },
  {
   "type": "Feature",
   "geometry": {
    "type": "Point",
    "coordinates": [
     137.64614269,
     -34.72070982
    ]
   },
   "properties": {
    "name": "100 SPICER ROAD KOOLYWURTIE 5575",
    "locID": "LOC000131647673",
    "tech": "WIRELESS",
    "upgrade": "NULL_NA",
    "gnaf_pid": "GASA_424925724",
    "tech_change_status": "Not Planned",
    "program_type": "Fixed Wireless and Satellite Upgrade Program",
    "target_eligibility_quarter": "NA"
   }
  },
  {
   "type": "Feature",
   "geometry": {
    "type": "Point",
    "coordinates": [
     137.53408113,
     -34.65637403
    ]
   },
   "properties": {
    "name": "1126 DIDLYAMULKA ROAD KOOLYWURTIE 5575",
    "locID": "LOC000131651979",
    "tech": "WIRELESS",
    "upgrade": "NULL_NA",
    "gnaf_pid": "GASA_425062779",
    "tech_change_status": "Not Planned",
    "program_type": "Fixed Wireless and Satellite Upgrade Program",
    "target_eligibility_quarter": "NA"
   }
  },
  {
   "type": "Feature",
   "geometry": {
    "type": "Point",
    "coordinates": [
     137.5784638,
     -34.69010288
    ]
   },
   "properties": {
    "name": "LOT 32 KOOLYWURTIE CHURCH ROAD KOOLYWURTIE 5575",
    "locID": "LOC000131652264",
    "tech": "WIRELESS",
    "upgrade": "NULL_NA",
    "gnaf_pid": "GASA_425065208",
    "tech_change_status": "Not Planned",
    "program_type": "Fixed Wireless and Satellite Upgrade Program",
    "target_eligibility_quarter": "NA"
   }
  },
  {
   "type": "Feature",
   "geometry": {
    "type": "Point",
    "coordinates": [
     137.53364905,
     -34.6782554
    ]
   },
   "properties": {
    "name": "LOT 37 KOOLYWURTIE CHURCH ROAD KOOLYWURTIE 5575",
    "locID": "LOC000131652264",
    "tech": "WIRELESS",
    "upgrade": "NULL_NA",
    "gnaf_pid": "GASA_425065209",
    "tech_change_status": "Not Planned",
    "program_type": "Fixed Wireless and Satellite Upgrade Program",
    "target_eligibility_quarter": "NA"
   }
  },
  {
   "type": "Feature",
   "geometry": {
    "type": "Point",
    "coordinates": [
     137.55736694,
     -34.69224401
    ]
   },
   "properties": {
    "name": "LOT 3 KOOLYWURTIE CHURCH ROAD KOOLYWURTIE 5575",
    "locID": "LOC000131652264",
    "tech": "WIRELESS",
    "upgrade": "NULL_NA",
    "gnaf_pid": "GASA_425065210",
    "tech_change_status": "Not Planned",
    "program_type": "Fixed Wireless and Satellite Upgrade Program",
    "target_eligibility_quarter": "NA"
   }
  },
  {
   "type": "Feature",
   "geometry": {
    "type": "Point",
    "coordinates": [
     137.59659666,
     -34.70947718
    ]
   },
   "properties": {
    "name": "20027 SPENCER HIGHWAY KOOLYWURTIE 5575",
    "locID": "LOC000131677182",
    "tech": "WIRELESS",
    "upgrade": "NULL_NA",
    "gnaf_pid": "GASA_425069283",
    "tech_change_status": "Not Planned",
    "program_type": "Fixed Wireless and Satellite Upgrade Program",
    "target_eligibility_quarter": "NA"
   }
  },
  {
   "type": "Feature",
   "geometry": {
    "type": "Point",
    "coordinates": [
     137.59656522,
     -34.71229876
    ]
   },
   "properties": {
    "name": "20059 SPENCER HIGHWAY KOOLYWURTIE 5575",
    "locID": "LOC000131677195",
    "tech": "WIRELESS",
    "upgrade": "NULL_NA",
    "gnaf_pid": "GASA_425069284",
    "tech_change_status": "Not Planned",
    "program_type": "Fixed Wireless and Satellite Upgrade Program",
    "target_eligibility_quarter": "NA"
   }
  },
  {
   "type": "Feature",
   "geometry": {
    "type": "Point",
    "coordinates": [
     137.61773778,
     -34.6853791
    ]
   },
   "properties": {
    "name": "181 BUTLER ROAD KOOLYWURTIE 5575",
    "locID": "LOC000150230316",
    "tech": "NULL",
    "upgrade": "NULL_NA",
    "gnaf_pid": "GASA_425106055",
    "tech_change_status": "Not Planned"
   }
  },
  {
   "type": "Feature",
   "geometry": {
    "type": "Point",
    "coordinates": [
     137.65373441,
     -34.68550882
    ]
   },
   "properties": {
    "name": "510 BUTLER ROAD KOOLYWURTIE 5575",
    "locID": "LOC000150230328",
    "tech": "WIRELESS",
    "upgrade": "NULL_NA",
    "gnaf_pid": "GASA_425106056",
    "tech_change_status": "Not Planned",
    "program_type": "Fixed Wireless and Satellite Upgrade Program",
    "target_eligibility_quarter": "NA"
   }
  },
  {
   "type": "Feature",
   "geometry": {
    "type": "Point",
    "coordinates": [
     137.63609832,
     -34.68159979
    ]
   },
   "properties": {
    "name": "LOT 1 BUTLER ROAD KOOLYWURTIE 5575",
    "locID": "LOC000150230316",
    "tech": "NULL",
    "upgrade": "NULL_NA",
    "gnaf_pid": "GASA_425106057",
    "tech_change_status": "Not Planned"
   }
  },
  {
   "type": "Feature",
   "geometry": {
    "type": "Point",
    "coordinates": [
     137.63890794,
     -34.67257808
    ]
   },
   "properties": {
    "name": "LOT 2 BUTLER ROAD KOOLYWURTIE 5575",
    "locID": "LOC000150230316",
    "tech": "NULL",
    "upgrade": "NULL_NA",
    "gnaf_pid": "GASA_425106063",
    "tech_change_status": "Not Planned"
   }
  },
  {
   "type": "Feature",
   "geometry": {
    "type": "Point",
    "coordinates": [
     137.64213335,
     -34.6423003
    ]
   },
   "properties": {
    "name": "LOT 281 CLIFT ROAD KOOLYWURTIE 5575",
    "locID": "LOC000131643537",
    "tech": "SATELLITE",
    "upgrade": "NULL_NA",
    "gnaf_pid": "GASA_425253947",
    "tech_change_status": "Not Planned"
   }
  },
  {
   "type": "Feature",
   "geometry": {
    "type": "Point",
    "coordinates": [
     137.57174231,
     -34.67751135
    ]
   },
   "properties": {
    "name": "LOT 1 GUN CLUB ROAD KOOLYWURTIE 5575",
    "locID": "LOC000131656420",
    "tech": "WIRELESS",
    "upgrade": "NULL_NA",
    "gnaf_pid": "GASA_425439751",
    "tech_change_status": "Not Planned",
    "program_type": "Fixed Wireless and Satellite Upgrade Program",
    "target_eligibility_quarter": "NA"
   }
  },
  {
   "type": "Feature",
   "geometry": {
    "type": "Point",
    "coordinates": [
     137.58265025,
     -34.70067807
    ]
   },
   "properties": {
    "name": "LOT 29 GUN CLUB ROAD KOOLYWURTIE 5575",
    "locID": "LOC000131656420",
    "tech": "WIRELESS",
    "upgrade": "NULL_NA",
    "gnaf_pid": "GASA_425439755",
    "tech_change_status": "Not Planned",
    "program_type": "Fixed Wireless and Satellite Upgrade Program",
    "target_eligibility_quarter": "NA"
   }
  },
  {
   "type": "Feature",
   "geometry": {
    "type": "Point",
    "coordinates": [
     137.5516152,
     -34.67465142
    ]
   },
   "properties": {
    "name": "LOT 39 GUN CLUB ROAD KOOLYWURTIE 5575",
    "locID": "LOC000131656420",
    "tech": "WIRELESS",
    "upgrade": "NULL_NA",
    "gnaf_pid": "GASA_425439756",
    "tech_change_status": "Not Planned",
    "program_type": "Fixed Wireless and Satellite Upgrade Program",
    "target_eligibility_quarter": "NA"
   }
  },
  {
   "type": "Feature",
   "geometry": {
    "type": "Point",
    "coordinates": [
     137.5616393,
     -34.63366707
    ]
   },
   "properties": {
    "name": "LOT 60 GUN CLUB ROAD KOOLYWURTIE 5575",
    "locID": "LOC000131656420",
    "tech": "WIRELESS",
    "upgrade": "NULL_NA",
    "gnaf_pid": "GASA_425439757",
    "tech_change_status": "Not Planned",
    "program_type": "Fixed Wireless and Satellite Upgrade Program",
    "target_eligibility_quarter": "NA"
   }
  },
  {
   "type": "Feature",
   "geometry": {
    "type": "Point",
    "coordinates": [
     137.54340962,
     -34.63543846
    ]
   },
   "properties": {
    "name": "LOT 61 GUN CLUB ROAD KOOLYWURTIE 5575",
    "locID": "LOC000131656420",
    "tech": "WIRELESS",
    "upgrade": "NULL_NA",
    "gnaf_pid": "GASA_425439758",
    "tech_change_status": "Not Planned",
    "program_type": "Fixed Wireless and Satellite Upgrade Program",
    "target_eligibility_quarter": "NA"
   }
  },
  {
   "type": "Feature",
   "geometry": {
    "type": "Point",
    "coordinates": [
     137.55890137,
     -34.68580234
    ]
   },
   "properties": {
    "name": "LOT 1 KOOLYWURTIE CHURCH ROAD KOOLYWURTIE 5575",
    "locID": "LOC000131652264",
    "tech": "WIRELESS",
    "upgrade": "NULL_NA",
    "gnaf_pid": "GASA_425582476",
    "tech_change_status": "Not Planned",
    "program_type": "Fixed Wireless and Satellite Upgrade Program",
    "target_eligibility_quarter": "NA"
   }
  },
  {
   "type": "Feature",
   "geometry": {
    "type": "Point",
    "coordinates": [
     137.56062644,
     -34.68577679
    ]
   },
   "properties": {
    "name": "LOT 4 KOOLYWURTIE CHURCH ROAD KOOLYWURTIE 5575",
    "locID": "LOC000131652264",
    "tech": "WIRELESS",
    "upgrade": "NULL_NA",
    "gnaf_pid": "GASA_425582477",
    "tech_change_status": "Not Planned",
    "program_type": "Fixed Wireless and Satellite Upgrade Program",
    "target_eligibility_quarter": "NA"
   }
  },
  {
   "type": "Feature",
   "geometry": {
    "type": "Point",
    "coordinates": [
     137.64143965,
     -34.64349518
    ]
   },
   "properties": {
    "name": "9 MASON ROAD KOOLYWURTIE 5575",
    "locID": "LOC000150230385",
    "tech": "NULL",
    "upgrade": "NULL_NA",
    "gnaf_pid": "GASA_425582757",
    "tech_change_status": "Not Planned"
   }
  },
  {
   "type": "Feature",
   "geometry": {
    "type": "Point",
    "coordinates": [
     137.6415964,
     -34.644877
    ]
   },
   "properties": {
    "name": "12 ROSES LANE KOOLYWURTIE 5575",
    "locID": "LOC000150230392",
    "tech": "SATELLITE",
    "upgrade": "NULL_NA",
    "gnaf_pid": "GASA_425583668",
    "tech_change_status": "Not Planned"
   }
  },
  {
   "type": "Feature",
   "geometry": {
    "type": "Point",
    "coordinates": [
     137.58897891,
     -34.66006231
    ]
   },
   "properties": {
    "name": "LOT 44 SPENCER HIGHWAY KOOLYWURTIE 5575",
    "locID": "LOC000116326404",
    "tech": "SATELLITE",
    "upgrade": "NULL_NA",
    "gnaf_pid": "GASA_425584028",
    "tech_change_status": "Not Planned"
   }
  },
  {
   "type": "Feature",
   "geometry": {
    "type": "Point",
    "coordinates": [
     137.639418,
     -34.64218902
    ]
   },
   "properties": {
    "name": "LOT 279 MURCH ROAD KOOLYWURTIE 5575",
    "locID": "LOC000131647969",
    "tech": "SATELLITE",
    "upgrade": "NULL_NA",
    "gnaf_pid": "GASA_425722844",
    "tech_change_status": "Not Planned"
   }
  },
  {
   "type": "Feature",
   "geometry": {
    "type": "Point",
    "coordinates": [
     137.56208057,
     -34.64779058
    ]
   },
   "properties": {
    "name": "LOT 54 GUN CLUB ROAD KOOLYWURTIE 5575",
    "locID": "LOC000131656420",
    "tech": "WIRELESS",
    "upgrade": "NULL_NA",
    "gnaf_pid": "GASA_719396218",
    "tech_change_status": "Not Planned",
    "program_type": "Fixed Wireless and Satellite Upgrade Program",
    "target_eligibility_quarter": "NA"
   }
  },
  {
   "type": "Feature",
   "geometry": {
    "type": "Point",
    "coordinates": [
     137.64258275,
     -34.63399243
    ]
   },
   "properties": {
    "name": "LOT 50 MOUNT RAT WELLS ROAD KOOLYWURTIE 5575",
    "locID": "LOC000116352817",
    "tech": "WIRELESS",
    "upgrade": "NULL_NA",
    "gnaf_pid": "GASA_719521290",
    "tech_change_status": "Not Planned",
    "program_type": "Fixed Wireless and Satellite Upgrade Program",
    "target_eligibility_quarter": "NA"
   }
  },
  {
   "type": "Feature",
   "geometry": {
    "type": "Point",
    "coordinates": [
     137.52934576,
     -34.71407772
    ]
   },
   "properties": {
    "name": "LOT 102 RICKABY ROAD KOOLYWURTIE 5575",
    "locID": "LOC000064275897",
    "tech": "WIRELESS",
    "upgrade": "NULL_NA",
    "gnaf_pid": "GASA_719651830",
    "tech_change_status": "Not Planned",
    "program_type": "Fixed Wireless and Satellite Upgrade Program",
    "target_eligibility_quarter": "NA"
   }
  },
  {
   "type": "Feature",
   "geometry": {
    "type": "Point",
    "coordinates": [
     137.63399064,
     -34.6286686
    ]
   },
   "properties": {
    "name": "LOT 268 MOUNT RAT WELLS ROAD KOOLYWURTIE 5575",
    "locID": "LOC000131660667",
    "tech": "NULL",
    "upgrade": "NULL_NA",
    "gnaf_pid": "GASA_720302003",
    "tech_change_status": "Not Planned"
   }
  },
  {
   "type": "Feature",
   "geometry": {
    "type": "Point",
    "coordinates": [
     137.59033971,
     -34.64338759
    ]
   },
   "properties": {
    "name": "LOT 58 SPENCER HIGHWAY KOOLYWURTIE 5575",
    "locID": "LOC000116326404",
    "tech": "SATELLITE",
    "upgrade": "NULL_NA",
    "gnaf_pid": "GASA_720303629",
    "tech_change_status": "Not Planned"
   }
  }
 ]
}