{
 "type": "FeatureCollection",
 "generated": "2025-03-08T09:49:22.112309",
 "suburb": "LEASINGHAM",
 "features": [
  {
   "type": "Feature",
   "geometry": {
    "type": "Point",
    "coordinates": [
     138.65047724,
     -33.98157627
    ]
   },
   "properties": {
    "name": "LOT 92 HORROCKS HIGHWAY LEASINGHAM 5452",
    "locID": "LOC000167030353",
    "tech": "WIRELESS",
    "upgrade": "NULL_NA",
    "gnaf_pid": "GASA_424901857",
    "tech_change_status": "Not Planned",
    "program_type": "Fixed Wireless and Satellite Upgrade Program",
    "target_eligibility_quarter": "NA"
   }
  },
  {
   "type": "Feature",
   "geometry": {
    "type": "Point",
    "coordinates": [
     138.65043875,
     -33.98491927
    ]
   },
   "properties": {
    "name": "14 SOUTH TERRACE LEASINGHAM 5452",
    "locID": "LOC100033167883",
    "tech": "WIRELESS",
    "upgrade": "NULL_NA",
    "gnaf_pid": "GASA_425301885",
    "tech_change_status": "Not Planned",
    "program_type": "Fixed Wireless and Satellite Upgrade Program",
    "target_eligibility_quarter": "NA"
   }
  },
  {
   "type": "Feature",
   "geometry": {
    "type": "Point",
    "coordinates": [
     138.66426308,
     -33.99402887
    ]
   },
   "properties": {
    "name": "127 BLOCKS ROAD LEASINGHAM 5452",
    "locID": "LOC000151994016",
    "tech": "WIRELESS",
    "upgrade": "NULL_NA",
    "gnaf_pid": "GASA_425302419",
    "tech_change_status": "Not Planned",
    "program_type": "Fixed Wireless and Satellite Upgrade Program",
    "target_eligibility_quarter": "NA"
   }
  },
  {
   "type": "Feature",
   "geometry": {
    "type": "Point",
    "coordinates": [
     138.66404969,
     -33.99307996
    ]
   },
   "properties": {
    "name": "138 BLOCKS ROAD LEASINGHAM 5452",
    "locID": "LOC000189739183",
    "tech": "WIRELESS",
    "upgrade": "NULL_NA",
    "gnaf_pid": "GASA_425302420",
    "tech_change_status": "Not Planned",
    "program_type": "Fixed Wireless and Satellite Upgrade Program",
    "target_eligibility_quarter": "NA"
   }
  },
  {
   "type": "Feature",
   "geometry": {
    "type": "Point",
    "coordinates": [
     138.66333877,
     -33.99072442
    ]
   },
   "properties": {
    "name": "164 BLOCKS ROAD LEASINGHAM 5452",
    "locID": "LOC000109435221",
    "tech": "WIRELESS",
    "upgrade": "NULL_NA",
    "gnaf_pid": "GASA_425302421",
    "tech_change_status": "Not Planned",
    "program_type": "Fixed Wireless and Satellite Upgrade Program",
    "target_eligibility_quarter": "NA"
   }
  },
  {
   "type": "Feature",
   "geometry": {
    "type": "Point",
    "coordinates": [
     138.66248586,
     -33.98820071
    ]
   },
   "properties": {
    "name": "193 BLOCKS ROAD LEASINGHAM 5452",
    "locID": "LOC000146186138",
    "tech": "WIRELESS",
    "upgrade": "NULL_NA",
    "gnaf_pid": "GASA_425302422",
    "tech_change_status": "Not Planned",
    "program_type": "Fixed Wireless and Satellite Upgrade Program",
    "target_eligibility_quarter": "NA"
   }
  },
  {
   "type": "Feature",
   "geometry": {
    "type": "Point",
    "coordinates": [
     138.65868335,
     -33.98619478
    ]
   },
   "properties": {
    "name": "251 BLOCKS ROAD LEASINGHAM 5452",
    "locID": "LOC000178851557",
    "tech": "WIRELESS",
    "upgrade": "NULL_NA",
    "gnaf_pid": "GASA_425302424",
    "tech_change_status": "Not Planned",
    "program_type": "Fixed Wireless and Satellite Upgrade Program",
    "target_eligibility_quarter": "NA"
   }
  },
  {
   "type": "Feature",
   "geometry": {
    "type": "Point",
    "coordinates": [
     138.65829687,
     -33.98491676
    ]
   },
   "properties": {
    "name": "267 BLOCKS ROAD LEASINGHAM 5452",
    "locID": "LOC000147240538",
    "tech": "WIRELESS",
    "upgrade": "NULL_NA",
    "gnaf_pid": "GASA_425302425",
    "tech_change_status": "Not Planned",
    "program_type": "Fixed Wireless and Satellite Upgrade Program",
    "target_eligibility_quarter": "NA"
   }
  },
  {
   "type": "Feature",
   "geometry": {
    "type": "Point",
    "coordinates": [
     138.65815138,
     -33.98410236
    ]
   },
   "properties": {
    "name": "276 BLOCKS ROAD LEASINGHAM 5452",
    "locID": "LOC000109508744",
    "tech": "WIRELESS",
    "upgrade": "NULL_NA",
    "gnaf_pid": "GASA_425302426",
    "tech_change_status": "Not Planned",
    "program_type": "Fixed Wireless and Satellite Upgrade Program",
    "target_eligibility_quarter": "NA"
   }
  },
  {
   "type": "Feature",
   "geometry": {
    "type": "Point",
    "coordinates": [
     138.65776569,
     -33.98282325
    ]
   },
   "properties": {
    "name": "289 BLOCKS ROAD LEASINGHAM 5452",
    "locID": "LOC000145401195",
    "tech": "WIRELESS",
    "upgrade": "NULL_NA",
    "gnaf_pid": "GASA_425302427",
    "tech_change_status": "Not Planned",
    "program_type": "Fixed Wireless and Satellite Upgrade Program",
    "target_eligibility_quarter": "NA"
   }
  },
  {
   "type": "Feature",
   "geometry": {
    "type": "Point",
    "coordinates": [
     138.66533856,
     -33.97637377
    ]
   },
   "properties": {
    "name": "220 CEMETERY ROAD LEASINGHAM 5452",
    "locID": "LOC000150767396",
    "tech": "SATELLITE",
    "upgrade": "NULL_NA",
    "gnaf_pid": "GASA_425302756",
    "tech_change_status": "Not Planned"
   }
  },
  {
   "type": "Feature",
   "geometry": {
    "type": "Point",
    "coordinates": [
     138.64727854,
     -33.9910849
    ]
   },
   "properties": {
    "name": "176 GRACE ROAD LEASINGHAM 5452",
    "locID": "LOC000131400458",
    "tech": "WIRELESS",
    "upgrade": "NULL_NA",
    "gnaf_pid": "GASA_425303404",
    "tech_change_status": "Not Planned",
    "program_type": "Fixed Wireless and Satellite Upgrade Program",
    "target_eligibility_quarter": "NA"
   }
  },
  {
   "type": "Feature",
   "geometry": {
    "type": "Point",
    "coordinates": [
     138.65662204,
     -33.978569
    ]
   },
   "properties": {
    "name": "29 GREAT NORTHERN ROAD LEASINGHAM 5452",
    "locID": "LOC000172096542",
    "tech": "WIRELESS",
    "upgrade": "NULL_NA",
    "gnaf_pid": "GASA_425303407",
    "tech_change_status": "Not Planned",
    "program_type": "Fixed Wireless and Satellite Upgrade Program",
    "target_eligibility_quarter": "NA"
   }
  },
  {
   "type": "Feature",
   "geometry": {
    "type": "Point",
    "coordinates": [
     138.647846,
     -33.982181
    ]
   },
   "properties": {
    "name": "15 HIGH STREET LEASINGHAM 5452",
    "locID": "LOC100078646225",
    "tech": "WIRELESS",
    "upgrade": "NULL_NA",
    "gnaf_pid": "GASA_425303574",
    "tech_change_status": "Not Planned",
    "program_type": "Fixed Wireless and Satellite Upgrade Program",
    "target_eligibility_quarter": "NA"
   }
  },
  {
   "type": "Feature",
   "geometry": {
    "type": "Point",
    "coordinates": [
     138.65686856,
     -33.9978052
    ]
   },
   "properties": {
    "name": "6948 HORROCKS HIGHWAY LEASINGHAM 5452",
    "locID": "LOC100078857952",
    "tech": "WIRELESS",
    "upgrade": "NULL_NA",
    "gnaf_pid": "GASA_425303674",
    "tech_change_status": "Not Planned",
    "program_type": "Fixed Wireless and Satellite Upgrade Program",
    "target_eligibility_quarter": "NA"
   }
  },
  {
   "type": "Feature",
   "geometry": {
    "type": "Point",
    "coordinates": [
     138.65646064,
     -33.99677774
    ]
   },
   "properties": {
    "name": "6960 HORROCKS HIGHWAY LEASINGHAM 5452",
    "locID": "LOC000150412691",
    "tech": "WIRELESS",
    "upgrade": "NULL_NA",
    "gnaf_pid": "GASA_425303675",
    "tech_change_status": "Not Planned",
    "program_type": "Fixed Wireless and Satellite Upgrade Program",
    "target_eligibility_quarter": "NA"
   }
  },
  {
   "type": "Feature",
   "geometry": {
    "type": "Point",
    "coordinates": [
     138.65644408,
     -33.99673928
    ]
   },
   "properties": {
    "name": "6962 HORROCKS HIGHWAY LEASINGHAM 5452",
    "locID": "LOC000146266053",
    "tech": "WIRELESS",
    "upgrade": "NULL_NA",
    "gnaf_pid": "GASA_425303676",
    "tech_change_status": "Not Planned",
    "program_type": "Fixed Wireless and Satellite Upgrade Program",
    "target_eligibility_quarter": "NA"
   }
  },
  {
   "type": "Feature",
   "geometry": {
    "type": "Point",
    "coordinates": [
     138.65594746,
     -33.99545797
    ]
   },
   "properties": {
    "name": "6974 HORROCKS HIGHWAY LEASINGHAM 5452",
    "locID": "LOC000131404815",
    "tech": "WIRELESS",
    "upgrade": "NULL_NA",
    "gnaf_pid": "GASA_425303677",
    "tech_change_status": "Not Planned",
    "program_type": "Fixed Wireless and Satellite Upgrade Program",
    "target_eligibility_quarter": "NA"
   }
  },
  {
   "type": "Feature",
   "geometry": {
    "type": "Point",
    "coordinates": [
     138.65576883,
     -33.99382311
    ]
   },
   "properties": {
    "name": "6994 HORROCKS HIGHWAY LEASINGHAM 5452",
    "locID": "LOC000146060789",
    "tech": "WIRELESS",
    "upgrade": "NULL_NA",
    "gnaf_pid": "GASA_425303678",
    "tech_change_status": "Not Planned",
    "program_type": "Fixed Wireless and Satellite Upgrade Program",
    "target_eligibility_quarter": "NA"
   }
  },
  {
   "type": "Feature",
   "geometry": {
    "type": "Point",
    "coordinates": [
     138.65593707,
     -33.99133401
    ]
   },
   "properties": {
    "name": "7020 HORROCKS HIGHWAY LEASINGHAM 5452",
    "locID": "LOC000149573136",
    "tech": "WIRELESS",
    "upgrade": "NULL_NA",
    "gnaf_pid": "GASA_425303680",
    "tech_change_status": "Not Planned",
    "program_type": "Fixed Wireless and Satellite Upgrade Program",
    "target_eligibility_quarter": "NA"
   }
  },
  {
   "type": "Feature",
   "geometry": {
    "type": "Point",
    "coordinates": [
     138.65592924,
     -33.99127274
    ]
   },
   "properties": {
    "name": "7022 HORROCKS HIGHWAY LEASINGHAM 5452",
    "locID": "LOC000131404843",
    "tech": "WIRELESS",
    "upgrade": "NULL_NA",
    "gnaf_pid": "GASA_425303681",
    "tech_change_status": "Not Planned",
    "program_type": "Fixed Wireless and Satellite Upgrade Program",
    "target_eligibility_quarter": "NA"
   }
  },
  {
   "type": "Feature",
   "geometry": {
    "type": "Point",
    "coordinates": [
     138.65558214,
     -33.9895339
    ]
   },
   "properties": {
    "name": "7040 HORROCKS HIGHWAY LEASINGHAM 5452",
    "locID": "LOC100078646256",
    "tech": "WIRELESS",
    "upgrade": "NULL_NA",
    "gnaf_pid": "GASA_425303682",
    "tech_change_status": "Not Planned",
    "program_type": "Fixed Wireless and Satellite Upgrade Program",
    "target_eligibility_quarter": "NA"
   }
  },
  {
   "type": "Feature",
   "geometry": {
    "type": "Point",
    "coordinates": [
     138.65238471,
     -33.98560569
    ]
   },
   "properties": {
    "name": "7093 HORROCKS HIGHWAY LEASINGHAM 5452",
    "locID": "LOC000131404739",
    "tech": "WIRELESS",
    "upgrade": "NULL_NA",
    "gnaf_pid": "GASA_425303684",
    "tech_change_status": "Not Planned",
    "program_type": "Fixed Wireless and Satellite Upgrade Program",
    "target_eligibility_quarter": "NA"
   }
  },
  {
   "type": "Feature",
   "geometry": {
    "type": "Point",
    "coordinates": [
     138.65163119,
     -33.9841091
    ]
   },
   "properties": {
    "name": "7112 HORROCKS HIGHWAY LEASINGHAM 5452",
    "locID": "LOC000131404827",
    "tech": "WIRELESS",
    "upgrade": "NULL_NA",
    "gnaf_pid": "GASA_425303685",
    "tech_change_status": "Not Planned",
    "program_type": "Fixed Wireless and Satellite Upgrade Program",
    "target_eligibility_quarter": "NA"
   }
  },
  {
   "type": "Feature",
   "geometry": {
    "type": "Point",
    "coordinates": [
     138.65139525,
     -33.98362574
    ]
   },
   "properties": {
    "name": "7117 HORROCKS HIGHWAY LEASINGHAM 5452",
    "locID": "LOC100078857865",
    "tech": "WIRELESS",
    "upgrade": "NULL_NA",
    "gnaf_pid": "GASA_425303686",
    "tech_change_status": "Not Planned",
    "program_type": "Fixed Wireless and Satellite Upgrade Program",
    "target_eligibility_quarter": "NA"
   }
  },
  {
   "type": "Feature",
   "geometry": {
    "type": "Point",
    "coordinates": [
     138.65132665,
     -33.98339691
    ]
   },
   "properties": {
    "name": "7119 HORROCKS HIGHWAY LEASINGHAM 5452",
    "locID": "LOC100078091004",
    "tech": "WIRELESS",
    "upgrade": "NULL_NA",
    "gnaf_pid": "GASA_425303687",
    "tech_change_status": "Not Planned",
    "program_type": "Fixed Wireless and Satellite Upgrade Program",
    "target_eligibility_quarter": "NA"
   }
  },
  {
   "type": "Feature",
   "geometry": {
    "type": "Point",
    "coordinates": [
     138.65072297,
     -33.98128061
    ]
   },
   "properties": {
    "name": "7145 HORROCKS HIGHWAY LEASINGHAM 5452",
    "locID": "LOC000131409662",
    "tech": "WIRELESS",
    "upgrade": "NULL_NA",
    "gnaf_pid": "GASA_425303689",
    "tech_change_status": "Not Planned",
    "program_type": "Fixed Wireless and Satellite Upgrade Program",
    "target_eligibility_quarter": "NA"
   }
  },
  {
   "type": "Feature",
   "geometry": {
    "type": "Point",
    "coordinates": [
     138.65070967,
     -33.98076141
    ]
   },
   "properties": {
    "name": "7150 HORROCKS HIGHWAY LEASINGHAM 5452",
    "locID": "LOC000131359274",
    "tech": "WIRELESS",
    "upgrade": "NULL_NA",
    "gnaf_pid": "GASA_425303690",
    "tech_change_status": "Not Planned",
    "program_type": "Fixed Wireless and Satellite Upgrade Program",
    "target_eligibility_quarter": "NA"
   }
  },
  {
   "type": "Feature",
   "geometry": {
    "type": "Point",
    "coordinates": [
     138.65478692,
     -33.98158272
    ]
   },
   "properties": {
    "name": "1033 MINTARO ROAD LEASINGHAM 5452",
    "locID": "LOC100085545011",
    "tech": "WIRELESS",
    "upgrade": "NULL_NA",
    "gnaf_pid": "GASA_425304331",
    "tech_change_status": "Not Planned",
    "program_type": "Fixed Wireless and Satellite Upgrade Program",
    "target_eligibility_quarter": "NA"
   }
  },
  {
   "type": "Feature",
   "geometry": {
    "type": "Point",
    "coordinates": [
     138.66509742,
     -33.97867374
    ]
   },
   "properties": {
    "name": "923B MINTARO ROAD LEASINGHAM 5452",
    "locID": "LOC000110219467",
    "tech": "WIRELESS",
    "upgrade": "NULL_NA",
    "gnaf_pid": "GASA_425304333",
    "tech_change_status": "Not Planned",
    "program_type": "Fixed Wireless and Satellite Upgrade Program",
    "target_eligibility_quarter": "NA"
   }
  },
  {
   "type": "Feature",
   "geometry": {
    "type": "Point",
    "coordinates": [
     138.6642957,
     -33.97940334
    ]
   },
   "properties": {
    "name": "935 MINTARO ROAD LEASINGHAM 5452",
    "locID": "LOC000145641554",
    "tech": "WIRELESS",
    "upgrade": "NULL_NA",
    "gnaf_pid": "GASA_425304334",
    "tech_change_status": "Not Planned",
    "program_type": "Fixed Wireless and Satellite Upgrade Program",
    "target_eligibility_quarter": "NA"
   }
  },
  {
   "type": "Feature",
   "geometry": {
    "type": "Point",
    "coordinates": [
     138.66114573,
     -33.98137218
    ]
   },
   "properties": {
    "name": "973 MINTARO ROAD LEASINGHAM 5452",
    "locID": "LOC000108694193",
    "tech": "WIRELESS",
    "upgrade": "NULL_NA",
    "gnaf_pid": "GASA_425304336",
    "tech_change_status": "Not Planned",
    "program_type": "Fixed Wireless and Satellite Upgrade Program",
    "target_eligibility_quarter": "NA"
   }
  },
  {
   "type": "Feature",
   "geometry": {
    "type": "Point",
    "coordinates": [
     138.6589666,
     -33.98112189
    ]
   },
   "properties": {
    "name": "995 MINTARO ROAD LEASINGHAM 5452",
    "locID": "LOC000108770499",
    "tech": "WIRELESS",
    "upgrade": "NULL_NA",
    "gnaf_pid": "GASA_425304337",
    "tech_change_status": "Not Planned",
    "program_type": "Fixed Wireless and Satellite Upgrade Program",
    "target_eligibility_quarter": "NA"
   }
  },
  {
   "type": "Feature",
   "geometry": {
    "type": "Point",
    "coordinates": [
     138.64894268,
     -33.98042612
    ]
   },
   "properties": {
    "name": "25 NORMAN STREET LEASINGHAM 5452",
    "locID": "LOC000166976201",
    "tech": "WIRELESS",
    "upgrade": "NULL_NA",
    "gnaf_pid": "GASA_425304614",
    "tech_change_status": "Not Planned",
    "program_type": "Fixed Wireless and Satellite Upgrade Program",
    "target_eligibility_quarter": "NA"
   }
  },
  {
   "type": "Feature",
   "geometry": {
    "type": "Point",
    "coordinates": [
     138.64885682,
     -33.97992354
    ]
   },
   "properties": {
    "name": "14 NORTH TERRACE LEASINGHAM 5452",
    "locID": "LOC000109981565",
    "tech": "WIRELESS",
    "upgrade": "NULL_NA",
    "gnaf_pid": "GASA_425304637",
    "tech_change_status": "Not Planned",
    "program_type": "Fixed Wireless and Satellite Upgrade Program",
    "target_eligibility_quarter": "NA"
   }
  },
  {
   "type": "Feature",
   "geometry": {
    "type": "Point",
    "coordinates": [
     138.64784786,
     -33.98022579
    ]
   },
   "properties": {
    "name": "23 NORTH TERRACE LEASINGHAM 5452",
    "locID": "LOC000007504986",
    "tech": "WIRELESS",
    "upgrade": "NULL_NA",
    "gnaf_pid": "GASA_425304638",
    "tech_change_status": "Not Planned",
    "program_type": "Fixed Wireless and Satellite Upgrade Program",
    "target_eligibility_quarter": "NA"
   }
  },
  {
   "type": "Feature",
   "geometry": {
    "type": "Point",
    "coordinates": [
     138.64580662,
     -33.98053825
    ]
   },
   "properties": {
    "name": "43 NORTH TERRACE LEASINGHAM 5452",
    "locID": "LOC000108114798",
    "tech": "WIRELESS",
    "upgrade": "NULL_NA",
    "gnaf_pid": "GASA_425304639",
    "tech_change_status": "Not Planned",
    "program_type": "Fixed Wireless and Satellite Upgrade Program",
    "target_eligibility_quarter": "NA"
   }
  },
  {
   "type": "Feature",
   "geometry": {
    "type": "Point",
    "coordinates": [
     138.64964805,
     -33.97985262
    ]
   },
   "properties": {
    "name": "7 NORTH TERRACE LEASINGHAM 5452",
    "locID": "LOC000146585130",
    "tech": "WIRELESS",
    "upgrade": "NULL_NA",
    "gnaf_pid": "GASA_425304640",
    "tech_change_status": "Not Planned",
    "program_type": "Fixed Wireless and Satellite Upgrade Program",
    "target_eligibility_quarter": "NA"
   }
  },
  {
   "type": "Feature",
   "geometry": {
    "type": "Point",
    "coordinates": [
     138.64905019,
     -33.97453248
    ]
   },
   "properties": {
    "name": "58 OLD ROAD LEASINGHAM 5452",
    "locID": "LOC000145391139",
    "tech": "WIRELESS",
    "upgrade": "NULL_NA",
    "gnaf_pid": "GASA_425304678",
    "tech_change_status": "Not Planned",
    "program_type": "Fixed Wireless and Satellite Upgrade Program",
    "target_eligibility_quarter": "NA"
   }
  },
  {
   "type": "Feature",
   "geometry": {
    "type": "Point",
    "coordinates": [
     138.64942377,
     -33.98256428
    ]
   },
   "properties": {
    "name": "16 WAKEFIELD ROAD LEASINGHAM 5452",
    "locID": "LOC000108231516",
    "tech": "WIRELESS",
    "upgrade": "NULL_NA",
    "gnaf_pid": "GASA_425306028",
    "tech_change_status": "Not Planned",
    "program_type": "Fixed Wireless and Satellite Upgrade Program",
    "target_eligibility_quarter": "NA"
   }
  },
  {
   "type": "Feature",
   "geometry": {
    "type": "Point",
    "coordinates": [
     138.63746321,
     -33.99016328
    ]
   },
   "properties": {
    "name": "170 WAKEFIELD ROAD LEASINGHAM 5452",
    "locID": "LOC000148517060",
    "tech": "WIRELESS",
    "upgrade": "NULL_NA",
    "gnaf_pid": "GASA_425306029",
    "tech_change_status": "Not Planned",
    "program_type": "Fixed Wireless and Satellite Upgrade Program",
    "target_eligibility_quarter": "NA"
   }
  },
  {
   "type": "Feature",
   "geometry": {
    "type": "Point",
    "coordinates": [
     138.64687856,
     -33.98396901
    ]
   },
   "properties": {
    "name": "44 WAKEFIELD ROAD LEASINGHAM 5452",
    "locID": "LOC000150770345",
    "tech": "WIRELESS",
    "upgrade": "NULL_NA",
    "gnaf_pid": "GASA_425306031",
    "tech_change_status": "Not Planned",
    "program_type": "Fixed Wireless and Satellite Upgrade Program",
    "target_eligibility_quarter": "NA"
   }
  },
  {
   "type": "Feature",
   "geometry": {
    "type": "Point",
    "coordinates": [
     138.64531901,
     -33.98501012
    ]
   },
   "properties": {
    "name": "63 WAKEFIELD ROAD LEASINGHAM 5452",
    "locID": "LOC000150770350",
    "tech": "WIRELESS",
    "upgrade": "NULL_NA",
    "gnaf_pid": "GASA_425306032",
    "tech_change_status": "Not Planned",
    "program_type": "Fixed Wireless and Satellite Upgrade Program",
    "target_eligibility_quarter": "NA"
   }
  },
  {
   "type": "Feature",
   "geometry": {
    "type": "Point",
    "coordinates": [
     138.64371007,
     -33.98589723
    ]
   },
   "properties": {
    "name": "83 WAKEFIELD ROAD LEASINGHAM 5452",
    "locID": "LOC000145742414",
    "tech": "WIRELESS",
    "upgrade": "NULL_NA",
    "gnaf_pid": "GASA_425306033",
    "tech_change_status": "Not Planned",
    "program_type": "Fixed Wireless and Satellite Upgrade Program",
    "target_eligibility_quarter": "NA"
   }
  },
  {
   "type": "Feature",
   "geometry": {
    "type": "Point",
    "coordinates": [
     138.650257,
     -33.982352
    ]
   },
   "properties": {
    "name": "8 WAKEFIELD ROAD LEASINGHAM 5452",
    "locID": "LOC000131363976",
    "tech": "WIRELESS",
    "upgrade": "NULL_NA",
    "gnaf_pid": "GASA_425306034",
    "tech_change_status": "Not Planned",
    "program_type": "Fixed Wireless and Satellite Upgrade Program",
    "target_eligibility_quarter": "NA"
   }
  },
  {
   "type": "Feature",
   "geometry": {
    "type": "Point",
    "coordinates": [
     138.64582756,
     -33.98573277
    ]
   },
   "properties": {
    "name": "57 WEST TERRACE LEASINGHAM 5452",
    "locID": "LOC000161097181",
    "tech": "WIRELESS",
    "upgrade": "NULL_NA",
    "gnaf_pid": "GASA_425306195",
    "tech_change_status": "Not Planned",
    "program_type": "Fixed Wireless and Satellite Upgrade Program",
    "target_eligibility_quarter": "NA"
   }
  },
  {
   "type": "Feature",
   "geometry": {
    "type": "Point",
    "coordinates": [
     138.64925915,
     -33.98135165
    ]
   },
   "properties": {
    "name": "14 NORMAN STREET LEASINGHAM 5452",
    "locID": "LOC000152260422",
    "tech": "WIRELESS",
    "upgrade": "NULL_NA",
    "gnaf_pid": "GASA_425355855",
    "tech_change_status": "Not Planned",
    "program_type": "Fixed Wireless and Satellite Upgrade Program",
    "target_eligibility_quarter": "NA"
   }
  },
  {
   "type": "Feature",
   "geometry": {
    "type": "Point",
    "coordinates": [
     138.64916218,
     -33.98090291
    ]
   },
   "properties": {
    "name": "20 NORMAN STREET LEASINGHAM 5452",
    "locID": "LOC000147435735",
    "tech": "WIRELESS",
    "upgrade": "NULL_NA",
    "gnaf_pid": "GASA_425355856",
    "tech_change_status": "Not Planned",
    "program_type": "Fixed Wireless and Satellite Upgrade Program",
    "target_eligibility_quarter": "NA"
   }
  },
  {
   "type": "Feature",
   "geometry": {
    "type": "Point",
    "coordinates": [
     138.64913765,
     -33.98080583
    ]
   },
   "properties": {
    "name": "22 NORMAN STREET LEASINGHAM 5452",
    "locID": "LOC000154700577",
    "tech": "WIRELESS",
    "upgrade": "NULL_NA",
    "gnaf_pid": "GASA_425355857",
    "tech_change_status": "Not Planned",
    "program_type": "Fixed Wireless and Satellite Upgrade Program",
    "target_eligibility_quarter": "NA"
   }
  },
  {
   "type": "Feature",
   "geometry": {
    "type": "Point",
    "coordinates": [
     138.669901,
     -33.979174
    ]
   },
   "properties": {
    "name": "18 SMITH ROAD LEASINGHAM 5452",
    "locID": "LOC000145456857",
    "tech": "WIRELESS",
    "upgrade": "NULL_NA",
    "gnaf_pid": "GASA_425357077",
    "tech_change_status": "Not Planned",
    "program_type": "Fixed Wireless and Satellite Upgrade Program",
    "target_eligibility_quarter": "NA"
   }
  },
  {
   "type": "Feature",
   "geometry": {
    "type": "Point",
    "coordinates": [
     138.66882216,
     -33.97829807
    ]
   },
   "properties": {
    "name": "4 SMITH ROAD LEASINGHAM 5452",
    "locID": "LOC000150771691",
    "tech": "WIRELESS",
    "upgrade": "NULL_NA",
    "gnaf_pid": "GASA_425357078",
    "tech_change_status": "Not Planned",
    "program_type": "Fixed Wireless and Satellite Upgrade Program",
    "target_eligibility_quarter": "NA"
   }
  },
  {
   "type": "Feature",
   "geometry": {
    "type": "Point",
    "coordinates": [
     138.67194391,
     -33.98187644
    ]
   },
   "properties": {
    "name": "54 SMITH ROAD LEASINGHAM 5452",
    "locID": "LOC100078646218",
    "tech": "WIRELESS",
    "upgrade": "NULL_NA",
    "gnaf_pid": "GASA_425357079",
    "tech_change_status": "Not Planned",
    "program_type": "Fixed Wireless and Satellite Upgrade Program",
    "target_eligibility_quarter": "NA"
   }
  },
  {
   "type": "Feature",
   "geometry": {
    "type": "Point",
    "coordinates": [
     138.648865,
     -33.982819
    ]
   },
   "properties": {
    "name": "22 WAKEFIELD ROAD LEASINGHAM 5452",
    "locID": "LOC000145576135",
    "tech": "WIRELESS",
    "upgrade": "NULL_NA",
    "gnaf_pid": "GASA_425357596",
    "tech_change_status": "Not Planned",
    "program_type": "Fixed Wireless and Satellite Upgrade Program",
    "target_eligibility_quarter": "NA"
   }
  },
  {
   "type": "Feature",
   "geometry": {
    "type": "Point",
    "coordinates": [
     138.66432319,
     -33.98038395
    ]
   },
   "properties": {
    "name": "LOT 2 MINTARO ROAD LEASINGHAM 5452",
    "locID": "LOC000187396940",
    "tech": "WIRELESS",
    "upgrade": "NULL_NA",
    "gnaf_pid": "GASA_425396436",
    "tech_change_status": "Not Planned",
    "program_type": "Fixed Wireless and Satellite Upgrade Program",
    "target_eligibility_quarter": "NA"
   }
  },
  {
   "type": "Feature",
   "geometry": {
    "type": "Point",
    "coordinates": [
     138.63334834,
     -33.97769685
    ]
   },
   "properties": {
    "name": "326 UPPER SKILLY ROAD LEASINGHAM 5452",
    "locID": "LOC000150775195",
    "tech": "NULL",
    "upgrade": "NULL_NA",
    "gnaf_pid": "GASA_425454032",
    "tech_change_status": "Not Planned"
   }
  },
  {
   "type": "Feature",
   "geometry": {
    "type": "Point",
    "coordinates": [
     138.65071964,
     -33.9822842
    ]
   },
   "properties": {
    "name": "2 WAKEFIELD ROAD LEASINGHAM 5452",
    "locID": "LOC100078646239",
    "tech": "WIRELESS",
    "upgrade": "NULL_NA",
    "gnaf_pid": "GASA_425504554",
    "tech_change_status": "Not Planned",
    "program_type": "Fixed Wireless and Satellite Upgrade Program",
    "target_eligibility_quarter": "NA"
   }
  },
  {
   "type": "Feature",
   "geometry": {
    "type": "Point",
    "coordinates": [
     138.65001248,
     -33.98252716
    ]
   },
   "properties": {
    "name": "11 WAKEFIELD ROAD LEASINGHAM 5452",
    "locID": "LOC100078857854",
    "tech": "WIRELESS",
    "upgrade": "NULL_NA",
    "gnaf_pid": "GASA_425725591",
    "tech_change_status": "Not Planned",
    "program_type": "Fixed Wireless and Satellite Upgrade Program",
    "target_eligibility_quarter": "NA"
   }
  },
  {
   "type": "Feature",
   "geometry": {
    "type": "Point",
    "coordinates": [
     138.65031795,
     -33.98246514
    ]
   },
   "properties": {
    "name": "7 WAKEFIELD ROAD LEASINGHAM 5452",
    "locID": "LOC100078857849",
    "tech": "WIRELESS",
    "upgrade": "NULL_NA",
    "gnaf_pid": "GASA_425725592",
    "tech_change_status": "Not Planned",
    "program_type": "Fixed Wireless and Satellite Upgrade Program",
    "target_eligibility_quarter": "NA"
   }
  },
  {
   "type": "Feature",
   "geometry": {
    "type": "Point",
    "coordinates": [
     138.650716,
     -33.98110463
    ]
   },
   "properties": {
    "name": "7147 HORROCKS HIGHWAY LEASINGHAM 5452",
    "locID": "LOC000167030353",
    "tech": "WIRELESS",
    "upgrade": "NULL_NA",
    "gnaf_pid": "GASA_719395264",
    "tech_change_status": "Not Planned",
    "program_type": "Fixed Wireless and Satellite Upgrade Program",
    "target_eligibility_quarter": "NA"
   }
  },
  {
   "type": "Feature",
   "geometry": {
    "type": "Point",
    "coordinates": [
     138.652896,
     -33.9819
    ]
   },
   "properties": {
    "name": "1052 MINTARO ROAD LEASINGHAM 5452",
    "locID": "LOC000187396940",
    "tech": "WIRELESS",
    "upgrade": "NULL_NA",
    "gnaf_pid": "GASA_720089826",
    "tech_change_status": "Not Planned",
    "program_type": "Fixed Wireless and Satellite Upgrade Program",
    "target_eligibility_quarter": "NA"
   }
  },
  {
   "type": "Feature",
   "geometry": {
    "type": "Point",
    "coordinates": [
     138.6437989,
     -33.98907895
    ]
   },
   "properties": {
    "name": "LOT 99 WAKEFIELD ROAD LEASINGHAM 5452",
    "locID": "LOC000145742414",
    "tech": "WIRELESS",
    "upgrade": "NULL_NA",
    "gnaf_pid": "GASA_720188483",
    "tech_change_status": "Not Planned",
    "program_type": "Fixed Wireless and Satellite Upgrade Program",
    "target_eligibility_quarter": "NA"
   }
  },
  {
   "type": "Feature",
   "geometry": {
    "type": "Point",
    "coordinates": [
     138.65986878,
     -33.99365179
    ]
   },
   "properties": {
    "name": "LOT 100 HORROCKS HIGHWAY LEASINGHAM 5452",
    "locID": "LOC000131400616",
    "tech": "WIRELESS",
    "upgrade": "NULL_NA",
    "gnaf_pid": "GASA_720188609",
    "tech_change_status": "Not Planned",
    "program_type": "Fixed Wireless and Satellite Upgrade Program",
    "target_eligibility_quarter": "NA"
   }
  },
  {
   "type": "Feature",
   "geometry": {
    "type": "Point",
    "coordinates": [
     138.650578,
     -33.98061
    ]
   },
   "properties": {
    "name": "7151 HORROCKS HIGHWAY LEASINGHAM 5452",
    "locID": "LOC100075361571",
    "tech": "WIRELESS",
    "upgrade": "NULL_NA",
    "gnaf_pid": "GASA_720235344",
    "tech_change_status": "Not Planned",
    "program_type": "Fixed Wireless and Satellite Upgrade Program",
    "target_eligibility_quarter": "NA"
   }
  },
  {
   "type": "Feature",
   "geometry": {
    "type": "Point",
    "coordinates": [
     138.649348,
     -33.981891
    ]
   },
   "properties": {
    "name": "9 NORMAN STREET LEASINGHAM 5452",
    "locID": "LOC100084941616",
    "tech": "WIRELESS",
    "upgrade": "NULL_NA",
    "gnaf_pid": "GASA_721112110",
    "tech_change_status": "Not Planned",
    "program_type": "Fixed Wireless and Satellite Upgrade Program",
    "target_eligibility_quarter": "NA"
   }
  },
  {
   "type": "Feature",
   "geometry": {
    "type": "Point",
    "coordinates": [
     138.649215,
     -33.981365
    ]
   },
   "properties": {
    "name": "15 NORMAN STREET LEASINGHAM 5452",
    "locID": "LOC100087538719",
    "tech": "WIRELESS",
    "upgrade": "NULL_NA",
    "gnaf_pid": "GASA_721112404",
    "tech_change_status": "Not Planned",
    "program_type": "Fixed Wireless and Satellite Upgrade Program",
    "target_eligibility_quarter": "NA"
   }
  },
  {
   "type": "Feature",
   "geometry": {
    "type": "Point",
    "coordinates": [
     138.647775,
     -33.981608
    ]
   },
   "properties": {
    "name": "22 HIGH STREET LEASINGHAM 5452",
    "locID": "LOC100087704946",
    "tech": "WIRELESS",
    "upgrade": "NULL_NA",
    "gnaf_pid": "GASA_721467366",
    "tech_change_status": "Not Planned",
    "program_type": "Fixed Wireless and Satellite Upgrade Program",
    "target_eligibility_quarter": "NA"
   }
  }
 ]
}