{
 "type": "FeatureCollection",
 "generated": "2025-03-08T12:03:55.291210",
 "suburb": "MERIBAH",
 "features": [
  {
   "type": "Feature",
   "geometry": {
    "type": "Point",
    "coordinates": [
     140.85363232,
     -34.70450027
    ]
   },
   "properties": {
    "name": "LOT 14 RAILWAY TERRACE MERIBAH 5311",
    "locID": "LOC000108957317",
    "tech": "SATELLITE",
    "upgrade": "NULL_NA",
    "gnaf_pid": "GASA_424203843",
    "tech_change_status": "Not Planned"
   }
  },
  {
   "type": "Feature",
   "geometry": {
    "type": "Point",
    "coordinates": [
     140.85242543,
     -34.70488608
    ]
   },
   "properties": {
    "name": "LOT 8 RAILWAY TERRACE MERIBAH 5311",
    "locID": "LOC100078112679",
    "tech": "NULL",
    "upgrade": "NULL_NA",
    "gnaf_pid": "GASA_424203852",
    "tech_change_status": "Not Planned"
   }
  },
  {
   "type": "Feature",
   "geometry": {
    "type": "Point",
    "coordinates": [
     140.85513855,
     -34.70318845
    ]
   },
   "properties": {
    "name": "LOT 21 RAILWAY TERRACE MERIBAH 5311",
    "locID": "LOC000113222861",
    "tech": "NULL",
    "upgrade": "NULL_NA",
    "gnaf_pid": "GASA_424327877",
    "tech_change_status": "Not Planned"
   }
  },
  {
   "type": "Feature",
   "geometry": {
    "type": "Point",
    "coordinates": [
     140.82808976,
     -34.76926569
    ]
   },
   "properties": {
    "name": "LOT 49 SUEZ CANAL ROAD MERIBAH 5311",
    "locID": "LOC000109120552",
    "tech": "NULL",
    "upgrade": "NULL_NA",
    "gnaf_pid": "GASA_424334817",
    "tech_change_status": "Not Planned"
   }
  },
  {
   "type": "Feature",
   "geometry": {
    "type": "Point",
    "coordinates": [
     140.84866389,
     -34.70500726
    ]
   },
   "properties": {
    "name": "LOT 132 RAILWAY TERRACE MERIBAH 5311",
    "locID": "LOC100078112698",
    "tech": "SATELLITE",
    "upgrade": "NULL_NA",
    "gnaf_pid": "GASA_424401342",
    "tech_change_status": "Not Planned"
   }
  },
  {
   "type": "Feature",
   "geometry": {
    "type": "Point",
    "coordinates": [
     140.85263171,
     -34.70105448
    ]
   },
   "properties": {
    "name": "LOT 133 RAILWAY TERRACE MERIBAH 5311",
    "locID": "LOC100078112698",
    "tech": "SATELLITE",
    "upgrade": "NULL_NA",
    "gnaf_pid": "GASA_424401343",
    "tech_change_status": "Not Planned"
   }
  },
  {
   "type": "Feature",
   "geometry": {
    "type": "Point",
    "coordinates": [
     140.86063399,
     -34.76065059
    ]
   },
   "properties": {
    "name": "LOT 48 SUEZ CANAL ROAD MERIBAH 5311",
    "locID": "LOC000109120552",
    "tech": "NULL",
    "upgrade": "NULL_NA",
    "gnaf_pid": "GASA_424405652",
    "tech_change_status": "Not Planned"
   }
  },
  {
   "type": "Feature",
   "geometry": {
    "type": "Point",
    "coordinates": [
     140.81802538,
     -34.73108657
    ]
   },
   "properties": {
    "name": "LOT 51 SUEZ CANAL ROAD MERIBAH 5311",
    "locID": "LOC000109120552",
    "tech": "NULL",
    "upgrade": "NULL_NA",
    "gnaf_pid": "GASA_424405653",
    "tech_change_status": "Not Planned"
   }
  },
  {
   "type": "Feature",
   "geometry": {
    "type": "Point",
    "coordinates": [
     140.79823114,
     -34.73145841
    ]
   },
   "properties": {
    "name": "LOT 52 SUEZ CANAL ROAD MERIBAH 5311",
    "locID": "LOC000109120552",
    "tech": "NULL",
    "upgrade": "NULL_NA",
    "gnaf_pid": "GASA_424405654",
    "tech_change_status": "Not Planned"
   }
  },
  {
   "type": "Feature",
   "geometry": {
    "type": "Point",
    "coordinates": [
     140.8424772,
     -34.6984161
    ]
   },
   "properties": {
    "name": "1285 BIGGINS ROAD MERIBAH 5311",
    "locID": "LOC000113654053",
    "tech": "NULL",
    "upgrade": "NULL_NA",
    "gnaf_pid": "GASA_424517505",
    "tech_change_status": "Not Planned"
   }
  },
  {
   "type": "Feature",
   "geometry": {
    "type": "Point",
    "coordinates": [
     140.84882893,
     -34.70339458
    ]
   },
   "properties": {
    "name": "1365 BIGGINS ROAD MERIBAH 5311",
    "locID": "LOC000010294796",
    "tech": "SATELLITE",
    "upgrade": "NULL_NA",
    "gnaf_pid": "GASA_424517506",
    "tech_change_status": "Not Planned"
   }
  },
  {
   "type": "Feature",
   "geometry": {
    "type": "Point",
    "coordinates": [
     140.8937359,
     -34.74938687
    ]
   },
   "properties": {
    "name": "201 FLAVEL ROAD MERIBAH 5311",
    "locID": "LOC000104766097",
    "tech": "NULL",
    "upgrade": "NULL_NA",
    "gnaf_pid": "GASA_424519952",
    "tech_change_status": "Not Planned"
   }
  },
  {
   "type": "Feature",
   "geometry": {
    "type": "Point",
    "coordinates": [
     140.92306839,
     -34.74844025
    ]
   },
   "properties": {
    "name": "472 FLAVEL ROAD MERIBAH 5311",
    "locID": "LOC000005413391",
    "tech": "NULL",
    "upgrade": "NULL_NA",
    "gnaf_pid": "GASA_424519953",
    "tech_change_status": "Not Planned"
   }
  },
  {
   "type": "Feature",
   "geometry": {
    "type": "Point",
    "coordinates": [
     140.8156108,
     -34.68308642
    ]
   },
   "properties": {
    "name": "4 GALLES HILL ROAD MERIBAH 5311",
    "locID": "LOC000111451655",
    "tech": "NULL",
    "upgrade": "NULL_NA",
    "gnaf_pid": "GASA_424520175",
    "tech_change_status": "Not Planned"
   }
  },
  {
   "type": "Feature",
   "geometry": {
    "type": "Point",
    "coordinates": [
     140.89031007,
     -34.80421591
    ]
   },
   "properties": {
    "name": "1208 MOONAH BORE ROAD MERIBAH 5311",
    "locID": "LOC000113399483",
    "tech": "NULL",
    "upgrade": "NULL_NA",
    "gnaf_pid": "GASA_424522703",
    "tech_change_status": "Not Planned"
   }
  },
  {
   "type": "Feature",
   "geometry": {
    "type": "Point",
    "coordinates": [
     140.89105347,
     -34.81158197
    ]
   },
   "properties": {
    "name": "1293 MOONAH BORE ROAD MERIBAH 5311",
    "locID": "LOC000111488252",
    "tech": "NULL",
    "upgrade": "NULL_NA",
    "gnaf_pid": "GASA_424522704",
    "tech_change_status": "Not Planned"
   }
  },
  {
   "type": "Feature",
   "geometry": {
    "type": "Point",
    "coordinates": [
     140.85493736,
     -34.72456264
    ]
   },
   "properties": {
    "name": "221 MOONAH BORE ROAD MERIBAH 5311",
    "locID": "LOC000111470631",
    "tech": "NULL",
    "upgrade": "NULL_NA",
    "gnaf_pid": "GASA_424522705",
    "tech_change_status": "Not Planned"
   }
  },
  {
   "type": "Feature",
   "geometry": {
    "type": "Point",
    "coordinates": [
     140.85830986,
     -34.7275649
    ]
   },
   "properties": {
    "name": "266 MOONAH BORE ROAD MERIBAH 5311",
    "locID": "LOC000113542378",
    "tech": "NULL",
    "upgrade": "NULL_NA",
    "gnaf_pid": "GASA_424522706",
    "tech_change_status": "Not Planned"
   }
  },
  {
   "type": "Feature",
   "geometry": {
    "type": "Point",
    "coordinates": [
     140.86341529,
     -34.73359845
    ]
   },
   "properties": {
    "name": "349 MOONAH BORE ROAD MERIBAH 5311",
    "locID": "LOC000113942633",
    "tech": "NULL",
    "upgrade": "NULL_NA",
    "gnaf_pid": "GASA_424522707",
    "tech_change_status": "Not Planned"
   }
  },
  {
   "type": "Feature",
   "geometry": {
    "type": "Point",
    "coordinates": [
     140.87972311,
     -34.76077597
    ]
   },
   "properties": {
    "name": "703 MOONAH BORE ROAD MERIBAH 5311",
    "locID": "LOC000110877522",
    "tech": "SATELLITE",
    "upgrade": "NULL_NA",
    "gnaf_pid": "GASA_424522708",
    "tech_change_status": "Not Planned"
   }
  },
  {
   "type": "Feature",
   "geometry": {
    "type": "Point",
    "coordinates": [
     140.88451112,
     -34.7807028
    ]
   },
   "properties": {
    "name": "942 MOONAH BORE ROAD MERIBAH 5311",
    "locID": "LOC000110877624",
    "tech": "SATELLITE",
    "upgrade": "NULL_NA",
    "gnaf_pid": "GASA_424522709",
    "tech_change_status": "Not Planned"
   }
  },
  {
   "type": "Feature",
   "geometry": {
    "type": "Point",
    "coordinates": [
     140.91489979,
     -34.79382797
    ]
   },
   "properties": {
    "name": "267 ORTLOFF ROAD MERIBAH 5311",
    "locID": "LOC000109912262",
    "tech": "NULL",
    "upgrade": "NULL_NA",
    "gnaf_pid": "GASA_424523617",
    "tech_change_status": "Not Planned"
   }
  },
  {
   "type": "Feature",
   "geometry": {
    "type": "Point",
    "coordinates": [
     140.85291747,
     -34.70478714
    ]
   },
   "properties": {
    "name": "21 RAILWAY TERRACE MERIBAH 5311",
    "locID": "LOC000113222861",
    "tech": "NULL",
    "upgrade": "NULL_NA",
    "gnaf_pid": "GASA_424524324",
    "tech_change_status": "Not Planned"
   }
  },
  {
   "type": "Feature",
   "geometry": {
    "type": "Point",
    "coordinates": [
     140.85369203,
     -34.70430138
    ]
   },
   "properties": {
    "name": "31 RAILWAY TERRACE MERIBAH 5311",
    "locID": "LOC000109381440",
    "tech": "NULL",
    "upgrade": "NULL_NA",
    "gnaf_pid": "GASA_424524325",
    "tech_change_status": "Not Planned"
   }
  },
  {
   "type": "Feature",
   "geometry": {
    "type": "Point",
    "coordinates": [
     140.85155639,
     -34.70561933
    ]
   },
   "properties": {
    "name": "5 RAILWAY TERRACE MERIBAH 5311",
    "locID": "LOC000024220928",
    "tech": "SATELLITE",
    "upgrade": "NULL_NA",
    "gnaf_pid": "GASA_424524326",
    "tech_change_status": "Not Planned"
   }
  },
  {
   "type": "Feature",
   "geometry": {
    "type": "Point",
    "coordinates": [
     140.84231589,
     -34.7494826
    ]
   },
   "properties": {
    "name": "793 SUEZ CANAL ROAD MERIBAH 5311",
    "locID": "LOC000109120552",
    "tech": "NULL",
    "upgrade": "NULL_NA",
    "gnaf_pid": "GASA_424525714",
    "tech_change_status": "Not Planned"
   }
  },
  {
   "type": "Feature",
   "geometry": {
    "type": "Point",
    "coordinates": [
     140.87175503,
     -34.66543112
    ]
   },
   "properties": {
    "name": "367 VINEY ROAD MERIBAH 5311",
    "locID": "LOC000111110787",
    "tech": "NULL",
    "upgrade": "NULL_NA",
    "gnaf_pid": "GASA_424526246",
    "tech_change_status": "Not Planned"
   }
  },
  {
   "type": "Feature",
   "geometry": {
    "type": "Point",
    "coordinates": [
     140.86969745,
     -34.66854828
    ]
   },
   "properties": {
    "name": "408 VINEY ROAD MERIBAH 5311",
    "locID": "LOC000112758925",
    "tech": "NULL",
    "upgrade": "NULL_NA",
    "gnaf_pid": "GASA_424526247",
    "tech_change_status": "Not Planned"
   }
  },
  {
   "type": "Feature",
   "geometry": {
    "type": "Point",
    "coordinates": [
     140.89779093,
     -34.70355666
    ]
   },
   "properties": {
    "name": "360 YOUNGS ROAD MERIBAH 5311",
    "locID": "LOC000020058271",
    "tech": "NULL",
    "upgrade": "NULL_NA",
    "gnaf_pid": "GASA_424526848",
    "tech_change_status": "Not Planned"
   }
  },
  {
   "type": "Feature",
   "geometry": {
    "type": "Point",
    "coordinates": [
     140.89525657,
     -34.76048249
    ]
   },
   "properties": {
    "name": "LOT 2 MOONAH BORE ROAD MERIBAH 5311",
    "locID": "LOC000113942633",
    "tech": "NULL",
    "upgrade": "NULL_NA",
    "gnaf_pid": "GASA_424563301",
    "tech_change_status": "Not Planned"
   }
  },
  {
   "type": "Feature",
   "geometry": {
    "type": "Point",
    "coordinates": [
     140.84623006,
     -34.7063107
    ]
   },
   "properties": {
    "name": "LOT 87 BIGGINS ROAD MERIBAH 5311",
    "locID": "LOC000113654053",
    "tech": "NULL",
    "upgrade": "NULL_NA",
    "gnaf_pid": "GASA_425719062",
    "tech_change_status": "Not Planned"
   }
  },
  {
   "type": "Feature",
   "geometry": {
    "type": "Point",
    "coordinates": [
     140.85742853,
     -34.70213993
    ]
   },
   "properties": {
    "name": "14 MILL ROAD MERIBAH 5311",
    "locID": "LOC000131125931",
    "tech": "SATELLITE",
    "upgrade": "NULL_NA",
    "gnaf_pid": "GASA_425722668",
    "tech_change_status": "Not Planned"
   }
  },
  {
   "type": "Feature",
   "geometry": {
    "type": "Point",
    "coordinates": [
     140.95422634,
     -34.69098748
    ]
   },
   "properties": {
    "name": "LOT 17 YOUNGS ROAD MERIBAH 5311",
    "locID": "LOC100072076963",
    "tech": "NULL",
    "upgrade": "NULL_NA",
    "gnaf_pid": "GASA_719963791",
    "tech_change_status": "Not Planned"
   }
  },
  {
   "type": "Feature",
   "geometry": {
    "type": "Point",
    "coordinates": [
     140.860308,
     -34.70595999
    ]
   },
   "properties": {
    "name": "LOT 77 VINEY ROAD MERIBAH 5311",
    "locID": "LOC000112758925",
    "tech": "NULL",
    "upgrade": "NULL_NA",
    "gnaf_pid": "GASA_719963853",
    "tech_change_status": "Not Planned"
   }
  },
  {
   "type": "Feature",
   "geometry": {
    "type": "Point",
    "coordinates": [
     140.857394,
     -34.70795842
    ]
   },
   "properties": {
    "name": "LOT 103 MOONAH BORE ROAD MERIBAH 5311",
    "locID": "LOC000113942633",
    "tech": "NULL",
    "upgrade": "NULL_NA",
    "gnaf_pid": "GASA_719964340",
    "tech_change_status": "Not Planned"
   }
  },
  {
   "type": "Feature",
   "geometry": {
    "type": "Point",
    "coordinates": [
     140.86078461,
     -34.70154054
    ]
   },
   "properties": {
    "name": "LOT 79 VINEY ROAD MERIBAH 5311",
    "locID": "LOC000112758925",
    "tech": "NULL",
    "upgrade": "NULL_NA",
    "gnaf_pid": "GASA_719964612",
    "tech_change_status": "Not Planned"
   }
  },
  {
   "type": "Feature",
   "geometry": {
    "type": "Point",
    "coordinates": [
     140.89337683,
     -34.68734887
    ]
   },
   "properties": {
    "name": "LOT 100 YOUNGS ROAD MERIBAH 5311",
    "locID": "LOC100072076959",
    "tech": "NULL",
    "upgrade": "NULL_NA",
    "gnaf_pid": "GASA_719965275",
    "tech_change_status": "Not Planned"
   }
  },
  {
   "type": "Feature",
   "geometry": {
    "type": "Point",
    "coordinates": [
     140.8539828,
     -34.70737547
    ]
   },
   "properties": {
    "name": "LOT 131 VINEY ROAD MERIBAH 5311",
    "locID": "LOC000112758925",
    "tech": "NULL",
    "upgrade": "NULL_NA",
    "gnaf_pid": "GASA_719965331",
    "tech_change_status": "Not Planned"
   }
  },
  {
   "type": "Feature",
   "geometry": {
    "type": "Point",
    "coordinates": [
     140.80259281,
     -34.66477988
    ]
   },
   "properties": {
    "name": "LOT 127 GALLES HILL ROAD MERIBAH 5311",
    "locID": "LOC000111451655",
    "tech": "NULL",
    "upgrade": "NULL_NA",
    "gnaf_pid": "GASA_719965666",
    "tech_change_status": "Not Planned"
   }
  },
  {
   "type": "Feature",
   "geometry": {
    "type": "Point",
    "coordinates": [
     140.85882361,
     -34.70434023
    ]
   },
   "properties": {
    "name": "LOT 117 VINEY ROAD MERIBAH 5311",
    "locID": "LOC000112758925",
    "tech": "NULL",
    "upgrade": "NULL_NA",
    "gnaf_pid": "GASA_719965971",
    "tech_change_status": "Not Planned"
   }
  },
  {
   "type": "Feature",
   "geometry": {
    "type": "Point",
    "coordinates": [
     140.85596623,
     -34.70527911
    ]
   },
   "properties": {
    "name": "LOT 95 VINEY ROAD MERIBAH 5311",
    "locID": "LOC000112758925",
    "tech": "NULL",
    "upgrade": "NULL_NA",
    "gnaf_pid": "GASA_719966074",
    "tech_change_status": "Not Planned"
   }
  },
  {
   "type": "Feature",
   "geometry": {
    "type": "Point",
    "coordinates": [
     140.93645726,
     -34.80839506
    ]
   },
   "properties": {
    "name": "LOT 38 ORTLOFF ROAD MERIBAH 5311",
    "locID": "LOC000109912262",
    "tech": "NULL",
    "upgrade": "NULL_NA",
    "gnaf_pid": "GASA_719966149",
    "tech_change_status": "Not Planned"
   }
  },
  {
   "type": "Feature",
   "geometry": {
    "type": "Point",
    "coordinates": [
     140.95034122,
     -34.78156726
    ]
   },
   "properties": {
    "name": "LOT 33 ORTLOFF ROAD MERIBAH 5311",
    "locID": "LOC100072005552",
    "tech": "NULL",
    "upgrade": "NULL_NA",
    "gnaf_pid": "GASA_719966522",
    "tech_change_status": "Not Planned"
   }
  },
  {
   "type": "Feature",
   "geometry": {
    "type": "Point",
    "coordinates": [
     140.85511597,
     -34.70615422
    ]
   },
   "properties": {
    "name": "LOT 92 VINEY ROAD MERIBAH 5311",
    "locID": "LOC000112758925",
    "tech": "NULL",
    "upgrade": "NULL_NA",
    "gnaf_pid": "GASA_719966731",
    "tech_change_status": "Not Planned"
   }
  },
  {
   "type": "Feature",
   "geometry": {
    "type": "Point",
    "coordinates": [
     140.853362,
     -34.704653
    ]
   },
   "properties": {
    "name": "25 RAILWAY TERRACE MERIBAH 5311",
    "locID": "LOC100078112698",
    "tech": "SATELLITE",
    "upgrade": "NULL_NA",
    "gnaf_pid": "GASA_720415038",
    "tech_change_status": "Not Planned"
   }
  }
 ]
}