{
 "type": "FeatureCollection",
 "generated": "2025-01-21T10:21:47.602399",
 "suburb": "MOUNT DRUMMOND",
 "features": [
  {
   "type": "Feature",
   "geometry": {
    "type": "Point",
    "coordinates": [
     135.33593886,
     -34.23048482
    ]
   },
   "properties": {
    "name": "LOT 50 COAST ROAD MOUNT DRUMMOND 5607",
    "locID": "LOC000114293949",
    "tech": "NULL",
    "upgrade": "NULL_NA",
    "gnaf_pid": "GASA_423681169",
    "tech_change_status": "Not Planned"
   }
  },
  {
   "type": "Feature",
   "geometry": {
    "type": "Point",
    "coordinates": [
     135.45516313,
     -34.19483246
    ]
   },
   "properties": {
    "name": "LOT 2 MOUNT DRUMMOND ROAD MOUNT DRUMMOND 5607",
    "locID": "LOC000114608033",
    "tech": "NULL",
    "upgrade": "NULL_NA",
    "gnaf_pid": "GASA_424193719",
    "tech_change_status": "Not Planned"
   }
  },
  {
   "type": "Feature",
   "geometry": {
    "type": "Point",
    "coordinates": [
     135.37680806,
     -34.29201662
    ]
   },
   "properties": {
    "name": "LOT 57 FLINDERS HIGHWAY MOUNT DRUMMOND 5607",
    "locID": "LOC000114686939",
    "tech": "SATELLITE",
    "upgrade": "NULL_NA",
    "gnaf_pid": "GASA_424301375",
    "tech_change_status": "Not Planned"
   }
  },
  {
   "type": "Feature",
   "geometry": {
    "type": "Point",
    "coordinates": [
     135.35619425,
     -34.31221057
    ]
   },
   "properties": {
    "name": "LOT 54 MOUNT DRUMMOND ROAD MOUNT DRUMMOND 5607",
    "locID": "LOC000114608033",
    "tech": "NULL",
    "upgrade": "NULL_NA",
    "gnaf_pid": "GASA_424319608",
    "tech_change_status": "Not Planned"
   }
  },
  {
   "type": "Feature",
   "geometry": {
    "type": "Point",
    "coordinates": [
     135.48400013,
     -34.25418335
    ]
   },
   "properties": {
    "name": "LOT 97 MOUNT DRUMMOND ROAD MOUNT DRUMMOND 5607",
    "locID": "LOC000114608033",
    "tech": "NULL",
    "upgrade": "NULL_NA",
    "gnaf_pid": "GASA_424319609",
    "tech_change_status": "Not Planned"
   }
  },
  {
   "type": "Feature",
   "geometry": {
    "type": "Point",
    "coordinates": [
     135.44690702,
     -34.26984793
    ]
   },
   "properties": {
    "name": "LOT 81 FLINDERS HIGHWAY MOUNT DRUMMOND 5607",
    "locID": "LOC000114686939",
    "tech": "SATELLITE",
    "upgrade": "NULL_NA",
    "gnaf_pid": "GASA_424560447",
    "tech_change_status": "Not Planned"
   }
  },
  {
   "type": "Feature",
   "geometry": {
    "type": "Point",
    "coordinates": [
     135.40673211,
     -34.2118077
    ]
   },
   "properties": {
    "name": "8014 FLINDERS HIGHWAY MOUNT DRUMMOND 5607",
    "locID": "LOC000114298728",
    "tech": "NULL",
    "upgrade": "NULL_NA",
    "gnaf_pid": "GASA_424738796",
    "tech_change_status": "Not Planned"
   }
  },
  {
   "type": "Feature",
   "geometry": {
    "type": "Point",
    "coordinates": [
     135.43997812,
     -34.22691051
    ]
   },
   "properties": {
    "name": "1848 MOUNT DRUMMOND ROAD MOUNT DRUMMOND 5607",
    "locID": "LOC000114976106",
    "tech": "NULL",
    "upgrade": "NULL_NA",
    "gnaf_pid": "GASA_424739702",
    "tech_change_status": "Not Planned"
   }
  },
  {
   "type": "Feature",
   "geometry": {
    "type": "Point",
    "coordinates": [
     135.38973381,
     -34.21825108
    ]
   },
   "properties": {
    "name": "2329 MOUNT DRUMMOND ROAD MOUNT DRUMMOND 5607",
    "locID": "LOC000114608033",
    "tech": "NULL",
    "upgrade": "NULL_NA",
    "gnaf_pid": "GASA_424739703",
    "tech_change_status": "Not Planned"
   }
  },
  {
   "type": "Feature",
   "geometry": {
    "type": "Point",
    "coordinates": [
     135.40649828,
     -34.21165413
    ]
   },
   "properties": {
    "name": "8017 FLINDERS HIGHWAY MOUNT DRUMMOND 5607",
    "locID": "LOC000114686939",
    "tech": "SATELLITE",
    "upgrade": "NULL_NA",
    "gnaf_pid": "GASA_424811343",
    "tech_change_status": "Not Planned"
   }
  },
  {
   "type": "Feature",
   "geometry": {
    "type": "Point",
    "coordinates": [
     135.47927258,
     -34.19199557
    ]
   },
   "properties": {
    "name": "534 GREEN ROAD MOUNT DRUMMOND 5607",
    "locID": "LOC000114715695",
    "tech": "NULL",
    "upgrade": "NULL_NA",
    "gnaf_pid": "GASA_424811628",
    "tech_change_status": "Not Planned"
   }
  },
  {
   "type": "Feature",
   "geometry": {
    "type": "Point",
    "coordinates": [
     135.42869854,
     -34.17241253
    ]
   },
   "properties": {
    "name": "368 GRUBBED ROAD MOUNT DRUMMOND 5607",
    "locID": "LOC000114470582",
    "tech": "NULL",
    "upgrade": "NULL_NA",
    "gnaf_pid": "GASA_424811642",
    "tech_change_status": "Not Planned"
   }
  },
  {
   "type": "Feature",
   "geometry": {
    "type": "Point",
    "coordinates": [
     135.39676908,
     -34.30658199
    ]
   },
   "properties": {
    "name": "398 KAPUNTA LANE MOUNT DRUMMOND 5607",
    "locID": "LOC000113324927",
    "tech": "SATELLITE",
    "upgrade": "NULL_NA",
    "gnaf_pid": "GASA_424812350",
    "tech_change_status": "Not Planned"
   }
  },
  {
   "type": "Feature",
   "geometry": {
    "type": "Point",
    "coordinates": [
     135.422887,
     -34.221961
    ]
   },
   "properties": {
    "name": "2015 MOUNT DRUMMOND ROAD MOUNT DRUMMOND 5607",
    "locID": "LOC000114987305",
    "tech": "NULL",
    "upgrade": "NULL_NA",
    "gnaf_pid": "GASA_424813290",
    "tech_change_status": "Not Planned"
   }
  },
  {
   "type": "Feature",
   "geometry": {
    "type": "Point",
    "coordinates": [
     135.36415317,
     -34.21494217
    ]
   },
   "properties": {
    "name": "2567 MOUNT DRUMMOND ROAD MOUNT DRUMMOND 5607",
    "locID": "LOC000115123649",
    "tech": "SATELLITE",
    "upgrade": "NULL_NA",
    "gnaf_pid": "GASA_424813291",
    "tech_change_status": "Not Planned"
   }
  },
  {
   "type": "Feature",
   "geometry": {
    "type": "Point",
    "coordinates": [
     135.40916554,
     -34.23265431
    ]
   },
   "properties": {
    "name": "LOT 1 FLINDERS HIGHWAY MOUNT DRUMMOND 5607",
    "locID": "LOC000114686939",
    "tech": "SATELLITE",
    "upgrade": "NULL_NA",
    "gnaf_pid": "GASA_425845324",
    "tech_change_status": "Not Planned"
   }
  },
  {
   "type": "Feature",
   "geometry": {
    "type": "Point",
    "coordinates": [
     135.41072513,
     -34.24993576
    ]
   },
   "properties": {
    "name": "LOT 2 FLINDERS HIGHWAY MOUNT DRUMMOND 5607",
    "locID": "LOC000114686939",
    "tech": "SATELLITE",
    "upgrade": "NULL_NA",
    "gnaf_pid": "GASA_719183343",
    "tech_change_status": "Not Planned"
   }
  },
  {
   "type": "Feature",
   "geometry": {
    "type": "Point",
    "coordinates": [
     135.32956479,
     -34.23010542
    ]
   },
   "properties": {
    "name": "LOT 51 COAST ROAD MOUNT DRUMMOND 5607",
    "locID": "LOC000114293949",
    "tech": "NULL",
    "upgrade": "NULL_NA",
    "gnaf_pid": "GASA_719863402",
    "tech_change_status": "Not Planned"
   }
  },
  {
   "type": "Feature",
   "geometry": {
    "type": "Point",
    "coordinates": [
     135.4529444,
     -34.24589413
    ]
   },
   "properties": {
    "name": "LOT 5 MOUNT DRUMMOND ROAD MOUNT DRUMMOND 5607",
    "locID": "LOC000114608033",
    "tech": "NULL",
    "upgrade": "NULL_NA",
    "gnaf_pid": "GASA_721277430",
    "tech_change_status": "Not Planned"
   }
  }
 ]
}