{
 "type": "FeatureCollection",
 "generated": "2026-04-30T21:18:00.230814",
 "suburb": "MOUNT FALKLAND",
 "features": [
  {
   "type": "Feature",
   "geometry": {
    "type": "Point",
    "coordinates": [
     138.52946002,
     -31.16498875
    ]
   },
   "properties": {
    "name": "LOT 11 PARACHILNA GORGE ROAD MOUNT FALKLAND 5730",
    "locID": "LOC000150237825",
    "tech": "NULL",
    "upgrade": "NULL_NA",
    "gnaf_pid": "GASA_425393479",
    "tech_change_status": "Not Planned"
   }
  },
  {
   "type": "Feature",
   "geometry": {
    "type": "Point",
    "coordinates": [
     138.51092438,
     -31.17019258
    ]
   },
   "properties": {
    "name": "LOT 15 PARACHILNA GORGE ROAD MOUNT FALKLAND 5730",
    "locID": "LOC000150237825",
    "tech": "NULL",
    "upgrade": "NULL_NA",
    "gnaf_pid": "GASA_425393481",
    "tech_change_status": "Not Planned"
   }
  },
  {
   "type": "Feature",
   "geometry": {
    "type": "Point",
    "coordinates": [
     138.46346461,
     -31.11202952
    ]
   },
   "properties": {
    "name": "LOT 18 PARACHILNA GORGE ROAD MOUNT FALKLAND 5730",
    "locID": "LOC000150237825",
    "tech": "NULL",
    "upgrade": "NULL_NA",
    "gnaf_pid": "GASA_425393482",
    "tech_change_status": "Not Planned"
   }
  },
  {
   "type": "Feature",
   "geometry": {
    "type": "Point",
    "coordinates": [
     138.4874807,
     -31.1308203
    ]
   },
   "properties": {
    "name": "LOT 23 PARACHILNA GORGE ROAD MOUNT FALKLAND 5730",
    "locID": "LOC000150237825",
    "tech": "NULL",
    "upgrade": "NULL_NA",
    "gnaf_pid": "GASA_425393483",
    "tech_change_status": "Not Planned"
   }
  },
  {
   "type": "Feature",
   "geometry": {
    "type": "Point",
    "coordinates": [
     138.48704233,
     -31.13287839
    ]
   },
   "properties": {
    "name": "LOT 91 PARACHILNA GORGE ROAD MOUNT FALKLAND 5730",
    "locID": "LOC000150237825",
    "tech": "NULL",
    "upgrade": "NULL_NA",
    "gnaf_pid": "GASA_425393484",
    "tech_change_status": "Not Planned"
   }
  },
  {
   "type": "Feature",
   "geometry": {
    "type": "Point",
    "coordinates": [
     138.52870118,
     -31.16518329
    ]
   },
   "properties": {
    "name": "LOT 95 PARACHILNA GORGE ROAD MOUNT FALKLAND 5730",
    "locID": "LOC000150237825",
    "tech": "NULL",
    "upgrade": "NULL_NA",
    "gnaf_pid": "GASA_425393485",
    "tech_change_status": "Not Planned"
   }
  },
  {
   "type": "Feature",
   "geometry": {
    "type": "Point",
    "coordinates": [
     138.4852292,
     -31.12908682
    ]
   },
   "properties": {
    "name": "2266 PARACHILNA GORGE ROAD MOUNT FALKLAND 5730",
    "locID": "LOC000150237825",
    "tech": "NULL",
    "upgrade": "NULL_NA",
    "gnaf_pid": "GASA_425629912",
    "tech_change_status": "Not Planned"
   }
  },
  {
   "type": "Feature",
   "geometry": {
    "type": "Point",
    "coordinates": [
     138.485282,
     -31.129113
    ]
   },
   "properties": {
    "name": "2266A PARACHILNA GORGE ROAD MOUNT FALKLAND 5730",
    "locID": "LOC000150237825",
    "tech": "NULL",
    "upgrade": "NULL_NA",
    "gnaf_pid": "GASA_721253633",
    "tech_change_status": "Not Planned"
   }
  }
 ]
}