{
 "type": "FeatureCollection",
 "generated": "2026-05-18T11:56:13.022601",
 "suburb": "MURNINNIE BEACH",
 "features": [
  {
   "type": "Feature",
   "geometry": {
    "type": "Point",
    "coordinates": [
     137.37896426,
     -33.31225124
    ]
   },
   "properties": {
    "name": "LOT 24 LINCOLN HIGHWAY MURNINNIE BEACH 5609",
    "locID": "LOC100034910845",
    "tech": "NULL",
    "upgrade": "NULL_NA",
    "gnaf_pid": "GASA_425392134",
    "tech_change_status": "Not Planned"
   }
  },
  {
   "type": "Feature",
   "geometry": {
    "type": "Point",
    "coordinates": [
     137.37961771,
     -33.31398162
    ]
   },
   "properties": {
    "name": "LOT 25 LINCOLN HIGHWAY MURNINNIE BEACH 5609",
    "locID": "LOC100035230092",
    "tech": "NULL",
    "upgrade": "NULL_NA",
    "gnaf_pid": "GASA_425392135",
    "tech_change_status": "Not Planned"
   }
  },
  {
   "type": "Feature",
   "geometry": {
    "type": "Point",
    "coordinates": [
     137.37963813,
     -33.31367134
    ]
   },
   "properties": {
    "name": "LOT 27 LINCOLN HIGHWAY MURNINNIE BEACH 5609",
    "locID": "LOC100028403776",
    "tech": "NULL",
    "upgrade": "NULL_NA",
    "gnaf_pid": "GASA_425392137",
    "tech_change_status": "Not Planned"
   }
  },
  {
   "type": "Feature",
   "geometry": {
    "type": "Point",
    "coordinates": [
     137.37964942,
     -33.3133937
    ]
   },
   "properties": {
    "name": "LOT 29 LINCOLN HIGHWAY MURNINNIE BEACH 5609",
    "locID": "LOC100071968612",
    "tech": "NULL",
    "upgrade": "NULL_NA",
    "gnaf_pid": "GASA_425392139",
    "tech_change_status": "Not Planned"
   }
  },
  {
   "type": "Feature",
   "geometry": {
    "type": "Point",
    "coordinates": [
     137.3792352,
     -33.31087286
    ]
   },
   "properties": {
    "name": "LOT 2 LINCOLN HIGHWAY MURNINNIE BEACH 5609",
    "locID": "LOC100071968612",
    "tech": "NULL",
    "upgrade": "NULL_NA",
    "gnaf_pid": "GASA_425392140",
    "tech_change_status": "Not Planned"
   }
  },
  {
   "type": "Feature",
   "geometry": {
    "type": "Point",
    "coordinates": [
     137.37967252,
     -33.31326995
    ]
   },
   "properties": {
    "name": "LOT 30 LINCOLN HIGHWAY MURNINNIE BEACH 5609",
    "locID": "LOC000150239113",
    "tech": "NULL",
    "upgrade": "NULL_NA",
    "gnaf_pid": "GASA_425392141",
    "tech_change_status": "Not Planned"
   }
  },
  {
   "type": "Feature",
   "geometry": {
    "type": "Point",
    "coordinates": [
     137.37947722,
     -33.31301661
    ]
   },
   "properties": {
    "name": "LOT 31 LINCOLN HIGHWAY MURNINNIE BEACH 5609",
    "locID": "LOC100035631893",
    "tech": "NULL",
    "upgrade": "NULL_NA",
    "gnaf_pid": "GASA_425392142",
    "tech_change_status": "Not Planned"
   }
  },
  {
   "type": "Feature",
   "geometry": {
    "type": "Point",
    "coordinates": [
     137.37941603,
     -33.31280629
    ]
   },
   "properties": {
    "name": "LOT 32 LINCOLN HIGHWAY MURNINNIE BEACH 5609",
    "locID": "LOC000150239121",
    "tech": "NULL",
    "upgrade": "NULL_NA",
    "gnaf_pid": "GASA_425392143",
    "tech_change_status": "Not Planned"
   }
  },
  {
   "type": "Feature",
   "geometry": {
    "type": "Point",
    "coordinates": [
     137.37935562,
     -33.31264245
    ]
   },
   "properties": {
    "name": "LOT 33 LINCOLN HIGHWAY MURNINNIE BEACH 5609",
    "locID": "LOC100025111905",
    "tech": "NULL",
    "upgrade": "NULL_NA",
    "gnaf_pid": "GASA_425392144",
    "tech_change_status": "Not Planned"
   }
  },
  {
   "type": "Feature",
   "geometry": {
    "type": "Point",
    "coordinates": [
     137.37932534,
     -33.31236223
    ]
   },
   "properties": {
    "name": "LOT 35 LINCOLN HIGHWAY MURNINNIE BEACH 5609",
    "locID": "LOC000150239132",
    "tech": "NULL",
    "upgrade": "NULL_NA",
    "gnaf_pid": "GASA_425392145",
    "tech_change_status": "Not Planned"
   }
  },
  {
   "type": "Feature",
   "geometry": {
    "type": "Point",
    "coordinates": [
     137.3792858,
     -33.31223799
    ]
   },
   "properties": {
    "name": "LOT 36 LINCOLN HIGHWAY MURNINNIE BEACH 5609",
    "locID": "LOC000017056785",
    "tech": "FTTP",
    "upgrade": "NULL_NA",
    "gnaf_pid": "GASA_425392146",
    "program_type": "On-Demand N2P SDU/MDU Simple",
    "target_eligibility_quarter": "NA"
   }
  },
  {
   "type": "Feature",
   "geometry": {
    "type": "Point",
    "coordinates": [
     137.37926862,
     -33.31211261
    ]
   },
   "properties": {
    "name": "LOT 37 LINCOLN HIGHWAY MURNINNIE BEACH 5609",
    "locID": "LOC000155065527",
    "tech": "NULL",
    "upgrade": "NULL_NA",
    "gnaf_pid": "GASA_425392147",
    "tech_change_status": "Not Planned"
   }
  },
  {
   "type": "Feature",
   "geometry": {
    "type": "Point",
    "coordinates": [
     137.37951919,
     -33.31168636
    ]
   },
   "properties": {
    "name": "LOT 38 LINCOLN HIGHWAY MURNINNIE BEACH 5609",
    "locID": "LOC000096613276",
    "tech": "FTTN",
    "upgrade": "FTTP_SA",
    "gnaf_pid": "GASA_425392148",
    "tech_change_status": "Eligible to Order",
    "program_type": "On-Demand N2P SDU/MDU Simple",
    "target_eligibility_quarter": "NA"
   }
  },
  {
   "type": "Feature",
   "geometry": {
    "type": "Point",
    "coordinates": [
     137.37975465,
     -33.31295923
    ]
   },
   "properties": {
    "name": "LOT 39 LINCOLN HIGHWAY MURNINNIE BEACH 5609",
    "locID": "LOC000150239150",
    "tech": "NULL",
    "upgrade": "NULL_NA",
    "gnaf_pid": "GASA_425392149",
    "tech_change_status": "Not Planned"
   }
  },
  {
   "type": "Feature",
   "geometry": {
    "type": "Point",
    "coordinates": [
     137.37978132,
     -33.31242743
    ]
   },
   "properties": {
    "name": "LOT 40 LINCOLN HIGHWAY MURNINNIE BEACH 5609",
    "locID": "LOC000150239166",
    "tech": "NULL",
    "upgrade": "NULL_NA",
    "gnaf_pid": "GASA_425392150",
    "tech_change_status": "Not Planned"
   }
  },
  {
   "type": "Feature",
   "geometry": {
    "type": "Point",
    "coordinates": [
     137.38024631,
     -33.31369919
    ]
   },
   "properties": {
    "name": "LOT 41 LINCOLN HIGHWAY MURNINNIE BEACH 5609",
    "locID": "LOC000150239178",
    "tech": "SATELLITE",
    "upgrade": "NULL_NA",
    "gnaf_pid": "GASA_425392151",
    "tech_change_status": "Not Planned"
   }
  },
  {
   "type": "Feature",
   "geometry": {
    "type": "Point",
    "coordinates": [
     137.38027354,
     -33.31325496
    ]
   },
   "properties": {
    "name": "LOT 42 LINCOLN HIGHWAY MURNINNIE BEACH 5609",
    "locID": "LOC100037797558",
    "tech": "NULL",
    "upgrade": "NULL_NA",
    "gnaf_pid": "GASA_425392152",
    "tech_change_status": "Not Planned"
   }
  },
  {
   "type": "Feature",
   "geometry": {
    "type": "Point",
    "coordinates": [
     137.38027333,
     -33.3131036
    ]
   },
   "properties": {
    "name": "LOT 43 LINCOLN HIGHWAY MURNINNIE BEACH 5609",
    "locID": "LOC000150239184",
    "tech": "NULL",
    "upgrade": "NULL_NA",
    "gnaf_pid": "GASA_425392153",
    "tech_change_status": "Not Planned"
   }
  },
  {
   "type": "Feature",
   "geometry": {
    "type": "Point",
    "coordinates": [
     137.38028219,
     -33.31296039
    ]
   },
   "properties": {
    "name": "LOT 44 LINCOLN HIGHWAY MURNINNIE BEACH 5609",
    "locID": "LOC000186546003",
    "tech": "SATELLITE",
    "upgrade": "NULL_NA",
    "gnaf_pid": "GASA_425392154",
    "tech_change_status": "Not Planned"
   }
  },
  {
   "type": "Feature",
   "geometry": {
    "type": "Point",
    "coordinates": [
     137.38030718,
     -33.31282617
    ]
   },
   "properties": {
    "name": "LOT 45 LINCOLN HIGHWAY MURNINNIE BEACH 5609",
    "locID": "LOC100017207136",
    "tech": "NULL",
    "upgrade": "NULL_NA",
    "gnaf_pid": "GASA_425392155",
    "tech_change_status": "Not Planned"
   }
  },
  {
   "type": "Feature",
   "geometry": {
    "type": "Point",
    "coordinates": [
     137.3800675,
     -33.31255123
    ]
   },
   "properties": {
    "name": "LOT 46 LINCOLN HIGHWAY MURNINNIE BEACH 5609",
    "locID": "LOC000150239197",
    "tech": "NULL",
    "upgrade": "NULL_NA",
    "gnaf_pid": "GASA_425392156",
    "tech_change_status": "Not Planned"
   }
  },
  {
   "type": "Feature",
   "geometry": {
    "type": "Point",
    "coordinates": [
     137.38005527,
     -33.31235968
    ]
   },
   "properties": {
    "name": "LOT 47 LINCOLN HIGHWAY MURNINNIE BEACH 5609",
    "locID": "LOC000150239204",
    "tech": "NULL",
    "upgrade": "NULL_NA",
    "gnaf_pid": "GASA_425392157",
    "tech_change_status": "Not Planned"
   }
  },
  {
   "type": "Feature",
   "geometry": {
    "type": "Point",
    "coordinates": [
     137.38023268,
     -33.31402701
    ]
   },
   "properties": {
    "name": "LOT 58 LINCOLN HIGHWAY MURNINNIE BEACH 5609",
    "locID": "LOC100074060129",
    "tech": "SATELLITE",
    "upgrade": "NULL_NA",
    "gnaf_pid": "GASA_425392159",
    "tech_change_status": "Not Planned"
   }
  },
  {
   "type": "Feature",
   "geometry": {
    "type": "Point",
    "coordinates": [
     137.379226,
     -33.31308758
    ]
   },
   "properties": {
    "name": "LOT 62 LINCOLN HIGHWAY MURNINNIE BEACH 5609",
    "locID": "LOC000151299799",
    "tech": "FTTN",
    "upgrade": "FTTP_NA",
    "gnaf_pid": "GASA_425392162",
    "tech_change_status": "In Design",
    "program_type": "On-Demand N2P SDU/MDU Simple",
    "target_eligibility_quarter": "Dec 2027"
   }
  },
  {
   "type": "Feature",
   "geometry": {
    "type": "Point",
    "coordinates": [
     137.37876336,
     -33.31227742
    ]
   },
   "properties": {
    "name": "LOT 74 LINCOLN HIGHWAY MURNINNIE BEACH 5609",
    "locID": "LOC000006722779",
    "tech": "FTTN",
    "upgrade": "FTTP_NA",
    "gnaf_pid": "GASA_425392165",
    "tech_change_status": "In Design",
    "program_type": "On-Demand N2P SDU/MDU Simple",
    "target_eligibility_quarter": "Dec 2027"
   }
  },
  {
   "type": "Feature",
   "geometry": {
    "type": "Point",
    "coordinates": [
     137.37661549,
     -33.31111188
    ]
   },
   "properties": {
    "name": "LOT 76 LINCOLN HIGHWAY MURNINNIE BEACH 5609",
    "locID": "LOC000056527343",
    "tech": "FTTN",
    "upgrade": "FTTP_NA",
    "gnaf_pid": "GASA_425392166",
    "tech_change_status": "In Design",
    "program_type": "On-Demand N2P SDU/MDU Simple",
    "target_eligibility_quarter": "Dec 2027"
   }
  },
  {
   "type": "Feature",
   "geometry": {
    "type": "Point",
    "coordinates": [
     137.37595693,
     -33.31255474
    ]
   },
   "properties": {
    "name": "LOT 78 LINCOLN HIGHWAY MURNINNIE BEACH 5609",
    "locID": "LOC000054172338",
    "tech": "FTTN",
    "upgrade": "FTTP_SA",
    "gnaf_pid": "GASA_425392168",
    "tech_change_status": "Eligible to Order",
    "program_type": "On-Demand N2P SDU/MDU Simple",
    "target_eligibility_quarter": "NA"
   }
  }
 ]
}