{
 "type": "FeatureCollection",
 "generated": "2024-10-27T05:28:28.570079",
 "suburb": "OULNINA",
 "features": [
  {
   "type": "Feature",
   "geometry": {
    "type": "Point",
    "coordinates": [
     140.05092716,
     -32.51103987
    ]
   },
   "properties": {
    "name": "1152 BENDA ROAD OULNINA 5440",
    "locID": "LOC000150241432",
    "tech": "SATELLITE",
    "upgrade": "NULL_NA",
    "gnaf_pid": "GASA_425628445",
    "tech_change_status": "Not Planned"
   }
  },
  {
   "type": "Feature",
   "geometry": {
    "type": "Point",
    "coordinates": [
     140.47367915,
     -32.43947913
    ]
   },
   "properties": {
    "name": "402 MALDORKY ROAD OULNINA 5440",
    "locID": "LOC000164595596",
    "tech": "SATELLITE",
    "upgrade": "NULL_NA",
    "gnaf_pid": "GASA_425629515",
    "tech_change_status": "Not Planned"
   }
  },
  {
   "type": "Feature",
   "geometry": {
    "type": "Point",
    "coordinates": [
     140.18416767,
     -32.3362873
    ]
   },
   "properties": {
    "name": "LOT 1591 BARRIER HIGHWAY OULNINA 5440",
    "locID": "LOC000131382024",
    "tech": "NULL",
    "upgrade": "NULL_NA",
    "gnaf_pid": "GASA_721277742",
    "tech_change_status": "Not Planned"
   }
  }
 ]
}