{
 "type": "FeatureCollection",
 "generated": "2025-03-08T19:44:08.286467",
 "suburb": "SANDALWOOD",
 "features": [
  {
   "type": "Feature",
   "geometry": {
    "type": "Point",
    "coordinates": [
     140.38084699,
     -34.90750263
    ]
   },
   "properties": {
    "name": "LOT 121 CHARLESON ROAD SANDALWOOD 5309",
    "locID": "LOC000114794679",
    "tech": "SATELLITE",
    "upgrade": "NULL_NA",
    "gnaf_pid": "GASA_423994883",
    "tech_change_status": "Not Planned"
   }
  },
  {
   "type": "Feature",
   "geometry": {
    "type": "Point",
    "coordinates": [
     140.26225247,
     -35.02339556
    ]
   },
   "properties": {
    "name": "LOT 3 JIM JOLLY ROAD SANDALWOOD 5309",
    "locID": "LOC000114589006",
    "tech": "NULL",
    "upgrade": "NULL_NA",
    "gnaf_pid": "GASA_424110501",
    "tech_change_status": "Not Planned"
   }
  },
  {
   "type": "Feature",
   "geometry": {
    "type": "Point",
    "coordinates": [
     140.2919927,
     -35.05033025
    ]
   },
   "properties": {
    "name": "LOT 6 JIM JOLLY ROAD SANDALWOOD 5309",
    "locID": "LOC000114589006",
    "tech": "NULL",
    "upgrade": "NULL_NA",
    "gnaf_pid": "GASA_424182041",
    "tech_change_status": "Not Planned"
   }
  },
  {
   "type": "Feature",
   "geometry": {
    "type": "Point",
    "coordinates": [
     140.12890477,
     -34.94233738
    ]
   },
   "properties": {
    "name": "LOT 8 RAILWAY TERRACE SANDALWOOD 5309",
    "locID": "LOC000028269251",
    "tech": "FTTC",
    "upgrade": "FTTP_SA",
    "gnaf_pid": "GASA_424204058",
    "tech_change_status": "Eligible to Order"
   }
  },
  {
   "type": "Feature",
   "geometry": {
    "type": "Point",
    "coordinates": [
     140.27685048,
     -34.98321616
    ]
   },
   "properties": {
    "name": "LOT 16 JIM JOLLY ROAD SANDALWOOD 5309",
    "locID": "LOC000114589006",
    "tech": "NULL",
    "upgrade": "NULL_NA",
    "gnaf_pid": "GASA_424310057",
    "tech_change_status": "Not Planned"
   }
  },
  {
   "type": "Feature",
   "geometry": {
    "type": "Point",
    "coordinates": [
     140.23706611,
     -34.98877744
    ]
   },
   "properties": {
    "name": "LOT 48 JIM JOLLY ROAD SANDALWOOD 5309",
    "locID": "LOC000114589006",
    "tech": "NULL",
    "upgrade": "NULL_NA",
    "gnaf_pid": "GASA_424310061",
    "tech_change_status": "Not Planned"
   }
  },
  {
   "type": "Feature",
   "geometry": {
    "type": "Point",
    "coordinates": [
     140.23190238,
     -35.01229182
    ]
   },
   "properties": {
    "name": "LOT 57 JIM JOLLY ROAD SANDALWOOD 5309",
    "locID": "LOC000114589006",
    "tech": "NULL",
    "upgrade": "NULL_NA",
    "gnaf_pid": "GASA_424310063",
    "tech_change_status": "Not Planned"
   }
  },
  {
   "type": "Feature",
   "geometry": {
    "type": "Point",
    "coordinates": [
     140.09743178,
     -34.95726607
    ]
   },
   "properties": {
    "name": "LOT 15 KILPALIE ROAD SANDALWOOD 5309",
    "locID": "LOC000114473154",
    "tech": "NULL",
    "upgrade": "NULL_NA",
    "gnaf_pid": "GASA_424311371",
    "tech_change_status": "Not Planned"
   }
  },
  {
   "type": "Feature",
   "geometry": {
    "type": "Point",
    "coordinates": [
     140.14549235,
     -35.0357099
    ]
   },
   "properties": {
    "name": "LOT 134 PILCHERA BORE ROAD SANDALWOOD 5309",
    "locID": "LOC000114322766",
    "tech": "NULL",
    "upgrade": "NULL_NA",
    "gnaf_pid": "GASA_424325139",
    "tech_change_status": "Not Planned"
   }
  },
  {
   "type": "Feature",
   "geometry": {
    "type": "Point",
    "coordinates": [
     140.16888007,
     -34.96460091
    ]
   },
   "properties": {
    "name": "333 BOUGHEN ROAD SANDALWOOD 5309",
    "locID": "LOC000114880705",
    "tech": "SATELLITE",
    "upgrade": "NULL_NA",
    "gnaf_pid": "GASA_424696809",
    "tech_change_status": "Not Planned"
   }
  },
  {
   "type": "Feature",
   "geometry": {
    "type": "Point",
    "coordinates": [
     140.18968336,
     -34.97267767
    ]
   },
   "properties": {
    "name": "544 BOUGHEN ROAD SANDALWOOD 5309",
    "locID": "LOC000114810239",
    "tech": "SATELLITE",
    "upgrade": "NULL_NA",
    "gnaf_pid": "GASA_424696810",
    "tech_change_status": "Not Planned"
   }
  },
  {
   "type": "Feature",
   "geometry": {
    "type": "Point",
    "coordinates": [
     140.19010428,
     -34.97275147
    ]
   },
   "properties": {
    "name": "547 BOUGHEN ROAD SANDALWOOD 5309",
    "locID": "LOC000112882329",
    "tech": "SATELLITE",
    "upgrade": "NULL_NA",
    "gnaf_pid": "GASA_424696811",
    "tech_change_status": "Not Planned"
   }
  },
  {
   "type": "Feature",
   "geometry": {
    "type": "Point",
    "coordinates": [
     140.3427225,
     -34.86999531
    ]
   },
   "properties": {
    "name": "1305 CHARLESON ROAD SANDALWOOD 5309",
    "locID": "LOC000114794679",
    "tech": "SATELLITE",
    "upgrade": "NULL_NA",
    "gnaf_pid": "GASA_424697781",
    "tech_change_status": "Not Planned"
   }
  },
  {
   "type": "Feature",
   "geometry": {
    "type": "Point",
    "coordinates": [
     140.16993067,
     -34.99907368
    ]
   },
   "properties": {
    "name": "280 GOWLING ROAD SANDALWOOD 5309",
    "locID": "LOC000006491252",
    "tech": "NULL",
    "upgrade": "NULL_NA",
    "gnaf_pid": "GASA_424700315",
    "tech_change_status": "Not Planned"
   }
  },
  {
   "type": "Feature",
   "geometry": {
    "type": "Point",
    "coordinates": [
     140.25274273,
     -35.00298945
    ]
   },
   "properties": {
    "name": "1515 JIM JOLLY ROAD SANDALWOOD 5309",
    "locID": "LOC000114463229",
    "tech": "NULL",
    "upgrade": "NULL_NA",
    "gnaf_pid": "GASA_424701570",
    "tech_change_status": "Not Planned"
   }
  },
  {
   "type": "Feature",
   "geometry": {
    "type": "Point",
    "coordinates": [
     140.2528584,
     -34.90581359
    ]
   },
   "properties": {
    "name": "407 JIM JOLLY ROAD SANDALWOOD 5309",
    "locID": "LOC000113140211",
    "tech": "SATELLITE",
    "upgrade": "NULL_NA",
    "gnaf_pid": "GASA_424701572",
    "tech_change_status": "Not Planned"
   }
  },
  {
   "type": "Feature",
   "geometry": {
    "type": "Point",
    "coordinates": [
     140.25294981,
     -34.93995255
    ]
   },
   "properties": {
    "name": "787 JIM JOLLY ROAD SANDALWOOD 5309",
    "locID": "LOC000114589006",
    "tech": "NULL",
    "upgrade": "NULL_NA",
    "gnaf_pid": "GASA_424701573",
    "tech_change_status": "Not Planned"
   }
  },
  {
   "type": "Feature",
   "geometry": {
    "type": "Point",
    "coordinates": [
     140.08294273,
     -34.96037554
    ]
   },
   "properties": {
    "name": "202 KILPALIE ROAD SANDALWOOD 5309",
    "locID": "LOC000114473154",
    "tech": "NULL",
    "upgrade": "NULL_NA",
    "gnaf_pid": "GASA_424702097",
    "tech_change_status": "Not Planned"
   }
  },
  {
   "type": "Feature",
   "geometry": {
    "type": "Point",
    "coordinates": [
     140.11268392,
     -34.9361844
    ]
   },
   "properties": {
    "name": "184 LALIRRA ROAD SANDALWOOD 5309",
    "locID": "LOC000115068968",
    "tech": "NULL",
    "upgrade": "NULL_NA",
    "gnaf_pid": "GASA_424702492",
    "tech_change_status": "Not Planned"
   }
  },
  {
   "type": "Feature",
   "geometry": {
    "type": "Point",
    "coordinates": [
     140.12585137,
     -34.94398859
    ]
   },
   "properties": {
    "name": "33 LALIRRA ROAD SANDALWOOD 5309",
    "locID": "LOC000114480581",
    "tech": "NULL",
    "upgrade": "NULL_NA",
    "gnaf_pid": "GASA_424702494",
    "tech_change_status": "Not Planned"
   }
  },
  {
   "type": "Feature",
   "geometry": {
    "type": "Point",
    "coordinates": [
     140.09729699,
     -34.92944095
    ]
   },
   "properties": {
    "name": "342 LALIRRA ROAD SANDALWOOD 5309",
    "locID": "LOC000114803515",
    "tech": "SATELLITE",
    "upgrade": "NULL_NA",
    "gnaf_pid": "GASA_424702495",
    "tech_change_status": "Not Planned"
   }
  },
  {
   "type": "Feature",
   "geometry": {
    "type": "Point",
    "coordinates": [
     140.07327306,
     -34.92215522
    ]
   },
   "properties": {
    "name": "580 LALIRRA ROAD SANDALWOOD 5309",
    "locID": "LOC000114521696",
    "tech": "SATELLITE",
    "upgrade": "NULL_NA",
    "gnaf_pid": "GASA_424702496",
    "tech_change_status": "Not Planned"
   }
  },
  {
   "type": "Feature",
   "geometry": {
    "type": "Point",
    "coordinates": [
     140.1919652,
     -35.06233818
    ]
   },
   "properties": {
    "name": "1444 LEE ROAD SANDALWOOD 5309",
    "locID": "LOC000112930046",
    "tech": "NULL",
    "upgrade": "NULL_NA",
    "gnaf_pid": "GASA_424702608",
    "tech_change_status": "Not Planned"
   }
  },
  {
   "type": "Feature",
   "geometry": {
    "type": "Point",
    "coordinates": [
     140.28666681,
     -35.09039118
    ]
   },
   "properties": {
    "name": "101 MAYR ROAD SANDALWOOD 5309",
    "locID": "LOC000114443946",
    "tech": "NULL",
    "upgrade": "NULL_NA",
    "gnaf_pid": "GASA_424703824",
    "tech_change_status": "Not Planned"
   }
  },
  {
   "type": "Feature",
   "geometry": {
    "type": "Point",
    "coordinates": [
     140.1172072,
     -35.03473565
    ]
   },
   "properties": {
    "name": "632 PILCHERA BORE ROAD SANDALWOOD 5309",
    "locID": "LOC000112866359",
    "tech": "WIRELESS",
    "upgrade": "NULL_NA",
    "gnaf_pid": "GASA_424706389",
    "tech_change_status": "Not Planned",
    "program_type": "Fixed Wireless and Satellite Upgrade Program",
    "target_eligibility_quarter": "NA"
   }
  },
  {
   "type": "Feature",
   "geometry": {
    "type": "Point",
    "coordinates": [
     140.12590328,
     -35.03675517
    ]
   },
   "properties": {
    "name": "713 PILCHERA BORE ROAD SANDALWOOD 5309",
    "locID": "LOC000114322766",
    "tech": "NULL",
    "upgrade": "NULL_NA",
    "gnaf_pid": "GASA_424706390",
    "tech_change_status": "Not Planned"
   }
  },
  {
   "type": "Feature",
   "geometry": {
    "type": "Point",
    "coordinates": [
     140.13009672,
     -34.94125556
    ]
   },
   "properties": {
    "name": "22 RAILWAY TERRACE SANDALWOOD 5309",
    "locID": "LOC000113300810",
    "tech": "SATELLITE",
    "upgrade": "NULL_NA",
    "gnaf_pid": "GASA_424707138",
    "tech_change_status": "Not Planned"
   }
  },
  {
   "type": "Feature",
   "geometry": {
    "type": "Point",
    "coordinates": [
     140.14630582,
     -35.03593861
    ]
   },
   "properties": {
    "name": "1061 SANDALWOOD ROAD SANDALWOOD 5309",
    "locID": "LOC000114192661",
    "tech": "SATELLITE",
    "upgrade": "NULL_NA",
    "gnaf_pid": "GASA_424707882",
    "tech_change_status": "Not Planned"
   }
  },
  {
   "type": "Feature",
   "geometry": {
    "type": "Point",
    "coordinates": [
     140.14897193,
     -35.05443773
    ]
   },
   "properties": {
    "name": "1274 SANDALWOOD ROAD SANDALWOOD 5309",
    "locID": "LOC000113126967",
    "tech": "NULL",
    "upgrade": "NULL_NA",
    "gnaf_pid": "GASA_424707884",
    "tech_change_status": "Not Planned"
   }
  },
  {
   "type": "Feature",
   "geometry": {
    "type": "Point",
    "coordinates": [
     140.13707813,
     -34.98717258
    ]
   },
   "properties": {
    "name": "493 SANDALWOOD ROAD SANDALWOOD 5309",
    "locID": "LOC000114817506",
    "tech": "SATELLITE",
    "upgrade": "NULL_NA",
    "gnaf_pid": "GASA_424707885",
    "tech_change_status": "Not Planned"
   }
  },
  {
   "type": "Feature",
   "geometry": {
    "type": "Point",
    "coordinates": [
     140.14052954,
     -35.0080099
    ]
   },
   "properties": {
    "name": "731 SANDALWOOD ROAD SANDALWOOD 5309",
    "locID": "LOC000115061700",
    "tech": "NULL",
    "upgrade": "NULL_NA",
    "gnaf_pid": "GASA_424707886",
    "tech_change_status": "Not Planned"
   }
  },
  {
   "type": "Feature",
   "geometry": {
    "type": "Point",
    "coordinates": [
     140.12976295,
     -34.9406619
    ]
   },
   "properties": {
    "name": "7 THOMAS TERRACE SANDALWOOD 5309",
    "locID": "LOC000114229962",
    "tech": "NULL",
    "upgrade": "NULL_NA",
    "gnaf_pid": "GASA_424709609",
    "tech_change_status": "Not Planned"
   }
  },
  {
   "type": "Feature",
   "geometry": {
    "type": "Point",
    "coordinates": [
     140.2991097,
     -35.08746092
    ]
   },
   "properties": {
    "name": "36 TORI HILLS ROAD SANDALWOOD 5309",
    "locID": "LOC000142382576",
    "tech": "SATELLITE",
    "upgrade": "NULL_NA",
    "gnaf_pid": "GASA_424709771",
    "tech_change_status": "Not Planned"
   }
  },
  {
   "type": "Feature",
   "geometry": {
    "type": "Point",
    "coordinates": [
     140.25276531,
     -35.05375199
    ]
   },
   "properties": {
    "name": "770 TORI HILLS ROAD SANDALWOOD 5309",
    "locID": "LOC000114771915",
    "tech": "SATELLITE",
    "upgrade": "NULL_NA",
    "gnaf_pid": "GASA_424709772",
    "tech_change_status": "Not Planned"
   }
  },
  {
   "type": "Feature",
   "geometry": {
    "type": "Point",
    "coordinates": [
     140.23509852,
     -35.05376135
    ]
   },
   "properties": {
    "name": "930 TORI HILLS ROAD SANDALWOOD 5309",
    "locID": "LOC000114429099",
    "tech": "NULL",
    "upgrade": "NULL_NA",
    "gnaf_pid": "GASA_424709773",
    "tech_change_status": "Not Planned"
   }
  },
  {
   "type": "Feature",
   "geometry": {
    "type": "Point",
    "coordinates": [
     140.08921738,
     -35.06985318
    ]
   },
   "properties": {
    "name": "481 WOODS ROAD SANDALWOOD 5309",
    "locID": "LOC000113021937",
    "tech": "NULL",
    "upgrade": "NULL_NA",
    "gnaf_pid": "GASA_424710866",
    "tech_change_status": "Not Planned"
   }
  },
  {
   "type": "Feature",
   "geometry": {
    "type": "Point",
    "coordinates": [
     140.10563957,
     -34.96476166
    ]
   },
   "properties": {
    "name": "8521 KAROONDA HIGHWAY SANDALWOOD 5309",
    "locID": "LOC000114860924",
    "tech": "NULL",
    "upgrade": "NULL_NA",
    "gnaf_pid": "GASA_424739262",
    "tech_change_status": "Not Planned"
   }
  },
  {
   "type": "Feature",
   "geometry": {
    "type": "Point",
    "coordinates": [
     140.1260802,
     -34.94916865
    ]
   },
   "properties": {
    "name": "8263 KAROONDA HIGHWAY SANDALWOOD 5309",
    "locID": "LOC000114309729",
    "tech": "NULL",
    "upgrade": "NULL_NA",
    "gnaf_pid": "GASA_424812388",
    "tech_change_status": "Not Planned"
   }
  },
  {
   "type": "Feature",
   "geometry": {
    "type": "Point",
    "coordinates": [
     140.1347898,
     -34.93822629
    ]
   },
   "properties": {
    "name": "8119 KAROONDA HIGHWAY SANDALWOOD 5309",
    "locID": "LOC000116269228",
    "tech": "NULL",
    "upgrade": "NULL_NA",
    "gnaf_pid": "GASA_424835763",
    "tech_change_status": "Not Planned"
   }
  },
  {
   "type": "Feature",
   "geometry": {
    "type": "Point",
    "coordinates": [
     140.2980662,
     -34.89590509
    ]
   },
   "properties": {
    "name": "605 VONTHETHOFF ROAD SANDALWOOD 5309",
    "locID": "LOC000131109410",
    "tech": "NULL",
    "upgrade": "NULL_NA",
    "gnaf_pid": "GASA_424952446",
    "tech_change_status": "Not Planned"
   }
  },
  {
   "type": "Feature",
   "geometry": {
    "type": "Point",
    "coordinates": [
     140.18704674,
     -35.07331417
    ]
   },
   "properties": {
    "name": "LOT 1 LEE ROAD SANDALWOOD 5309",
    "locID": "LOC000112930046",
    "tech": "NULL",
    "upgrade": "NULL_NA",
    "gnaf_pid": "GASA_425065380",
    "tech_change_status": "Not Planned"
   }
  },
  {
   "type": "Feature",
   "geometry": {
    "type": "Point",
    "coordinates": [
     140.1864431,
     -35.06501492
    ]
   },
   "properties": {
    "name": "LOT 2 LEE ROAD SANDALWOOD 5309",
    "locID": "LOC000112930046",
    "tech": "NULL",
    "upgrade": "NULL_NA",
    "gnaf_pid": "GASA_425065381",
    "tech_change_status": "Not Planned"
   }
  },
  {
   "type": "Feature",
   "geometry": {
    "type": "Point",
    "coordinates": [
     140.12987253,
     -34.94153358
    ]
   },
   "properties": {
    "name": "26 RAILWAY TERRACE SANDALWOOD 5309",
    "locID": "LOC000131109358",
    "tech": "NULL",
    "upgrade": "NULL_NA",
    "gnaf_pid": "GASA_425067896",
    "tech_change_status": "Not Planned"
   }
  },
  {
   "type": "Feature",
   "geometry": {
    "type": "Point",
    "coordinates": [
     140.17365774,
     -35.06252513
    ]
   },
   "properties": {
    "name": "LOT 3 SANDALWOOD ROAD SANDALWOOD 5309",
    "locID": "LOC000114192661",
    "tech": "SATELLITE",
    "upgrade": "NULL_NA",
    "gnaf_pid": "GASA_425068493",
    "tech_change_status": "Not Planned"
   }
  },
  {
   "type": "Feature",
   "geometry": {
    "type": "Point",
    "coordinates": [
     140.17132047,
     -35.07124587
    ]
   },
   "properties": {
    "name": "LOT 4 SANDALWOOD ROAD SANDALWOOD 5309",
    "locID": "LOC000114192661",
    "tech": "SATELLITE",
    "upgrade": "NULL_NA",
    "gnaf_pid": "GASA_425068494",
    "tech_change_status": "Not Planned"
   }
  },
  {
   "type": "Feature",
   "geometry": {
    "type": "Point",
    "coordinates": [
     140.15383234,
     -35.07162004
    ]
   },
   "properties": {
    "name": "LOT 5 SANDALWOOD ROAD SANDALWOOD 5309",
    "locID": "LOC000114192661",
    "tech": "SATELLITE",
    "upgrade": "NULL_NA",
    "gnaf_pid": "GASA_425068495",
    "tech_change_status": "Not Planned"
   }
  },
  {
   "type": "Feature",
   "geometry": {
    "type": "Point",
    "coordinates": [
     140.15840407,
     -35.06220086
    ]
   },
   "properties": {
    "name": "LOT 6 SANDALWOOD ROAD SANDALWOOD 5309",
    "locID": "LOC000114192661",
    "tech": "SATELLITE",
    "upgrade": "NULL_NA",
    "gnaf_pid": "GASA_425068496",
    "tech_change_status": "Not Planned"
   }
  },
  {
   "type": "Feature",
   "geometry": {
    "type": "Point",
    "coordinates": [
     140.26920929,
     -34.88025957
    ]
   },
   "properties": {
    "name": "LOT 1 VONTHETHOFF ROAD SANDALWOOD 5309",
    "locID": "LOC000131109410",
    "tech": "NULL",
    "upgrade": "NULL_NA",
    "gnaf_pid": "GASA_425070150",
    "tech_change_status": "Not Planned"
   }
  },
  {
   "type": "Feature",
   "geometry": {
    "type": "Point",
    "coordinates": [
     140.12870199,
     -34.94127943
    ]
   },
   "properties": {
    "name": "11 ABEL STREET SANDALWOOD 5309",
    "locID": "LOC000148242407",
    "tech": "NULL",
    "upgrade": "NULL_NA",
    "gnaf_pid": "GASA_425185907",
    "tech_change_status": "Not Planned"
   }
  },
  {
   "type": "Feature",
   "geometry": {
    "type": "Point",
    "coordinates": [
     140.13248215,
     -34.94755094
    ]
   },
   "properties": {
    "name": "LOT 108 SANDALWOOD ROAD SANDALWOOD 5309",
    "locID": "LOC000114192661",
    "tech": "SATELLITE",
    "upgrade": "NULL_NA",
    "gnaf_pid": "GASA_425714169",
    "tech_change_status": "Not Planned"
   }
  },
  {
   "type": "Feature",
   "geometry": {
    "type": "Point",
    "coordinates": [
     140.11738803,
     -35.00360438
    ]
   },
   "properties": {
    "name": "LOT 19 SANDALWOOD ROAD SANDALWOOD 5309",
    "locID": "LOC000114192661",
    "tech": "SATELLITE",
    "upgrade": "NULL_NA",
    "gnaf_pid": "GASA_425714170",
    "tech_change_status": "Not Planned"
   }
  },
  {
   "type": "Feature",
   "geometry": {
    "type": "Point",
    "coordinates": [
     140.12563516,
     -34.9589836
    ]
   },
   "properties": {
    "name": "LOT 30 SANDALWOOD ROAD SANDALWOOD 5309",
    "locID": "LOC000114192661",
    "tech": "SATELLITE",
    "upgrade": "NULL_NA",
    "gnaf_pid": "GASA_425714171",
    "tech_change_status": "Not Planned"
   }
  },
  {
   "type": "Feature",
   "geometry": {
    "type": "Point",
    "coordinates": [
     140.08918837,
     -35.0517159
    ]
   },
   "properties": {
    "name": "481 WOOD ROAD SANDALWOOD 5309",
    "locID": "LOC000113021937",
    "tech": "NULL",
    "upgrade": "NULL_NA",
    "gnaf_pid": "GASA_425857130",
    "tech_change_status": "Not Planned"
   }
  },
  {
   "type": "Feature",
   "geometry": {
    "type": "Point",
    "coordinates": [
     140.41725293,
     -34.96064857
    ]
   },
   "properties": {
    "name": "LOT 28 CHARLESON ROAD SANDALWOOD 5309",
    "locID": "LOC000114794679",
    "tech": "SATELLITE",
    "upgrade": "NULL_NA",
    "gnaf_pid": "GASA_720414496",
    "tech_change_status": "Not Planned"
   }
  },
  {
   "type": "Feature",
   "geometry": {
    "type": "Point",
    "coordinates": [
     140.13222424,
     -34.94322235
    ]
   },
   "properties": {
    "name": "LOT 128 KAROONDA HIGHWAY SANDALWOOD 5309",
    "locID": "LOC000114309729",
    "tech": "NULL",
    "upgrade": "NULL_NA",
    "gnaf_pid": "GASA_720414619",
    "tech_change_status": "Not Planned"
   }
  },
  {
   "type": "Feature",
   "geometry": {
    "type": "Point",
    "coordinates": [
     140.11673309,
     -34.95526654
    ]
   },
   "properties": {
    "name": "LOT 122 KAROONDA HIGHWAY SANDALWOOD 5309",
    "locID": "LOC000114309729",
    "tech": "NULL",
    "upgrade": "NULL_NA",
    "gnaf_pid": "GASA_720415166",
    "tech_change_status": "Not Planned"
   }
  },
  {
   "type": "Feature",
   "geometry": {
    "type": "Point",
    "coordinates": [
     140.12903981,
     -34.93635031
    ]
   },
   "properties": {
    "name": "LOT 88 RAILWAY TERRACE SANDALWOOD 5309",
    "locID": "LOC000170814146",
    "tech": "FTTB",
    "upgrade": "NULL_NA",
    "gnaf_pid": "GASA_720415185"
   }
  },
  {
   "type": "Feature",
   "geometry": {
    "type": "Point",
    "coordinates": [
     140.41811226,
     -34.9394999
    ]
   },
   "properties": {
    "name": "LOT 13 CHARLESON ROAD SANDALWOOD 5309",
    "locID": "LOC000114794679",
    "tech": "SATELLITE",
    "upgrade": "NULL_NA",
    "gnaf_pid": "GASA_720415260",
    "tech_change_status": "Not Planned"
   }
  },
  {
   "type": "Feature",
   "geometry": {
    "type": "Point",
    "coordinates": [
     140.12531863,
     -34.934375
    ]
   },
   "properties": {
    "name": "LOT 154 RAILWAY TERRACE SANDALWOOD 5309",
    "locID": "LOC000009670767",
    "tech": "HFC",
    "upgrade": "NULL_NA",
    "gnaf_pid": "GASA_720415843"
   }
  },
  {
   "type": "Feature",
   "geometry": {
    "type": "Point",
    "coordinates": [
     140.41363898,
     -34.90303197
    ]
   },
   "properties": {
    "name": "LOT 202 CHARLESON ROAD SANDALWOOD 5309",
    "locID": "LOC000114794679",
    "tech": "SATELLITE",
    "upgrade": "NULL_NA",
    "gnaf_pid": "GASA_720415923",
    "tech_change_status": "Not Planned"
   }
  },
  {
   "type": "Feature",
   "geometry": {
    "type": "Point",
    "coordinates": [
     140.28701707,
     -34.92414799
    ]
   },
   "properties": {
    "name": "LOT 101 JIM JOLLY ROAD SANDALWOOD 5309",
    "locID": "LOC000114589006",
    "tech": "NULL",
    "upgrade": "NULL_NA",
    "gnaf_pid": "GASA_720416086",
    "tech_change_status": "Not Planned"
   }
  },
  {
   "type": "Feature",
   "geometry": {
    "type": "Point",
    "coordinates": [
     140.092178,
     -35.00095942
    ]
   },
   "properties": {
    "name": "LOT 150 KAROONDA HIGHWAY SANDALWOOD 5309",
    "locID": "LOC000114309729",
    "tech": "NULL",
    "upgrade": "NULL_NA",
    "gnaf_pid": "GASA_720416279",
    "tech_change_status": "Not Planned"
   }
  },
  {
   "type": "Feature",
   "geometry": {
    "type": "Point",
    "coordinates": [
     140.13358844,
     -34.94143117
    ]
   },
   "properties": {
    "name": "LOT 113 KAROONDA HIGHWAY SANDALWOOD 5309",
    "locID": "LOC000114309729",
    "tech": "NULL",
    "upgrade": "NULL_NA",
    "gnaf_pid": "GASA_720417160",
    "tech_change_status": "Not Planned"
   }
  },
  {
   "type": "Feature",
   "geometry": {
    "type": "Point",
    "coordinates": [
     140.13306204,
     -34.93843875
    ]
   },
   "properties": {
    "name": "LOT 114 KAROONDA HIGHWAY SANDALWOOD 5309",
    "locID": "LOC000114309729",
    "tech": "NULL",
    "upgrade": "NULL_NA",
    "gnaf_pid": "GASA_720417458",
    "tech_change_status": "Not Planned"
   }
  }
 ]
}