{
 "type": "FeatureCollection",
 "generated": "2026-07-09T01:24:57.910960",
 "suburb": "SPALDING",
 "features": [
  {
   "type": "Feature",
   "geometry": {
    "type": "Point",
    "coordinates": [
     138.60836926,
     -33.4983112
    ]
   },
   "properties": {
    "name": "20 MAIN STREET SPALDING 5454",
    "locID": "LOC000072743854",
    "tech": "WIRELESS",
    "upgrade": "NULL_NA",
    "gnaf_pid": "GASA_414975749",
    "tech_change_status": "Not Planned",
    "program_type": "Fixed Wireless and Satellite Upgrade Program",
    "target_eligibility_quarter": "NA"
   }
  },
  {
   "type": "Feature",
   "geometry": {
    "type": "Point",
    "coordinates": [
     138.60914788,
     -33.4990562
    ]
   },
   "properties": {
    "name": "2 LORNA STREET SPALDING 5454",
    "locID": "LOC000060626688",
    "tech": "WIRELESS",
    "upgrade": "NULL_NA",
    "gnaf_pid": "GASA_414975753",
    "tech_change_status": "Not Planned",
    "program_type": "Fixed Wireless and Satellite Upgrade Program",
    "target_eligibility_quarter": "NA"
   }
  },
  {
   "type": "Feature",
   "geometry": {
    "type": "Point",
    "coordinates": [
     138.60934901,
     -33.4986651
    ]
   },
   "properties": {
    "name": "6 LORNA STREET SPALDING 5454",
    "locID": "LOC000061842810",
    "tech": "WIRELESS",
    "upgrade": "NULL_NA",
    "gnaf_pid": "GASA_414975755",
    "tech_change_status": "Not Planned",
    "program_type": "Fixed Wireless and Satellite Upgrade Program",
    "target_eligibility_quarter": "NA"
   }
  },
  {
   "type": "Feature",
   "geometry": {
    "type": "Point",
    "coordinates": [
     138.60854851,
     -33.4980053
    ]
   },
   "properties": {
    "name": "22 MAIN STREET SPALDING 5454",
    "locID": "LOC000047796421",
    "tech": "WIRELESS",
    "upgrade": "NULL_NA",
    "gnaf_pid": "GASA_414983933",
    "tech_change_status": "Not Planned",
    "program_type": "Fixed Wireless and Satellite Upgrade Program",
    "target_eligibility_quarter": "NA"
   }
  },
  {
   "type": "Feature",
   "geometry": {
    "type": "Point",
    "coordinates": [
     138.60864913,
     -33.4977686
    ]
   },
   "properties": {
    "name": "24 MAIN STREET SPALDING 5454",
    "locID": "LOC000069584967",
    "tech": "WIRELESS",
    "upgrade": "NULL_NA",
    "gnaf_pid": "GASA_414983934",
    "tech_change_status": "Not Planned",
    "program_type": "Fixed Wireless and Satellite Upgrade Program",
    "target_eligibility_quarter": "NA"
   }
  },
  {
   "type": "Feature",
   "geometry": {
    "type": "Point",
    "coordinates": [
     138.60907476,
     -33.4979236
    ]
   },
   "properties": {
    "name": "9 LORNA STREET SPALDING 5454",
    "locID": "LOC000025793891",
    "tech": "WIRELESS",
    "upgrade": "NULL_NA",
    "gnaf_pid": "GASA_414983935",
    "tech_change_status": "Not Planned",
    "program_type": "Fixed Wireless and Satellite Upgrade Program",
    "target_eligibility_quarter": "NA"
   }
  },
  {
   "type": "Feature",
   "geometry": {
    "type": "Point",
    "coordinates": [
     138.60897301,
     -33.4981602
    ]
   },
   "properties": {
    "name": "7 LORNA STREET SPALDING 5454",
    "locID": "LOC000004242701",
    "tech": "WIRELESS",
    "upgrade": "NULL_NA",
    "gnaf_pid": "GASA_414983936",
    "tech_change_status": "Not Planned",
    "program_type": "Fixed Wireless and Satellite Upgrade Program",
    "target_eligibility_quarter": "NA"
   }
  },
  {
   "type": "Feature",
   "geometry": {
    "type": "Point",
    "coordinates": [
     138.60879788,
     -33.4984668
    ]
   },
   "properties": {
    "name": "5 LORNA STREET SPALDING 5454",
    "locID": "LOC000039622897",
    "tech": "WIRELESS",
    "upgrade": "NULL_NA",
    "gnaf_pid": "GASA_414983937",
    "tech_change_status": "Not Planned",
    "program_type": "Fixed Wireless and Satellite Upgrade Program",
    "target_eligibility_quarter": "NA"
   }
  },
  {
   "type": "Feature",
   "geometry": {
    "type": "Point",
    "coordinates": [
     138.60859388,
     -33.4988573
    ]
   },
   "properties": {
    "name": "1 LORNA STREET SPALDING 5454",
    "locID": "LOC000006787760",
    "tech": "WIRELESS",
    "upgrade": "NULL_NA",
    "gnaf_pid": "GASA_414983939",
    "tech_change_status": "Not Planned",
    "program_type": "Fixed Wireless and Satellite Upgrade Program",
    "target_eligibility_quarter": "NA"
   }
  },
  {
   "type": "Feature",
   "geometry": {
    "type": "Point",
    "coordinates": [
     138.61039883,
     -33.49766085
    ]
   },
   "properties": {
    "name": "2 MARGARET STREET SPALDING 5454",
    "locID": "LOC000045031802",
    "tech": "WIRELESS",
    "upgrade": "NULL_NA",
    "gnaf_pid": "GASA_415005013",
    "tech_change_status": "Not Planned",
    "program_type": "Fixed Wireless and Satellite Upgrade Program",
    "target_eligibility_quarter": "NA"
   }
  },
  {
   "type": "Feature",
   "geometry": {
    "type": "Point",
    "coordinates": [
     138.61076388,
     -33.4969563
    ]
   },
   "properties": {
    "name": "8 MARGARET STREET SPALDING 5454",
    "locID": "LOC000048700763",
    "tech": "WIRELESS",
    "upgrade": "NULL_NA",
    "gnaf_pid": "GASA_415005017",
    "tech_change_status": "Not Planned",
    "program_type": "Fixed Wireless and Satellite Upgrade Program",
    "target_eligibility_quarter": "NA"
   }
  },
  {
   "type": "Feature",
   "geometry": {
    "type": "Point",
    "coordinates": [
     138.61123413,
     -33.4971275
    ]
   },
   "properties": {
    "name": "3 CHURCH STREET SPALDING 5454",
    "locID": "LOC000094475021",
    "tech": "WIRELESS",
    "upgrade": "NULL_NA",
    "gnaf_pid": "GASA_415005018",
    "tech_change_status": "Not Planned",
    "program_type": "Fixed Wireless and Satellite Upgrade Program",
    "target_eligibility_quarter": "NA"
   }
  },
  {
   "type": "Feature",
   "geometry": {
    "type": "Point",
    "coordinates": [
     138.61112938,
     -33.497328
    ]
   },
   "properties": {
    "name": "5 SYDNEY STREET SPALDING 5454",
    "locID": "LOC000039677048",
    "tech": "WIRELESS",
    "upgrade": "NULL_NA",
    "gnaf_pid": "GASA_415005019",
    "tech_change_status": "Not Planned",
    "program_type": "Fixed Wireless and Satellite Upgrade Program",
    "target_eligibility_quarter": "NA"
   }
  },
  {
   "type": "Feature",
   "geometry": {
    "type": "Point",
    "coordinates": [
     138.61102576,
     -33.4975293
    ]
   },
   "properties": {
    "name": "3 SYDNEY STREET SPALDING 5454",
    "locID": "LOC000094750304",
    "tech": "WIRELESS",
    "upgrade": "NULL_NA",
    "gnaf_pid": "GASA_415005020",
    "tech_change_status": "Not Planned",
    "program_type": "Fixed Wireless and Satellite Upgrade Program",
    "target_eligibility_quarter": "NA"
   }
  },
  {
   "type": "Feature",
   "geometry": {
    "type": "Point",
    "coordinates": [
     138.61092076,
     -33.4977313
    ]
   },
   "properties": {
    "name": "1 SYDNEY STREET SPALDING 5454",
    "locID": "LOC000083415099",
    "tech": "NULL",
    "upgrade": "NULL_NA",
    "gnaf_pid": "GASA_415005021",
    "tech_change_status": "Not Planned"
   }
  },
  {
   "type": "Feature",
   "geometry": {
    "type": "Point",
    "coordinates": [
     138.61008788,
     -33.4994176
    ]
   },
   "properties": {
    "name": "4 EDWIN STREET SPALDING 5454",
    "locID": "LOC000087646712",
    "tech": "WIRELESS",
    "upgrade": "NULL_NA",
    "gnaf_pid": "GASA_415005024",
    "tech_change_status": "Not Planned",
    "program_type": "Fixed Wireless and Satellite Upgrade Program",
    "target_eligibility_quarter": "NA"
   }
  },
  {
   "type": "Feature",
   "geometry": {
    "type": "Point",
    "coordinates": [
     138.60998426,
     -33.4996188
    ]
   },
   "properties": {
    "name": "2 EDWIN STREET SPALDING 5454",
    "locID": "LOC000026775487",
    "tech": "WIRELESS",
    "upgrade": "NULL_NA",
    "gnaf_pid": "GASA_415005025",
    "tech_change_status": "Not Planned",
    "program_type": "Fixed Wireless and Satellite Upgrade Program",
    "target_eligibility_quarter": "NA"
   }
  },
  {
   "type": "Feature",
   "geometry": {
    "type": "Point",
    "coordinates": [
     138.60992338,
     -33.4985166
    ]
   },
   "properties": {
    "name": "7 EDWIN STREET SPALDING 5454",
    "locID": "LOC000062571078",
    "tech": "WIRELESS",
    "upgrade": "NULL_NA",
    "gnaf_pid": "GASA_415006436",
    "tech_change_status": "Not Planned",
    "program_type": "Fixed Wireless and Satellite Upgrade Program",
    "target_eligibility_quarter": "NA"
   }
  },
  {
   "type": "Feature",
   "geometry": {
    "type": "Point",
    "coordinates": [
     138.61024388,
     -33.4979655
    ]
   },
   "properties": {
    "name": "4 RODERICK STREET SPALDING 5454",
    "locID": "LOC000057517957",
    "tech": "WIRELESS",
    "upgrade": "NULL_NA",
    "gnaf_pid": "GASA_415006438",
    "tech_change_status": "Not Planned",
    "program_type": "Fixed Wireless and Satellite Upgrade Program",
    "target_eligibility_quarter": "NA"
   }
  },
  {
   "type": "Feature",
   "geometry": {
    "type": "Point",
    "coordinates": [
     138.61004445,
     -33.49828499
    ]
   },
   "properties": {
    "name": "9 EDWIN STREET SPALDING 5454",
    "locID": "LOC000051599689",
    "tech": "SATELLITE",
    "upgrade": "WIRELESS",
    "gnaf_pid": "GASA_415008628",
    "tech_change_status": "Eligible to Order",
    "program_type": "Fixed Wireless and Satellite Upgrade Program",
    "target_eligibility_quarter": "NA"
   }
  },
  {
   "type": "Feature",
   "geometry": {
    "type": "Point",
    "coordinates": [
     138.61372421,
     -33.50169351
    ]
   },
   "properties": {
    "name": "15 RAILWAY TERRACE SPALDING 5454",
    "locID": "LOC000005379397",
    "tech": "WIRELESS",
    "upgrade": "NULL_NA",
    "gnaf_pid": "GASA_415052399",
    "tech_change_status": "Not Planned",
    "program_type": "Fixed Wireless and Satellite Upgrade Program",
    "target_eligibility_quarter": "NA"
   }
  },
  {
   "type": "Feature",
   "geometry": {
    "type": "Point",
    "coordinates": [
     138.60954851,
     -33.5014367
    ]
   },
   "properties": {
    "name": "6 JOHN STREET SPALDING 5454",
    "locID": "LOC000062510561",
    "tech": "WIRELESS",
    "upgrade": "NULL_NA",
    "gnaf_pid": "GASA_415060565",
    "tech_change_status": "Not Planned",
    "program_type": "Fixed Wireless and Satellite Upgrade Program",
    "target_eligibility_quarter": "NA"
   }
  },
  {
   "type": "Feature",
   "geometry": {
    "type": "Point",
    "coordinates": [
     138.60971476,
     -33.501503
    ]
   },
   "properties": {
    "name": "3 MUNDUNEY STREET SPALDING 5454",
    "locID": "LOC000070094904",
    "tech": "WIRELESS",
    "upgrade": "NULL_NA",
    "gnaf_pid": "GASA_415060566",
    "tech_change_status": "Not Planned",
    "program_type": "Fixed Wireless and Satellite Upgrade Program",
    "target_eligibility_quarter": "NA"
   }
  },
  {
   "type": "Feature",
   "geometry": {
    "type": "Point",
    "coordinates": [
     138.60811676,
     -33.5002431
    ]
   },
   "properties": {
    "name": "18 MUNDUNEY STREET SPALDING 5454",
    "locID": "LOC000043486637",
    "tech": "WIRELESS",
    "upgrade": "NULL_NA",
    "gnaf_pid": "GASA_415060571",
    "tech_change_status": "Not Planned",
    "program_type": "Fixed Wireless and Satellite Upgrade Program",
    "target_eligibility_quarter": "NA"
   }
  },
  {
   "type": "Feature",
   "geometry": {
    "type": "Point",
    "coordinates": [
     138.60992981,
     -33.49625976
    ]
   },
   "properties": {
    "name": "2 CHURCH STREET SPALDING 5454",
    "locID": "LOC000011228765",
    "tech": "WIRELESS",
    "upgrade": "NULL_NA",
    "gnaf_pid": "GASA_415061511",
    "tech_change_status": "Not Planned",
    "program_type": "Fixed Wireless and Satellite Upgrade Program",
    "target_eligibility_quarter": "NA"
   }
  },
  {
   "type": "Feature",
   "geometry": {
    "type": "Point",
    "coordinates": [
     138.61256399,
     -33.50321277
    ]
   },
   "properties": {
    "name": "1 DAVIES TERRACE SPALDING 5454",
    "locID": "LOC000087073593",
    "tech": "NULL",
    "upgrade": "NULL_NA",
    "gnaf_pid": "GASA_415066707",
    "tech_change_status": "Not Planned"
   }
  },
  {
   "type": "Feature",
   "geometry": {
    "type": "Point",
    "coordinates": [
     138.6096529,
     -33.49596156
    ]
   },
   "properties": {
    "name": "34 MAIN STREET SPALDING 5454",
    "locID": "LOC000025878834",
    "tech": "WIRELESS",
    "upgrade": "NULL_NA",
    "gnaf_pid": "GASA_415068086",
    "tech_change_status": "Not Planned",
    "program_type": "Fixed Wireless and Satellite Upgrade Program",
    "target_eligibility_quarter": "NA"
   }
  },
  {
   "type": "Feature",
   "geometry": {
    "type": "Point",
    "coordinates": [
     138.60949788,
     -33.4962746
    ]
   },
   "properties": {
    "name": "30 MAIN STREET SPALDING 5454",
    "locID": "LOC000031676824",
    "tech": "WIRELESS",
    "upgrade": "NULL_NA",
    "gnaf_pid": "GASA_415068087",
    "tech_change_status": "Not Planned",
    "program_type": "Fixed Wireless and Satellite Upgrade Program",
    "target_eligibility_quarter": "NA"
   }
  },
  {
   "type": "Feature",
   "geometry": {
    "type": "Point",
    "coordinates": [
     138.60845401,
     -33.5003772
    ]
   },
   "properties": {
    "name": "14 MUNDUNEY STREET SPALDING 5454",
    "locID": "LOC000007551654",
    "tech": "WIRELESS",
    "upgrade": "NULL_NA",
    "gnaf_pid": "GASA_415068503",
    "tech_change_status": "Not Planned",
    "program_type": "Fixed Wireless and Satellite Upgrade Program",
    "target_eligibility_quarter": "NA"
   }
  },
  {
   "type": "Feature",
   "geometry": {
    "type": "Point",
    "coordinates": [
     138.60828838,
     -33.5002992
    ]
   },
   "properties": {
    "name": "16 MUNDUNEY STREET SPALDING 5454",
    "locID": "LOC000102835052",
    "tech": "WIRELESS",
    "upgrade": "NULL_NA",
    "gnaf_pid": "GASA_415069236",
    "tech_change_status": "Not Planned",
    "program_type": "Fixed Wireless and Satellite Upgrade Program",
    "target_eligibility_quarter": "NA"
   }
  },
  {
   "type": "Feature",
   "geometry": {
    "type": "Point",
    "coordinates": [
     138.60889288,
     -33.5012185
    ]
   },
   "properties": {
    "name": "11 MUNDUNEY STREET SPALDING 5454",
    "locID": "LOC000036028831",
    "tech": "WIRELESS",
    "upgrade": "NULL_NA",
    "gnaf_pid": "GASA_415072144",
    "tech_change_status": "Not Planned",
    "program_type": "Fixed Wireless and Satellite Upgrade Program",
    "target_eligibility_quarter": "NA"
   }
  },
  {
   "type": "Feature",
   "geometry": {
    "type": "Point",
    "coordinates": [
     138.60913863,
     -33.50130808
    ]
   },
   "properties": {
    "name": "9 MUNDUNEY STREET SPALDING 5454",
    "locID": "LOC000062337518",
    "tech": "WIRELESS",
    "upgrade": "NULL_NA",
    "gnaf_pid": "GASA_415072145",
    "tech_change_status": "Not Planned",
    "program_type": "Fixed Wireless and Satellite Upgrade Program",
    "target_eligibility_quarter": "NA"
   }
  },
  {
   "type": "Feature",
   "geometry": {
    "type": "Point",
    "coordinates": [
     138.60891818,
     -33.5017399
    ]
   },
   "properties": {
    "name": "3 JOHN STREET SPALDING 5454",
    "locID": "LOC000034365392",
    "tech": "WIRELESS",
    "upgrade": "NULL_NA",
    "gnaf_pid": "GASA_415072150",
    "tech_change_status": "Not Planned",
    "program_type": "Fixed Wireless and Satellite Upgrade Program",
    "target_eligibility_quarter": "NA"
   }
  },
  {
   "type": "Feature",
   "geometry": {
    "type": "Point",
    "coordinates": [
     138.60794788,
     -33.5001866
    ]
   },
   "properties": {
    "name": "20 MUNDUNEY STREET SPALDING 5454",
    "locID": "LOC000079328911",
    "tech": "WIRELESS",
    "upgrade": "NULL_NA",
    "gnaf_pid": "GASA_415072152",
    "tech_change_status": "Not Planned",
    "program_type": "Fixed Wireless and Satellite Upgrade Program",
    "target_eligibility_quarter": "NA"
   }
  },
  {
   "type": "Feature",
   "geometry": {
    "type": "Point",
    "coordinates": [
     138.61090202,
     -33.49990618
    ]
   },
   "properties": {
    "name": "3 JOHNSTONE ROAD SPALDING 5454",
    "locID": "LOC000023411622",
    "tech": "WIRELESS",
    "upgrade": "NULL_NA",
    "gnaf_pid": "GASA_415151961",
    "tech_change_status": "Not Planned",
    "program_type": "Fixed Wireless and Satellite Upgrade Program",
    "target_eligibility_quarter": "NA"
   }
  },
  {
   "type": "Feature",
   "geometry": {
    "type": "Point",
    "coordinates": [
     138.61138165,
     -33.50043737
    ]
   },
   "properties": {
    "name": "2 JOHNSTONE ROAD SPALDING 5454",
    "locID": "LOC000061867250",
    "tech": "WIRELESS",
    "upgrade": "NULL_NA",
    "gnaf_pid": "GASA_415155534",
    "tech_change_status": "Not Planned",
    "program_type": "Fixed Wireless and Satellite Upgrade Program",
    "target_eligibility_quarter": "NA"
   }
  },
  {
   "type": "Feature",
   "geometry": {
    "type": "Point",
    "coordinates": [
     138.61126181,
     -33.49958447
    ]
   },
   "properties": {
    "name": "5-7 JOHNSTONE ROAD SPALDING 5454",
    "locID": "LOC000036180728",
    "tech": "WIRELESS",
    "upgrade": "NULL_NA",
    "gnaf_pid": "GASA_415155541",
    "tech_change_status": "Not Planned",
    "program_type": "Fixed Wireless and Satellite Upgrade Program",
    "target_eligibility_quarter": "NA"
   }
  },
  {
   "type": "Feature",
   "geometry": {
    "type": "Point",
    "coordinates": [
     138.61134773,
     -33.49908056
    ]
   },
   "properties": {
    "name": "7 JOHNSTONE ROAD SPALDING 5454",
    "locID": "LOC000036180728",
    "tech": "WIRELESS",
    "upgrade": "NULL_NA",
    "gnaf_pid": "GASA_415155543",
    "tech_change_status": "Not Planned",
    "program_type": "Fixed Wireless and Satellite Upgrade Program",
    "target_eligibility_quarter": "NA"
   }
  },
  {
   "type": "Feature",
   "geometry": {
    "type": "Point",
    "coordinates": [
     138.60795736,
     -33.49726026
    ]
   },
   "properties": {
    "name": "23 MAIN STREET SPALDING 5454",
    "locID": "LOC000005887759",
    "tech": "WIRELESS",
    "upgrade": "NULL_NA",
    "gnaf_pid": "GASA_415174042",
    "tech_change_status": "Not Planned",
    "program_type": "Fixed Wireless and Satellite Upgrade Program",
    "target_eligibility_quarter": "NA"
   }
  },
  {
   "type": "Feature",
   "geometry": {
    "type": "Point",
    "coordinates": [
     138.60662996,
     -33.49733796
    ]
   },
   "properties": {
    "name": "3 LITTLE BOURKE STREET SPALDING 5454",
    "locID": "LOC000091190644",
    "tech": "WIRELESS",
    "upgrade": "NULL_NA",
    "gnaf_pid": "GASA_415174049",
    "tech_change_status": "Not Planned",
    "program_type": "Fixed Wireless and Satellite Upgrade Program",
    "target_eligibility_quarter": "NA"
   }
  },
  {
   "type": "Feature",
   "geometry": {
    "type": "Point",
    "coordinates": [
     138.60643818,
     -33.5005189
    ]
   },
   "properties": {
    "name": "5 MAIN STREET SPALDING 5454",
    "locID": "LOC000020048936",
    "tech": "WIRELESS",
    "upgrade": "NULL_NA",
    "gnaf_pid": "GASA_415369551",
    "tech_change_status": "Not Planned",
    "program_type": "Fixed Wireless and Satellite Upgrade Program",
    "target_eligibility_quarter": "NA"
   }
  },
  {
   "type": "Feature",
   "geometry": {
    "type": "Point",
    "coordinates": [
     138.60652479,
     -33.50035163
    ]
   },
   "properties": {
    "name": "7 MAIN STREET SPALDING 5454",
    "locID": "LOC000066014028",
    "tech": "WIRELESS",
    "upgrade": "NULL_NA",
    "gnaf_pid": "GASA_415372092",
    "tech_change_status": "Not Planned",
    "program_type": "Fixed Wireless and Satellite Upgrade Program",
    "target_eligibility_quarter": "NA"
   }
  },
  {
   "type": "Feature",
   "geometry": {
    "type": "Point",
    "coordinates": [
     138.61406076,
     -33.5029771
    ]
   },
   "properties": {
    "name": "3 RAILWAY TERRACE SPALDING 5454",
    "locID": "LOC000020777460",
    "tech": "WIRELESS",
    "upgrade": "NULL_NA",
    "gnaf_pid": "GASA_415443568",
    "tech_change_status": "Not Planned",
    "program_type": "Fixed Wireless and Satellite Upgrade Program",
    "target_eligibility_quarter": "NA"
   }
  },
  {
   "type": "Feature",
   "geometry": {
    "type": "Point",
    "coordinates": [
     138.61409988,
     -33.5031456
    ]
   },
   "properties": {
    "name": "1 RAILWAY TERRACE SPALDING 5454",
    "locID": "LOC000097037407",
    "tech": "WIRELESS",
    "upgrade": "NULL_NA",
    "gnaf_pid": "GASA_415443569",
    "tech_change_status": "Not Planned",
    "program_type": "Fixed Wireless and Satellite Upgrade Program",
    "target_eligibility_quarter": "NA"
   }
  },
  {
   "type": "Feature",
   "geometry": {
    "type": "Point",
    "coordinates": [
     138.61308101,
     -33.5023103
    ]
   },
   "properties": {
    "name": "5 WANDA TERRACE SPALDING 5454",
    "locID": "LOC000091947280",
    "tech": "WIRELESS",
    "upgrade": "NULL_NA",
    "gnaf_pid": "GASA_415443570",
    "tech_change_status": "Not Planned",
    "program_type": "Fixed Wireless and Satellite Upgrade Program",
    "target_eligibility_quarter": "NA"
   }
  },
  {
   "type": "Feature",
   "geometry": {
    "type": "Point",
    "coordinates": [
     138.61336401,
     -33.5022756
    ]
   },
   "properties": {
    "name": "3 WANDA TERRACE SPALDING 5454",
    "locID": "LOC000067224838",
    "tech": "WIRELESS",
    "upgrade": "NULL_NA",
    "gnaf_pid": "GASA_415443571",
    "tech_change_status": "Not Planned",
    "program_type": "Fixed Wireless and Satellite Upgrade Program",
    "target_eligibility_quarter": "NA"
   }
  },
  {
   "type": "Feature",
   "geometry": {
    "type": "Point",
    "coordinates": [
     138.61388338,
     -33.5021123
    ]
   },
   "properties": {
    "name": "13 RAILWAY TERRACE SPALDING 5454",
    "locID": "LOC000087085031",
    "tech": "WIRELESS",
    "upgrade": "NULL_NA",
    "gnaf_pid": "GASA_415449554",
    "tech_change_status": "Not Planned",
    "program_type": "Fixed Wireless and Satellite Upgrade Program",
    "target_eligibility_quarter": "NA"
   }
  },
  {
   "type": "Feature",
   "geometry": {
    "type": "Point",
    "coordinates": [
     138.61392463,
     -33.5022867
    ]
   },
   "properties": {
    "name": "11 RAILWAY TERRACE SPALDING 5454",
    "locID": "LOC000035165336",
    "tech": "WIRELESS",
    "upgrade": "NULL_NA",
    "gnaf_pid": "GASA_415449555",
    "tech_change_status": "Not Planned",
    "program_type": "Fixed Wireless and Satellite Upgrade Program",
    "target_eligibility_quarter": "NA"
   }
  },
  {
   "type": "Feature",
   "geometry": {
    "type": "Point",
    "coordinates": [
     138.61394463,
     -33.5024617
    ]
   },
   "properties": {
    "name": "9 RAILWAY TERRACE SPALDING 5454",
    "locID": "LOC000112574897",
    "tech": "WIRELESS",
    "upgrade": "NULL_NA",
    "gnaf_pid": "GASA_415449556",
    "tech_change_status": "Not Planned",
    "program_type": "Fixed Wireless and Satellite Upgrade Program",
    "target_eligibility_quarter": "NA"
   }
  },
  {
   "type": "Feature",
   "geometry": {
    "type": "Point",
    "coordinates": [
     138.61398263,
     -33.5026338
    ]
   },
   "properties": {
    "name": "7 RAILWAY TERRACE SPALDING 5454",
    "locID": "LOC000012532343",
    "tech": "WIRELESS",
    "upgrade": "NULL_NA",
    "gnaf_pid": "GASA_415449557",
    "tech_change_status": "Not Planned",
    "program_type": "Fixed Wireless and Satellite Upgrade Program",
    "target_eligibility_quarter": "NA"
   }
  },
  {
   "type": "Feature",
   "geometry": {
    "type": "Point",
    "coordinates": [
     138.61402188,
     -33.5028061
    ]
   },
   "properties": {
    "name": "5 RAILWAY TERRACE SPALDING 5454",
    "locID": "LOC000024195674",
    "tech": "WIRELESS",
    "upgrade": "NULL_NA",
    "gnaf_pid": "GASA_415449558",
    "tech_change_status": "Not Planned",
    "program_type": "Fixed Wireless and Satellite Upgrade Program",
    "target_eligibility_quarter": "NA"
   }
  },
  {
   "type": "Feature",
   "geometry": {
    "type": "Point",
    "coordinates": [
     138.60862561,
     -33.49997342
    ]
   },
   "properties": {
    "name": "7 BANK STREET SPALDING 5454",
    "locID": "LOC000021759377",
    "tech": "WIRELESS",
    "upgrade": "NULL_NA",
    "gnaf_pid": "GASA_415485842",
    "tech_change_status": "Not Planned",
    "program_type": "Fixed Wireless and Satellite Upgrade Program",
    "target_eligibility_quarter": "NA"
   }
  },
  {
   "type": "Feature",
   "geometry": {
    "type": "Point",
    "coordinates": [
     138.61186301,
     -33.498783
    ]
   },
   "properties": {
    "name": "13 JOHNSTONE ROAD SPALDING 5454",
    "locID": "LOC000029242387",
    "tech": "WIRELESS",
    "upgrade": "NULL_NA",
    "gnaf_pid": "GASA_415486506",
    "tech_change_status": "Not Planned",
    "program_type": "Fixed Wireless and Satellite Upgrade Program",
    "target_eligibility_quarter": "NA"
   }
  },
  {
   "type": "Feature",
   "geometry": {
    "type": "Point",
    "coordinates": [
     138.60775936,
     -33.49950335
    ]
   },
   "properties": {
    "name": "10 MAIN STREET SPALDING 5454",
    "locID": "LOC000065873532",
    "tech": "WIRELESS",
    "upgrade": "NULL_NA",
    "gnaf_pid": "GASA_415490335",
    "tech_change_status": "Not Planned",
    "program_type": "Fixed Wireless and Satellite Upgrade Program",
    "target_eligibility_quarter": "NA"
   }
  },
  {
   "type": "Feature",
   "geometry": {
    "type": "Point",
    "coordinates": [
     138.60724712,
     -33.50047687
    ]
   },
   "properties": {
    "name": "25 MUNDUNEY STREET SPALDING 5454",
    "locID": "LOC000042316060",
    "tech": "WIRELESS",
    "upgrade": "NULL_NA",
    "gnaf_pid": "GASA_415502713",
    "tech_change_status": "Not Planned",
    "program_type": "Fixed Wireless and Satellite Upgrade Program",
    "target_eligibility_quarter": "NA"
   }
  },
  {
   "type": "Feature",
   "geometry": {
    "type": "Point",
    "coordinates": [
     138.61206322,
     -33.50088804
    ]
   },
   "properties": {
    "name": "4-6 SHEILA STREET SPALDING 5454",
    "locID": "LOC000180757275",
    "tech": "WIRELESS",
    "upgrade": "NULL_NA",
    "gnaf_pid": "GASA_415511272",
    "tech_change_status": "Not Planned",
    "program_type": "Fixed Wireless and Satellite Upgrade Program",
    "target_eligibility_quarter": "NA"
   }
  },
  {
   "type": "Feature",
   "geometry": {
    "type": "Point",
    "coordinates": [
     138.60751263,
     -33.5006893
    ]
   },
   "properties": {
    "name": "23 MUNDUNEY STREET SPALDING 5454",
    "locID": "LOC000072305377",
    "tech": "WIRELESS",
    "upgrade": "NULL_NA",
    "gnaf_pid": "GASA_415523083",
    "tech_change_status": "Not Planned",
    "program_type": "Fixed Wireless and Satellite Upgrade Program",
    "target_eligibility_quarter": "NA"
   }
  },
  {
   "type": "Feature",
   "geometry": {
    "type": "Point",
    "coordinates": [
     138.60772276,
     -33.5007642
    ]
   },
   "properties": {
    "name": "21 MUNDUNEY STREET SPALDING 5454",
    "locID": "LOC000023416140",
    "tech": "WIRELESS",
    "upgrade": "NULL_NA",
    "gnaf_pid": "GASA_415523084",
    "tech_change_status": "Not Planned",
    "program_type": "Fixed Wireless and Satellite Upgrade Program",
    "target_eligibility_quarter": "NA"
   }
  },
  {
   "type": "Feature",
   "geometry": {
    "type": "Point",
    "coordinates": [
     138.61051063,
     -33.4987278
    ]
   },
   "properties": {
    "name": "10 EDWIN STREET SPALDING 5454",
    "locID": "LOC000042387969",
    "tech": "WIRELESS",
    "upgrade": "NULL_NA",
    "gnaf_pid": "GASA_415525033",
    "tech_change_status": "Not Planned",
    "program_type": "Fixed Wireless and Satellite Upgrade Program",
    "target_eligibility_quarter": "NA"
   }
  },
  {
   "type": "Feature",
   "geometry": {
    "type": "Point",
    "coordinates": [
     138.61003029,
     -33.50001211
    ]
   },
   "properties": {
    "name": "34 GOVERNMENT ROAD SPALDING 5454",
    "locID": "LOC000074278831",
    "tech": "WIRELESS",
    "upgrade": "NULL_NA",
    "gnaf_pid": "GASA_415525036",
    "tech_change_status": "Not Planned",
    "program_type": "Fixed Wireless and Satellite Upgrade Program",
    "target_eligibility_quarter": "NA"
   }
  },
  {
   "type": "Feature",
   "geometry": {
    "type": "Point",
    "coordinates": [
     138.60807937,
     -33.49896526
    ]
   },
   "properties": {
    "name": "14 MAIN STREET SPALDING 5454",
    "locID": "LOC000020048936",
    "tech": "WIRELESS",
    "upgrade": "NULL_NA",
    "gnaf_pid": "GASA_415525039",
    "tech_change_status": "Not Planned",
    "program_type": "Fixed Wireless and Satellite Upgrade Program",
    "target_eligibility_quarter": "NA"
   }
  },
  {
   "type": "Feature",
   "geometry": {
    "type": "Point",
    "coordinates": [
     138.60932201,
     -33.4967032
    ]
   },
   "properties": {
    "name": "28 MAIN STREET SPALDING 5454",
    "locID": "LOC000094655855",
    "tech": "WIRELESS",
    "upgrade": "NULL_NA",
    "gnaf_pid": "GASA_415535935",
    "tech_change_status": "Not Planned",
    "program_type": "Fixed Wireless and Satellite Upgrade Program",
    "target_eligibility_quarter": "NA"
   }
  },
  {
   "type": "Feature",
   "geometry": {
    "type": "Point",
    "coordinates": [
     138.61090357,
     -33.49808288
    ]
   },
   "properties": {
    "name": "2 RODERICK STREET SPALDING 5454",
    "locID": "LOC000033132210",
    "tech": "WIRELESS",
    "upgrade": "NULL_NA",
    "gnaf_pid": "GASA_415538562",
    "tech_change_status": "Not Planned",
    "program_type": "Fixed Wireless and Satellite Upgrade Program",
    "target_eligibility_quarter": "NA"
   }
  },
  {
   "type": "Feature",
   "geometry": {
    "type": "Point",
    "coordinates": [
     138.60944751,
     -33.5004098
    ]
   },
   "properties": {
    "name": "35 GOVERNMENT ROAD SPALDING 5454",
    "locID": "LOC000009167367",
    "tech": "WIRELESS",
    "upgrade": "NULL_NA",
    "gnaf_pid": "GASA_415541166",
    "tech_change_status": "Not Planned",
    "program_type": "Fixed Wireless and Satellite Upgrade Program",
    "target_eligibility_quarter": "NA"
   }
  },
  {
   "type": "Feature",
   "geometry": {
    "type": "Point",
    "coordinates": [
     138.60823476,
     -33.50097316
    ]
   },
   "properties": {
    "name": "15 MUNDUNEY STREET SPALDING 5454",
    "locID": "LOC000051430016",
    "tech": "WIRELESS",
    "upgrade": "NULL_NA",
    "gnaf_pid": "GASA_416326471",
    "tech_change_status": "Not Planned",
    "program_type": "Fixed Wireless and Satellite Upgrade Program",
    "target_eligibility_quarter": "NA"
   }
  },
  {
   "type": "Feature",
   "geometry": {
    "type": "Point",
    "coordinates": [
     138.60672591,
     -33.49863714
    ]
   },
   "properties": {
    "name": "55 GOVERNMENT ROAD SPALDING 5454",
    "locID": "LOC000178749794",
    "tech": "WIRELESS",
    "upgrade": "NULL_NA",
    "gnaf_pid": "GASA_416338060",
    "tech_change_status": "Not Planned",
    "program_type": "Fixed Wireless and Satellite Upgrade Program",
    "target_eligibility_quarter": "NA"
   }
  },
  {
   "type": "Feature",
   "geometry": {
    "type": "Point",
    "coordinates": [
     138.60657895,
     -33.49850209
    ]
   },
   "properties": {
    "name": "57 GOVERNMENT ROAD SPALDING 5454",
    "locID": "LOC000036176710",
    "tech": "WIRELESS",
    "upgrade": "NULL_NA",
    "gnaf_pid": "GASA_416338061",
    "tech_change_status": "Not Planned",
    "program_type": "Fixed Wireless and Satellite Upgrade Program",
    "target_eligibility_quarter": "NA"
   }
  },
  {
   "type": "Feature",
   "geometry": {
    "type": "Point",
    "coordinates": [
     138.60629074,
     -33.4982337
    ]
   },
   "properties": {
    "name": "59 GOVERNMENT ROAD SPALDING 5454",
    "locID": "LOC000107209739",
    "tech": "WIRELESS",
    "upgrade": "NULL_NA",
    "gnaf_pid": "GASA_416338062",
    "tech_change_status": "Not Planned",
    "program_type": "Fixed Wireless and Satellite Upgrade Program",
    "target_eligibility_quarter": "NA"
   }
  },
  {
   "type": "Feature",
   "geometry": {
    "type": "Point",
    "coordinates": [
     138.60607194,
     -33.49803091
    ]
   },
   "properties": {
    "name": "61 GOVERNMENT ROAD SPALDING 5454",
    "locID": "LOC000069634115",
    "tech": "WIRELESS",
    "upgrade": "NULL_NA",
    "gnaf_pid": "GASA_416338063",
    "tech_change_status": "Not Planned",
    "program_type": "Fixed Wireless and Satellite Upgrade Program",
    "target_eligibility_quarter": "NA"
   }
  },
  {
   "type": "Feature",
   "geometry": {
    "type": "Point",
    "coordinates": [
     138.61087058,
     -33.50053798
    ]
   },
   "properties": {
    "name": "28 GOVERNMENT ROAD SPALDING 5454",
    "locID": "LOC000093921899",
    "tech": "WIRELESS",
    "upgrade": "NULL_NA",
    "gnaf_pid": "GASA_416340620",
    "tech_change_status": "Not Planned",
    "program_type": "Fixed Wireless and Satellite Upgrade Program",
    "target_eligibility_quarter": "NA"
   }
  },
  {
   "type": "Feature",
   "geometry": {
    "type": "Point",
    "coordinates": [
     138.60973475,
     -33.49987441
    ]
   },
   "properties": {
    "name": "36 GOVERNMENT ROAD SPALDING 5454",
    "locID": "LOC000071817482",
    "tech": "WIRELESS",
    "upgrade": "NULL_NA",
    "gnaf_pid": "GASA_416340623",
    "tech_change_status": "Not Planned",
    "program_type": "Fixed Wireless and Satellite Upgrade Program",
    "target_eligibility_quarter": "NA"
   }
  },
  {
   "type": "Feature",
   "geometry": {
    "type": "Point",
    "coordinates": [
     138.60921249,
     -33.50028024
    ]
   },
   "properties": {
    "name": "37 GOVERNMENT ROAD SPALDING 5454",
    "locID": "LOC000091045927",
    "tech": "WIRELESS",
    "upgrade": "NULL_NA",
    "gnaf_pid": "GASA_416340624",
    "tech_change_status": "Not Planned",
    "program_type": "Fixed Wireless and Satellite Upgrade Program",
    "target_eligibility_quarter": "NA"
   }
  },
  {
   "type": "Feature",
   "geometry": {
    "type": "Point",
    "coordinates": [
     138.60957913,
     -33.49926192
    ]
   },
   "properties": {
    "name": "38 GOVERNMENT ROAD SPALDING 5454",
    "locID": "LOC000097623224",
    "tech": "WIRELESS",
    "upgrade": "NULL_NA",
    "gnaf_pid": "GASA_416340625",
    "tech_change_status": "Not Planned",
    "program_type": "Fixed Wireless and Satellite Upgrade Program",
    "target_eligibility_quarter": "NA"
   }
  },
  {
   "type": "Feature",
   "geometry": {
    "type": "Point",
    "coordinates": [
     138.60927477,
     -33.49953729
    ]
   },
   "properties": {
    "name": "40 GOVERNMENT ROAD SPALDING 5454",
    "locID": "LOC000081890615",
    "tech": "WIRELESS",
    "upgrade": "NULL_NA",
    "gnaf_pid": "GASA_416340626",
    "tech_change_status": "Not Planned",
    "program_type": "Fixed Wireless and Satellite Upgrade Program",
    "target_eligibility_quarter": "NA"
   }
  },
  {
   "type": "Feature",
   "geometry": {
    "type": "Point",
    "coordinates": [
     138.60908068,
     -33.49943467
    ]
   },
   "properties": {
    "name": "42 GOVERNMENT ROAD SPALDING 5454",
    "locID": "LOC000032497374",
    "tech": "WIRELESS",
    "upgrade": "NULL_NA",
    "gnaf_pid": "GASA_416340627",
    "tech_change_status": "Not Planned",
    "program_type": "Fixed Wireless and Satellite Upgrade Program",
    "target_eligibility_quarter": "NA"
   }
  },
  {
   "type": "Feature",
   "geometry": {
    "type": "Point",
    "coordinates": [
     138.60856252,
     -33.49921369
    ]
   },
   "properties": {
    "name": "46 GOVERNMENT ROAD SPALDING 5454",
    "locID": "LOC000043656091",
    "tech": "WIRELESS",
    "upgrade": "NULL_NA",
    "gnaf_pid": "GASA_416340628",
    "tech_change_status": "Not Planned",
    "program_type": "Fixed Wireless and Satellite Upgrade Program",
    "target_eligibility_quarter": "NA"
   }
  },
  {
   "type": "Feature",
   "geometry": {
    "type": "Point",
    "coordinates": [
     138.60963926,
     -33.49844767
    ]
   },
   "properties": {
    "name": "10 EILEEN STREET SPALDING 5454",
    "locID": "LOC000073756924",
    "tech": "WIRELESS",
    "upgrade": "NULL_NA",
    "gnaf_pid": "GASA_416341696",
    "tech_change_status": "Not Planned",
    "program_type": "Fixed Wireless and Satellite Upgrade Program",
    "target_eligibility_quarter": "NA"
   }
  },
  {
   "type": "Feature",
   "geometry": {
    "type": "Point",
    "coordinates": [
     138.60976694,
     -33.49881948
    ]
   },
   "properties": {
    "name": "9 EILEEN STREET SPALDING 5454",
    "locID": "LOC000104188711",
    "tech": "WIRELESS",
    "upgrade": "NULL_NA",
    "gnaf_pid": "GASA_416341697",
    "tech_change_status": "Not Planned",
    "program_type": "Fixed Wireless and Satellite Upgrade Program",
    "target_eligibility_quarter": "NA"
   }
  },
  {
   "type": "Feature",
   "geometry": {
    "type": "Point",
    "coordinates": [
     138.60957804,
     -33.49768477
    ]
   },
   "properties": {
    "name": "25 MARGARET STREET SPALDING 5454",
    "locID": "LOC000079330628",
    "tech": "WIRELESS",
    "upgrade": "NULL_NA",
    "gnaf_pid": "GASA_416345929",
    "tech_change_status": "Not Planned",
    "program_type": "Fixed Wireless and Satellite Upgrade Program",
    "target_eligibility_quarter": "NA"
   }
  },
  {
   "type": "Feature",
   "geometry": {
    "type": "Point",
    "coordinates": [
     138.60748346,
     -33.49850825
    ]
   },
   "properties": {
    "name": "15 MAIN STREET SPALDING 5454",
    "locID": "LOC000070855892",
    "tech": "WIRELESS",
    "upgrade": "NULL_NA",
    "gnaf_pid": "GASA_416345933",
    "tech_change_status": "Not Planned",
    "program_type": "Fixed Wireless and Satellite Upgrade Program",
    "target_eligibility_quarter": "NA"
   }
  },
  {
   "type": "Feature",
   "geometry": {
    "type": "Point",
    "coordinates": [
     138.60667082,
     -33.49777754
    ]
   },
   "properties": {
    "name": "2 LITTLE BOURKE STREET SPALDING 5454",
    "locID": "LOC000095605819",
    "tech": "WIRELESS",
    "upgrade": "NULL_NA",
    "gnaf_pid": "GASA_416361068",
    "tech_change_status": "Not Planned",
    "program_type": "Fixed Wireless and Satellite Upgrade Program",
    "target_eligibility_quarter": "NA"
   }
  },
  {
   "type": "Feature",
   "geometry": {
    "type": "Point",
    "coordinates": [
     138.60746849,
     -33.49788227
    ]
   },
   "properties": {
    "name": "19 MAIN STREET SPALDING 5454",
    "locID": "LOC000095080617",
    "tech": "WIRELESS",
    "upgrade": "NULL_NA",
    "gnaf_pid": "GASA_416367439",
    "tech_change_status": "Not Planned",
    "program_type": "Fixed Wireless and Satellite Upgrade Program",
    "target_eligibility_quarter": "NA"
   }
  },
  {
   "type": "Feature",
   "geometry": {
    "type": "Point",
    "coordinates": [
     138.60887251,
     -33.50057197
    ]
   },
   "properties": {
    "name": "12 MUNDUNEY STREET SPALDING 5454",
    "locID": "LOC000093974411",
    "tech": "WIRELESS",
    "upgrade": "NULL_NA",
    "gnaf_pid": "GASA_417076764",
    "tech_change_status": "Not Planned",
    "program_type": "Fixed Wireless and Satellite Upgrade Program",
    "target_eligibility_quarter": "NA"
   }
  },
  {
   "type": "Feature",
   "geometry": {
    "type": "Point",
    "coordinates": [
     138.60806379,
     -33.49759426
    ]
   },
   "properties": {
    "name": "21 MAIN STREET SPALDING 5454",
    "locID": "LOC000099220061",
    "tech": "WIRELESS",
    "upgrade": "NULL_NA",
    "gnaf_pid": "GASA_422065551",
    "tech_change_status": "Not Planned",
    "program_type": "Fixed Wireless and Satellite Upgrade Program",
    "target_eligibility_quarter": "NA"
   }
  },
  {
   "type": "Feature",
   "geometry": {
    "type": "Point",
    "coordinates": [
     138.61004339,
     -33.50162219
    ]
   },
   "properties": {
    "name": "1 MUNDUNEY STREET SPALDING 5454",
    "locID": "LOC000057079860",
    "tech": "WIRELESS",
    "upgrade": "NULL_NA",
    "gnaf_pid": "GASA_422067535",
    "tech_change_status": "Not Planned",
    "program_type": "Fixed Wireless and Satellite Upgrade Program",
    "target_eligibility_quarter": "NA"
   }
  },
  {
   "type": "Feature",
   "geometry": {
    "type": "Point",
    "coordinates": [
     138.60695768,
     -33.50104175
    ]
   },
   "properties": {
    "name": "2 MAIN STREET SPALDING 5454",
    "locID": "LOC000042469689",
    "tech": "WIRELESS",
    "upgrade": "NULL_NA",
    "gnaf_pid": "GASA_422266216",
    "tech_change_status": "Not Planned",
    "program_type": "Fixed Wireless and Satellite Upgrade Program",
    "target_eligibility_quarter": "NA"
   }
  },
  {
   "type": "Feature",
   "geometry": {
    "type": "Point",
    "coordinates": [
     138.61358127,
     -33.50224848
    ]
   },
   "properties": {
    "name": "1 WANDA TERRACE SPALDING 5454",
    "locID": "LOC000111343954",
    "tech": "WIRELESS",
    "upgrade": "NULL_NA",
    "gnaf_pid": "GASA_422272221",
    "tech_change_status": "Not Planned",
    "program_type": "Fixed Wireless and Satellite Upgrade Program",
    "target_eligibility_quarter": "NA"
   }
  },
  {
   "type": "Feature",
   "geometry": {
    "type": "Point",
    "coordinates": [
     138.60630981,
     -33.50076687
    ]
   },
   "properties": {
    "name": "1-3 MAIN STREET SPALDING 5454",
    "locID": "LOC000020048936",
    "tech": "WIRELESS",
    "upgrade": "NULL_NA",
    "gnaf_pid": "GASA_422364944",
    "tech_change_status": "Not Planned",
    "program_type": "Fixed Wireless and Satellite Upgrade Program",
    "target_eligibility_quarter": "NA"
   }
  },
  {
   "type": "Feature",
   "geometry": {
    "type": "Point",
    "coordinates": [
     138.61075451,
     -33.5000423
    ]
   },
   "properties": {
    "name": "1 JOHNSTONE ROAD SPALDING 5454",
    "locID": "LOC000042968399",
    "tech": "WIRELESS",
    "upgrade": "NULL_NA",
    "gnaf_pid": "GASA_423118285",
    "tech_change_status": "Not Planned",
    "program_type": "Fixed Wireless and Satellite Upgrade Program",
    "target_eligibility_quarter": "NA"
   }
  },
  {
   "type": "Feature",
   "geometry": {
    "type": "Point",
    "coordinates": [
     138.60820737,
     -33.49970939
    ]
   },
   "properties": {
    "name": "45 GOVERNMENT ROAD SPALDING 5454",
    "locID": "LOC000005378942",
    "tech": "WIRELESS",
    "upgrade": "NULL_NA",
    "gnaf_pid": "GASA_424016655",
    "tech_change_status": "Not Planned",
    "program_type": "Fixed Wireless and Satellite Upgrade Program",
    "target_eligibility_quarter": "NA"
   }
  },
  {
   "type": "Feature",
   "geometry": {
    "type": "Point",
    "coordinates": [
     138.61029714,
     -33.49901434
    ]
   },
   "properties": {
    "name": "7 EILEEN STREET SPALDING 5454",
    "locID": "LOC000074219834",
    "tech": "WIRELESS",
    "upgrade": "NULL_NA",
    "gnaf_pid": "GASA_424050407",
    "tech_change_status": "Not Planned",
    "program_type": "Fixed Wireless and Satellite Upgrade Program",
    "target_eligibility_quarter": "NA"
   }
  },
  {
   "type": "Feature",
   "geometry": {
    "type": "Point",
    "coordinates": [
     138.61437122,
     -33.49772966
    ]
   },
   "properties": {
    "name": "LOT 555 HOWLEYS CROSSING ROAD SPALDING 5454",
    "locID": "LOC100078856338",
    "tech": "WIRELESS",
    "upgrade": "NULL_NA",
    "gnaf_pid": "GASA_424109487",
    "tech_change_status": "Not Planned",
    "program_type": "Fixed Wireless and Satellite Upgrade Program",
    "target_eligibility_quarter": "NA"
   }
  },
  {
   "type": "Feature",
   "geometry": {
    "type": "Point",
    "coordinates": [
     138.62313313,
     -33.52522306
    ]
   },
   "properties": {
    "name": "LOT 2 WENEDI ROAD SPALDING 5454",
    "locID": "LOC000178979179",
    "tech": "WIRELESS",
    "upgrade": "NULL_NA",
    "gnaf_pid": "GASA_424142539",
    "tech_change_status": "Not Planned",
    "program_type": "Fixed Wireless and Satellite Upgrade Program",
    "target_eligibility_quarter": "NA"
   }
  },
  {
   "type": "Feature",
   "geometry": {
    "type": "Point",
    "coordinates": [
     138.60911305,
     -33.50056218
    ]
   },
   "properties": {
    "name": "FLAT 1, 10 MUNDUNEY STREET SPALDING 5454",
    "locID": "LOC000050733508",
    "tech": "WIRELESS",
    "upgrade": "NULL_NA",
    "gnaf_pid": "GASA_424148199",
    "tech_change_status": "Not Planned",
    "program_type": "Fixed Wireless and Satellite Upgrade Program",
    "target_eligibility_quarter": "NA"
   }
  },
  {
   "type": "Feature",
   "geometry": {
    "type": "Point",
    "coordinates": [
     138.60919135,
     -33.50059154
    ]
   },
   "properties": {
    "name": "FLAT 2, 10 MUNDUNEY STREET SPALDING 5454",
    "locID": "LOC000050733508",
    "tech": "WIRELESS",
    "upgrade": "NULL_NA",
    "gnaf_pid": "GASA_424148200",
    "tech_change_status": "Not Planned",
    "program_type": "Fixed Wireless and Satellite Upgrade Program",
    "target_eligibility_quarter": "NA"
   }
  },
  {
   "type": "Feature",
   "geometry": {
    "type": "Point",
    "coordinates": [
     138.6092642,
     -33.50061737
    ]
   },
   "properties": {
    "name": "FLAT 3, 10 MUNDUNEY STREET SPALDING 5454",
    "locID": "LOC000050733508",
    "tech": "WIRELESS",
    "upgrade": "NULL_NA",
    "gnaf_pid": "GASA_424148201",
    "tech_change_status": "Not Planned",
    "program_type": "Fixed Wireless and Satellite Upgrade Program",
    "target_eligibility_quarter": "NA"
   }
  },
  {
   "type": "Feature",
   "geometry": {
    "type": "Point",
    "coordinates": [
     138.60914288,
     -33.50067179
    ]
   },
   "properties": {
    "name": "10 MUNDUNEY STREET SPALDING 5454",
    "locID": "LOC000050733508",
    "tech": "WIRELESS",
    "upgrade": "NULL_NA",
    "gnaf_pid": "GASA_424148202",
    "tech_change_status": "Not Planned",
    "program_type": "Fixed Wireless and Satellite Upgrade Program",
    "target_eligibility_quarter": "NA"
   }
  },
  {
   "type": "Feature",
   "geometry": {
    "type": "Point",
    "coordinates": [
     138.64998467,
     -33.51579325
    ]
   },
   "properties": {
    "name": "LOT 528 DEEP CREEK ROAD SPALDING 5454",
    "locID": "LOC100079108530",
    "tech": "WIRELESS",
    "upgrade": "NULL_NA",
    "gnaf_pid": "GASA_424297666",
    "tech_change_status": "Not Planned",
    "program_type": "Fixed Wireless and Satellite Upgrade Program",
    "target_eligibility_quarter": "NA"
   }
  },
  {
   "type": "Feature",
   "geometry": {
    "type": "Point",
    "coordinates": [
     138.65790741,
     -33.48706845
    ]
   },
   "properties": {
    "name": "LOT 353 MUNDUNEY ROAD SPALDING 5454",
    "locID": "LOC000150763004",
    "tech": "WIRELESS",
    "upgrade": "NULL_NA",
    "gnaf_pid": "GASA_424320155"
   }
  },
  {
   "type": "Feature",
   "geometry": {
    "type": "Point",
    "coordinates": [
     138.614056,
     -33.49852081
    ]
   },
   "properties": {
    "name": "LOT 13 RAILWAY TERRACE SPALDING 5454",
    "locID": "LOC000087085031",
    "tech": "WIRELESS",
    "upgrade": "NULL_NA",
    "gnaf_pid": "GASA_424327992",
    "tech_change_status": "Not Planned",
    "program_type": "Fixed Wireless and Satellite Upgrade Program",
    "target_eligibility_quarter": "NA"
   }
  },
  {
   "type": "Feature",
   "geometry": {
    "type": "Point",
    "coordinates": [
     138.61274737,
     -33.49847974
    ]
   },
   "properties": {
    "name": "LOT 550 SYDNEY STREET SPALDING 5454",
    "locID": "LOC000083415099",
    "tech": "NULL",
    "upgrade": "NULL_NA",
    "gnaf_pid": "GASA_424335314",
    "tech_change_status": "Not Planned"
   }
  },
  {
   "type": "Feature",
   "geometry": {
    "type": "Point",
    "coordinates": [
     138.6081909,
     -33.52661004
    ]
   },
   "properties": {
    "name": "LOT 513 WENEDI ROAD SPALDING 5454",
    "locID": "LOC000178979179",
    "tech": "WIRELESS",
    "upgrade": "NULL_NA",
    "gnaf_pid": "GASA_424408477",
    "tech_change_status": "Not Planned",
    "program_type": "Fixed Wireless and Satellite Upgrade Program",
    "target_eligibility_quarter": "NA"
   }
  },
  {
   "type": "Feature",
   "geometry": {
    "type": "Point",
    "coordinates": [
     138.61188158,
     -33.49660394
    ]
   },
   "properties": {
    "name": "LOT 94 EDGEWARE AVENUE SPALDING 5454",
    "locID": "LOC100076710231",
    "tech": "WIRELESS",
    "upgrade": "NULL_NA",
    "gnaf_pid": "GASA_424410604",
    "tech_change_status": "Not Planned",
    "program_type": "Fixed Wireless and Satellite Upgrade Program",
    "target_eligibility_quarter": "NA"
   }
  },
  {
   "type": "Feature",
   "geometry": {
    "type": "Point",
    "coordinates": [
     138.58889282,
     -33.42294617
    ]
   },
   "properties": {
    "name": "LOT 276 R M WILLIAMS WAY SPALDING 5454",
    "locID": "LOC100079007160",
    "tech": "WIRELESS",
    "upgrade": "NULL_NA",
    "gnaf_pid": "GASA_424950903",
    "tech_change_status": "Not Planned",
    "program_type": "Fixed Wireless and Satellite Upgrade Program",
    "target_eligibility_quarter": "NA"
   }
  },
  {
   "type": "Feature",
   "geometry": {
    "type": "Point",
    "coordinates": [
     138.59658487,
     -33.43610386
    ]
   },
   "properties": {
    "name": "LOT 282 R M WILLIAMS WAY SPALDING 5454",
    "locID": "LOC100079007160",
    "tech": "WIRELESS",
    "upgrade": "NULL_NA",
    "gnaf_pid": "GASA_424950904",
    "tech_change_status": "Not Planned",
    "program_type": "Fixed Wireless and Satellite Upgrade Program",
    "target_eligibility_quarter": "NA"
   }
  },
  {
   "type": "Feature",
   "geometry": {
    "type": "Point",
    "coordinates": [
     138.58557053,
     -33.47010008
    ]
   },
   "properties": {
    "name": "LOT 303 R M WILLIAMS WAY SPALDING 5454",
    "locID": "LOC000150764177",
    "tech": "NULL",
    "upgrade": "NULL_NA",
    "gnaf_pid": "GASA_424950905",
    "tech_change_status": "Not Planned"
   }
  },
  {
   "type": "Feature",
   "geometry": {
    "type": "Point",
    "coordinates": [
     138.60075889,
     -33.47094882
    ]
   },
   "properties": {
    "name": "LOT 576 R M WILLIAMS WAY SPALDING 5454",
    "locID": "LOC100079007160",
    "tech": "WIRELESS",
    "upgrade": "NULL_NA",
    "gnaf_pid": "GASA_424950908",
    "tech_change_status": "Not Planned",
    "program_type": "Fixed Wireless and Satellite Upgrade Program",
    "target_eligibility_quarter": "NA"
   }
  },
  {
   "type": "Feature",
   "geometry": {
    "type": "Point",
    "coordinates": [
     138.59959115,
     -33.4863846
    ]
   },
   "properties": {
    "name": "LOT 4 R M WILLIAMS WAY SPALDING 5454",
    "locID": "LOC100057815941",
    "tech": "WIRELESS",
    "upgrade": "NULL_NA",
    "gnaf_pid": "GASA_424953520",
    "tech_change_status": "Not Planned",
    "program_type": "Fixed Wireless and Satellite Upgrade Program",
    "target_eligibility_quarter": "NA"
   }
  },
  {
   "type": "Feature",
   "geometry": {
    "type": "Point",
    "coordinates": [
     138.62807891,
     -33.4297592
    ]
   },
   "properties": {
    "name": "2748 BELALIE EAST ROAD SPALDING 5454",
    "locID": "LOC000150247918",
    "tech": "WIRELESS",
    "upgrade": "NULL_NA",
    "gnaf_pid": "GASA_425105447",
    "tech_change_status": "Not Planned",
    "program_type": "Fixed Wireless and Satellite Upgrade Program",
    "target_eligibility_quarter": "NA"
   }
  },
  {
   "type": "Feature",
   "geometry": {
    "type": "Point",
    "coordinates": [
     138.62544302,
     -33.44996979
    ]
   },
   "properties": {
    "name": "2974 BELALIE EAST ROAD SPALDING 5454",
    "locID": "LOC000150247925",
    "tech": "WIRELESS",
    "upgrade": "NULL_NA",
    "gnaf_pid": "GASA_425105448",
    "tech_change_status": "Not Planned",
    "program_type": "Fixed Wireless and Satellite Upgrade Program",
    "target_eligibility_quarter": "NA"
   }
  },
  {
   "type": "Feature",
   "geometry": {
    "type": "Point",
    "coordinates": [
     138.60983146,
     -33.4945429
    ]
   },
   "properties": {
    "name": "3496 BELALIE EAST ROAD SPALDING 5454",
    "locID": "LOC000178811881",
    "tech": "WIRELESS",
    "upgrade": "NULL_NA",
    "gnaf_pid": "GASA_425105449",
    "tech_change_status": "Not Planned",
    "program_type": "Fixed Wireless and Satellite Upgrade Program",
    "target_eligibility_quarter": "NA"
   }
  },
  {
   "type": "Feature",
   "geometry": {
    "type": "Point",
    "coordinates": [
     138.6231443,
     -33.42206604
    ]
   },
   "properties": {
    "name": "LOT 280 BELALIE EAST ROAD SPALDING 5454",
    "locID": "LOC000178811881",
    "tech": "WIRELESS",
    "upgrade": "NULL_NA",
    "gnaf_pid": "GASA_425105450",
    "tech_change_status": "Not Planned",
    "program_type": "Fixed Wireless and Satellite Upgrade Program",
    "target_eligibility_quarter": "NA"
   }
  },
  {
   "type": "Feature",
   "geometry": {
    "type": "Point",
    "coordinates": [
     138.65777907,
     -33.50139694
    ]
   },
   "properties": {
    "name": "421 BORVE HILL ROAD SPALDING 5454",
    "locID": "LOC100079388233",
    "tech": "WIRELESS",
    "upgrade": "NULL_NA",
    "gnaf_pid": "GASA_425105717",
    "tech_change_status": "Not Planned",
    "program_type": "Fixed Wireless and Satellite Upgrade Program",
    "target_eligibility_quarter": "NA"
   }
  },
  {
   "type": "Feature",
   "geometry": {
    "type": "Point",
    "coordinates": [
     138.640136,
     -33.52353995
    ]
   },
   "properties": {
    "name": "82 DEEP CREEK ROAD SPALDING 5454",
    "locID": "LOC100079108530",
    "tech": "WIRELESS",
    "upgrade": "NULL_NA",
    "gnaf_pid": "GASA_425106898",
    "tech_change_status": "Not Planned",
    "program_type": "Fixed Wireless and Satellite Upgrade Program",
    "target_eligibility_quarter": "NA"
   }
  },
  {
   "type": "Feature",
   "geometry": {
    "type": "Point",
    "coordinates": [
     138.59647558,
     -33.42119362
    ]
   },
   "properties": {
    "name": "149 DIAGONAL ROAD SPALDING 5454",
    "locID": "LOC000178743243",
    "tech": "WIRELESS",
    "upgrade": "NULL_NA",
    "gnaf_pid": "GASA_425106940",
    "tech_change_status": "Not Planned",
    "program_type": "Fixed Wireless and Satellite Upgrade Program",
    "target_eligibility_quarter": "NA"
   }
  },
  {
   "type": "Feature",
   "geometry": {
    "type": "Point",
    "coordinates": [
     138.60944759,
     -33.41078346
    ]
   },
   "properties": {
    "name": "320 DIAGONAL ROAD SPALDING 5454",
    "locID": "LOC000150247939",
    "tech": "NULL",
    "upgrade": "NULL_NA",
    "gnaf_pid": "GASA_425106942",
    "tech_change_status": "Not Planned"
   }
  },
  {
   "type": "Feature",
   "geometry": {
    "type": "Point",
    "coordinates": [
     138.55536708,
     -33.48507558
    ]
   },
   "properties": {
    "name": "493 FROME CROSSING ROAD SPALDING 5454",
    "locID": "LOC000150247941",
    "tech": "WIRELESS",
    "upgrade": "NULL_NA",
    "gnaf_pid": "GASA_425107681",
    "tech_change_status": "Not Planned",
    "program_type": "Fixed Wireless and Satellite Upgrade Program",
    "target_eligibility_quarter": "NA"
   }
  },
  {
   "type": "Feature",
   "geometry": {
    "type": "Point",
    "coordinates": [
     138.52741652,
     -33.4677037
    ]
   },
   "properties": {
    "name": "3874A GOYDER HIGHWAY SPALDING 5454",
    "locID": "LOC000150225270",
    "tech": "SATELLITE",
    "upgrade": "NULL_NA",
    "gnaf_pid": "GASA_425107972",
    "tech_change_status": "Not Planned"
   }
  },
  {
   "type": "Feature",
   "geometry": {
    "type": "Point",
    "coordinates": [
     138.646234,
     -33.550046
    ]
   },
   "properties": {
    "name": "5242 GOYDER HIGHWAY SPALDING 5454",
    "locID": "LOC000178979180",
    "tech": "WIRELESS",
    "upgrade": "NULL_NA",
    "gnaf_pid": "GASA_425107975",
    "tech_change_status": "Not Planned",
    "program_type": "Fixed Wireless and Satellite Upgrade Program",
    "target_eligibility_quarter": "NA"
   }
  },
  {
   "type": "Feature",
   "geometry": {
    "type": "Point",
    "coordinates": [
     138.61370611,
     -33.4634064
    ]
   },
   "properties": {
    "name": "210 HACKLINS CORNER ROAD SPALDING 5454",
    "locID": "LOC100078082850",
    "tech": "WIRELESS",
    "upgrade": "NULL_NA",
    "gnaf_pid": "GASA_425108088",
    "tech_change_status": "Not Planned",
    "program_type": "Fixed Wireless and Satellite Upgrade Program",
    "target_eligibility_quarter": "NA"
   }
  },
  {
   "type": "Feature",
   "geometry": {
    "type": "Point",
    "coordinates": [
     138.69856133,
     -33.48668499
    ]
   },
   "properties": {
    "name": "989 HACKLINS CORNER ROAD SPALDING 5454",
    "locID": "LOC000150763004",
    "tech": "WIRELESS",
    "upgrade": "NULL_NA",
    "gnaf_pid": "GASA_425108089"
   }
  },
  {
   "type": "Feature",
   "geometry": {
    "type": "Point",
    "coordinates": [
     138.62811712,
     -33.52544448
    ]
   },
   "properties": {
    "name": "25 HILL RIVER ROAD SPALDING 5454",
    "locID": "LOC100017667632",
    "tech": "WIRELESS",
    "upgrade": "NULL_NA",
    "gnaf_pid": "GASA_425108316",
    "tech_change_status": "Not Planned",
    "program_type": "Fixed Wireless and Satellite Upgrade Program",
    "target_eligibility_quarter": "NA"
   }
  },
  {
   "type": "Feature",
   "geometry": {
    "type": "Point",
    "coordinates": [
     138.62726702,
     -33.5548895
    ]
   },
   "properties": {
    "name": "412 HILL RIVER ROAD SPALDING 5454",
    "locID": "LOC000150763101",
    "tech": "WIRELESS",
    "upgrade": "NULL_NA",
    "gnaf_pid": "GASA_425108317",
    "tech_change_status": "Not Planned",
    "program_type": "Fixed Wireless and Satellite Upgrade Program",
    "target_eligibility_quarter": "NA"
   }
  },
  {
   "type": "Feature",
   "geometry": {
    "type": "Point",
    "coordinates": [
     138.62898284,
     -33.56395494
    ]
   },
   "properties": {
    "name": "515 HILL RIVER ROAD SPALDING 5454",
    "locID": "LOC000150763129",
    "tech": "WIRELESS",
    "upgrade": "NULL_NA",
    "gnaf_pid": "GASA_425108318",
    "tech_change_status": "Not Planned",
    "program_type": "Fixed Wireless and Satellite Upgrade Program",
    "target_eligibility_quarter": "NA"
   }
  },
  {
   "type": "Feature",
   "geometry": {
    "type": "Point",
    "coordinates": [
     138.62947539,
     -33.56820658
    ]
   },
   "properties": {
    "name": "561 HILL RIVER ROAD SPALDING 5454",
    "locID": "LOC000150763138",
    "tech": "WIRELESS",
    "upgrade": "NULL_NA",
    "gnaf_pid": "GASA_425108319",
    "tech_change_status": "Not Planned",
    "program_type": "Fixed Wireless and Satellite Upgrade Program",
    "target_eligibility_quarter": "NA"
   }
  },
  {
   "type": "Feature",
   "geometry": {
    "type": "Point",
    "coordinates": [
     138.64617322,
     -33.57414288
    ]
   },
   "properties": {
    "name": "285 LOMANDRA ROAD SPALDING 5454",
    "locID": "LOC000153467246",
    "tech": "SATELLITE",
    "upgrade": "NULL_NA",
    "gnaf_pid": "GASA_425109224",
    "tech_change_status": "Not Planned"
   }
  },
  {
   "type": "Feature",
   "geometry": {
    "type": "Point",
    "coordinates": [
     138.65731597,
     -33.54601071
    ]
   },
   "properties": {
    "name": "114 MARBLE HILL ROAD SPALDING 5454",
    "locID": "LOC000150763460",
    "tech": "NULL",
    "upgrade": "NULL_NA",
    "gnaf_pid": "GASA_425109505",
    "tech_change_status": "Not Planned"
   }
  },
  {
   "type": "Feature",
   "geometry": {
    "type": "Point",
    "coordinates": [
     138.65635757,
     -33.51814312
    ]
   },
   "properties": {
    "name": "430 MARBLE HILL ROAD SPALDING 5454",
    "locID": "LOC000153236884",
    "tech": "SATELLITE",
    "upgrade": "NULL_NA",
    "gnaf_pid": "GASA_425109506",
    "tech_change_status": "Not Planned"
   }
  },
  {
   "type": "Feature",
   "geometry": {
    "type": "Point",
    "coordinates": [
     138.67423913,
     -33.51494805
    ]
   },
   "properties": {
    "name": "116 MUNGCOWIE ROAD SPALDING 5454",
    "locID": "LOC000150763603",
    "tech": "NULL",
    "upgrade": "NULL_NA",
    "gnaf_pid": "GASA_425110036",
    "tech_change_status": "Not Planned"
   }
  },
  {
   "type": "Feature",
   "geometry": {
    "type": "Point",
    "coordinates": [
     138.57795148,
     -33.49034755
    ]
   },
   "properties": {
    "name": "240 PAGES HILL ROAD SPALDING 5454",
    "locID": "LOC000150763805",
    "tech": "SATELLITE",
    "upgrade": "NULL_NA",
    "gnaf_pid": "GASA_425110497",
    "tech_change_status": "Not Planned"
   }
  },
  {
   "type": "Feature",
   "geometry": {
    "type": "Point",
    "coordinates": [
     138.57692214,
     -33.49059367
    ]
   },
   "properties": {
    "name": "251 PAGES HILL ROAD SPALDING 5454",
    "locID": "LOC000150763814",
    "tech": "WIRELESS",
    "upgrade": "NULL_NA",
    "gnaf_pid": "GASA_425110498",
    "tech_change_status": "Not Planned",
    "program_type": "Fixed Wireless and Satellite Upgrade Program",
    "target_eligibility_quarter": "NA"
   }
  },
  {
   "type": "Feature",
   "geometry": {
    "type": "Point",
    "coordinates": [
     138.59717238,
     -33.49421057
    ]
   },
   "properties": {
    "name": "52 PAGES HILL ROAD SPALDING 5454",
    "locID": "LOC100079007207",
    "tech": "WIRELESS",
    "upgrade": "NULL_NA",
    "gnaf_pid": "GASA_425110499",
    "tech_change_status": "Not Planned",
    "program_type": "Fixed Wireless and Satellite Upgrade Program",
    "target_eligibility_quarter": "NA"
   }
  },
  {
   "type": "Feature",
   "geometry": {
    "type": "Point",
    "coordinates": [
     138.60392198,
     -33.56126495
    ]
   },
   "properties": {
    "name": "2434 R M WILLIAMS WAY SPALDING 5454",
    "locID": "LOC000150764177",
    "tech": "NULL",
    "upgrade": "NULL_NA",
    "gnaf_pid": "GASA_425111133",
    "tech_change_status": "Not Planned"
   }
  },
  {
   "type": "Feature",
   "geometry": {
    "type": "Point",
    "coordinates": [
     138.59539691,
     -33.47640054
    ]
   },
   "properties": {
    "name": "3425 R M WILLIAMS WAY SPALDING 5454",
    "locID": "LOC100079108507",
    "tech": "WIRELESS",
    "upgrade": "NULL_NA",
    "gnaf_pid": "GASA_425111135",
    "tech_change_status": "Not Planned",
    "program_type": "Fixed Wireless and Satellite Upgrade Program",
    "target_eligibility_quarter": "NA"
   }
  },
  {
   "type": "Feature",
   "geometry": {
    "type": "Point",
    "coordinates": [
     138.58718385,
     -33.44798281
    ]
   },
   "properties": {
    "name": "3751 R M WILLIAMS WAY SPALDING 5454",
    "locID": "LOC100079007160",
    "tech": "WIRELESS",
    "upgrade": "NULL_NA",
    "gnaf_pid": "GASA_425111137",
    "tech_change_status": "Not Planned",
    "program_type": "Fixed Wireless and Satellite Upgrade Program",
    "target_eligibility_quarter": "NA"
   }
  },
  {
   "type": "Feature",
   "geometry": {
    "type": "Point",
    "coordinates": [
     138.58616504,
     -33.4368242
    ]
   },
   "properties": {
    "name": "3874 R M WILLIAMS WAY SPALDING 5454",
    "locID": "LOC100021904406",
    "tech": "WIRELESS",
    "upgrade": "NULL_NA",
    "gnaf_pid": "GASA_425111138",
    "tech_change_status": "Not Planned",
    "program_type": "Fixed Wireless and Satellite Upgrade Program",
    "target_eligibility_quarter": "NA"
   }
  },
  {
   "type": "Feature",
   "geometry": {
    "type": "Point",
    "coordinates": [
     138.58475847,
     -33.42544323
    ]
   },
   "properties": {
    "name": "4001 R M WILLIAMS WAY SPALDING 5454",
    "locID": "LOC100057815941",
    "tech": "WIRELESS",
    "upgrade": "NULL_NA",
    "gnaf_pid": "GASA_425111139",
    "tech_change_status": "Not Planned",
    "program_type": "Fixed Wireless and Satellite Upgrade Program",
    "target_eligibility_quarter": "NA"
   }
  },
  {
   "type": "Feature",
   "geometry": {
    "type": "Point",
    "coordinates": [
     138.59930179,
     -33.51168645
    ]
   },
   "properties": {
    "name": "40 SANDSTONE ROAD SPALDING 5454",
    "locID": "LOC100071970884",
    "tech": "WIRELESS",
    "upgrade": "NULL_NA",
    "gnaf_pid": "GASA_425111518",
    "tech_change_status": "Not Planned",
    "program_type": "Fixed Wireless and Satellite Upgrade Program",
    "target_eligibility_quarter": "NA"
   }
  },
  {
   "type": "Feature",
   "geometry": {
    "type": "Point",
    "coordinates": [
     138.6721279,
     -33.53512451
    ]
   },
   "properties": {
    "name": "158 YAKILO HOMESTEAD ROAD SPALDING 5454",
    "locID": "LOC000150764597",
    "tech": "WIRELESS",
    "upgrade": "NULL_NA",
    "gnaf_pid": "GASA_425113718",
    "tech_change_status": "Not Planned",
    "program_type": "Fixed Wireless and Satellite Upgrade Program",
    "target_eligibility_quarter": "NA"
   }
  },
  {
   "type": "Feature",
   "geometry": {
    "type": "Point",
    "coordinates": [
     138.61293804,
     -33.50076629
    ]
   },
   "properties": {
    "name": "1-3 SHEILA STREET SPALDING 5454",
    "locID": "LOC100020821508",
    "tech": "WIRELESS",
    "upgrade": "NULL_NA",
    "gnaf_pid": "GASA_425396557",
    "tech_change_status": "Not Planned",
    "program_type": "Fixed Wireless and Satellite Upgrade Program",
    "target_eligibility_quarter": "NA"
   }
  },
  {
   "type": "Feature",
   "geometry": {
    "type": "Point",
    "coordinates": [
     138.60821625,
     -33.49860533
    ]
   },
   "properties": {
    "name": "16-18 MAIN STREET SPALDING 5454",
    "locID": "LOC000071898064",
    "tech": "WIRELESS",
    "upgrade": "NULL_NA",
    "gnaf_pid": "GASA_425443874",
    "tech_change_status": "Not Planned",
    "program_type": "Fixed Wireless and Satellite Upgrade Program",
    "target_eligibility_quarter": "NA"
   }
  },
  {
   "type": "Feature",
   "geometry": {
    "type": "Point",
    "coordinates": [
     138.60887532,
     -33.49933873
    ]
   },
   "properties": {
    "name": "44 GOVERNMENT ROAD SPALDING 5454",
    "locID": "LOC100078083390",
    "tech": "WIRELESS",
    "upgrade": "NULL_NA",
    "gnaf_pid": "GASA_425509216",
    "tech_change_status": "Not Planned",
    "program_type": "Fixed Wireless and Satellite Upgrade Program",
    "target_eligibility_quarter": "NA"
   }
  },
  {
   "type": "Feature",
   "geometry": {
    "type": "Point",
    "coordinates": [
     138.60839647,
     -33.49911596
    ]
   },
   "properties": {
    "name": "48 GOVERNMENT ROAD SPALDING 5454",
    "locID": "LOC100034694130",
    "tech": "WIRELESS",
    "upgrade": "NULL_NA",
    "gnaf_pid": "GASA_425509217",
    "tech_change_status": "Not Planned",
    "program_type": "Fixed Wireless and Satellite Upgrade Program",
    "target_eligibility_quarter": "NA"
   }
  },
  {
   "type": "Feature",
   "geometry": {
    "type": "Point",
    "coordinates": [
     138.61067719,
     -33.50148877
    ]
   },
   "properties": {
    "name": "LOT 547 GOVERNMENT ROAD SPALDING 5454",
    "locID": "LOC000009167367",
    "tech": "WIRELESS",
    "upgrade": "NULL_NA",
    "gnaf_pid": "GASA_425509223",
    "tech_change_status": "Not Planned",
    "program_type": "Fixed Wireless and Satellite Upgrade Program",
    "target_eligibility_quarter": "NA"
   }
  },
  {
   "type": "Feature",
   "geometry": {
    "type": "Point",
    "coordinates": [
     138.61483748,
     -33.50451889
    ]
   },
   "properties": {
    "name": "2 GOYDER HIGHWAY SPALDING 5454",
    "locID": "LOC000180576500",
    "tech": "WIRELESS",
    "upgrade": "NULL_NA",
    "gnaf_pid": "GASA_425629020",
    "tech_change_status": "Not Planned",
    "program_type": "Fixed Wireless and Satellite Upgrade Program",
    "target_eligibility_quarter": "NA"
   }
  },
  {
   "type": "Feature",
   "geometry": {
    "type": "Point",
    "coordinates": [
     138.66197081,
     -33.55951703
    ]
   },
   "properties": {
    "name": "LOT 515 GOYDER HIGHWAY SPALDING 5454",
    "locID": "LOC000178979180",
    "tech": "WIRELESS",
    "upgrade": "NULL_NA",
    "gnaf_pid": "GASA_425629022",
    "tech_change_status": "Not Planned",
    "program_type": "Fixed Wireless and Satellite Upgrade Program",
    "target_eligibility_quarter": "NA"
   }
  },
  {
   "type": "Feature",
   "geometry": {
    "type": "Point",
    "coordinates": [
     138.62369114,
     -33.52026874
    ]
   },
   "properties": {
    "name": "LOT 522 GOYDER HIGHWAY SPALDING 5454",
    "locID": "LOC000178979180",
    "tech": "WIRELESS",
    "upgrade": "NULL_NA",
    "gnaf_pid": "GASA_425629023",
    "tech_change_status": "Not Planned",
    "program_type": "Fixed Wireless and Satellite Upgrade Program",
    "target_eligibility_quarter": "NA"
   }
  },
  {
   "type": "Feature",
   "geometry": {
    "type": "Point",
    "coordinates": [
     138.62775547,
     -33.522353
    ]
   },
   "properties": {
    "name": "LOT 526 GOYDER HIGHWAY SPALDING 5454",
    "locID": "LOC000178979180",
    "tech": "WIRELESS",
    "upgrade": "NULL_NA",
    "gnaf_pid": "GASA_425629024",
    "tech_change_status": "Not Planned",
    "program_type": "Fixed Wireless and Satellite Upgrade Program",
    "target_eligibility_quarter": "NA"
   }
  },
  {
   "type": "Feature",
   "geometry": {
    "type": "Point",
    "coordinates": [
     138.6128525,
     -33.49718003
    ]
   },
   "properties": {
    "name": "4 HOWLEYS CROSSING ROAD SPALDING 5454",
    "locID": "LOC100078083319",
    "tech": "WIRELESS",
    "upgrade": "NULL_NA",
    "gnaf_pid": "GASA_425711193",
    "tech_change_status": "Not Planned",
    "program_type": "Fixed Wireless and Satellite Upgrade Program",
    "target_eligibility_quarter": "NA"
   }
  },
  {
   "type": "Feature",
   "geometry": {
    "type": "Point",
    "coordinates": [
     138.61097075,
     -33.50181253
    ]
   },
   "properties": {
    "name": "29-31 GOVERNMENT ROAD SPALDING 5454",
    "locID": "LOC100078083467",
    "tech": "WIRELESS",
    "upgrade": "NULL_NA",
    "gnaf_pid": "GASA_425717145",
    "tech_change_status": "Not Planned",
    "program_type": "Fixed Wireless and Satellite Upgrade Program",
    "target_eligibility_quarter": "NA"
   }
  },
  {
   "type": "Feature",
   "geometry": {
    "type": "Point",
    "coordinates": [
     138.61188158,
     -33.49660394
    ]
   },
   "properties": {
    "name": "LOT 1 EDGEWARE AVENUE SPALDING 5454",
    "locID": "LOC100076710231",
    "tech": "WIRELESS",
    "upgrade": "NULL_NA",
    "gnaf_pid": "GASA_425852491",
    "tech_change_status": "Not Planned",
    "program_type": "Fixed Wireless and Satellite Upgrade Program",
    "target_eligibility_quarter": "NA"
   }
  },
  {
   "type": "Feature",
   "geometry": {
    "type": "Point",
    "coordinates": [
     138.54254402,
     -33.47538142
    ]
   },
   "properties": {
    "name": "LOT 302 FROME CROSSING ROAD SPALDING 5454",
    "locID": "LOC000150247941",
    "tech": "WIRELESS",
    "upgrade": "NULL_NA",
    "gnaf_pid": "GASA_718981831",
    "tech_change_status": "Not Planned",
    "program_type": "Fixed Wireless and Satellite Upgrade Program",
    "target_eligibility_quarter": "NA"
   }
  },
  {
   "type": "Feature",
   "geometry": {
    "type": "Point",
    "coordinates": [
     138.61331589,
     -33.53450541
    ]
   },
   "properties": {
    "name": "LOT 339 R M WILLIAMS WAY SPALDING 5454",
    "locID": "LOC100079007160",
    "tech": "WIRELESS",
    "upgrade": "NULL_NA",
    "gnaf_pid": "GASA_718982318",
    "tech_change_status": "Not Planned",
    "program_type": "Fixed Wireless and Satellite Upgrade Program",
    "target_eligibility_quarter": "NA"
   }
  },
  {
   "type": "Feature",
   "geometry": {
    "type": "Point",
    "coordinates": [
     138.61069133,
     -33.5389419
    ]
   },
   "properties": {
    "name": "LOT 336 R M WILLIAMS WAY SPALDING 5454",
    "locID": "LOC100079007160",
    "tech": "WIRELESS",
    "upgrade": "NULL_NA",
    "gnaf_pid": "GASA_718983441",
    "tech_change_status": "Not Planned",
    "program_type": "Fixed Wireless and Satellite Upgrade Program",
    "target_eligibility_quarter": "NA"
   }
  },
  {
   "type": "Feature",
   "geometry": {
    "type": "Point",
    "coordinates": [
     138.61910673,
     -33.49653864
    ]
   },
   "properties": {
    "name": "2 HOWLEYS CROSSING ROAD SPALDING 5454",
    "locID": "LOC100078856338",
    "tech": "WIRELESS",
    "upgrade": "NULL_NA",
    "gnaf_pid": "GASA_719396282",
    "tech_change_status": "Not Planned",
    "program_type": "Fixed Wireless and Satellite Upgrade Program",
    "target_eligibility_quarter": "NA"
   }
  },
  {
   "type": "Feature",
   "geometry": {
    "type": "Point",
    "coordinates": [
     138.6076278,
     -33.4999286
    ]
   },
   "properties": {
    "name": "8 MAIN STREET SPALDING 5454",
    "locID": "LOC000131410183",
    "tech": "WIRELESS",
    "upgrade": "NULL_NA",
    "gnaf_pid": "GASA_719397338",
    "tech_change_status": "Not Planned",
    "program_type": "Fixed Wireless and Satellite Upgrade Program",
    "target_eligibility_quarter": "NA"
   }
  },
  {
   "type": "Feature",
   "geometry": {
    "type": "Point",
    "coordinates": [
     138.54147739,
     -33.47542528
    ]
   },
   "properties": {
    "name": "LOT 701 PAGES HILL ROAD SPALDING 5454",
    "locID": "LOC100079007207",
    "tech": "WIRELESS",
    "upgrade": "NULL_NA",
    "gnaf_pid": "GASA_719453006",
    "tech_change_status": "Not Planned",
    "program_type": "Fixed Wireless and Satellite Upgrade Program",
    "target_eligibility_quarter": "NA"
   }
  },
  {
   "type": "Feature",
   "geometry": {
    "type": "Point",
    "coordinates": [
     138.61063334,
     -33.4984973
    ]
   },
   "properties": {
    "name": "12 EDWIN STREET SPALDING 5454",
    "locID": "LOC000131387072",
    "tech": "WIRELESS",
    "upgrade": "NULL_NA",
    "gnaf_pid": "GASA_719514306",
    "tech_change_status": "Not Planned",
    "program_type": "Fixed Wireless and Satellite Upgrade Program",
    "target_eligibility_quarter": "NA"
   }
  },
  {
   "type": "Feature",
   "geometry": {
    "type": "Point",
    "coordinates": [
     138.61046036,
     -33.49970416
    ]
   },
   "properties": {
    "name": "1 EILEEN STREET SPALDING 5454",
    "locID": "LOC000073756924",
    "tech": "WIRELESS",
    "upgrade": "NULL_NA",
    "gnaf_pid": "GASA_719515941",
    "tech_change_status": "Not Planned",
    "program_type": "Fixed Wireless and Satellite Upgrade Program",
    "target_eligibility_quarter": "NA"
   }
  },
  {
   "type": "Feature",
   "geometry": {
    "type": "Point",
    "coordinates": [
     138.55993919,
     -33.46917795
    ]
   },
   "properties": {
    "name": "LOT 323 GOYDER HIGHWAY SPALDING 5454",
    "locID": "LOC000178979180",
    "tech": "WIRELESS",
    "upgrade": "NULL_NA",
    "gnaf_pid": "GASA_719516462",
    "tech_change_status": "Not Planned",
    "program_type": "Fixed Wireless and Satellite Upgrade Program",
    "target_eligibility_quarter": "NA"
   }
  },
  {
   "type": "Feature",
   "geometry": {
    "type": "Point",
    "coordinates": [
     138.5726781,
     -33.45240936
    ]
   },
   "properties": {
    "name": "LOT 310 GOYDER HIGHWAY SPALDING 5454",
    "locID": "LOC000178979180",
    "tech": "WIRELESS",
    "upgrade": "NULL_NA",
    "gnaf_pid": "GASA_719517194",
    "tech_change_status": "Not Planned",
    "program_type": "Fixed Wireless and Satellite Upgrade Program",
    "target_eligibility_quarter": "NA"
   }
  },
  {
   "type": "Feature",
   "geometry": {
    "type": "Point",
    "coordinates": [
     138.5783555,
     -33.46116079
    ]
   },
   "properties": {
    "name": "LOT 294 GOYDER HIGHWAY SPALDING 5454",
    "locID": "LOC000178979180",
    "tech": "WIRELESS",
    "upgrade": "NULL_NA",
    "gnaf_pid": "GASA_719517664",
    "tech_change_status": "Not Planned",
    "program_type": "Fixed Wireless and Satellite Upgrade Program",
    "target_eligibility_quarter": "NA"
   }
  },
  {
   "type": "Feature",
   "geometry": {
    "type": "Point",
    "coordinates": [
     138.57553422,
     -33.47379372
    ]
   },
   "properties": {
    "name": "LOT 320 GOYDER HIGHWAY SPALDING 5454",
    "locID": "LOC000178979180",
    "tech": "WIRELESS",
    "upgrade": "NULL_NA",
    "gnaf_pid": "GASA_719519786",
    "tech_change_status": "Not Planned",
    "program_type": "Fixed Wireless and Satellite Upgrade Program",
    "target_eligibility_quarter": "NA"
   }
  },
  {
   "type": "Feature",
   "geometry": {
    "type": "Point",
    "coordinates": [
     138.5557315,
     -33.47695831
    ]
   },
   "properties": {
    "name": "LOT 509 PAGES HILL ROAD SPALDING 5454",
    "locID": "LOC100079007207",
    "tech": "WIRELESS",
    "upgrade": "NULL_NA",
    "gnaf_pid": "GASA_719521275",
    "tech_change_status": "Not Planned",
    "program_type": "Fixed Wireless and Satellite Upgrade Program",
    "target_eligibility_quarter": "NA"
   }
  },
  {
   "type": "Feature",
   "geometry": {
    "type": "Point",
    "coordinates": [
     138.622414,
     -33.526277
    ]
   },
   "properties": {
    "name": "185 WENEDI ROAD SPALDING 5454",
    "locID": "LOC000178979179",
    "tech": "WIRELESS",
    "upgrade": "NULL_NA",
    "gnaf_pid": "GASA_719704577",
    "tech_change_status": "Not Planned",
    "program_type": "Fixed Wireless and Satellite Upgrade Program",
    "target_eligibility_quarter": "NA"
   }
  },
  {
   "type": "Feature",
   "geometry": {
    "type": "Point",
    "coordinates": [
     138.61054289,
     -33.50096702
    ]
   },
   "properties": {
    "name": "10 JOHN STREET SPALDING 5454",
    "locID": "LOC100078083422",
    "tech": "WIRELESS",
    "upgrade": "NULL_NA",
    "gnaf_pid": "GASA_719772137",
    "tech_change_status": "Not Planned",
    "program_type": "Fixed Wireless and Satellite Upgrade Program",
    "target_eligibility_quarter": "NA"
   }
  },
  {
   "type": "Feature",
   "geometry": {
    "type": "Point",
    "coordinates": [
     138.60841664,
     -33.49987691
    ]
   },
   "properties": {
    "name": "43 GOVERNMENT ROAD SPALDING 5454",
    "locID": "LOC100078645645",
    "tech": "WIRELESS",
    "upgrade": "NULL_NA",
    "gnaf_pid": "GASA_719773829",
    "tech_change_status": "Not Planned",
    "program_type": "Fixed Wireless and Satellite Upgrade Program",
    "target_eligibility_quarter": "NA"
   }
  },
  {
   "type": "Feature",
   "geometry": {
    "type": "Point",
    "coordinates": [
     138.60904874,
     -33.50008524
    ]
   },
   "properties": {
    "name": "39 GOVERNMENT ROAD SPALDING 5454",
    "locID": "LOC100069419934",
    "tech": "WIRELESS",
    "upgrade": "NULL_NA",
    "gnaf_pid": "GASA_719777242",
    "tech_change_status": "Not Planned",
    "program_type": "Fixed Wireless and Satellite Upgrade Program",
    "target_eligibility_quarter": "NA"
   }
  },
  {
   "type": "Feature",
   "geometry": {
    "type": "Point",
    "coordinates": [
     138.61134309,
     -33.5027544
    ]
   },
   "properties": {
    "name": "3 DAVIES TERRACE SPALDING 5454",
    "locID": "LOC000178758781",
    "tech": "WIRELESS",
    "upgrade": "NULL_NA",
    "gnaf_pid": "GASA_719777338",
    "tech_change_status": "Not Planned",
    "program_type": "Fixed Wireless and Satellite Upgrade Program",
    "target_eligibility_quarter": "NA"
   }
  },
  {
   "type": "Feature",
   "geometry": {
    "type": "Point",
    "coordinates": [
     138.58579165,
     -33.43595699
    ]
   },
   "properties": {
    "name": "LOT 288 R M WILLIAMS WAY SPALDING 5454",
    "locID": "LOC100079007160",
    "tech": "WIRELESS",
    "upgrade": "NULL_NA",
    "gnaf_pid": "GASA_720072810",
    "tech_change_status": "Not Planned",
    "program_type": "Fixed Wireless and Satellite Upgrade Program",
    "target_eligibility_quarter": "NA"
   }
  },
  {
   "type": "Feature",
   "geometry": {
    "type": "Point",
    "coordinates": [
     138.63378799,
     -33.52568794
    ]
   },
   "properties": {
    "name": "LOT 527 DEEP CREEK ROAD SPALDING 5454",
    "locID": "LOC100079108530",
    "tech": "WIRELESS",
    "upgrade": "NULL_NA",
    "gnaf_pid": "GASA_720072965",
    "tech_change_status": "Not Planned",
    "program_type": "Fixed Wireless and Satellite Upgrade Program",
    "target_eligibility_quarter": "NA"
   }
  },
  {
   "type": "Feature",
   "geometry": {
    "type": "Point",
    "coordinates": [
     138.66674491,
     -33.56375465
    ]
   },
   "properties": {
    "name": "LOT 7 MARBLE HILL ROAD SPALDING 5454",
    "locID": "LOC000150763460",
    "tech": "NULL",
    "upgrade": "NULL_NA",
    "gnaf_pid": "GASA_720073763",
    "tech_change_status": "Not Planned"
   }
  },
  {
   "type": "Feature",
   "geometry": {
    "type": "Point",
    "coordinates": [
     138.60693654,
     -33.49883314
    ]
   },
   "properties": {
    "name": "53 GOVERNMENT ROAD SPALDING 5454",
    "locID": "LOC100078083361",
    "tech": "WIRELESS",
    "upgrade": "NULL_NA",
    "gnaf_pid": "GASA_720074852",
    "tech_change_status": "Not Planned",
    "program_type": "Fixed Wireless and Satellite Upgrade Program",
    "target_eligibility_quarter": "NA"
   }
  },
  {
   "type": "Feature",
   "geometry": {
    "type": "Point",
    "coordinates": [
     138.60687137,
     -33.49968577
    ]
   },
   "properties": {
    "name": "11 MAIN STREET SPALDING 5454",
    "locID": "LOC100081558811",
    "tech": "WIRELESS",
    "upgrade": "NULL_NA",
    "gnaf_pid": "GASA_720189501",
    "tech_change_status": "Not Planned",
    "program_type": "Fixed Wireless and Satellite Upgrade Program",
    "target_eligibility_quarter": "NA"
   }
  },
  {
   "type": "Feature",
   "geometry": {
    "type": "Point",
    "coordinates": [
     138.61103943,
     -33.49632487
    ]
   },
   "properties": {
    "name": "1 EDGEWARE AVENUE SPALDING 5454",
    "locID": "LOC100076710231",
    "tech": "WIRELESS",
    "upgrade": "NULL_NA",
    "gnaf_pid": "GASA_720236041",
    "tech_change_status": "Not Planned",
    "program_type": "Fixed Wireless and Satellite Upgrade Program",
    "target_eligibility_quarter": "NA"
   }
  },
  {
   "type": "Feature",
   "geometry": {
    "type": "Point",
    "coordinates": [
     138.61313863,
     -33.5016037
    ]
   },
   "properties": {
    "name": "9 SHEILA STREET SPALDING 5454",
    "locID": "LOC100087447708",
    "tech": "WIRELESS",
    "upgrade": "NULL_NA",
    "gnaf_pid": "GASA_720236449",
    "tech_change_status": "Not Planned",
    "program_type": "Fixed Wireless and Satellite Upgrade Program",
    "target_eligibility_quarter": "NA"
   }
  },
  {
   "type": "Feature",
   "geometry": {
    "type": "Point",
    "coordinates": [
     138.54382196,
     -33.4745019
    ]
   },
   "properties": {
    "name": "LOT 110 PAGES HILL ROAD SPALDING 5454",
    "locID": "LOC100079007207",
    "tech": "WIRELESS",
    "upgrade": "NULL_NA",
    "gnaf_pid": "GASA_720303924",
    "tech_change_status": "Not Planned",
    "program_type": "Fixed Wireless and Satellite Upgrade Program",
    "target_eligibility_quarter": "NA"
   }
  },
  {
   "type": "Feature",
   "geometry": {
    "type": "Point",
    "coordinates": [
     138.591725,
     -33.465322
    ]
   },
   "properties": {
    "name": "5 HACKLINS CORNER ROAD SPALDING 5454",
    "locID": "LOC100078082850",
    "tech": "WIRELESS",
    "upgrade": "NULL_NA",
    "gnaf_pid": "GASA_720492488",
    "tech_change_status": "Not Planned",
    "program_type": "Fixed Wireless and Satellite Upgrade Program",
    "target_eligibility_quarter": "NA"
   }
  },
  {
   "type": "Feature",
   "geometry": {
    "type": "Point",
    "coordinates": [
     138.61044676,
     -33.50023048
    ]
   },
   "properties": {
    "name": "30-32 GOVERNMENT ROAD SPALDING 5454",
    "locID": "LOC000076977323",
    "tech": "WIRELESS",
    "upgrade": "NULL_NA",
    "gnaf_pid": "GASA_720585348",
    "tech_change_status": "Not Planned",
    "program_type": "Fixed Wireless and Satellite Upgrade Program",
    "target_eligibility_quarter": "NA"
   }
  },
  {
   "type": "Feature",
   "geometry": {
    "type": "Point",
    "coordinates": [
     138.61066096,
     -33.49929374
    ]
   },
   "properties": {
    "name": "3-5 EILEEN STREET SPALDING 5454",
    "locID": "LOC000039090626",
    "tech": "WIRELESS",
    "upgrade": "NULL_NA",
    "gnaf_pid": "GASA_720585862",
    "tech_change_status": "Not Planned",
    "program_type": "Fixed Wireless and Satellite Upgrade Program",
    "target_eligibility_quarter": "NA"
   }
  },
  {
   "type": "Feature",
   "geometry": {
    "type": "Point",
    "coordinates": [
     138.61137875,
     -33.50229938
    ]
   },
   "properties": {
    "name": "21-27 GOVERNMENT ROAD SPALDING 5454",
    "locID": "LOC000178831745",
    "tech": "WIRELESS",
    "upgrade": "NULL_NA",
    "gnaf_pid": "GASA_720585926",
    "tech_change_status": "Not Planned",
    "program_type": "Fixed Wireless and Satellite Upgrade Program",
    "target_eligibility_quarter": "NA"
   }
  },
  {
   "type": "Feature",
   "geometry": {
    "type": "Point",
    "coordinates": [
     138.61346109,
     -33.50286841
    ]
   },
   "properties": {
    "name": "7 WANDA TERRACE SPALDING 5454",
    "locID": "LOC100081979122",
    "tech": "WIRELESS",
    "upgrade": "NULL_NA",
    "gnaf_pid": "GASA_721112283",
    "tech_change_status": "Not Planned",
    "program_type": "Fixed Wireless and Satellite Upgrade Program",
    "target_eligibility_quarter": "NA"
   }
  }
 ]
}