{
 "type": "FeatureCollection",
 "generated": "2026-04-18T15:25:01.686775",
 "suburb": "SPENCE",
 "features": [
  {
   "type": "Feature",
   "geometry": {
    "type": "Point",
    "coordinates": [
     140.56298621,
     -37.03938623
    ]
   },
   "properties": {
    "name": "LOT 138 HEGGIES ROAD SPENCE 5271",
    "locID": "LOC000150247960",
    "tech": "NULL",
    "upgrade": "NULL_NA",
    "gnaf_pid": "GASA_424802601",
    "tech_change_status": "Not Planned"
   }
  },
  {
   "type": "Feature",
   "geometry": {
    "type": "Point",
    "coordinates": [
     140.59105751,
     -37.02444103
    ]
   },
   "properties": {
    "name": "LOT 80 HEGGIES ROAD SPENCE 5271",
    "locID": "LOC000150247960",
    "tech": "NULL",
    "upgrade": "NULL_NA",
    "gnaf_pid": "GASA_424802602",
    "tech_change_status": "Not Planned"
   }
  },
  {
   "type": "Feature",
   "geometry": {
    "type": "Point",
    "coordinates": [
     140.59105828,
     -36.99949445
    ]
   },
   "properties": {
    "name": "LOT 178 LUCINDALE ROAD SPENCE 5271",
    "locID": "LOC000150248001",
    "tech": "SATELLITE",
    "upgrade": "NULL_NA",
    "gnaf_pid": "GASA_424803555",
    "tech_change_status": "Not Planned"
   }
  },
  {
   "type": "Feature",
   "geometry": {
    "type": "Point",
    "coordinates": [
     140.60154619,
     -36.99951285
    ]
   },
   "properties": {
    "name": "LOT 310 LUCINDALE ROAD SPENCE 5271",
    "locID": "LOC000150248001",
    "tech": "SATELLITE",
    "upgrade": "NULL_NA",
    "gnaf_pid": "GASA_424803557",
    "tech_change_status": "Not Planned"
   }
  },
  {
   "type": "Feature",
   "geometry": {
    "type": "Point",
    "coordinates": [
     140.61051704,
     -36.99594531
    ]
   },
   "properties": {
    "name": "LOT 32 LUCINDALE ROAD SPENCE 5271",
    "locID": "LOC000150248001",
    "tech": "SATELLITE",
    "upgrade": "NULL_NA",
    "gnaf_pid": "GASA_424803558",
    "tech_change_status": "Not Planned"
   }
  },
  {
   "type": "Feature",
   "geometry": {
    "type": "Point",
    "coordinates": [
     140.48160676,
     -37.02995612
    ]
   },
   "properties": {
    "name": "LOT 1 SPENCE-COLES ROAD SPENCE 5271",
    "locID": "LOC000148244496",
    "tech": "NULL",
    "upgrade": "NULL_NA",
    "gnaf_pid": "GASA_424806151",
    "tech_change_status": "Not Planned"
   }
  },
  {
   "type": "Feature",
   "geometry": {
    "type": "Point",
    "coordinates": [
     140.54195255,
     -37.0264606
    ]
   },
   "properties": {
    "name": "LOT 3 TIVERS ROAD SPENCE 5271",
    "locID": "LOC000148399494",
    "tech": "NULL",
    "upgrade": "NULL_NA",
    "gnaf_pid": "GASA_424806797",
    "tech_change_status": "Not Planned"
   }
  },
  {
   "type": "Feature",
   "geometry": {
    "type": "Point",
    "coordinates": [
     140.53948919,
     -37.03393019
    ]
   },
   "properties": {
    "name": "LOT 4 TIVERS ROAD SPENCE 5271",
    "locID": "LOC000148250283",
    "tech": "SATELLITE",
    "upgrade": "NULL_NA",
    "gnaf_pid": "GASA_424806798",
    "tech_change_status": "Not Planned"
   }
  },
  {
   "type": "Feature",
   "geometry": {
    "type": "Point",
    "coordinates": [
     140.53137713,
     -37.0205732
    ]
   },
   "properties": {
    "name": "LOT 11 LUCINDALE ROAD SPENCE 5271",
    "locID": "LOC000150248001",
    "tech": "SATELLITE",
    "upgrade": "NULL_NA",
    "gnaf_pid": "GASA_424823453",
    "tech_change_status": "Not Planned"
   }
  },
  {
   "type": "Feature",
   "geometry": {
    "type": "Point",
    "coordinates": [
     140.53750815,
     -37.0194126
    ]
   },
   "properties": {
    "name": "LOT 12 LUCINDALE ROAD SPENCE 5271",
    "locID": "LOC000150248001",
    "tech": "SATELLITE",
    "upgrade": "NULL_NA",
    "gnaf_pid": "GASA_424823454",
    "tech_change_status": "Not Planned"
   }
  },
  {
   "type": "Feature",
   "geometry": {
    "type": "Point",
    "coordinates": [
     140.55947952,
     -37.15071489
    ]
   },
   "properties": {
    "name": "226 GOOSENECK SWAMP ROAD SPENCE 5271",
    "locID": "LOC000148246576",
    "tech": "NULL",
    "upgrade": "NULL_NA",
    "gnaf_pid": "GASA_425138521",
    "tech_change_status": "Not Planned"
   }
  },
  {
   "type": "Feature",
   "geometry": {
    "type": "Point",
    "coordinates": [
     140.58163807,
     -37.0314769
    ]
   },
   "properties": {
    "name": "310 HEGGIES ROAD SPENCE 5271",
    "locID": "LOC000150247960",
    "tech": "NULL",
    "upgrade": "NULL_NA",
    "gnaf_pid": "GASA_425138721",
    "tech_change_status": "Not Planned"
   }
  },
  {
   "type": "Feature",
   "geometry": {
    "type": "Point",
    "coordinates": [
     140.6005287,
     -37.03215569
    ]
   },
   "properties": {
    "name": "481 HEGGIES ROAD SPENCE 5271",
    "locID": "LOC000142380796",
    "tech": "SATELLITE",
    "upgrade": "NULL_NA",
    "gnaf_pid": "GASA_425138722",
    "tech_change_status": "Not Planned"
   }
  },
  {
   "type": "Feature",
   "geometry": {
    "type": "Point",
    "coordinates": [
     140.60371094,
     -37.03237601
    ]
   },
   "properties": {
    "name": "509 HEGGIES ROAD SPENCE 5271",
    "locID": "LOC000150247987",
    "tech": "WIRELESS",
    "upgrade": "NULL_NA",
    "gnaf_pid": "GASA_425138723",
    "tech_change_status": "Not Planned",
    "program_type": "Fixed Wireless and Satellite Upgrade Program",
    "target_eligibility_quarter": "NA"
   }
  },
  {
   "type": "Feature",
   "geometry": {
    "type": "Point",
    "coordinates": [
     140.58742772,
     -36.99969672
    ]
   },
   "properties": {
    "name": "1399 LUCINDALE ROAD SPENCE 5271",
    "locID": "LOC000150247994",
    "tech": "WIRELESS",
    "upgrade": "NULL_NA",
    "gnaf_pid": "GASA_425139199",
    "tech_change_status": "Not Planned",
    "program_type": "Fixed Wireless and Satellite Upgrade Program",
    "target_eligibility_quarter": "NA"
   }
  },
  {
   "type": "Feature",
   "geometry": {
    "type": "Point",
    "coordinates": [
     140.56701409,
     -37.00416525
    ]
   },
   "properties": {
    "name": "1591 LUCINDALE ROAD SPENCE 5271",
    "locID": "LOC000150248001",
    "tech": "SATELLITE",
    "upgrade": "NULL_NA",
    "gnaf_pid": "GASA_425139200",
    "tech_change_status": "Not Planned"
   }
  },
  {
   "type": "Feature",
   "geometry": {
    "type": "Point",
    "coordinates": [
     140.51348455,
     -37.01375027
    ]
   },
   "properties": {
    "name": "2097 LUCINDALE ROAD SPENCE 5271",
    "locID": "LOC000150248017",
    "tech": "NULL",
    "upgrade": "NULL_NA",
    "gnaf_pid": "GASA_425139201",
    "tech_change_status": "Not Planned"
   }
  },
  {
   "type": "Feature",
   "geometry": {
    "type": "Point",
    "coordinates": [
     140.5919363,
     -37.04574149
    ]
   },
   "properties": {
    "name": "149 SAUNDERS ROAD SPENCE 5271",
    "locID": "LOC000150248040",
    "tech": "WIRELESS",
    "upgrade": "NULL_NA",
    "gnaf_pid": "GASA_425140498",
    "tech_change_status": "Not Planned",
    "program_type": "Fixed Wireless and Satellite Upgrade Program",
    "target_eligibility_quarter": "NA"
   }
  },
  {
   "type": "Feature",
   "geometry": {
    "type": "Point",
    "coordinates": [
     140.59472934,
     -37.05417428
    ]
   },
   "properties": {
    "name": "246 SAUNDERS ROAD SPENCE 5271",
    "locID": "LOC000150248055",
    "tech": "NULL",
    "upgrade": "NULL_NA",
    "gnaf_pid": "GASA_425140499",
    "tech_change_status": "Not Planned"
   }
  },
  {
   "type": "Feature",
   "geometry": {
    "type": "Point",
    "coordinates": [
     140.60482973,
     -37.08366647
    ]
   },
   "properties": {
    "name": "584 SAUNDERS ROAD SPENCE 5271",
    "locID": "LOC000150248064",
    "tech": "NULL",
    "upgrade": "NULL_NA",
    "gnaf_pid": "GASA_425140500",
    "tech_change_status": "Not Planned"
   }
  },
  {
   "type": "Feature",
   "geometry": {
    "type": "Point",
    "coordinates": [
     140.52526629,
     -37.13557665
    ]
   },
   "properties": {
    "name": "1443 SPENCE-COLES ROAD SPENCE 5271",
    "locID": "LOC000148399402",
    "tech": "SATELLITE",
    "upgrade": "NULL_NA",
    "gnaf_pid": "GASA_425140720",
    "tech_change_status": "Not Planned"
   }
  },
  {
   "type": "Feature",
   "geometry": {
    "type": "Point",
    "coordinates": [
     140.53673359,
     -37.15728458
    ]
   },
   "properties": {
    "name": "1713 SPENCE-COLES ROAD SPENCE 5271",
    "locID": "LOC000148244828",
    "tech": "NULL",
    "upgrade": "NULL_NA",
    "gnaf_pid": "GASA_425140721",
    "tech_change_status": "Not Planned"
   }
  },
  {
   "type": "Feature",
   "geometry": {
    "type": "Point",
    "coordinates": [
     140.47728257,
     -37.03750995
    ]
   },
   "properties": {
    "name": "237 SPENCE-COLES ROAD SPENCE 5271",
    "locID": "LOC100079392843",
    "tech": "WIRELESS",
    "upgrade": "NULL_NA",
    "gnaf_pid": "GASA_425140724",
    "tech_change_status": "Not Planned",
    "program_type": "Fixed Wireless and Satellite Upgrade Program",
    "target_eligibility_quarter": "NA"
   }
  },
  {
   "type": "Feature",
   "geometry": {
    "type": "Point",
    "coordinates": [
     140.49398783,
     -37.08913728
    ]
   },
   "properties": {
    "name": "829 SPENCE-COLES ROAD SPENCE 5271",
    "locID": "LOC000148254261",
    "tech": "SATELLITE",
    "upgrade": "NULL_NA",
    "gnaf_pid": "GASA_425140725",
    "tech_change_status": "Not Planned"
   }
  },
  {
   "type": "Feature",
   "geometry": {
    "type": "Point",
    "coordinates": [
     140.54427068,
     -37.033758
    ]
   },
   "properties": {
    "name": "309 TIVERS ROAD SPENCE 5271",
    "locID": "LOC000148399494",
    "tech": "NULL",
    "upgrade": "NULL_NA",
    "gnaf_pid": "GASA_425141032",
    "tech_change_status": "Not Planned"
   }
  },
  {
   "type": "Feature",
   "geometry": {
    "type": "Point",
    "coordinates": [
     140.53523389,
     -37.04475217
    ]
   },
   "properties": {
    "name": "457 TIVERS ROAD SPENCE 5271",
    "locID": "LOC000148250283",
    "tech": "SATELLITE",
    "upgrade": "NULL_NA",
    "gnaf_pid": "GASA_425141033",
    "tech_change_status": "Not Planned"
   }
  },
  {
   "type": "Feature",
   "geometry": {
    "type": "Point",
    "coordinates": [
     140.53202274,
     -37.04783485
    ]
   },
   "properties": {
    "name": "500 TIVERS ROAD SPENCE 5271",
    "locID": "LOC000148399500",
    "tech": "NULL",
    "upgrade": "NULL_NA",
    "gnaf_pid": "GASA_425141034",
    "tech_change_status": "Not Planned"
   }
  },
  {
   "type": "Feature",
   "geometry": {
    "type": "Point",
    "coordinates": [
     140.5518664,
     -37.01364855
    ]
   },
   "properties": {
    "name": "54 TIVERS ROAD SPENCE 5271",
    "locID": "LOC000148399516",
    "tech": "SATELLITE",
    "upgrade": "NULL_NA",
    "gnaf_pid": "GASA_425141035",
    "tech_change_status": "Not Planned"
   }
  },
  {
   "type": "Feature",
   "geometry": {
    "type": "Point",
    "coordinates": [
     140.52231281,
     -37.05581607
    ]
   },
   "properties": {
    "name": "628 TIVERS ROAD SPENCE 5271",
    "locID": "LOC000148399537",
    "tech": "NULL",
    "upgrade": "NULL_NA",
    "gnaf_pid": "GASA_425141037",
    "tech_change_status": "Not Planned"
   }
  },
  {
   "type": "Feature",
   "geometry": {
    "type": "Point",
    "coordinates": [
     140.54699595,
     -37.07267923
    ]
   },
   "properties": {
    "name": "479 TULIP DOWNS ROAD SPENCE 5271",
    "locID": "LOC000148250502",
    "tech": "NULL",
    "upgrade": "NULL_NA",
    "gnaf_pid": "GASA_425141079",
    "tech_change_status": "Not Planned"
   }
  },
  {
   "type": "Feature",
   "geometry": {
    "type": "Point",
    "coordinates": [
     140.6118265,
     -37.19285414
    ]
   },
   "properties": {
    "name": "1437 COLES-KILLANOOLA ROAD SPENCE 5271",
    "locID": "LOC000148400121",
    "tech": "NULL",
    "upgrade": "NULL_NA",
    "gnaf_pid": "GASA_425187615",
    "tech_change_status": "Not Planned"
   }
  },
  {
   "type": "Feature",
   "geometry": {
    "type": "Point",
    "coordinates": [
     140.61187921,
     -37.17711568
    ]
   },
   "properties": {
    "name": "1611 COLES-KILLANOOLA ROAD SPENCE 5271",
    "locID": "LOC000148400132",
    "tech": "SATELLITE",
    "upgrade": "NULL_NA",
    "gnaf_pid": "GASA_425187617",
    "tech_change_status": "Not Planned"
   }
  },
  {
   "type": "Feature",
   "geometry": {
    "type": "Point",
    "coordinates": [
     140.62196565,
     -37.0590394
    ]
   },
   "properties": {
    "name": "360 CROOKED LANE SPENCE 5271",
    "locID": "LOC100072029875",
    "tech": "SATELLITE",
    "upgrade": "WIRELESS",
    "gnaf_pid": "GASA_425187875",
    "tech_change_status": "Eligible to Order",
    "program_type": "Fixed Wireless and Satellite Upgrade Program",
    "target_eligibility_quarter": "NA"
   }
  },
  {
   "type": "Feature",
   "geometry": {
    "type": "Point",
    "coordinates": [
     140.60920122,
     -37.1674813
    ]
   },
   "properties": {
    "name": "LOT 302 COLES-KILLANOOLA ROAD SPENCE 5271",
    "locID": "LOC000148400121",
    "tech": "NULL",
    "upgrade": "NULL_NA",
    "gnaf_pid": "GASA_720235327",
    "tech_change_status": "Not Planned"
   }
  },
  {
   "type": "Feature",
   "geometry": {
    "type": "Point",
    "coordinates": [
     140.60650676,
     -37.15605607
    ]
   },
   "properties": {
    "name": "LOT 300 COLES-KILLANOOLA ROAD SPENCE 5271",
    "locID": "LOC000148400121",
    "tech": "NULL",
    "upgrade": "NULL_NA",
    "gnaf_pid": "GASA_720235706",
    "tech_change_status": "Not Planned"
   }
  },
  {
   "type": "Feature",
   "geometry": {
    "type": "Point",
    "coordinates": [
     140.555432,
     -37.10055773
    ]
   },
   "properties": {
    "name": "LOT 169 SPENCE-COLES ROAD SPENCE 5271",
    "locID": "LOC000148244496",
    "tech": "NULL",
    "upgrade": "NULL_NA",
    "gnaf_pid": "GASA_720415900",
    "tech_change_status": "Not Planned"
   }
  },
  {
   "type": "Feature",
   "geometry": {
    "type": "Point",
    "coordinates": [
     140.57270683,
     -37.07733249
    ]
   },
   "properties": {
    "name": "LOT 11 TULIP DOWNS ROAD SPENCE 5271",
    "locID": "LOC000148250502",
    "tech": "NULL",
    "upgrade": "NULL_NA",
    "gnaf_pid": "GASA_720416604",
    "tech_change_status": "Not Planned"
   }
  },
  {
   "type": "Feature",
   "geometry": {
    "type": "Point",
    "coordinates": [
     140.53788757,
     -37.08408432
    ]
   },
   "properties": {
    "name": "LOT 179 SPENCE-COLES ROAD SPENCE 5271",
    "locID": "LOC000148244496",
    "tech": "NULL",
    "upgrade": "NULL_NA",
    "gnaf_pid": "GASA_720417154",
    "tech_change_status": "Not Planned"
   }
  },
  {
   "type": "Feature",
   "geometry": {
    "type": "Point",
    "coordinates": [
     140.612029,
     -37.163006
    ]
   },
   "properties": {
    "name": "546 BOOL LAGOON WEST ROAD SPENCE 5271",
    "locID": "LOC000142386653",
    "tech": "SATELLITE",
    "upgrade": "NULL_NA",
    "gnaf_pid": "GASA_721413662",
    "tech_change_status": "Not Planned"
   }
  }
 ]
}