{
 "type": "FeatureCollection",
 "generated": "2024-11-14T06:49:42.184667",
 "suburb": "TORRENS VALE",
 "features": [
  {
   "type": "Feature",
   "geometry": {
    "type": "Point",
    "coordinates": [
     138.37144254,
     -35.50774538
    ]
   },
   "properties": {
    "name": "LOT 396 DAIRY FLAT ROAD TORRENS VALE 5203",
    "locID": "LOC000130671754",
    "tech": "SATELLITE",
    "upgrade": "NULL_NA",
    "gnaf_pid": "GASA_424165938",
    "tech_change_status": "Not Planned"
   }
  },
  {
   "type": "Feature",
   "geometry": {
    "type": "Point",
    "coordinates": [
     138.37981761,
     -35.50496513
    ]
   },
   "properties": {
    "name": "LOT 2 TORRENS VALE ROAD TORRENS VALE 5203",
    "locID": "LOC000188940288",
    "tech": "WIRELESS",
    "upgrade": "NULL_NA",
    "gnaf_pid": "GASA_424216216",
    "tech_change_status": "Not Planned",
    "program_type": "Fixed Wireless and Satellite Upgrade Program",
    "target_eligibility_quarter": "NA"
   }
  },
  {
   "type": "Feature",
   "geometry": {
    "type": "Point",
    "coordinates": [
     138.38315839,
     -35.5087287
    ]
   },
   "properties": {
    "name": "LOT 8 TORRENS VALE ROAD TORRENS VALE 5203",
    "locID": "LOC000060396074",
    "tech": "NULL",
    "upgrade": "NULL_NA",
    "gnaf_pid": "GASA_424216218",
    "tech_change_status": "Not Planned"
   }
  },
  {
   "type": "Feature",
   "geometry": {
    "type": "Point",
    "coordinates": [
     138.37820706,
     -35.53207668
    ]
   },
   "properties": {
    "name": "LOT 1625 PARAWA ROAD TORRENS VALE 5203",
    "locID": "LOC000012641606",
    "tech": "SATELLITE",
    "upgrade": "NULL_NA",
    "gnaf_pid": "GASA_424323721",
    "tech_change_status": "Not Planned"
   }
  },
  {
   "type": "Feature",
   "geometry": {
    "type": "Point",
    "coordinates": [
     138.37744284,
     -35.50070361
    ]
   },
   "properties": {
    "name": "11 FANNYSIDE ROAD TORRENS VALE 5203",
    "locID": "LOC000106915271",
    "tech": "WIRELESS",
    "upgrade": "NULL_NA",
    "gnaf_pid": "GASA_424657876",
    "tech_change_status": "Not Planned",
    "program_type": "Fixed Wireless and Satellite Upgrade Program",
    "target_eligibility_quarter": "NA"
   }
  },
  {
   "type": "Feature",
   "geometry": {
    "type": "Point",
    "coordinates": [
     138.37617856,
     -35.50065076
    ]
   },
   "properties": {
    "name": "24 FANNYSIDE ROAD TORRENS VALE 5203",
    "locID": "LOC000026162357",
    "tech": "WIRELESS",
    "upgrade": "NULL_NA",
    "gnaf_pid": "GASA_424657877",
    "tech_change_status": "Not Planned",
    "program_type": "Fixed Wireless and Satellite Upgrade Program",
    "target_eligibility_quarter": "NA"
   }
  },
  {
   "type": "Feature",
   "geometry": {
    "type": "Point",
    "coordinates": [
     138.41038025,
     -35.51165851
    ]
   },
   "properties": {
    "name": "130 NOSWORTHY ROAD TORRENS VALE 5203",
    "locID": "LOC000009266211",
    "tech": "NULL",
    "upgrade": "NULL_NA",
    "gnaf_pid": "GASA_424662356",
    "tech_change_status": "Not Planned"
   }
  },
  {
   "type": "Feature",
   "geometry": {
    "type": "Point",
    "coordinates": [
     138.41169723,
     -35.51409387
    ]
   },
   "properties": {
    "name": "160 NOSWORTHY ROAD TORRENS VALE 5203",
    "locID": "LOC000032472202",
    "tech": "WIRELESS",
    "upgrade": "NULL_NA",
    "gnaf_pid": "GASA_424662357",
    "tech_change_status": "Not Planned",
    "program_type": "Fixed Wireless and Satellite Upgrade Program",
    "target_eligibility_quarter": "NA"
   }
  },
  {
   "type": "Feature",
   "geometry": {
    "type": "Point",
    "coordinates": [
     138.41916528,
     -35.51586176
    ]
   },
   "properties": {
    "name": "232 NOSWORTHY ROAD TORRENS VALE 5203",
    "locID": "LOC000062473680",
    "tech": "WIRELESS",
    "upgrade": "NULL_NA",
    "gnaf_pid": "GASA_424662358",
    "tech_change_status": "Not Planned"
   }
  },
  {
   "type": "Feature",
   "geometry": {
    "type": "Point",
    "coordinates": [
     138.38751233,
     -35.52899371
    ]
   },
   "properties": {
    "name": "119 PARAWA ROAD TORRENS VALE 5203",
    "locID": "LOC000098536114",
    "tech": "WIRELESS",
    "upgrade": "NULL_NA",
    "gnaf_pid": "GASA_424662833",
    "tech_change_status": "Not Planned",
    "program_type": "Fixed Wireless and Satellite Upgrade Program",
    "target_eligibility_quarter": "NA"
   }
  },
  {
   "type": "Feature",
   "geometry": {
    "type": "Point",
    "coordinates": [
     138.38582539,
     -35.53011001
    ]
   },
   "properties": {
    "name": "139 PARAWA ROAD TORRENS VALE 5203",
    "locID": "LOC000012641606",
    "tech": "SATELLITE",
    "upgrade": "NULL_NA",
    "gnaf_pid": "GASA_424662834",
    "tech_change_status": "Not Planned"
   }
  },
  {
   "type": "Feature",
   "geometry": {
    "type": "Point",
    "coordinates": [
     138.38522102,
     -35.53037107
    ]
   },
   "properties": {
    "name": "144 PARAWA ROAD TORRENS VALE 5203",
    "locID": "LOC000026734941",
    "tech": "NULL",
    "upgrade": "NULL_NA",
    "gnaf_pid": "GASA_424662835",
    "tech_change_status": "Not Planned"
   }
  },
  {
   "type": "Feature",
   "geometry": {
    "type": "Point",
    "coordinates": [
     138.392488,
     -35.521962
    ]
   },
   "properties": {
    "name": "30 PARAWA ROAD TORRENS VALE 5203",
    "locID": "LOC000011760216",
    "tech": "SATELLITE",
    "upgrade": "WIRELESS",
    "gnaf_pid": "GASA_424662839",
    "tech_change_status": "Eligible to Order",
    "program_type": "Fixed Wireless and Satellite Upgrade Program",
    "target_eligibility_quarter": "NA"
   }
  },
  {
   "type": "Feature",
   "geometry": {
    "type": "Point",
    "coordinates": [
     138.37560106,
     -35.54475149
    ]
   },
   "properties": {
    "name": "335 PARAWA ROAD TORRENS VALE 5203",
    "locID": "LOC000038593276",
    "tech": "WIRELESS",
    "upgrade": "NULL_NA",
    "gnaf_pid": "GASA_424662840",
    "tech_change_status": "Not Planned",
    "program_type": "Fixed Wireless and Satellite Upgrade Program",
    "target_eligibility_quarter": "NA"
   }
  },
  {
   "type": "Feature",
   "geometry": {
    "type": "Point",
    "coordinates": [
     138.37018633,
     -35.54617344
    ]
   },
   "properties": {
    "name": "388 PARAWA ROAD TORRENS VALE 5203",
    "locID": "LOC000166644253",
    "tech": "SATELLITE",
    "upgrade": "WIRELESS",
    "gnaf_pid": "GASA_424662841",
    "tech_change_status": "Eligible to Order",
    "program_type": "Fixed Wireless and Satellite Upgrade Program",
    "target_eligibility_quarter": "NA"
   }
  },
  {
   "type": "Feature",
   "geometry": {
    "type": "Point",
    "coordinates": [
     138.38859805,
     -35.51266057
    ]
   },
   "properties": {
    "name": "198 SAMPSON HILL ROAD TORRENS VALE 5203",
    "locID": "LOC000041388993",
    "tech": "NULL",
    "upgrade": "NULL_NA",
    "gnaf_pid": "GASA_424664053",
    "tech_change_status": "Not Planned"
   }
  },
  {
   "type": "Feature",
   "geometry": {
    "type": "Point",
    "coordinates": [
     138.40417,
     -35.523314
    ]
   },
   "properties": {
    "name": "105 STONE ROAD TORRENS VALE 5203",
    "locID": "LOC000062406934",
    "tech": "SATELLITE",
    "upgrade": "NULL_NA",
    "gnaf_pid": "GASA_424665009",
    "tech_change_status": "Not Planned"
   }
  },
  {
   "type": "Feature",
   "geometry": {
    "type": "Point",
    "coordinates": [
     138.40960276,
     -35.52548782
    ]
   },
   "properties": {
    "name": "172 STONE ROAD TORRENS VALE 5203",
    "locID": "LOC000039184367",
    "tech": "SATELLITE",
    "upgrade": "NULL_NA",
    "gnaf_pid": "GASA_424665010",
    "tech_change_status": "Not Planned"
   }
  },
  {
   "type": "Feature",
   "geometry": {
    "type": "Point",
    "coordinates": [
     138.4018243,
     -35.52359528
    ]
   },
   "properties": {
    "name": "82 STONE ROAD TORRENS VALE 5203",
    "locID": "LOC000090813963",
    "tech": "WIRELESS",
    "upgrade": "NULL_NA",
    "gnaf_pid": "GASA_424665011",
    "tech_change_status": "Not Planned",
    "program_type": "Fixed Wireless and Satellite Upgrade Program",
    "target_eligibility_quarter": "NA"
   }
  },
  {
   "type": "Feature",
   "geometry": {
    "type": "Point",
    "coordinates": [
     138.41609154,
     -35.52166033
    ]
   },
   "properties": {
    "name": "107 TAVERNER ROAD TORRENS VALE 5203",
    "locID": "LOC000011206806",
    "tech": "SATELLITE",
    "upgrade": "NULL_NA",
    "gnaf_pid": "GASA_424665300",
    "tech_change_status": "Not Planned"
   }
  },
  {
   "type": "Feature",
   "geometry": {
    "type": "Point",
    "coordinates": [
     138.41004694,
     -35.52380714
    ]
   },
   "properties": {
    "name": "167 TAVERNER ROAD TORRENS VALE 5203",
    "locID": "LOC000032074118",
    "tech": "NULL",
    "upgrade": "NULL_NA",
    "gnaf_pid": "GASA_424665301",
    "tech_change_status": "Not Planned"
   }
  },
  {
   "type": "Feature",
   "geometry": {
    "type": "Point",
    "coordinates": [
     138.4238118,
     -35.51788522
    ]
   },
   "properties": {
    "name": "21 TAVERNER ROAD TORRENS VALE 5203",
    "locID": "LOC000004338936",
    "tech": "WIRELESS",
    "upgrade": "NULL_NA",
    "gnaf_pid": "GASA_424665302",
    "tech_change_status": "Not Planned"
   }
  },
  {
   "type": "Feature",
   "geometry": {
    "type": "Point",
    "coordinates": [
     138.4177846,
     -35.5203962
    ]
   },
   "properties": {
    "name": "86 TAVERNER ROAD TORRENS VALE 5203",
    "locID": "LOC000060396074",
    "tech": "NULL",
    "upgrade": "NULL_NA",
    "gnaf_pid": "GASA_424665303",
    "tech_change_status": "Not Planned"
   }
  },
  {
   "type": "Feature",
   "geometry": {
    "type": "Point",
    "coordinates": [
     138.37883748,
     -35.50217218
    ]
   },
   "properties": {
    "name": "126 TORRENS VALE ROAD TORRENS VALE 5203",
    "locID": "LOC000043161979",
    "tech": "WIRELESS",
    "upgrade": "NULL_NA",
    "gnaf_pid": "GASA_424665683",
    "tech_change_status": "Not Planned",
    "program_type": "Fixed Wireless and Satellite Upgrade Program",
    "target_eligibility_quarter": "NA"
   }
  },
  {
   "type": "Feature",
   "geometry": {
    "type": "Point",
    "coordinates": [
     138.37896912,
     -35.50228761
    ]
   },
   "properties": {
    "name": "127 TORRENS VALE ROAD TORRENS VALE 5203",
    "locID": "LOC000086043769",
    "tech": "WIRELESS",
    "upgrade": "NULL_NA",
    "gnaf_pid": "GASA_424665684",
    "tech_change_status": "Not Planned",
    "program_type": "Fixed Wireless and Satellite Upgrade Program",
    "target_eligibility_quarter": "NA"
   }
  },
  {
   "type": "Feature",
   "geometry": {
    "type": "Point",
    "coordinates": [
     138.37920604,
     -35.50391237
    ]
   },
   "properties": {
    "name": "145 TORRENS VALE ROAD TORRENS VALE 5203",
    "locID": "LOC000078368483",
    "tech": "WIRELESS",
    "upgrade": "NULL_NA",
    "gnaf_pid": "GASA_424665685",
    "tech_change_status": "Not Planned",
    "program_type": "Fixed Wireless and Satellite Upgrade Program",
    "target_eligibility_quarter": "NA"
   }
  },
  {
   "type": "Feature",
   "geometry": {
    "type": "Point",
    "coordinates": [
     138.38282726,
     -35.50916751
    ]
   },
   "properties": {
    "name": "217 TORRENS VALE ROAD TORRENS VALE 5203",
    "locID": "LOC000068054505",
    "tech": "SATELLITE",
    "upgrade": "NULL_NA",
    "gnaf_pid": "GASA_424665686",
    "tech_change_status": "Not Planned"
   }
  },
  {
   "type": "Feature",
   "geometry": {
    "type": "Point",
    "coordinates": [
     138.3878729,
     -35.51334951
    ]
   },
   "properties": {
    "name": "281 TORRENS VALE ROAD TORRENS VALE 5203",
    "locID": "LOC000048912435",
    "tech": "NULL",
    "upgrade": "NULL_NA",
    "gnaf_pid": "GASA_424665687",
    "tech_change_status": "Not Planned"
   }
  },
  {
   "type": "Feature",
   "geometry": {
    "type": "Point",
    "coordinates": [
     138.38995235,
     -35.51519412
    ]
   },
   "properties": {
    "name": "310 TORRENS VALE ROAD TORRENS VALE 5203",
    "locID": "LOC000098661707",
    "tech": "WIRELESS",
    "upgrade": "NULL_NA",
    "gnaf_pid": "GASA_424665688",
    "tech_change_status": "Not Planned",
    "program_type": "Fixed Wireless and Satellite Upgrade Program",
    "target_eligibility_quarter": "NA"
   }
  },
  {
   "type": "Feature",
   "geometry": {
    "type": "Point",
    "coordinates": [
     138.39196978,
     -35.51740782
    ]
   },
   "properties": {
    "name": "340 TORRENS VALE ROAD TORRENS VALE 5203",
    "locID": "LOC000042512277",
    "tech": "SATELLITE",
    "upgrade": "WIRELESS",
    "gnaf_pid": "GASA_424665689",
    "tech_change_status": "Eligible to Order",
    "program_type": "Fixed Wireless and Satellite Upgrade Program",
    "target_eligibility_quarter": "NA"
   }
  },
  {
   "type": "Feature",
   "geometry": {
    "type": "Point",
    "coordinates": [
     138.38015504,
     -35.49496759
    ]
   },
   "properties": {
    "name": "39 TORRENS VALE ROAD TORRENS VALE 5203",
    "locID": "LOC000104055633",
    "tech": "WIRELESS",
    "upgrade": "NULL_NA",
    "gnaf_pid": "GASA_424665690",
    "tech_change_status": "Not Planned",
    "program_type": "Fixed Wireless and Satellite Upgrade Program",
    "target_eligibility_quarter": "NA"
   }
  },
  {
   "type": "Feature",
   "geometry": {
    "type": "Point",
    "coordinates": [
     138.38092648,
     -35.50824406
    ]
   },
   "properties": {
    "name": "498 DAIRY FLAT ROAD TORRENS VALE 5203",
    "locID": "LOC000114040261",
    "tech": "SATELLITE",
    "upgrade": "WIRELESS",
    "gnaf_pid": "GASA_424698571",
    "tech_change_status": "Eligible to Order",
    "program_type": "Fixed Wireless and Satellite Upgrade Program",
    "target_eligibility_quarter": "NA"
   }
  },
  {
   "type": "Feature",
   "geometry": {
    "type": "Point",
    "coordinates": [
     138.37914871,
     -35.50337952
    ]
   },
   "properties": {
    "name": "139 TORRENS VALE ROAD TORRENS VALE 5203",
    "locID": "LOC000116242871",
    "tech": "WIRELESS",
    "upgrade": "NULL_NA",
    "gnaf_pid": "GASA_424828978",
    "tech_change_status": "Not Planned",
    "program_type": "Fixed Wireless and Satellite Upgrade Program",
    "target_eligibility_quarter": "NA"
   }
  },
  {
   "type": "Feature",
   "geometry": {
    "type": "Point",
    "coordinates": [
     138.401572,
     -35.523352
    ]
   },
   "properties": {
    "name": "79 STONE ROAD TORRENS VALE 5203",
    "locID": "LOC000130612528",
    "tech": "NULL",
    "upgrade": "NULL_NA",
    "gnaf_pid": "GASA_424925761",
    "tech_change_status": "Not Planned"
   }
  },
  {
   "type": "Feature",
   "geometry": {
    "type": "Point",
    "coordinates": [
     138.373881,
     -35.50040085
    ]
   },
   "properties": {
    "name": "45 FANNYSIDE ROAD TORRENS VALE 5203",
    "locID": "LOC000130675531",
    "tech": "WIRELESS",
    "upgrade": "NULL_NA",
    "gnaf_pid": "GASA_719184385",
    "tech_change_status": "Not Planned",
    "program_type": "Fixed Wireless and Satellite Upgrade Program",
    "target_eligibility_quarter": "NA"
   }
  },
  {
   "type": "Feature",
   "geometry": {
    "type": "Point",
    "coordinates": [
     138.37131303,
     -35.50647087
    ]
   },
   "properties": {
    "name": "LOT 52 SALT CREEK ROAD TORRENS VALE 5203",
    "locID": "LOC000177479628",
    "tech": "WIRELESS",
    "upgrade": "NULL_NA",
    "gnaf_pid": "GASA_719397419",
    "tech_change_status": "Not Planned",
    "program_type": "Fixed Wireless and Satellite Upgrade Program",
    "target_eligibility_quarter": "NA"
   }
  },
  {
   "type": "Feature",
   "geometry": {
    "type": "Point",
    "coordinates": [
     138.36716433,
     -35.50428073
    ]
   },
   "properties": {
    "name": "52 SALT CREEK ROAD TORRENS VALE 5203",
    "locID": "LOC000177479628",
    "tech": "WIRELESS",
    "upgrade": "NULL_NA",
    "gnaf_pid": "GASA_719652367",
    "tech_change_status": "Not Planned",
    "program_type": "Fixed Wireless and Satellite Upgrade Program",
    "target_eligibility_quarter": "NA"
   }
  },
  {
   "type": "Feature",
   "geometry": {
    "type": "Point",
    "coordinates": [
     138.399415,
     -35.51787034
    ]
   },
   "properties": {
    "name": "LOT 1608 STONE ROAD TORRENS VALE 5203",
    "locID": "LOC000062406934",
    "tech": "SATELLITE",
    "upgrade": "NULL_NA",
    "gnaf_pid": "GASA_720846745",
    "tech_change_status": "Not Planned"
   }
  },
  {
   "type": "Feature",
   "geometry": {
    "type": "Point",
    "coordinates": [
     138.379068,
     -35.503703
    ]
   },
   "properties": {
    "name": "142 TORRENS VALE ROAD TORRENS VALE 5203",
    "locID": "LOC100081509501",
    "tech": "WIRELESS",
    "upgrade": "NULL_NA",
    "gnaf_pid": "GASA_720847037",
    "tech_change_status": "Not Planned",
    "program_type": "Fixed Wireless and Satellite Upgrade Program",
    "target_eligibility_quarter": "NA"
   }
  }
 ]
}