{
 "type": "FeatureCollection",
 "generated": "2026-04-18T17:24:08.249975",
 "suburb": "WANDANA",
 "features": [
  {
   "type": "Feature",
   "geometry": {
    "type": "Point",
    "coordinates": [
     133.79194099,
     -31.86763224
    ]
   },
   "properties": {
    "name": "LOT 11 OTC ROAD WANDANA 5690",
    "locID": "LOC000179586275",
    "tech": "WIRELESS",
    "upgrade": "NULL_NA",
    "gnaf_pid": "GASA_424198328",
    "tech_change_status": "Not Planned",
    "program_type": "Fixed Wireless and Satellite Upgrade Program",
    "target_eligibility_quarter": "NA"
   }
  },
  {
   "type": "Feature",
   "geometry": {
    "type": "Point",
    "coordinates": [
     133.79085125,
     -31.96868062
    ]
   },
   "properties": {
    "name": "LOT 1 OTC ROAD WANDANA 5690",
    "locID": "LOC000116355554",
    "tech": "SATELLITE",
    "upgrade": "NULL_NA",
    "gnaf_pid": "GASA_424323396",
    "tech_change_status": "Not Planned"
   }
  },
  {
   "type": "Feature",
   "geometry": {
    "type": "Point",
    "coordinates": [
     133.81807979,
     -31.95578886
    ]
   },
   "properties": {
    "name": "LOT 63 OTC ROAD WANDANA 5690",
    "locID": "LOC000116355554",
    "tech": "SATELLITE",
    "upgrade": "NULL_NA",
    "gnaf_pid": "GASA_424323402",
    "tech_change_status": "Not Planned"
   }
  },
  {
   "type": "Feature",
   "geometry": {
    "type": "Point",
    "coordinates": [
     133.79115403,
     -32.0223305
    ]
   },
   "properties": {
    "name": "LOT 67 OTC ROAD WANDANA 5690",
    "locID": "LOC000116355554",
    "tech": "SATELLITE",
    "upgrade": "NULL_NA",
    "gnaf_pid": "GASA_424323404",
    "tech_change_status": "Not Planned"
   }
  },
  {
   "type": "Feature",
   "geometry": {
    "type": "Point",
    "coordinates": [
     133.78155873,
     -32.01062967
    ]
   },
   "properties": {
    "name": "LOT 68 OTC ROAD WANDANA 5690",
    "locID": "LOC000116355554",
    "tech": "SATELLITE",
    "upgrade": "NULL_NA",
    "gnaf_pid": "GASA_424323405",
    "tech_change_status": "Not Planned"
   }
  },
  {
   "type": "Feature",
   "geometry": {
    "type": "Point",
    "coordinates": [
     133.79797083,
     -31.93616017
    ]
   },
   "properties": {
    "name": "1121 BEATTIE ROAD WANDANA 5690",
    "locID": "LOC000116365280",
    "tech": "SATELLITE",
    "upgrade": "NULL_NA",
    "gnaf_pid": "GASA_424833315",
    "tech_change_status": "Not Planned"
   }
  },
  {
   "type": "Feature",
   "geometry": {
    "type": "Point",
    "coordinates": [
     133.82858748,
     -32.0512341
    ]
   },
   "properties": {
    "name": "675 GEUE ROAD WANDANA 5690",
    "locID": "LOC000116365641",
    "tech": "SATELLITE",
    "upgrade": "NULL_NA",
    "gnaf_pid": "GASA_424835056",
    "tech_change_status": "Not Planned"
   }
  },
  {
   "type": "Feature",
   "geometry": {
    "type": "Point",
    "coordinates": [
     133.8604738,
     -32.05075591
    ]
   },
   "properties": {
    "name": "976 GEUE ROAD WANDANA 5690",
    "locID": "LOC000116349711",
    "tech": "NULL",
    "upgrade": "NULL_NA",
    "gnaf_pid": "GASA_424835057",
    "tech_change_status": "Not Planned"
   }
  },
  {
   "type": "Feature",
   "geometry": {
    "type": "Point",
    "coordinates": [
     133.76529985,
     -32.03669036
    ]
   },
   "properties": {
    "name": "1152 OTC ROAD WANDANA 5690",
    "locID": "LOC000116365320",
    "tech": "WIRELESS",
    "upgrade": "NULL_NA",
    "gnaf_pid": "GASA_424837205",
    "tech_change_status": "Not Planned",
    "program_type": "Fixed Wireless and Satellite Upgrade Program",
    "target_eligibility_quarter": "NA"
   }
  },
  {
   "type": "Feature",
   "geometry": {
    "type": "Point",
    "coordinates": [
     133.7730626,
     -32.0286479
    ]
   },
   "properties": {
    "name": "1266 OTC ROAD WANDANA 5690",
    "locID": "LOC000116365438",
    "tech": "SATELLITE",
    "upgrade": "NULL_NA",
    "gnaf_pid": "GASA_424837206",
    "tech_change_status": "Not Planned"
   }
  },
  {
   "type": "Feature",
   "geometry": {
    "type": "Point",
    "coordinates": [
     133.8007867,
     -31.99839034
    ]
   },
   "properties": {
    "name": "1693 OTC ROAD WANDANA 5690",
    "locID": "LOC000116350456",
    "tech": "SATELLITE",
    "upgrade": "NULL_NA",
    "gnaf_pid": "GASA_424837207",
    "tech_change_status": "Not Planned"
   }
  },
  {
   "type": "Feature",
   "geometry": {
    "type": "Point",
    "coordinates": [
     133.81718502,
     -31.97063923
    ]
   },
   "properties": {
    "name": "2071 OTC ROAD WANDANA 5690",
    "locID": "LOC000116350585",
    "tech": "SATELLITE",
    "upgrade": "NULL_NA",
    "gnaf_pid": "GASA_424837208",
    "tech_change_status": "Not Planned"
   }
  },
  {
   "type": "Feature",
   "geometry": {
    "type": "Point",
    "coordinates": [
     133.81932573,
     -31.89241679
    ]
   },
   "properties": {
    "name": "2944 OTC ROAD WANDANA 5690",
    "locID": "LOC000116355554",
    "tech": "SATELLITE",
    "upgrade": "NULL_NA",
    "gnaf_pid": "GASA_424837209",
    "tech_change_status": "Not Planned"
   }
  },
  {
   "type": "Feature",
   "geometry": {
    "type": "Point",
    "coordinates": [
     133.81398057,
     -31.87988754
    ]
   },
   "properties": {
    "name": "3092 OTC ROAD WANDANA 5690",
    "locID": "LOC000116355605",
    "tech": "NULL",
    "upgrade": "NULL_NA",
    "gnaf_pid": "GASA_424837210",
    "tech_change_status": "Not Planned"
   }
  },
  {
   "type": "Feature",
   "geometry": {
    "type": "Point",
    "coordinates": [
     133.8393105,
     -32.005731
    ]
   },
   "properties": {
    "name": "1550 MCINERNEY ROAD WANDANA 5690",
    "locID": "LOC000131732593",
    "tech": "SATELLITE",
    "upgrade": "NULL_NA",
    "gnaf_pid": "GASA_424958612",
    "tech_change_status": "Not Planned"
   }
  },
  {
   "type": "Feature",
   "geometry": {
    "type": "Point",
    "coordinates": [
     133.76915214,
     -32.09475353
    ]
   },
   "properties": {
    "name": "LOT 1 SCHWARZ HILL ROAD WANDANA 5690",
    "locID": "LOC000149121008",
    "tech": "WIRELESS",
    "upgrade": "NULL_NA",
    "gnaf_pid": "GASA_425068702",
    "tech_change_status": "Not Planned",
    "program_type": "Fixed Wireless and Satellite Upgrade Program",
    "target_eligibility_quarter": "NA"
   }
  },
  {
   "type": "Feature",
   "geometry": {
    "type": "Point",
    "coordinates": [
     133.77136083,
     -32.06339605
    ]
   },
   "properties": {
    "name": "LOT 38 SCHWARZ HILL ROAD WANDANA 5690",
    "locID": "LOC000131729969",
    "tech": "SATELLITE",
    "upgrade": "NULL_NA",
    "gnaf_pid": "GASA_425068707",
    "tech_change_status": "Not Planned"
   }
  },
  {
   "type": "Feature",
   "geometry": {
    "type": "Point",
    "coordinates": [
     133.76099799,
     -31.99793965
    ]
   },
   "properties": {
    "name": "LOT 54 SCHWARZ HILL ROAD WANDANA 5690",
    "locID": "LOC000131729969",
    "tech": "SATELLITE",
    "upgrade": "NULL_NA",
    "gnaf_pid": "GASA_425068709",
    "tech_change_status": "Not Planned"
   }
  },
  {
   "type": "Feature",
   "geometry": {
    "type": "Point",
    "coordinates": [
     133.77015841,
     -31.94849842
    ]
   },
   "properties": {
    "name": "LOT 60 SCHWARZ HILL ROAD WANDANA 5690",
    "locID": "LOC000131729969",
    "tech": "SATELLITE",
    "upgrade": "NULL_NA",
    "gnaf_pid": "GASA_425068710",
    "tech_change_status": "Not Planned"
   }
  },
  {
   "type": "Feature",
   "geometry": {
    "type": "Point",
    "coordinates": [
     133.75721513,
     -32.02085682
    ]
   },
   "properties": {
    "name": "1998 SCHWARZ HILL ROAD WANDANA 5690",
    "locID": "LOC000131729969",
    "tech": "SATELLITE",
    "upgrade": "NULL_NA",
    "gnaf_pid": "GASA_425075942",
    "tech_change_status": "Not Planned"
   }
  },
  {
   "type": "Feature",
   "geometry": {
    "type": "Point",
    "coordinates": [
     133.757273,
     -31.996276
    ]
   },
   "properties": {
    "name": "2272 SCHWARZ HILL ROAD WANDANA 5690",
    "locID": "LOC000131730175",
    "tech": "NULL",
    "upgrade": "NULL_NA",
    "gnaf_pid": "GASA_425075943",
    "tech_change_status": "Not Planned"
   }
  },
  {
   "type": "Feature",
   "geometry": {
    "type": "Point",
    "coordinates": [
     133.75751314,
     -31.96735382
    ]
   },
   "properties": {
    "name": "2592 SCHWARZ HILL ROAD WANDANA 5690",
    "locID": "LOC000131733827",
    "tech": "SATELLITE",
    "upgrade": "NULL_NA",
    "gnaf_pid": "GASA_425075944",
    "tech_change_status": "Not Planned"
   }
  },
  {
   "type": "Feature",
   "geometry": {
    "type": "Point",
    "coordinates": [
     133.75742905,
     -31.92413792
    ]
   },
   "properties": {
    "name": "3072 SCHWARZ HILL ROAD WANDANA 5690",
    "locID": "LOC000142387266",
    "tech": "SATELLITE",
    "upgrade": "NULL_NA",
    "gnaf_pid": "GASA_425075945",
    "tech_change_status": "Not Planned"
   }
  },
  {
   "type": "Feature",
   "geometry": {
    "type": "Point",
    "coordinates": [
     133.83328786,
     -31.92786593
    ]
   },
   "properties": {
    "name": "LOT 15 OTC ROAD WANDANA 5690",
    "locID": "LOC000116355554",
    "tech": "SATELLITE",
    "upgrade": "NULL_NA",
    "gnaf_pid": "GASA_425191774",
    "tech_change_status": "Not Planned"
   }
  },
  {
   "type": "Feature",
   "geometry": {
    "type": "Point",
    "coordinates": [
     133.78394868,
     -32.07898418
    ]
   },
   "properties": {
    "name": "LOT 57 GEUE ROAD WANDANA 5690",
    "locID": "LOC000116349711",
    "tech": "NULL",
    "upgrade": "NULL_NA",
    "gnaf_pid": "GASA_425509186",
    "tech_change_status": "Not Planned"
   }
  },
  {
   "type": "Feature",
   "geometry": {
    "type": "Point",
    "coordinates": [
     133.79393277,
     -32.08551637
    ]
   },
   "properties": {
    "name": "LOT 3 BACKSHALL ROAD WANDANA 5690",
    "locID": "LOC000116350487",
    "tech": "WIRELESS",
    "upgrade": "NULL_NA",
    "gnaf_pid": "GASA_425628343",
    "tech_change_status": "Not Planned",
    "program_type": "Fixed Wireless and Satellite Upgrade Program",
    "target_eligibility_quarter": "NA"
   }
  },
  {
   "type": "Feature",
   "geometry": {
    "type": "Point",
    "coordinates": [
     133.80180748,
     -32.03531121
    ]
   },
   "properties": {
    "name": "LOT 65 BACKSHALL ROAD WANDANA 5690",
    "locID": "LOC000116350487",
    "tech": "WIRELESS",
    "upgrade": "NULL_NA",
    "gnaf_pid": "GASA_425628344",
    "tech_change_status": "Not Planned",
    "program_type": "Fixed Wireless and Satellite Upgrade Program",
    "target_eligibility_quarter": "NA"
   }
  },
  {
   "type": "Feature",
   "geometry": {
    "type": "Point",
    "coordinates": [
     133.80822362,
     -32.04511309
    ]
   },
   "properties": {
    "name": "LOT 69 BACKSHALL ROAD WANDANA 5690",
    "locID": "LOC000116350487",
    "tech": "WIRELESS",
    "upgrade": "NULL_NA",
    "gnaf_pid": "GASA_425628345",
    "tech_change_status": "Not Planned",
    "program_type": "Fixed Wireless and Satellite Upgrade Program",
    "target_eligibility_quarter": "NA"
   }
  },
  {
   "type": "Feature",
   "geometry": {
    "type": "Point",
    "coordinates": [
     133.81619931,
     -32.06309772
    ]
   },
   "properties": {
    "name": "LOT 70 BACKSHALL ROAD WANDANA 5690",
    "locID": "LOC000116350487",
    "tech": "WIRELESS",
    "upgrade": "NULL_NA",
    "gnaf_pid": "GASA_425628346",
    "tech_change_status": "Not Planned",
    "program_type": "Fixed Wireless and Satellite Upgrade Program",
    "target_eligibility_quarter": "NA"
   }
  },
  {
   "type": "Feature",
   "geometry": {
    "type": "Point",
    "coordinates": [
     133.87325267,
     -32.01544977
    ]
   },
   "properties": {
    "name": "LOT 51 MARTIN ROAD WANDANA 5690",
    "locID": "LOC000116349345",
    "tech": "NULL",
    "upgrade": "NULL_NA",
    "gnaf_pid": "GASA_425629564",
    "tech_change_status": "Not Planned"
   }
  },
  {
   "type": "Feature",
   "geometry": {
    "type": "Point",
    "coordinates": [
     133.7708512,
     -32.00185638
    ]
   },
   "properties": {
    "name": "LOT 54 MARTIN ROAD WANDANA 5690",
    "locID": "LOC000116349345",
    "tech": "NULL",
    "upgrade": "NULL_NA",
    "gnaf_pid": "GASA_425629565",
    "tech_change_status": "Not Planned"
   }
  },
  {
   "type": "Feature",
   "geometry": {
    "type": "Point",
    "coordinates": [
     133.86743118,
     -31.90010757
    ]
   },
   "properties": {
    "name": "LOT 62 BEATTIE ROAD WANDANA 5690",
    "locID": "LOC000116365280",
    "tech": "SATELLITE",
    "upgrade": "NULL_NA",
    "gnaf_pid": "GASA_425718984",
    "tech_change_status": "Not Planned"
   }
  },
  {
   "type": "Feature",
   "geometry": {
    "type": "Point",
    "coordinates": [
     133.81398653,
     -32.0566869
    ]
   },
   "properties": {
    "name": "LOT 71 GEUE ROAD WANDANA 5690",
    "locID": "LOC000116349711",
    "tech": "NULL",
    "upgrade": "NULL_NA",
    "gnaf_pid": "GASA_425720913",
    "tech_change_status": "Not Planned"
   }
  },
  {
   "type": "Feature",
   "geometry": {
    "type": "Point",
    "coordinates": [
     133.80970552,
     -32.0483233
    ]
   },
   "properties": {
    "name": "LOT 72 GEUE ROAD WANDANA 5690",
    "locID": "LOC000116365641",
    "tech": "SATELLITE",
    "upgrade": "NULL_NA",
    "gnaf_pid": "GASA_425720914",
    "tech_change_status": "Not Planned"
   }
  },
  {
   "type": "Feature",
   "geometry": {
    "type": "Point",
    "coordinates": [
     133.82611223,
     -31.99718487
    ]
   },
   "properties": {
    "name": "LOT 21 MARTIN ROAD WANDANA 5690",
    "locID": "LOC000116349345",
    "tech": "NULL",
    "upgrade": "NULL_NA",
    "gnaf_pid": "GASA_425802402",
    "tech_change_status": "Not Planned"
   }
  },
  {
   "type": "Feature",
   "geometry": {
    "type": "Point",
    "coordinates": [
     133.80842049,
     -31.98765022
    ]
   },
   "properties": {
    "name": "LOT 40 OTC ROAD WANDANA 5690",
    "locID": "LOC000116355554",
    "tech": "SATELLITE",
    "upgrade": "NULL_NA",
    "gnaf_pid": "GASA_425802590",
    "tech_change_status": "Not Planned"
   }
  }
 ]
}