{
 "type": "FeatureCollection",
 "generated": "2025-02-11T00:22:24.876825",
 "suburb": "WILD HORSE PLAINS",
 "features": [
  {
   "type": "Feature",
   "geometry": {
    "type": "Point",
    "coordinates": [
     138.29238672,
     -34.36019388
    ]
   },
   "properties": {
    "name": "LOT 20 FIRST STREET WILD HORSE PLAINS 5501",
    "locID": "LOC100078101874",
    "tech": "WIRELESS",
    "upgrade": "NULL_NA",
    "gnaf_pid": "GASA_415053175",
    "tech_change_status": "Not Planned",
    "program_type": "Fixed Wireless and Satellite Upgrade Program",
    "target_eligibility_quarter": "NA"
   }
  },
  {
   "type": "Feature",
   "geometry": {
    "type": "Point",
    "coordinates": [
     138.29157417,
     -34.35882264
    ]
   },
   "properties": {
    "name": "LOT 204 SECOND STREET WILD HORSE PLAINS 5501",
    "locID": "LOC000109663803",
    "tech": "WIRELESS",
    "upgrade": "NULL_NA",
    "gnaf_pid": "GASA_423690126",
    "tech_change_status": "Not Planned",
    "program_type": "Fixed Wireless and Satellite Upgrade Program",
    "target_eligibility_quarter": "NA"
   }
  },
  {
   "type": "Feature",
   "geometry": {
    "type": "Point",
    "coordinates": [
     138.29309776,
     -34.36094658
    ]
   },
   "properties": {
    "name": "LOT 2 WILD HORSE STREET WILD HORSE PLAINS 5501",
    "locID": "LOC000108034850",
    "tech": "WIRELESS",
    "upgrade": "NULL_NA",
    "gnaf_pid": "GASA_424128353",
    "tech_change_status": "Not Planned",
    "program_type": "Fixed Wireless and Satellite Upgrade Program",
    "target_eligibility_quarter": "NA"
   }
  },
  {
   "type": "Feature",
   "geometry": {
    "type": "Point",
    "coordinates": [
     138.29480896,
     -34.3605685
    ]
   },
   "properties": {
    "name": "LOT 12 FIRST STREET WILD HORSE PLAINS 5501",
    "locID": "LOC000109440359",
    "tech": "WIRELESS",
    "upgrade": "NULL_NA",
    "gnaf_pid": "GASA_424171101",
    "tech_change_status": "Not Planned",
    "program_type": "Fixed Wireless and Satellite Upgrade Program",
    "target_eligibility_quarter": "NA"
   }
  },
  {
   "type": "Feature",
   "geometry": {
    "type": "Point",
    "coordinates": [
     138.29415189,
     -34.36050506
    ]
   },
   "properties": {
    "name": "LOT 14 FIRST STREET WILD HORSE PLAINS 5501",
    "locID": "LOC000110102309",
    "tech": "WIRELESS",
    "upgrade": "NULL_NA",
    "gnaf_pid": "GASA_424171103",
    "tech_change_status": "Not Planned",
    "program_type": "Fixed Wireless and Satellite Upgrade Program",
    "target_eligibility_quarter": "NA"
   }
  },
  {
   "type": "Feature",
   "geometry": {
    "type": "Point",
    "coordinates": [
     138.29382557,
     -34.36047434
    ]
   },
   "properties": {
    "name": "LOT 15 FIRST STREET WILD HORSE PLAINS 5501",
    "locID": "LOC000110211859",
    "tech": "WIRELESS",
    "upgrade": "NULL_NA",
    "gnaf_pid": "GASA_424171104",
    "tech_change_status": "Not Planned",
    "program_type": "Fixed Wireless and Satellite Upgrade Program",
    "target_eligibility_quarter": "NA"
   }
  },
  {
   "type": "Feature",
   "geometry": {
    "type": "Point",
    "coordinates": [
     138.29316723,
     -34.36041122
    ]
   },
   "properties": {
    "name": "LOT 17 FIRST STREET WILD HORSE PLAINS 5501",
    "locID": "LOC000108380669",
    "tech": "WIRELESS",
    "upgrade": "NULL_NA",
    "gnaf_pid": "GASA_424171106",
    "tech_change_status": "Not Planned",
    "program_type": "Fixed Wireless and Satellite Upgrade Program",
    "target_eligibility_quarter": "NA"
   }
  },
  {
   "type": "Feature",
   "geometry": {
    "type": "Point",
    "coordinates": [
     138.29290935,
     -34.36038694
    ]
   },
   "properties": {
    "name": "LOT 18 FIRST STREET WILD HORSE PLAINS 5501",
    "locID": "LOC000108105450",
    "tech": "WIRELESS",
    "upgrade": "NULL_NA",
    "gnaf_pid": "GASA_424171107",
    "tech_change_status": "Not Planned",
    "program_type": "Fixed Wireless and Satellite Upgrade Program",
    "target_eligibility_quarter": "NA"
   }
  },
  {
   "type": "Feature",
   "geometry": {
    "type": "Point",
    "coordinates": [
     138.29206868,
     -34.35955836
    ]
   },
   "properties": {
    "name": "LOT 208 FIRST STREET WILD HORSE PLAINS 5501",
    "locID": "LOC000131319961",
    "tech": "WIRELESS",
    "upgrade": "NULL_NA",
    "gnaf_pid": "GASA_424171109",
    "tech_change_status": "Not Planned",
    "program_type": "Fixed Wireless and Satellite Upgrade Program",
    "target_eligibility_quarter": "NA"
   }
  },
  {
   "type": "Feature",
   "geometry": {
    "type": "Point",
    "coordinates": [
     138.29457712,
     -34.35981649
    ]
   },
   "properties": {
    "name": "LOT 24 FIRST STREET WILD HORSE PLAINS 5501",
    "locID": "LOC000108639198",
    "tech": "WIRELESS",
    "upgrade": "NULL_NA",
    "gnaf_pid": "GASA_424171111",
    "tech_change_status": "Not Planned",
    "program_type": "Fixed Wireless and Satellite Upgrade Program",
    "target_eligibility_quarter": "NA"
   }
  },
  {
   "type": "Feature",
   "geometry": {
    "type": "Point",
    "coordinates": [
     138.29425193,
     -34.35978399
    ]
   },
   "properties": {
    "name": "LOT 25 FIRST STREET WILD HORSE PLAINS 5501",
    "locID": "LOC000107579154",
    "tech": "WIRELESS",
    "upgrade": "NULL_NA",
    "gnaf_pid": "GASA_424171112",
    "tech_change_status": "Not Planned",
    "program_type": "Fixed Wireless and Satellite Upgrade Program",
    "target_eligibility_quarter": "NA"
   }
  },
  {
   "type": "Feature",
   "geometry": {
    "type": "Point",
    "coordinates": [
     138.29392139,
     -34.35975275
    ]
   },
   "properties": {
    "name": "LOT 26 FIRST STREET WILD HORSE PLAINS 5501",
    "locID": "LOC000108785618",
    "tech": "WIRELESS",
    "upgrade": "NULL_NA",
    "gnaf_pid": "GASA_424171113",
    "tech_change_status": "Not Planned",
    "program_type": "Fixed Wireless and Satellite Upgrade Program",
    "target_eligibility_quarter": "NA"
   }
  },
  {
   "type": "Feature",
   "geometry": {
    "type": "Point",
    "coordinates": [
     138.29326309,
     -34.3596888
    ]
   },
   "properties": {
    "name": "LOT 28 FIRST STREET WILD HORSE PLAINS 5501",
    "locID": "LOC000108754631",
    "tech": "WIRELESS",
    "upgrade": "NULL_NA",
    "gnaf_pid": "GASA_424171115",
    "tech_change_status": "Not Planned",
    "program_type": "Fixed Wireless and Satellite Upgrade Program",
    "target_eligibility_quarter": "NA"
   }
  },
  {
   "type": "Feature",
   "geometry": {
    "type": "Point",
    "coordinates": [
     138.29239899,
     -34.35960851
    ]
   },
   "properties": {
    "name": "LOT 30 FIRST STREET WILD HORSE PLAINS 5501",
    "locID": "LOC000131319961",
    "tech": "WIRELESS",
    "upgrade": "NULL_NA",
    "gnaf_pid": "GASA_424171117",
    "tech_change_status": "Not Planned",
    "program_type": "Fixed Wireless and Satellite Upgrade Program",
    "target_eligibility_quarter": "NA"
   }
  },
  {
   "type": "Feature",
   "geometry": {
    "type": "Point",
    "coordinates": [
     138.29568546,
     -34.36061977
    ]
   },
   "properties": {
    "name": "LOT 10 FOURTH STREET WILD HORSE PLAINS 5501",
    "locID": "LOC000107681058",
    "tech": "WIRELESS",
    "upgrade": "NULL_NA",
    "gnaf_pid": "GASA_424172326",
    "tech_change_status": "Not Planned",
    "program_type": "Fixed Wireless and Satellite Upgrade Program",
    "target_eligibility_quarter": "NA"
   }
  },
  {
   "type": "Feature",
   "geometry": {
    "type": "Point",
    "coordinates": [
     138.29165306,
     -34.3590947
    ]
   },
   "properties": {
    "name": "LOT 10 SECOND STREET WILD HORSE PLAINS 5501",
    "locID": "LOC000107526564",
    "tech": "WIRELESS",
    "upgrade": "NULL_NA",
    "gnaf_pid": "GASA_424208831",
    "tech_change_status": "Not Planned",
    "program_type": "Fixed Wireless and Satellite Upgrade Program",
    "target_eligibility_quarter": "NA"
   }
  },
  {
   "type": "Feature",
   "geometry": {
    "type": "Point",
    "coordinates": [
     138.2924652,
     -34.35905746
    ]
   },
   "properties": {
    "name": "LOT 36 SECOND STREET WILD HORSE PLAINS 5501",
    "locID": "LOC000108822339",
    "tech": "WIRELESS",
    "upgrade": "NULL_NA",
    "gnaf_pid": "GASA_424208833",
    "tech_change_status": "Not Planned",
    "program_type": "Fixed Wireless and Satellite Upgrade Program",
    "target_eligibility_quarter": "NA"
   }
  },
  {
   "type": "Feature",
   "geometry": {
    "type": "Point",
    "coordinates": [
     138.29333458,
     -34.35913911
    ]
   },
   "properties": {
    "name": "LOT 38 SECOND STREET WILD HORSE PLAINS 5501",
    "locID": "LOC000108438825",
    "tech": "WIRELESS",
    "upgrade": "NULL_NA",
    "gnaf_pid": "GASA_424208835",
    "tech_change_status": "Not Planned",
    "program_type": "Fixed Wireless and Satellite Upgrade Program",
    "target_eligibility_quarter": "NA"
   }
  },
  {
   "type": "Feature",
   "geometry": {
    "type": "Point",
    "coordinates": [
     138.29365576,
     -34.35917095
    ]
   },
   "properties": {
    "name": "LOT 39 SECOND STREET WILD HORSE PLAINS 5501",
    "locID": "LOC000109273882",
    "tech": "WIRELESS",
    "upgrade": "NULL_NA",
    "gnaf_pid": "GASA_424208836",
    "tech_change_status": "Not Planned",
    "program_type": "Fixed Wireless and Satellite Upgrade Program",
    "target_eligibility_quarter": "NA"
   }
  },
  {
   "type": "Feature",
   "geometry": {
    "type": "Point",
    "coordinates": [
     138.29334972,
     -34.3540738
    ]
   },
   "properties": {
    "name": "LOT 46 THIRD STREET WILD HORSE PLAINS 5501",
    "locID": "LOC000109327967",
    "tech": "WIRELESS",
    "upgrade": "NULL_NA",
    "gnaf_pid": "GASA_424215403",
    "tech_change_status": "Not Planned",
    "program_type": "Fixed Wireless and Satellite Upgrade Program",
    "target_eligibility_quarter": "NA"
   }
  },
  {
   "type": "Feature",
   "geometry": {
    "type": "Point",
    "coordinates": [
     138.29167943,
     -34.35684016
    ]
   },
   "properties": {
    "name": "LOT 52 THIRD STREET WILD HORSE PLAINS 5501",
    "locID": "LOC000109327967",
    "tech": "WIRELESS",
    "upgrade": "NULL_NA",
    "gnaf_pid": "GASA_424215404",
    "tech_change_status": "Not Planned",
    "program_type": "Fixed Wireless and Satellite Upgrade Program",
    "target_eligibility_quarter": "NA"
   }
  },
  {
   "type": "Feature",
   "geometry": {
    "type": "Point",
    "coordinates": [
     138.29925636,
     -34.35893339
    ]
   },
   "properties": {
    "name": "LOT 360 SECOND STREET WILD HORSE PLAINS 5501",
    "locID": "LOC000109663803",
    "tech": "WIRELESS",
    "upgrade": "NULL_NA",
    "gnaf_pid": "GASA_424228518",
    "tech_change_status": "Not Planned",
    "program_type": "Fixed Wireless and Satellite Upgrade Program",
    "target_eligibility_quarter": "NA"
   }
  },
  {
   "type": "Feature",
   "geometry": {
    "type": "Point",
    "coordinates": [
     138.29235849,
     -34.35766705
    ]
   },
   "properties": {
    "name": "LOT 3 THIRD STREET WILD HORSE PLAINS 5501",
    "locID": "LOC000109327967",
    "tech": "WIRELESS",
    "upgrade": "NULL_NA",
    "gnaf_pid": "GASA_424229207",
    "tech_change_status": "Not Planned",
    "program_type": "Fixed Wireless and Satellite Upgrade Program",
    "target_eligibility_quarter": "NA"
   }
  },
  {
   "type": "Feature",
   "geometry": {
    "type": "Point",
    "coordinates": [
     138.31783866,
     -34.37114187
    ]
   },
   "properties": {
    "name": "LOT 357 BAKERS ROAD WILD HORSE PLAINS 5501",
    "locID": "LOC000113108345",
    "tech": "WIRELESS",
    "upgrade": "NULL_NA",
    "gnaf_pid": "GASA_424288146",
    "tech_change_status": "Not Planned",
    "program_type": "Fixed Wireless and Satellite Upgrade Program",
    "target_eligibility_quarter": "NA"
   }
  },
  {
   "type": "Feature",
   "geometry": {
    "type": "Point",
    "coordinates": [
     138.29341813,
     -34.36097726
    ]
   },
   "properties": {
    "name": "LOT 3 WILD HORSE STREET WILD HORSE PLAINS 5501",
    "locID": "LOC000131319961",
    "tech": "WIRELESS",
    "upgrade": "NULL_NA",
    "gnaf_pid": "GASA_424408832",
    "tech_change_status": "Not Planned",
    "program_type": "Fixed Wireless and Satellite Upgrade Program",
    "target_eligibility_quarter": "NA"
   }
  },
  {
   "type": "Feature",
   "geometry": {
    "type": "Point",
    "coordinates": [
     138.29375553,
     -34.36100956
    ]
   },
   "properties": {
    "name": "LOT 4 WILD HORSE STREET WILD HORSE PLAINS 5501",
    "locID": "LOC000131422894",
    "tech": "SATELLITE",
    "upgrade": "NULL_NA",
    "gnaf_pid": "GASA_424408833",
    "tech_change_status": "Not Planned"
   }
  },
  {
   "type": "Feature",
   "geometry": {
    "type": "Point",
    "coordinates": [
     138.29408026,
     -34.36104015
    ]
   },
   "properties": {
    "name": "LOT 5 WILD HORSE STREET WILD HORSE PLAINS 5501",
    "locID": "LOC000108034850",
    "tech": "WIRELESS",
    "upgrade": "NULL_NA",
    "gnaf_pid": "GASA_424408834",
    "tech_change_status": "Not Planned",
    "program_type": "Fixed Wireless and Satellite Upgrade Program",
    "target_eligibility_quarter": "NA"
   }
  },
  {
   "type": "Feature",
   "geometry": {
    "type": "Point",
    "coordinates": [
     138.26758567,
     -34.34747846
    ]
   },
   "properties": {
    "name": "LOT 3 LORNE ROAD WILD HORSE PLAINS 5501",
    "locID": "LOC000184468084",
    "tech": "WIRELESS",
    "upgrade": "NULL_NA",
    "gnaf_pid": "GASA_424642567",
    "tech_change_status": "Not Planned",
    "program_type": "Fixed Wireless and Satellite Upgrade Program",
    "target_eligibility_quarter": "NA"
   }
  },
  {
   "type": "Feature",
   "geometry": {
    "type": "Point",
    "coordinates": [
     138.30692693,
     -34.37988662
    ]
   },
   "properties": {
    "name": "39 BAKERS ROAD WILD HORSE PLAINS 5501",
    "locID": "LOC000112950583",
    "tech": "WIRELESS",
    "upgrade": "NULL_NA",
    "gnaf_pid": "GASA_424695905",
    "tech_change_status": "Not Planned",
    "program_type": "Fixed Wireless and Satellite Upgrade Program",
    "target_eligibility_quarter": "NA"
   }
  },
  {
   "type": "Feature",
   "geometry": {
    "type": "Point",
    "coordinates": [
     138.26996727,
     -34.31199578
    ]
   },
   "properties": {
    "name": "13 PORT LORNE ROAD WILD HORSE PLAINS 5501",
    "locID": "LOC000131314162",
    "tech": "WIRELESS",
    "upgrade": "NULL_NA",
    "gnaf_pid": "GASA_424706655",
    "tech_change_status": "Not Planned",
    "program_type": "Fixed Wireless and Satellite Upgrade Program",
    "target_eligibility_quarter": "NA"
   }
  },
  {
   "type": "Feature",
   "geometry": {
    "type": "Point",
    "coordinates": [
     138.26996727,
     -34.31199578
    ]
   },
   "properties": {
    "name": "18 PORT LORNE ROAD WILD HORSE PLAINS 5501",
    "locID": "LOC000131314162",
    "tech": "WIRELESS",
    "upgrade": "NULL_NA",
    "gnaf_pid": "GASA_424706657",
    "tech_change_status": "Not Planned",
    "program_type": "Fixed Wireless and Satellite Upgrade Program",
    "target_eligibility_quarter": "NA"
   }
  },
  {
   "type": "Feature",
   "geometry": {
    "type": "Point",
    "coordinates": [
     138.30578511,
     -34.34631203
    ]
   },
   "properties": {
    "name": "679 LYONS ROAD WILD HORSE PLAINS 5501",
    "locID": "LOC000116343354",
    "tech": "WIRELESS",
    "upgrade": "NULL_NA",
    "gnaf_pid": "GASA_424836187",
    "tech_change_status": "Not Planned",
    "program_type": "Fixed Wireless and Satellite Upgrade Program",
    "target_eligibility_quarter": "NA"
   }
  },
  {
   "type": "Feature",
   "geometry": {
    "type": "Point",
    "coordinates": [
     138.29790492,
     -34.37463361
    ]
   },
   "properties": {
    "name": "6157 PORT WAKEFIELD HIGHWAY WILD HORSE PLAINS 5501",
    "locID": "LOC000131305990",
    "tech": "WIRELESS",
    "upgrade": "NULL_NA",
    "gnaf_pid": "GASA_424903862",
    "tech_change_status": "Not Planned",
    "program_type": "Fixed Wireless and Satellite Upgrade Program",
    "target_eligibility_quarter": "NA"
   }
  },
  {
   "type": "Feature",
   "geometry": {
    "type": "Point",
    "coordinates": [
     138.297426,
     -34.373869
    ]
   },
   "properties": {
    "name": "6167 PORT WAKEFIELD HIGHWAY WILD HORSE PLAINS 5501",
    "locID": "LOC000131306008",
    "tech": "WIRELESS",
    "upgrade": "NULL_NA",
    "gnaf_pid": "GASA_424903863",
    "tech_change_status": "Not Planned",
    "program_type": "Fixed Wireless and Satellite Upgrade Program",
    "target_eligibility_quarter": "NA"
   }
  },
  {
   "type": "Feature",
   "geometry": {
    "type": "Point",
    "coordinates": [
     138.29539384,
     -34.36948705
    ]
   },
   "properties": {
    "name": "6217 PORT WAKEFIELD HIGHWAY WILD HORSE PLAINS 5501",
    "locID": "LOC000131306012",
    "tech": "WIRELESS",
    "upgrade": "NULL_NA",
    "gnaf_pid": "GASA_424903864",
    "tech_change_status": "Not Planned",
    "program_type": "Fixed Wireless and Satellite Upgrade Program",
    "target_eligibility_quarter": "NA"
   }
  },
  {
   "type": "Feature",
   "geometry": {
    "type": "Point",
    "coordinates": [
     138.28920181,
     -34.35372551
    ]
   },
   "properties": {
    "name": "6401 PORT WAKEFIELD HIGHWAY WILD HORSE PLAINS 5501",
    "locID": "LOC000131306083",
    "tech": "WIRELESS",
    "upgrade": "NULL_NA",
    "gnaf_pid": "GASA_424903865",
    "tech_change_status": "Not Planned",
    "program_type": "Fixed Wireless and Satellite Upgrade Program",
    "target_eligibility_quarter": "NA"
   }
  },
  {
   "type": "Feature",
   "geometry": {
    "type": "Point",
    "coordinates": [
     138.2891802,
     -34.3536439
    ]
   },
   "properties": {
    "name": "6403 PORT WAKEFIELD HIGHWAY WILD HORSE PLAINS 5501",
    "locID": "LOC000131306096",
    "tech": "WIRELESS",
    "upgrade": "NULL_NA",
    "gnaf_pid": "GASA_424903866",
    "tech_change_status": "Not Planned",
    "program_type": "Fixed Wireless and Satellite Upgrade Program",
    "target_eligibility_quarter": "NA"
   }
  },
  {
   "type": "Feature",
   "geometry": {
    "type": "Point",
    "coordinates": [
     138.28875438,
     -34.35212765
    ]
   },
   "properties": {
    "name": "6421 PORT WAKEFIELD HIGHWAY WILD HORSE PLAINS 5501",
    "locID": "LOC000131306106",
    "tech": "WIRELESS",
    "upgrade": "NULL_NA",
    "gnaf_pid": "GASA_424903867",
    "tech_change_status": "Not Planned",
    "program_type": "Fixed Wireless and Satellite Upgrade Program",
    "target_eligibility_quarter": "NA"
   }
  },
  {
   "type": "Feature",
   "geometry": {
    "type": "Point",
    "coordinates": [
     138.28795488,
     -34.34919566
    ]
   },
   "properties": {
    "name": "6454 PORT WAKEFIELD HIGHWAY WILD HORSE PLAINS 5501",
    "locID": "LOC000131306110",
    "tech": "WIRELESS",
    "upgrade": "NULL_NA",
    "gnaf_pid": "GASA_424903868",
    "tech_change_status": "Not Planned",
    "program_type": "Fixed Wireless and Satellite Upgrade Program",
    "target_eligibility_quarter": "NA"
   }
  },
  {
   "type": "Feature",
   "geometry": {
    "type": "Point",
    "coordinates": [
     138.28742749,
     -34.34927763
    ]
   },
   "properties": {
    "name": "6455 PORT WAKEFIELD HIGHWAY WILD HORSE PLAINS 5501",
    "locID": "LOC000131306123",
    "tech": "WIRELESS",
    "upgrade": "NULL_NA",
    "gnaf_pid": "GASA_424903869",
    "tech_change_status": "Not Planned",
    "program_type": "Fixed Wireless and Satellite Upgrade Program",
    "target_eligibility_quarter": "NA"
   }
  },
  {
   "type": "Feature",
   "geometry": {
    "type": "Point",
    "coordinates": [
     138.28580569,
     -34.34692353
    ]
   },
   "properties": {
    "name": "6485 PORT WAKEFIELD HIGHWAY WILD HORSE PLAINS 5501",
    "locID": "LOC000131306134",
    "tech": "WIRELESS",
    "upgrade": "NULL_NA",
    "gnaf_pid": "GASA_424903870",
    "tech_change_status": "Not Planned",
    "program_type": "Fixed Wireless and Satellite Upgrade Program",
    "target_eligibility_quarter": "NA"
   }
  },
  {
   "type": "Feature",
   "geometry": {
    "type": "Point",
    "coordinates": [
     138.29354946,
     -34.36166683
    ]
   },
   "properties": {
    "name": "LOT 11 PORT WAKEFIELD HIGHWAY WILD HORSE PLAINS 5501",
    "locID": "LOC100078095524",
    "tech": "WIRELESS",
    "upgrade": "NULL_NA",
    "gnaf_pid": "GASA_424903872",
    "tech_change_status": "Not Planned",
    "program_type": "Fixed Wireless and Satellite Upgrade Program",
    "target_eligibility_quarter": "NA"
   }
  },
  {
   "type": "Feature",
   "geometry": {
    "type": "Point",
    "coordinates": [
     138.29856771,
     -34.36522097
    ]
   },
   "properties": {
    "name": "LOT 12 PORT WAKEFIELD HIGHWAY WILD HORSE PLAINS 5501",
    "locID": "LOC000131306008",
    "tech": "WIRELESS",
    "upgrade": "NULL_NA",
    "gnaf_pid": "GASA_424903873",
    "tech_change_status": "Not Planned",
    "program_type": "Fixed Wireless and Satellite Upgrade Program",
    "target_eligibility_quarter": "NA"
   }
  },
  {
   "type": "Feature",
   "geometry": {
    "type": "Point",
    "coordinates": [
     138.2914372,
     -34.35716292
    ]
   },
   "properties": {
    "name": "LOT 30 PORT WAKEFIELD HIGHWAY WILD HORSE PLAINS 5501",
    "locID": "LOC000131306008",
    "tech": "WIRELESS",
    "upgrade": "NULL_NA",
    "gnaf_pid": "GASA_424903881",
    "tech_change_status": "Not Planned",
    "program_type": "Fixed Wireless and Satellite Upgrade Program",
    "target_eligibility_quarter": "NA"
   }
  },
  {
   "type": "Feature",
   "geometry": {
    "type": "Point",
    "coordinates": [
     138.29082534,
     -34.3569998
    ]
   },
   "properties": {
    "name": "LOT 59 PORT WAKEFIELD HIGHWAY WILD HORSE PLAINS 5501",
    "locID": "LOC000131306008",
    "tech": "WIRELESS",
    "upgrade": "NULL_NA",
    "gnaf_pid": "GASA_424903885",
    "tech_change_status": "Not Planned",
    "program_type": "Fixed Wireless and Satellite Upgrade Program",
    "target_eligibility_quarter": "NA"
   }
  },
  {
   "type": "Feature",
   "geometry": {
    "type": "Point",
    "coordinates": [
     138.28032833,
     -34.35756226
    ]
   },
   "properties": {
    "name": "128 LORNE ROAD WILD HORSE PLAINS 5501",
    "locID": "LOC000131305743",
    "tech": "SATELLITE",
    "upgrade": "NULL_NA",
    "gnaf_pid": "GASA_425065556",
    "tech_change_status": "Not Planned"
   }
  },
  {
   "type": "Feature",
   "geometry": {
    "type": "Point",
    "coordinates": [
     138.291391,
     -34.362309
    ]
   },
   "properties": {
    "name": "13 LORNE ROAD WILD HORSE PLAINS 5501",
    "locID": "LOC000131305838",
    "tech": "WIRELESS",
    "upgrade": "NULL_NA",
    "gnaf_pid": "GASA_425065557",
    "tech_change_status": "Not Planned",
    "program_type": "Fixed Wireless and Satellite Upgrade Program",
    "target_eligibility_quarter": "NA"
   }
  },
  {
   "type": "Feature",
   "geometry": {
    "type": "Point",
    "coordinates": [
     138.27848972,
     -34.35681156
    ]
   },
   "properties": {
    "name": "147 LORNE ROAD WILD HORSE PLAINS 5501",
    "locID": "LOC000131314877",
    "tech": "WIRELESS",
    "upgrade": "NULL_NA",
    "gnaf_pid": "GASA_425065558",
    "tech_change_status": "Not Planned",
    "program_type": "Fixed Wireless and Satellite Upgrade Program",
    "target_eligibility_quarter": "NA"
   }
  },
  {
   "type": "Feature",
   "geometry": {
    "type": "Point",
    "coordinates": [
     138.29106777,
     -34.36204018
    ]
   },
   "properties": {
    "name": "18 LORNE ROAD WILD HORSE PLAINS 5501",
    "locID": "LOC000131314162",
    "tech": "WIRELESS",
    "upgrade": "NULL_NA",
    "gnaf_pid": "GASA_425065559",
    "tech_change_status": "Not Planned",
    "program_type": "Fixed Wireless and Satellite Upgrade Program",
    "target_eligibility_quarter": "NA"
   }
  },
  {
   "type": "Feature",
   "geometry": {
    "type": "Point",
    "coordinates": [
     138.28531552,
     -34.31203301
    ]
   },
   "properties": {
    "name": "1867 PORT LORNE ROAD WILD HORSE PLAINS 5501",
    "locID": "LOC000131314162",
    "tech": "WIRELESS",
    "upgrade": "NULL_NA",
    "gnaf_pid": "GASA_425075552",
    "tech_change_status": "Not Planned",
    "program_type": "Fixed Wireless and Satellite Upgrade Program",
    "target_eligibility_quarter": "NA"
   }
  },
  {
   "type": "Feature",
   "geometry": {
    "type": "Point",
    "coordinates": [
     138.24772347,
     -34.3150042
    ]
   },
   "properties": {
    "name": "2217 PORT LORNE ROAD WILD HORSE PLAINS 5501",
    "locID": "LOC000131318366",
    "tech": "WIRELESS",
    "upgrade": "NULL_NA",
    "gnaf_pid": "GASA_425075553",
    "tech_change_status": "Not Planned",
    "program_type": "Fixed Wireless and Satellite Upgrade Program",
    "target_eligibility_quarter": "NA"
   }
  },
  {
   "type": "Feature",
   "geometry": {
    "type": "Point",
    "coordinates": [
     138.28253948,
     -34.34211893
    ]
   },
   "properties": {
    "name": "6547 PORT WAKEFIELD HIGHWAY WILD HORSE PLAINS 5501",
    "locID": "LOC000131323247",
    "tech": "WIRELESS",
    "upgrade": "NULL_NA",
    "gnaf_pid": "GASA_425075561",
    "tech_change_status": "Not Planned",
    "program_type": "Fixed Wireless and Satellite Upgrade Program",
    "target_eligibility_quarter": "NA"
   }
  },
  {
   "type": "Feature",
   "geometry": {
    "type": "Point",
    "coordinates": [
     138.25963679,
     -34.31836238
    ]
   },
   "properties": {
    "name": "6895 PORT WAKEFIELD HIGHWAY WILD HORSE PLAINS 5501",
    "locID": "LOC000131323268",
    "tech": "WIRELESS",
    "upgrade": "NULL_NA",
    "gnaf_pid": "GASA_425075562",
    "tech_change_status": "Not Planned",
    "program_type": "Fixed Wireless and Satellite Upgrade Program",
    "target_eligibility_quarter": "NA"
   }
  },
  {
   "type": "Feature",
   "geometry": {
    "type": "Point",
    "coordinates": [
     138.25957871,
     -34.31829571
    ]
   },
   "properties": {
    "name": "6897 PORT WAKEFIELD HIGHWAY WILD HORSE PLAINS 5501",
    "locID": "LOC000131323275",
    "tech": "WIRELESS",
    "upgrade": "NULL_NA",
    "gnaf_pid": "GASA_425075563",
    "tech_change_status": "Not Planned",
    "program_type": "Fixed Wireless and Satellite Upgrade Program",
    "target_eligibility_quarter": "NA"
   }
  },
  {
   "type": "Feature",
   "geometry": {
    "type": "Point",
    "coordinates": [
     138.26518451,
     -34.32771715
    ]
   },
   "properties": {
    "name": "10 BLUEBUSH DAISY ROAD WILD HORSE PLAINS 5501",
    "locID": "LOC000150253579",
    "tech": "WIRELESS",
    "upgrade": "NULL_NA",
    "gnaf_pid": "GASA_425105612",
    "tech_change_status": "Not Planned",
    "program_type": "Fixed Wireless and Satellite Upgrade Program",
    "target_eligibility_quarter": "NA"
   }
  },
  {
   "type": "Feature",
   "geometry": {
    "type": "Point",
    "coordinates": [
     138.26587545,
     -34.32767864
    ]
   },
   "properties": {
    "name": "5 BLUEBUSH DAISY ROAD WILD HORSE PLAINS 5501",
    "locID": "LOC000150253580",
    "tech": "WIRELESS",
    "upgrade": "NULL_NA",
    "gnaf_pid": "GASA_425105614",
    "tech_change_status": "Not Planned",
    "program_type": "Fixed Wireless and Satellite Upgrade Program",
    "target_eligibility_quarter": "NA"
   }
  },
  {
   "type": "Feature",
   "geometry": {
    "type": "Point",
    "coordinates": [
     138.28087773,
     -34.33100444
    ]
   },
   "properties": {
    "name": "84 DEAD MANS HILL ROAD WILD HORSE PLAINS 5501",
    "locID": "LOC100032850295",
    "tech": "WIRELESS",
    "upgrade": "NULL_NA",
    "gnaf_pid": "GASA_425106887",
    "tech_change_status": "Not Planned",
    "program_type": "Fixed Wireless and Satellite Upgrade Program",
    "target_eligibility_quarter": "NA"
   }
  },
  {
   "type": "Feature",
   "geometry": {
    "type": "Point",
    "coordinates": [
     138.24831296,
     -34.31474344
    ]
   },
   "properties": {
    "name": "2211 PORT LORNE ROAD WILD HORSE PLAINS 5501",
    "locID": "LOC000184406521",
    "tech": "WIRELESS",
    "upgrade": "NULL_NA",
    "gnaf_pid": "GASA_425110878",
    "tech_change_status": "Not Planned",
    "program_type": "Fixed Wireless and Satellite Upgrade Program",
    "target_eligibility_quarter": "NA"
   }
  },
  {
   "type": "Feature",
   "geometry": {
    "type": "Point",
    "coordinates": [
     138.30814908,
     -34.3168606
    ]
   },
   "properties": {
    "name": "329 MCARDLE ROAD WILD HORSE PLAINS 5501",
    "locID": "LOC000150253598",
    "tech": "WIRELESS",
    "upgrade": "NULL_NA",
    "gnaf_pid": "GASA_425298943",
    "tech_change_status": "Not Planned",
    "program_type": "Fixed Wireless and Satellite Upgrade Program",
    "target_eligibility_quarter": "NA"
   }
  },
  {
   "type": "Feature",
   "geometry": {
    "type": "Point",
    "coordinates": [
     138.312941,
     -34.34277932
    ]
   },
   "properties": {
    "name": "LOT 678 LYONS ROAD WILD HORSE PLAINS 5501",
    "locID": "LOC000116343354",
    "tech": "WIRELESS",
    "upgrade": "NULL_NA",
    "gnaf_pid": "GASA_425392430",
    "tech_change_status": "Not Planned",
    "program_type": "Fixed Wireless and Satellite Upgrade Program",
    "target_eligibility_quarter": "NA"
   }
  },
  {
   "type": "Feature",
   "geometry": {
    "type": "Point",
    "coordinates": [
     138.31293101,
     -34.33544966
    ]
   },
   "properties": {
    "name": "LOT 686 LYONS ROAD WILD HORSE PLAINS 5501",
    "locID": "LOC000116343354",
    "tech": "WIRELESS",
    "upgrade": "NULL_NA",
    "gnaf_pid": "GASA_425392431",
    "tech_change_status": "Not Planned",
    "program_type": "Fixed Wireless and Satellite Upgrade Program",
    "target_eligibility_quarter": "NA"
   }
  },
  {
   "type": "Feature",
   "geometry": {
    "type": "Point",
    "coordinates": [
     138.30266097,
     -34.32158375
    ]
   },
   "properties": {
    "name": "LOT 104 MCARDLE ROAD WILD HORSE PLAINS 5501",
    "locID": "LOC000131355635",
    "tech": "WIRELESS",
    "upgrade": "NULL_NA",
    "gnaf_pid": "GASA_425392644",
    "tech_change_status": "Not Planned",
    "program_type": "Fixed Wireless and Satellite Upgrade Program",
    "target_eligibility_quarter": "NA"
   }
  },
  {
   "type": "Feature",
   "geometry": {
    "type": "Point",
    "coordinates": [
     138.30174987,
     -34.33830978
    ]
   },
   "properties": {
    "name": "LOT 479 MCARDLE ROAD WILD HORSE PLAINS 5501",
    "locID": "LOC000150253598",
    "tech": "WIRELESS",
    "upgrade": "NULL_NA",
    "gnaf_pid": "GASA_425392645",
    "tech_change_status": "Not Planned",
    "program_type": "Fixed Wireless and Satellite Upgrade Program",
    "target_eligibility_quarter": "NA"
   }
  },
  {
   "type": "Feature",
   "geometry": {
    "type": "Point",
    "coordinates": [
     138.23773869,
     -34.32545611
    ]
   },
   "properties": {
    "name": "LOT 118 PORT LORNE ROAD WILD HORSE PLAINS 5501",
    "locID": "LOC000131314162",
    "tech": "WIRELESS",
    "upgrade": "NULL_NA",
    "gnaf_pid": "GASA_425393889",
    "tech_change_status": "Not Planned",
    "program_type": "Fixed Wireless and Satellite Upgrade Program",
    "target_eligibility_quarter": "NA"
   }
  },
  {
   "type": "Feature",
   "geometry": {
    "type": "Point",
    "coordinates": [
     138.27678641,
     -34.32662926
    ]
   },
   "properties": {
    "name": "LOT 43 PORT WAKEFIELD HIGHWAY WILD HORSE PLAINS 5501",
    "locID": "LOC000131306008",
    "tech": "WIRELESS",
    "upgrade": "NULL_NA",
    "gnaf_pid": "GASA_425393918",
    "tech_change_status": "Not Planned",
    "program_type": "Fixed Wireless and Satellite Upgrade Program",
    "target_eligibility_quarter": "NA"
   }
  },
  {
   "type": "Feature",
   "geometry": {
    "type": "Point",
    "coordinates": [
     138.2662491,
     -34.34040593
    ]
   },
   "properties": {
    "name": "LOT 9 PORT WAKEFIELD HIGHWAY WILD HORSE PLAINS 5501",
    "locID": "LOC000131306008",
    "tech": "WIRELESS",
    "upgrade": "NULL_NA",
    "gnaf_pid": "GASA_425393919",
    "tech_change_status": "Not Planned",
    "program_type": "Fixed Wireless and Satellite Upgrade Program",
    "target_eligibility_quarter": "NA"
   }
  },
  {
   "type": "Feature",
   "geometry": {
    "type": "Point",
    "coordinates": [
     138.29259913,
     -34.36071118
    ]
   },
   "properties": {
    "name": "LOT 100 WILD HORSE STREET WILD HORSE PLAINS 5501",
    "locID": "LOC000131265318",
    "tech": "WIRELESS",
    "upgrade": "NULL_NA",
    "gnaf_pid": "GASA_719186871",
    "tech_change_status": "Not Planned",
    "program_type": "Fixed Wireless and Satellite Upgrade Program",
    "target_eligibility_quarter": "NA"
   }
  },
  {
   "type": "Feature",
   "geometry": {
    "type": "Point",
    "coordinates": [
     138.29506481,
     -34.36113465
    ]
   },
   "properties": {
    "name": "1 FOURTH STREET WILD HORSE PLAINS 5501",
    "locID": "LOC000107681058",
    "tech": "WIRELESS",
    "upgrade": "NULL_NA",
    "gnaf_pid": "GASA_721002516",
    "tech_change_status": "Not Planned",
    "program_type": "Fixed Wireless and Satellite Upgrade Program",
    "target_eligibility_quarter": "NA"
   }
  },
  {
   "type": "Feature",
   "geometry": {
    "type": "Point",
    "coordinates": [
     138.29400656,
     -34.36139158
    ]
   },
   "properties": {
    "name": "1 WILD HORSE STREET WILD HORSE PLAINS 5501",
    "locID": "LOC000131265318",
    "tech": "WIRELESS",
    "upgrade": "NULL_NA",
    "gnaf_pid": "GASA_721076435",
    "tech_change_status": "Not Planned",
    "program_type": "Fixed Wireless and Satellite Upgrade Program",
    "target_eligibility_quarter": "NA"
   }
  },
  {
   "type": "Feature",
   "geometry": {
    "type": "Point",
    "coordinates": [
     138.29400656,
     -34.36139158
    ]
   },
   "properties": {
    "name": "4 WILD HORSE STREET WILD HORSE PLAINS 5501",
    "locID": "LOC000131422894",
    "tech": "SATELLITE",
    "upgrade": "NULL_NA",
    "gnaf_pid": "GASA_721076515",
    "tech_change_status": "Not Planned"
   }
  },
  {
   "type": "Feature",
   "geometry": {
    "type": "Point",
    "coordinates": [
     138.29400656,
     -34.36139158
    ]
   },
   "properties": {
    "name": "5 WILD HORSE STREET WILD HORSE PLAINS 5501",
    "locID": "LOC000191373144",
    "tech": "WIRELESS",
    "upgrade": "NULL_NA",
    "gnaf_pid": "GASA_721076874",
    "tech_change_status": "Not Planned",
    "program_type": "Fixed Wireless and Satellite Upgrade Program",
    "target_eligibility_quarter": "NA"
   }
  },
  {
   "type": "Feature",
   "geometry": {
    "type": "Point",
    "coordinates": [
     138.29400656,
     -34.36139158
    ]
   },
   "properties": {
    "name": "3 WILD HORSE STREET WILD HORSE PLAINS 5501",
    "locID": "LOC000131319961",
    "tech": "WIRELESS",
    "upgrade": "NULL_NA",
    "gnaf_pid": "GASA_721076954",
    "tech_change_status": "Not Planned",
    "program_type": "Fixed Wireless and Satellite Upgrade Program",
    "target_eligibility_quarter": "NA"
   }
  },
  {
   "type": "Feature",
   "geometry": {
    "type": "Point",
    "coordinates": [
     138.29400656,
     -34.36139158
    ]
   },
   "properties": {
    "name": "2 WILD HORSE STREET WILD HORSE PLAINS 5501",
    "locID": "LOC000108034850",
    "tech": "WIRELESS",
    "upgrade": "NULL_NA",
    "gnaf_pid": "GASA_721076985",
    "tech_change_status": "Not Planned",
    "program_type": "Fixed Wireless and Satellite Upgrade Program",
    "target_eligibility_quarter": "NA"
   }
  }
 ]
}