{
 "type": "FeatureCollection",
 "generated": "2025-03-09T01:10:47.753984",
 "suburb": "WITERA",
 "features": [
  {
   "type": "Feature",
   "geometry": {
    "type": "Point",
    "coordinates": [
     134.59997901,
     -33.12684316
    ]
   },
   "properties": {
    "name": "LOT 2 FLINDERS HIGHWAY WITERA 5671",
    "locID": "LOC000131587503",
    "tech": "NULL",
    "upgrade": "NULL_NA",
    "gnaf_pid": "GASA_424106650",
    "tech_change_status": "Not Planned"
   }
  },
  {
   "type": "Feature",
   "geometry": {
    "type": "Point",
    "coordinates": [
     134.55297756,
     -33.09815617
    ]
   },
   "properties": {
    "name": "LOT 1 WOORONG BOOLONG ROAD WITERA 5671",
    "locID": "LOC000131707820",
    "tech": "SATELLITE",
    "upgrade": "NULL_NA",
    "gnaf_pid": "GASA_424528951",
    "tech_change_status": "Not Planned"
   }
  },
  {
   "type": "Feature",
   "geometry": {
    "type": "Point",
    "coordinates": [
     134.57383654,
     -33.0981904
    ]
   },
   "properties": {
    "name": "171 WOORONG BOOLONG ROAD WITERA 5671",
    "locID": "LOC000131707820",
    "tech": "SATELLITE",
    "upgrade": "NULL_NA",
    "gnaf_pid": "GASA_424962208",
    "tech_change_status": "Not Planned"
   }
  }
 ]
}