{
 "type": "FeatureCollection",
 "generated": "2026-06-22T00:42:14.846040",
 "suburb": "WOKURNA",
 "features": [
  {
   "type": "Feature",
   "geometry": {
    "type": "Point",
    "coordinates": [
     138.04327259,
     -33.71103128
    ]
   },
   "properties": {
    "name": "LOT 1 AEROPLANE ROAD WOKURNA 5520",
    "locID": "LOC000148255132",
    "tech": "SATELLITE",
    "upgrade": "NULL_NA",
    "gnaf_pid": "GASA_415129958",
    "tech_change_status": "Not Planned"
   }
  },
  {
   "type": "Feature",
   "geometry": {
    "type": "Point",
    "coordinates": [
     138.02794592,
     -33.7201192
    ]
   },
   "properties": {
    "name": "LOT 2 AEROPLANE ROAD WOKURNA 5520",
    "locID": "LOC000148255132",
    "tech": "SATELLITE",
    "upgrade": "NULL_NA",
    "gnaf_pid": "GASA_424151488",
    "tech_change_status": "Not Planned"
   }
  },
  {
   "type": "Feature",
   "geometry": {
    "type": "Point",
    "coordinates": [
     138.04481543,
     -33.70833339
    ]
   },
   "properties": {
    "name": "LOT 31C AEROPLANE ROAD WOKURNA 5520",
    "locID": "LOC000148255132",
    "tech": "SATELLITE",
    "upgrade": "NULL_NA",
    "gnaf_pid": "GASA_424286447",
    "tech_change_status": "Not Planned"
   }
  },
  {
   "type": "Feature",
   "geometry": {
    "type": "Point",
    "coordinates": [
     138.03228036,
     -33.67970092
    ]
   },
   "properties": {
    "name": "LOT 1 MUNDOORA-WOKURNA ROAD WOKURNA 5520",
    "locID": "LOC000180328491",
    "tech": "WIRELESS",
    "upgrade": "NULL_NA",
    "gnaf_pid": "GASA_424320115",
    "tech_change_status": "Not Planned",
    "program_type": "Fixed Wireless and Satellite Upgrade Program",
    "target_eligibility_quarter": "NA"
   }
  },
  {
   "type": "Feature",
   "geometry": {
    "type": "Point",
    "coordinates": [
     138.0801068,
     -33.73489782
    ]
   },
   "properties": {
    "name": "LOT 25 TOWER VIEW ROAD WOKURNA 5520",
    "locID": "LOC100079108728",
    "tech": "WIRELESS",
    "upgrade": "NULL_NA",
    "gnaf_pid": "GASA_424337400",
    "tech_change_status": "Eligible to Order",
    "program_type": "Fixed Wireless and Satellite Upgrade Program",
    "target_eligibility_quarter": "NA"
   }
  },
  {
   "type": "Feature",
   "geometry": {
    "type": "Point",
    "coordinates": [
     138.05895723,
     -33.70060365
    ]
   },
   "properties": {
    "name": "LOT 159 WOKURNA ROAD WOKURNA 5520",
    "locID": "LOC000150256320",
    "tech": "SATELLITE",
    "upgrade": "NULL_NA",
    "gnaf_pid": "GASA_424341443",
    "tech_change_status": "Not Planned"
   }
  },
  {
   "type": "Feature",
   "geometry": {
    "type": "Point",
    "coordinates": [
     138.02794482,
     -33.70661631
    ]
   },
   "properties": {
    "name": "LOT 182 WOKURNA ROAD WOKURNA 5520",
    "locID": "LOC000150256320",
    "tech": "SATELLITE",
    "upgrade": "NULL_NA",
    "gnaf_pid": "GASA_424341445",
    "tech_change_status": "Not Planned"
   }
  },
  {
   "type": "Feature",
   "geometry": {
    "type": "Point",
    "coordinates": [
     138.03374743,
     -33.70755648
    ]
   },
   "properties": {
    "name": "LOT 188 WOKURNA ROAD WOKURNA 5520",
    "locID": "LOC000150256320",
    "tech": "SATELLITE",
    "upgrade": "NULL_NA",
    "gnaf_pid": "GASA_424341446",
    "tech_change_status": "Not Planned"
   }
  },
  {
   "type": "Feature",
   "geometry": {
    "type": "Point",
    "coordinates": [
     138.04435837,
     -33.70914772
    ]
   },
   "properties": {
    "name": "LOT 205 WOKURNA ROAD WOKURNA 5520",
    "locID": "LOC000150256320",
    "tech": "SATELLITE",
    "upgrade": "NULL_NA",
    "gnaf_pid": "GASA_424341449",
    "tech_change_status": "Not Planned"
   }
  },
  {
   "type": "Feature",
   "geometry": {
    "type": "Point",
    "coordinates": [
     137.99319006,
     -33.70693401
    ]
   },
   "properties": {
    "name": "LOT 219 WOKURNA ROAD WOKURNA 5520",
    "locID": "LOC000150256320",
    "tech": "SATELLITE",
    "upgrade": "NULL_NA",
    "gnaf_pid": "GASA_424341450",
    "tech_change_status": "Not Planned"
   }
  },
  {
   "type": "Feature",
   "geometry": {
    "type": "Point",
    "coordinates": [
     138.00258943,
     -33.7392224
    ]
   },
   "properties": {
    "name": "LOT 14 TOWER VIEW ROAD WOKURNA 5520",
    "locID": "LOC100079108728",
    "tech": "WIRELESS",
    "upgrade": "NULL_NA",
    "gnaf_pid": "GASA_424406998",
    "tech_change_status": "Eligible to Order",
    "program_type": "Fixed Wireless and Satellite Upgrade Program",
    "target_eligibility_quarter": "NA"
   }
  },
  {
   "type": "Feature",
   "geometry": {
    "type": "Point",
    "coordinates": [
     137.98720129,
     -33.73949703
    ]
   },
   "properties": {
    "name": "LOT 426 TOWER VIEW ROAD WOKURNA 5520",
    "locID": "LOC100079108728",
    "tech": "WIRELESS",
    "upgrade": "NULL_NA",
    "gnaf_pid": "GASA_424407001",
    "tech_change_status": "Eligible to Order",
    "program_type": "Fixed Wireless and Satellite Upgrade Program",
    "target_eligibility_quarter": "NA"
   }
  },
  {
   "type": "Feature",
   "geometry": {
    "type": "Point",
    "coordinates": [
     138.03378668,
     -33.70187062
    ]
   },
   "properties": {
    "name": "LOT 1 WOKURNA ROAD WOKURNA 5520",
    "locID": "LOC000150256320",
    "tech": "SATELLITE",
    "upgrade": "NULL_NA",
    "gnaf_pid": "GASA_424409609",
    "tech_change_status": "Not Planned"
   }
  },
  {
   "type": "Feature",
   "geometry": {
    "type": "Point",
    "coordinates": [
     138.03561814,
     -33.6922241
    ]
   },
   "properties": {
    "name": "LOT 199 MUNDOORA-WOKURNA ROAD WOKURNA 5520",
    "locID": "LOC000148243691",
    "tech": "WIRELESS",
    "upgrade": "NULL_NA",
    "gnaf_pid": "GASA_424650890",
    "tech_change_status": "Not Planned",
    "program_type": "Fixed Wireless and Satellite Upgrade Program",
    "target_eligibility_quarter": "NA"
   }
  },
  {
   "type": "Feature",
   "geometry": {
    "type": "Point",
    "coordinates": [
     137.99156901,
     -33.72959715
    ]
   },
   "properties": {
    "name": "LOT 2 UPPER YORKE ROAD WOKURNA 5520",
    "locID": "LOC000150256308",
    "tech": "WIRELESS",
    "upgrade": "NULL_NA",
    "gnaf_pid": "GASA_424952425",
    "tech_change_status": "Not Planned",
    "program_type": "Fixed Wireless and Satellite Upgrade Program",
    "target_eligibility_quarter": "NA"
   }
  },
  {
   "type": "Feature",
   "geometry": {
    "type": "Point",
    "coordinates": [
     138.10931627,
     -33.74345992
    ]
   },
   "properties": {
    "name": "1004 BARUNGA TOP ROAD WOKURNA 5520",
    "locID": "LOC000150256192",
    "tech": "WIRELESS",
    "upgrade": "NULL_NA",
    "gnaf_pid": "GASA_425105319",
    "tech_change_status": "Not Planned",
    "program_type": "Fixed Wireless and Satellite Upgrade Program",
    "target_eligibility_quarter": "NA"
   }
  },
  {
   "type": "Feature",
   "geometry": {
    "type": "Point",
    "coordinates": [
     138.11436409,
     -33.72768484
    ]
   },
   "properties": {
    "name": "1185 BARUNGA TOP ROAD WOKURNA 5520",
    "locID": "LOC000150256205",
    "tech": "WIRELESS",
    "upgrade": "NULL_NA",
    "gnaf_pid": "GASA_425105320",
    "tech_change_status": "Not Planned",
    "program_type": "Fixed Wireless and Satellite Upgrade Program",
    "target_eligibility_quarter": "NA"
   }
  },
  {
   "type": "Feature",
   "geometry": {
    "type": "Point",
    "coordinates": [
     138.10664714,
     -33.76430825
    ]
   },
   "properties": {
    "name": "770 BARUNGA TOP ROAD WOKURNA 5520",
    "locID": "LOC000150256214",
    "tech": "WIRELESS",
    "upgrade": "NULL_NA",
    "gnaf_pid": "GASA_425105321",
    "tech_change_status": "Not Planned",
    "program_type": "Fixed Wireless and Satellite Upgrade Program",
    "target_eligibility_quarter": "NA"
   }
  },
  {
   "type": "Feature",
   "geometry": {
    "type": "Point",
    "coordinates": [
     138.10822947,
     -33.74620824
    ]
   },
   "properties": {
    "name": "973 BARUNGA TOP ROAD WOKURNA 5520",
    "locID": "LOC000150256222",
    "tech": "WIRELESS",
    "upgrade": "NULL_NA",
    "gnaf_pid": "GASA_425105322",
    "tech_change_status": "Not Planned",
    "program_type": "Fixed Wireless and Satellite Upgrade Program",
    "target_eligibility_quarter": "NA"
   }
  },
  {
   "type": "Feature",
   "geometry": {
    "type": "Point",
    "coordinates": [
     138.09130449,
     -33.70362643
    ]
   },
   "properties": {
    "name": "1314 WOKURNA ROAD WOKURNA 5520",
    "locID": "LOC000150256233",
    "tech": "WIRELESS",
    "upgrade": "NULL_NA",
    "gnaf_pid": "GASA_425113576",
    "tech_change_status": "Not Planned",
    "program_type": "Fixed Wireless and Satellite Upgrade Program",
    "target_eligibility_quarter": "NA"
   }
  },
  {
   "type": "Feature",
   "geometry": {
    "type": "Point",
    "coordinates": [
     138.140528,
     -33.713155
    ]
   },
   "properties": {
    "name": "823 WOKURNA ROAD WOKURNA 5520",
    "locID": "LOC000150256246",
    "tech": "WIRELESS",
    "upgrade": "NULL_NA",
    "gnaf_pid": "GASA_425113577",
    "tech_change_status": "Not Planned",
    "program_type": "Fixed Wireless and Satellite Upgrade Program",
    "target_eligibility_quarter": "NA"
   }
  },
  {
   "type": "Feature",
   "geometry": {
    "type": "Point",
    "coordinates": [
     138.11790766,
     -33.67615606
    ]
   },
   "properties": {
    "name": "1510 GARFIELD ROAD WOKURNA 5520",
    "locID": "LOC000150256251",
    "tech": "SATELLITE",
    "upgrade": "NULL_NA",
    "gnaf_pid": "GASA_425188922",
    "tech_change_status": "Not Planned"
   }
  },
  {
   "type": "Feature",
   "geometry": {
    "type": "Point",
    "coordinates": [
     138.04009464,
     -33.76819773
    ]
   },
   "properties": {
    "name": "971 AEROPLANE ROAD WOKURNA 5520",
    "locID": "LOC000148255630",
    "tech": "WIRELESS",
    "upgrade": "NULL_NA",
    "gnaf_pid": "GASA_425302038",
    "tech_change_status": "Not Planned",
    "program_type": "Fixed Wireless and Satellite Upgrade Program",
    "target_eligibility_quarter": "NA"
   }
  },
  {
   "type": "Feature",
   "geometry": {
    "type": "Point",
    "coordinates": [
     138.06331518,
     -33.67366097
    ]
   },
   "properties": {
    "name": "1002 GARFIELD ROAD WOKURNA 5520",
    "locID": "LOC000150256267",
    "tech": "WIRELESS",
    "upgrade": "NULL_NA",
    "gnaf_pid": "GASA_425303295",
    "tech_change_status": "Not Planned",
    "program_type": "Fixed Wireless and Satellite Upgrade Program",
    "target_eligibility_quarter": "NA"
   }
  },
  {
   "type": "Feature",
   "geometry": {
    "type": "Point",
    "coordinates": [
     138.003381,
     -33.66887563
    ]
   },
   "properties": {
    "name": "440 GARFIELD ROAD WOKURNA 5520",
    "locID": "LOC100056416547",
    "tech": "WIRELESS",
    "upgrade": "NULL_NA",
    "gnaf_pid": "GASA_425303297",
    "tech_change_status": "Not Planned",
    "program_type": "Fixed Wireless and Satellite Upgrade Program",
    "target_eligibility_quarter": "NA"
   }
  },
  {
   "type": "Feature",
   "geometry": {
    "type": "Point",
    "coordinates": [
     138.08502624,
     -33.72172688
    ]
   },
   "properties": {
    "name": "1388 MUNDOORA BOUNDARY ROAD WOKURNA 5520",
    "locID": "LOC000148243691",
    "tech": "WIRELESS",
    "upgrade": "NULL_NA",
    "gnaf_pid": "GASA_425304457",
    "tech_change_status": "Not Planned",
    "program_type": "Fixed Wireless and Satellite Upgrade Program",
    "target_eligibility_quarter": "NA"
   }
  },
  {
   "type": "Feature",
   "geometry": {
    "type": "Point",
    "coordinates": [
     138.06346445,
     -33.7449432
    ]
   },
   "properties": {
    "name": "781 TOWER VIEW ROAD WOKURNA 5520",
    "locID": "LOC100079108728",
    "tech": "WIRELESS",
    "upgrade": "NULL_NA",
    "gnaf_pid": "GASA_425305914",
    "tech_change_status": "Eligible to Order",
    "program_type": "Fixed Wireless and Satellite Upgrade Program",
    "target_eligibility_quarter": "NA"
   }
  },
  {
   "type": "Feature",
   "geometry": {
    "type": "Point",
    "coordinates": [
     138.07230823,
     -33.74504244
    ]
   },
   "properties": {
    "name": "862 TOWER VIEW ROAD WOKURNA 5520",
    "locID": "LOC000148405882",
    "tech": "NULL",
    "upgrade": "NULL_NA",
    "gnaf_pid": "GASA_425305915",
    "tech_change_status": "Not Planned"
   }
  },
  {
   "type": "Feature",
   "geometry": {
    "type": "Point",
    "coordinates": [
     137.97936549,
     -33.72868088
    ]
   },
   "properties": {
    "name": "1503 UPPER YORKE ROAD WOKURNA 5520",
    "locID": "LOC000150256279",
    "tech": "WIRELESS",
    "upgrade": "NULL_NA",
    "gnaf_pid": "GASA_425306005",
    "tech_change_status": "Not Planned",
    "program_type": "Fixed Wireless and Satellite Upgrade Program",
    "target_eligibility_quarter": "NA"
   }
  },
  {
   "type": "Feature",
   "geometry": {
    "type": "Point",
    "coordinates": [
     137.97944465,
     -33.74871155
    ]
   },
   "properties": {
    "name": "1727 UPPER YORKE ROAD WOKURNA 5520",
    "locID": "LOC000150256280",
    "tech": "WIRELESS",
    "upgrade": "NULL_NA",
    "gnaf_pid": "GASA_425306006",
    "tech_change_status": "Not Planned",
    "program_type": "Fixed Wireless and Satellite Upgrade Program",
    "target_eligibility_quarter": "NA"
   }
  },
  {
   "type": "Feature",
   "geometry": {
    "type": "Point",
    "coordinates": [
     137.97996822,
     -33.75743154
    ]
   },
   "properties": {
    "name": "1823 UPPER YORKE ROAD WOKURNA 5520",
    "locID": "LOC000146158654",
    "tech": "WIRELESS",
    "upgrade": "NULL_NA",
    "gnaf_pid": "GASA_425306007",
    "tech_change_status": "Not Planned",
    "program_type": "Fixed Wireless and Satellite Upgrade Program",
    "target_eligibility_quarter": "NA"
   }
  },
  {
   "type": "Feature",
   "geometry": {
    "type": "Point",
    "coordinates": [
     137.98057051,
     -33.76658698
    ]
   },
   "properties": {
    "name": "1925 UPPER YORKE ROAD WOKURNA 5520",
    "locID": "LOC000170131090",
    "tech": "WIRELESS",
    "upgrade": "NULL_NA",
    "gnaf_pid": "GASA_425306008",
    "tech_change_status": "Not Planned",
    "program_type": "Fixed Wireless and Satellite Upgrade Program",
    "target_eligibility_quarter": "NA"
   }
  },
  {
   "type": "Feature",
   "geometry": {
    "type": "Point",
    "coordinates": [
     137.96318246,
     -33.67743816
    ]
   },
   "properties": {
    "name": "903 UPPER YORKE ROAD WOKURNA 5520",
    "locID": "LOC000150256308",
    "tech": "WIRELESS",
    "upgrade": "NULL_NA",
    "gnaf_pid": "GASA_425306009",
    "tech_change_status": "Not Planned",
    "program_type": "Fixed Wireless and Satellite Upgrade Program",
    "target_eligibility_quarter": "NA"
   }
  },
  {
   "type": "Feature",
   "geometry": {
    "type": "Point",
    "coordinates": [
     138.05395216,
     -33.7036648
    ]
   },
   "properties": {
    "name": "1660 WOKURNA ROAD WOKURNA 5520",
    "locID": "LOC000150256312",
    "tech": "WIRELESS",
    "upgrade": "NULL_NA",
    "gnaf_pid": "GASA_425306366",
    "tech_change_status": "Not Planned",
    "program_type": "Fixed Wireless and Satellite Upgrade Program",
    "target_eligibility_quarter": "NA"
   }
  },
  {
   "type": "Feature",
   "geometry": {
    "type": "Point",
    "coordinates": [
     138.04354671,
     -33.70847718
    ]
   },
   "properties": {
    "name": "1778 WOKURNA ROAD WOKURNA 5520",
    "locID": "LOC000150256320",
    "tech": "SATELLITE",
    "upgrade": "NULL_NA",
    "gnaf_pid": "GASA_425306368",
    "tech_change_status": "Not Planned"
   }
  },
  {
   "type": "Feature",
   "geometry": {
    "type": "Point",
    "coordinates": [
     138.0434358,
     -33.70868597
    ]
   },
   "properties": {
    "name": "1781 WOKURNA ROAD WOKURNA 5520",
    "locID": "LOC000150256331",
    "tech": "WIRELESS",
    "upgrade": "NULL_NA",
    "gnaf_pid": "GASA_425306369",
    "tech_change_status": "Not Planned",
    "program_type": "Fixed Wireless and Satellite Upgrade Program",
    "target_eligibility_quarter": "NA"
   }
  },
  {
   "type": "Feature",
   "geometry": {
    "type": "Point",
    "coordinates": [
     138.03595329,
     -33.70762506
    ]
   },
   "properties": {
    "name": "1851 WOKURNA ROAD WOKURNA 5520",
    "locID": "LOC000150256349",
    "tech": "WIRELESS",
    "upgrade": "NULL_NA",
    "gnaf_pid": "GASA_425306372",
    "tech_change_status": "Not Planned",
    "program_type": "Fixed Wireless and Satellite Upgrade Program",
    "target_eligibility_quarter": "NA"
   }
  },
  {
   "type": "Feature",
   "geometry": {
    "type": "Point",
    "coordinates": [
     138.01513056,
     -33.706271
    ]
   },
   "properties": {
    "name": "2053 WOKURNA ROAD WOKURNA 5520",
    "locID": "LOC000150256354",
    "tech": "WIRELESS",
    "upgrade": "NULL_NA",
    "gnaf_pid": "GASA_425306373",
    "tech_change_status": "Not Planned",
    "program_type": "Fixed Wireless and Satellite Upgrade Program",
    "target_eligibility_quarter": "NA"
   }
  },
  {
   "type": "Feature",
   "geometry": {
    "type": "Point",
    "coordinates": [
     138.00118959,
     -33.70687938
    ]
   },
   "properties": {
    "name": "2183 WOKURNA ROAD WOKURNA 5520",
    "locID": "LOC000150256365",
    "tech": "WIRELESS",
    "upgrade": "NULL_NA",
    "gnaf_pid": "GASA_425306374",
    "tech_change_status": "Not Planned",
    "program_type": "Fixed Wireless and Satellite Upgrade Program",
    "target_eligibility_quarter": "NA"
   }
  },
  {
   "type": "Feature",
   "geometry": {
    "type": "Point",
    "coordinates": [
     138.0000343,
     -33.70653368
    ]
   },
   "properties": {
    "name": "2196 WOKURNA ROAD WOKURNA 5520",
    "locID": "LOC000171359191",
    "tech": "WIRELESS",
    "upgrade": "NULL_NA",
    "gnaf_pid": "GASA_425306375",
    "tech_change_status": "Not Planned",
    "program_type": "Fixed Wireless and Satellite Upgrade Program",
    "target_eligibility_quarter": "NA"
   }
  },
  {
   "type": "Feature",
   "geometry": {
    "type": "Point",
    "coordinates": [
     138.05501144,
     -33.69495299
    ]
   },
   "properties": {
    "name": "167 C DOLLINGS ROAD WOKURNA 5520",
    "locID": "LOC000150256377",
    "tech": "WIRELESS",
    "upgrade": "NULL_NA",
    "gnaf_pid": "GASA_425353170",
    "tech_change_status": "Not Planned",
    "program_type": "Fixed Wireless and Satellite Upgrade Program",
    "target_eligibility_quarter": "NA"
   }
  },
  {
   "type": "Feature",
   "geometry": {
    "type": "Point",
    "coordinates": [
     137.99551025,
     -33.77428789
    ]
   },
   "properties": {
    "name": "135 READ ROAD WOKURNA 5520",
    "locID": "LOC000148406615",
    "tech": "WIRELESS",
    "upgrade": "NULL_NA",
    "gnaf_pid": "GASA_425356545",
    "tech_change_status": "Not Planned",
    "program_type": "Fixed Wireless and Satellite Upgrade Program",
    "target_eligibility_quarter": "NA"
   }
  },
  {
   "type": "Feature",
   "geometry": {
    "type": "Point",
    "coordinates": [
     138.03086333,
     -33.72949495
    ]
   },
   "properties": {
    "name": "LOT 20 AEROPLANE ROAD WOKURNA 5520",
    "locID": "LOC000148255132",
    "tech": "SATELLITE",
    "upgrade": "NULL_NA",
    "gnaf_pid": "GASA_425388071",
    "tech_change_status": "Not Planned"
   }
  },
  {
   "type": "Feature",
   "geometry": {
    "type": "Point",
    "coordinates": [
     138.11416447,
     -33.70826385
    ]
   },
   "properties": {
    "name": "LOT 259E BARUNGA TOP ROAD WOKURNA 5520",
    "locID": "LOC000150256214",
    "tech": "WIRELESS",
    "upgrade": "NULL_NA",
    "gnaf_pid": "GASA_425388616",
    "tech_change_status": "Not Planned",
    "program_type": "Fixed Wireless and Satellite Upgrade Program",
    "target_eligibility_quarter": "NA"
   }
  },
  {
   "type": "Feature",
   "geometry": {
    "type": "Point",
    "coordinates": [
     138.08913695,
     -33.75986533
    ]
   },
   "properties": {
    "name": "LOT 109 MUNDOORA BOUNDARY ROAD WOKURNA 5520",
    "locID": "LOC000148243691",
    "tech": "WIRELESS",
    "upgrade": "NULL_NA",
    "gnaf_pid": "GASA_425392947",
    "tech_change_status": "Not Planned",
    "program_type": "Fixed Wireless and Satellite Upgrade Program",
    "target_eligibility_quarter": "NA"
   }
  },
  {
   "type": "Feature",
   "geometry": {
    "type": "Point",
    "coordinates": [
     138.09310106,
     -33.70881711
    ]
   },
   "properties": {
    "name": "LOT 1 MUNDOORA BOUNDARY ROAD WOKURNA 5520",
    "locID": "LOC000148243691",
    "tech": "WIRELESS",
    "upgrade": "NULL_NA",
    "gnaf_pid": "GASA_425392948",
    "tech_change_status": "Not Planned",
    "program_type": "Fixed Wireless and Satellite Upgrade Program",
    "target_eligibility_quarter": "NA"
   }
  },
  {
   "type": "Feature",
   "geometry": {
    "type": "Point",
    "coordinates": [
     138.09121055,
     -33.74044047
    ]
   },
   "properties": {
    "name": "LOT 253E MUNDOORA BOUNDARY ROAD WOKURNA 5520",
    "locID": "LOC000148243691",
    "tech": "WIRELESS",
    "upgrade": "NULL_NA",
    "gnaf_pid": "GASA_425392949",
    "tech_change_status": "Not Planned",
    "program_type": "Fixed Wireless and Satellite Upgrade Program",
    "target_eligibility_quarter": "NA"
   }
  },
  {
   "type": "Feature",
   "geometry": {
    "type": "Point",
    "coordinates": [
     138.09217714,
     -33.72866521
    ]
   },
   "properties": {
    "name": "LOT 254 MUNDOORA BOUNDARY ROAD WOKURNA 5520",
    "locID": "LOC000148243691",
    "tech": "WIRELESS",
    "upgrade": "NULL_NA",
    "gnaf_pid": "GASA_425392950",
    "tech_change_status": "Not Planned",
    "program_type": "Fixed Wireless and Satellite Upgrade Program",
    "target_eligibility_quarter": "NA"
   }
  },
  {
   "type": "Feature",
   "geometry": {
    "type": "Point",
    "coordinates": [
     138.09133782,
     -33.71806823
    ]
   },
   "properties": {
    "name": "LOT 257 MUNDOORA BOUNDARY ROAD WOKURNA 5520",
    "locID": "LOC000148243691",
    "tech": "WIRELESS",
    "upgrade": "NULL_NA",
    "gnaf_pid": "GASA_425392951",
    "tech_change_status": "Not Planned",
    "program_type": "Fixed Wireless and Satellite Upgrade Program",
    "target_eligibility_quarter": "NA"
   }
  },
  {
   "type": "Feature",
   "geometry": {
    "type": "Point",
    "coordinates": [
     138.09155052,
     -33.68236372
    ]
   },
   "properties": {
    "name": "LOT 263 MUNDOORA BOUNDARY ROAD WOKURNA 5520",
    "locID": "LOC000148243691",
    "tech": "WIRELESS",
    "upgrade": "NULL_NA",
    "gnaf_pid": "GASA_425392952",
    "tech_change_status": "Not Planned",
    "program_type": "Fixed Wireless and Satellite Upgrade Program",
    "target_eligibility_quarter": "NA"
   }
  },
  {
   "type": "Feature",
   "geometry": {
    "type": "Point",
    "coordinates": [
     138.13401015,
     -33.70926186
    ]
   },
   "properties": {
    "name": "LOT 5 WOKURNA ROAD WOKURNA 5520",
    "locID": "LOC000150256320",
    "tech": "SATELLITE",
    "upgrade": "NULL_NA",
    "gnaf_pid": "GASA_425395881",
    "tech_change_status": "Not Planned"
   }
  },
  {
   "type": "Feature",
   "geometry": {
    "type": "Point",
    "coordinates": [
     138.04096961,
     -33.77367564
    ]
   },
   "properties": {
    "name": "909 AEROPLANE ROAD WOKURNA 5520",
    "locID": "LOC000148255132",
    "tech": "SATELLITE",
    "upgrade": "NULL_NA",
    "gnaf_pid": "GASA_425500081",
    "tech_change_status": "Not Planned"
   }
  },
  {
   "type": "Feature",
   "geometry": {
    "type": "Point",
    "coordinates": [
     138.02811201,
     -33.75023512
    ]
   },
   "properties": {
    "name": "LOT 259 AEROPLANE ROAD WOKURNA 5520",
    "locID": "LOC000181243483",
    "tech": "WIRELESS",
    "upgrade": "NULL_NA",
    "gnaf_pid": "GASA_425500082",
    "tech_change_status": "Not Planned",
    "program_type": "Fixed Wireless and Satellite Upgrade Program",
    "target_eligibility_quarter": "NA"
   }
  },
  {
   "type": "Feature",
   "geometry": {
    "type": "Point",
    "coordinates": [
     138.1153107,
     -33.71744129
    ]
   },
   "properties": {
    "name": "LOT 22 BARUNGA TOP ROAD WOKURNA 5520",
    "locID": "LOC000150256192",
    "tech": "WIRELESS",
    "upgrade": "NULL_NA",
    "gnaf_pid": "GASA_425708188",
    "tech_change_status": "Not Planned",
    "program_type": "Fixed Wireless and Satellite Upgrade Program",
    "target_eligibility_quarter": "NA"
   }
  },
  {
   "type": "Feature",
   "geometry": {
    "type": "Point",
    "coordinates": [
     138.10222276,
     -33.71036152
    ]
   },
   "properties": {
    "name": "LOT 21 WOKURNA ROAD WOKURNA 5520",
    "locID": "LOC000150256320",
    "tech": "SATELLITE",
    "upgrade": "NULL_NA",
    "gnaf_pid": "GASA_425715793",
    "tech_change_status": "Not Planned"
   }
  },
  {
   "type": "Feature",
   "geometry": {
    "type": "Point",
    "coordinates": [
     138.04369686,
     -33.71024091
    ]
   },
   "properties": {
    "name": "LOT 13 AEROPLANE ROAD WOKURNA 5520",
    "locID": "LOC000148255132",
    "tech": "SATELLITE",
    "upgrade": "NULL_NA",
    "gnaf_pid": "GASA_425718414",
    "tech_change_status": "Not Planned"
   }
  },
  {
   "type": "Feature",
   "geometry": {
    "type": "Point",
    "coordinates": [
     137.98485476,
     -33.71961214
    ]
   },
   "properties": {
    "name": "LOT 38 UPPER YORKE ROAD WOKURNA 5520",
    "locID": "LOC000150256308",
    "tech": "WIRELESS",
    "upgrade": "NULL_NA",
    "gnaf_pid": "GASA_719774486",
    "tech_change_status": "Not Planned",
    "program_type": "Fixed Wireless and Satellite Upgrade Program",
    "target_eligibility_quarter": "NA"
   }
  },
  {
   "type": "Feature",
   "geometry": {
    "type": "Point",
    "coordinates": [
     137.99073307,
     -33.71332266
    ]
   },
   "properties": {
    "name": "LOT 430 WOKURNA ROAD WOKURNA 5520",
    "locID": "LOC000150256320",
    "tech": "SATELLITE",
    "upgrade": "NULL_NA",
    "gnaf_pid": "GASA_719776439",
    "tech_change_status": "Not Planned"
   }
  }
 ]
}