{
 "type": "FeatureCollection",
 "generated": "2025-02-11T01:13:39.715474",
 "suburb": "YACKA",
 "features": [
  {
   "type": "Feature",
   "geometry": {
    "type": "Point",
    "coordinates": [
     138.44578851,
     -33.5710937
    ]
   },
   "properties": {
    "name": "11 BROUGHTON ROAD YACKA 5470",
    "locID": "LOC000047982200",
    "tech": "SATELLITE",
    "upgrade": "NULL_NA",
    "gnaf_pid": "GASA_415505698",
    "tech_change_status": "Not Planned"
   }
  },
  {
   "type": "Feature",
   "geometry": {
    "type": "Point",
    "coordinates": [
     138.44394863,
     -33.5725353
    ]
   },
   "properties": {
    "name": "6 BROUGHTON ROAD YACKA 5470",
    "locID": "LOC000072106763",
    "tech": "NULL",
    "upgrade": "NULL_NA",
    "gnaf_pid": "GASA_415691675",
    "tech_change_status": "Not Planned"
   }
  },
  {
   "type": "Feature",
   "geometry": {
    "type": "Point",
    "coordinates": [
     138.44427188,
     -33.5724387
    ]
   },
   "properties": {
    "name": "8 BROUGHTON ROAD YACKA 5470",
    "locID": "LOC000131387334",
    "tech": "NULL",
    "upgrade": "NULL_NA",
    "gnaf_pid": "GASA_415691676",
    "tech_change_status": "Not Planned"
   }
  },
  {
   "type": "Feature",
   "geometry": {
    "type": "Point",
    "coordinates": [
     138.44328846,
     -33.57183688
    ]
   },
   "properties": {
    "name": "3 BROUGHTON ROAD YACKA 5470",
    "locID": "LOC000060610118",
    "tech": "NULL",
    "upgrade": "NULL_NA",
    "gnaf_pid": "GASA_415695366",
    "tech_change_status": "Not Planned"
   }
  },
  {
   "type": "Feature",
   "geometry": {
    "type": "Point",
    "coordinates": [
     138.44362601,
     -33.5726318
    ]
   },
   "properties": {
    "name": "4 BROUGHTON ROAD YACKA 5470",
    "locID": "LOC000039988185",
    "tech": "NULL",
    "upgrade": "NULL_NA",
    "gnaf_pid": "GASA_415695368",
    "tech_change_status": "Not Planned"
   }
  },
  {
   "type": "Feature",
   "geometry": {
    "type": "Point",
    "coordinates": [
     138.45020027,
     -33.57070262
    ]
   },
   "properties": {
    "name": "32 BROUGHTON ROAD YACKA 5470",
    "locID": "LOC000036414656",
    "tech": "NULL",
    "upgrade": "NULL_NA",
    "gnaf_pid": "GASA_415695376",
    "tech_change_status": "Not Planned"
   }
  },
  {
   "type": "Feature",
   "geometry": {
    "type": "Point",
    "coordinates": [
     138.44852201,
     -33.5690105
    ]
   },
   "properties": {
    "name": "27 CHARLES STREET YACKA 5470",
    "locID": "LOC000043217977",
    "tech": "NULL",
    "upgrade": "NULL_NA",
    "gnaf_pid": "GASA_415697372",
    "tech_change_status": "Not Planned"
   }
  },
  {
   "type": "Feature",
   "geometry": {
    "type": "Point",
    "coordinates": [
     138.4493396,
     -33.57095096
    ]
   },
   "properties": {
    "name": "30 BROUGHTON ROAD YACKA 5470",
    "locID": "LOC000060433728",
    "tech": "NULL",
    "upgrade": "NULL_NA",
    "gnaf_pid": "GASA_415697374",
    "tech_change_status": "Not Planned"
   }
  },
  {
   "type": "Feature",
   "geometry": {
    "type": "Point",
    "coordinates": [
     138.44705663,
     -33.571773
    ]
   },
   "properties": {
    "name": "20 BEARE STREET YACKA 5470",
    "locID": "LOC000095111145",
    "tech": "SATELLITE",
    "upgrade": "NULL_NA",
    "gnaf_pid": "GASA_415698614",
    "tech_change_status": "Not Planned"
   }
  },
  {
   "type": "Feature",
   "geometry": {
    "type": "Point",
    "coordinates": [
     138.44671826,
     -33.5709715
    ]
   },
   "properties": {
    "name": "16 BEARE STREET YACKA 5470",
    "locID": "LOC000093930326",
    "tech": "NULL",
    "upgrade": "NULL_NA",
    "gnaf_pid": "GASA_415698616",
    "tech_change_status": "Not Planned"
   }
  },
  {
   "type": "Feature",
   "geometry": {
    "type": "Point",
    "coordinates": [
     138.44648676,
     -33.5704347
    ]
   },
   "properties": {
    "name": "12 BEARE STREET YACKA 5470",
    "locID": "LOC000027570205",
    "tech": "SATELLITE",
    "upgrade": "NULL_NA",
    "gnaf_pid": "GASA_415698618",
    "tech_change_status": "Not Planned"
   }
  },
  {
   "type": "Feature",
   "geometry": {
    "type": "Point",
    "coordinates": [
     138.44637776,
     -33.5701636
    ]
   },
   "properties": {
    "name": "10 BEARE STREET YACKA 5470",
    "locID": "LOC000131382886",
    "tech": "SATELLITE",
    "upgrade": "NULL_NA",
    "gnaf_pid": "GASA_415698619",
    "tech_change_status": "Not Planned"
   }
  },
  {
   "type": "Feature",
   "geometry": {
    "type": "Point",
    "coordinates": [
     138.45130528,
     -33.5694837
    ]
   },
   "properties": {
    "name": "41 BROUGHTON ROAD YACKA 5470",
    "locID": "LOC000005362699",
    "tech": "SATELLITE",
    "upgrade": "NULL_NA",
    "gnaf_pid": "GASA_415699372",
    "tech_change_status": "Not Planned"
   }
  },
  {
   "type": "Feature",
   "geometry": {
    "type": "Point",
    "coordinates": [
     138.44651777,
     -33.5717822
    ]
   },
   "properties": {
    "name": "14 BROUGHTON ROAD YACKA 5470",
    "locID": "LOC000021239074",
    "tech": "SATELLITE",
    "upgrade": "NULL_NA",
    "gnaf_pid": "GASA_415701310",
    "tech_change_status": "Not Planned"
   }
  },
  {
   "type": "Feature",
   "geometry": {
    "type": "Point",
    "coordinates": [
     138.44742876,
     -33.5698517
    ]
   },
   "properties": {
    "name": "9 BEARE STREET YACKA 5470",
    "locID": "LOC000102648105",
    "tech": "NULL",
    "upgrade": "NULL_NA",
    "gnaf_pid": "GASA_415701994",
    "tech_change_status": "Not Planned"
   }
  },
  {
   "type": "Feature",
   "geometry": {
    "type": "Point",
    "coordinates": [
     138.44799626,
     -33.5711896
    ]
   },
   "properties": {
    "name": "22 BROUGHTON ROAD YACKA 5470",
    "locID": "LOC000010369674",
    "tech": "NULL",
    "upgrade": "NULL_NA",
    "gnaf_pid": "GASA_415701998",
    "tech_change_status": "Not Planned"
   }
  },
  {
   "type": "Feature",
   "geometry": {
    "type": "Point",
    "coordinates": [
     138.4472234,
     -33.57217825
    ]
   },
   "properties": {
    "name": "22 BEARE STREET YACKA 5470",
    "locID": "LOC000004270994",
    "tech": "SATELLITE",
    "upgrade": "NULL_NA",
    "gnaf_pid": "GASA_416414650",
    "tech_change_status": "Not Planned"
   }
  },
  {
   "type": "Feature",
   "geometry": {
    "type": "Point",
    "coordinates": [
     138.44657318,
     -33.57236806
    ]
   },
   "properties": {
    "name": "11 SOUTH TERRACE YACKA 5470",
    "locID": "LOC000040881073",
    "tech": "NULL",
    "upgrade": "NULL_NA",
    "gnaf_pid": "GASA_416414651",
    "tech_change_status": "Not Planned"
   }
  },
  {
   "type": "Feature",
   "geometry": {
    "type": "Point",
    "coordinates": [
     138.44869513,
     -33.57114198
    ]
   },
   "properties": {
    "name": "26 BROUGHTON ROAD YACKA 5470",
    "locID": "LOC000026694089",
    "tech": "NULL",
    "upgrade": "NULL_NA",
    "gnaf_pid": "GASA_416418204",
    "tech_change_status": "Not Planned"
   }
  },
  {
   "type": "Feature",
   "geometry": {
    "type": "Point",
    "coordinates": [
     138.44844457,
     -33.57181949
    ]
   },
   "properties": {
    "name": "23 BEARE STREET YACKA 5470",
    "locID": "LOC000083221935",
    "tech": "NULL",
    "upgrade": "NULL_NA",
    "gnaf_pid": "GASA_416419076",
    "tech_change_status": "Not Planned"
   }
  },
  {
   "type": "Feature",
   "geometry": {
    "type": "Point",
    "coordinates": [
     138.44611569,
     -33.57100167
    ]
   },
   "properties": {
    "name": "13 BROUGHTON ROAD YACKA 5470",
    "locID": "LOC000109943439",
    "tech": "SATELLITE",
    "upgrade": "NULL_NA",
    "gnaf_pid": "GASA_416421957",
    "tech_change_status": "Not Planned"
   }
  },
  {
   "type": "Feature",
   "geometry": {
    "type": "Point",
    "coordinates": [
     138.4458045,
     -33.57183576
    ]
   },
   "properties": {
    "name": "10 BROUGHTON ROAD YACKA 5470",
    "locID": "LOC000081970077",
    "tech": "NULL",
    "upgrade": "NULL_NA",
    "gnaf_pid": "GASA_416428999",
    "tech_change_status": "Not Planned"
   }
  },
  {
   "type": "Feature",
   "geometry": {
    "type": "Point",
    "coordinates": [
     138.44618708,
     -33.57187589
    ]
   },
   "properties": {
    "name": "12 BROUGHTON ROAD YACKA 5470",
    "locID": "LOC000006761203",
    "tech": "NULL",
    "upgrade": "NULL_NA",
    "gnaf_pid": "GASA_416429002",
    "tech_change_status": "Not Planned"
   }
  },
  {
   "type": "Feature",
   "geometry": {
    "type": "Point",
    "coordinates": [
     138.44912193,
     -33.57011429
    ]
   },
   "properties": {
    "name": "29 BROUGHTON ROAD YACKA 5470",
    "locID": "LOC100079007314",
    "tech": "SATELLITE",
    "upgrade": "NULL_NA",
    "gnaf_pid": "GASA_416429004",
    "tech_change_status": "Not Planned"
   }
  },
  {
   "type": "Feature",
   "geometry": {
    "type": "Point",
    "coordinates": [
     138.44367136,
     -33.57321001
    ]
   },
   "properties": {
    "name": "5 SOUTH TERRACE YACKA 5470",
    "locID": "LOC000076880091",
    "tech": "SATELLITE",
    "upgrade": "NULL_NA",
    "gnaf_pid": "GASA_416432855",
    "tech_change_status": "Not Planned"
   }
  },
  {
   "type": "Feature",
   "geometry": {
    "type": "Point",
    "coordinates": [
     138.44812999,
     -33.5698019
    ]
   },
   "properties": {
    "name": "24 CHARLES STREET YACKA 5470",
    "locID": "LOC000095342150",
    "tech": "NULL",
    "upgrade": "NULL_NA",
    "gnaf_pid": "GASA_416439127",
    "tech_change_status": "Not Planned"
   }
  },
  {
   "type": "Feature",
   "geometry": {
    "type": "Point",
    "coordinates": [
     138.45027061,
     -33.56918541
    ]
   },
   "properties": {
    "name": "36 CHARLES STREET YACKA 5470",
    "locID": "LOC000053145986",
    "tech": "NULL",
    "upgrade": "NULL_NA",
    "gnaf_pid": "GASA_422337718",
    "tech_change_status": "Not Planned"
   }
  },
  {
   "type": "Feature",
   "geometry": {
    "type": "Point",
    "coordinates": [
     138.44330062,
     -33.57273088
    ]
   },
   "properties": {
    "name": "2 BROUGHTON ROAD YACKA 5470",
    "locID": "LOC100079007314",
    "tech": "SATELLITE",
    "upgrade": "NULL_NA",
    "gnaf_pid": "GASA_423421400",
    "tech_change_status": "Not Planned"
   }
  },
  {
   "type": "Feature",
   "geometry": {
    "type": "Point",
    "coordinates": [
     138.52743571,
     -33.61898145
    ]
   },
   "properties": {
    "name": "LOT 208 YACKA-ANDREWS ROAD YACKA 5470",
    "locID": "LOC000148250310",
    "tech": "WIRELESS",
    "upgrade": "NULL_NA",
    "gnaf_pid": "GASA_423779776",
    "tech_change_status": "Not Planned",
    "program_type": "Fixed Wireless and Satellite Upgrade Program",
    "target_eligibility_quarter": "NA"
   }
  },
  {
   "type": "Feature",
   "geometry": {
    "type": "Point",
    "coordinates": [
     138.44785309,
     -33.56915761
    ]
   },
   "properties": {
    "name": "25 CHARLES STREET YACKA 5470",
    "locID": "LOC000039283714",
    "tech": "NULL",
    "upgrade": "NULL_NA",
    "gnaf_pid": "GASA_424016298",
    "tech_change_status": "Not Planned"
   }
  },
  {
   "type": "Feature",
   "geometry": {
    "type": "Point",
    "coordinates": [
     138.4770286,
     -33.511981
    ]
   },
   "properties": {
    "name": "LOT 1 BOWMANS ROAD YACKA 5470",
    "locID": "LOC000150225227",
    "tech": "WIRELESS",
    "upgrade": "NULL_NA",
    "gnaf_pid": "GASA_424101059",
    "tech_change_status": "Not Planned",
    "program_type": "Fixed Wireless and Satellite Upgrade Program",
    "target_eligibility_quarter": "NA"
   }
  },
  {
   "type": "Feature",
   "geometry": {
    "type": "Point",
    "coordinates": [
     138.44184708,
     -33.58518013
    ]
   },
   "properties": {
    "name": "LOT 741 SPRING FARM ROAD YACKA 5470",
    "locID": "LOC000148250086",
    "tech": "NULL",
    "upgrade": "NULL_NA",
    "gnaf_pid": "GASA_424122191",
    "tech_change_status": "Not Planned"
   }
  },
  {
   "type": "Feature",
   "geometry": {
    "type": "Point",
    "coordinates": [
     138.44321685,
     -33.57511354
    ]
   },
   "properties": {
    "name": "LOT 1 SOUTH TERRACE YACKA 5470",
    "locID": "LOC000142382357",
    "tech": "NULL",
    "upgrade": "NULL_NA",
    "gnaf_pid": "GASA_424150401",
    "tech_change_status": "Not Planned"
   }
  },
  {
   "type": "Feature",
   "geometry": {
    "type": "Point",
    "coordinates": [
     138.51861044,
     -33.53284627
    ]
   },
   "properties": {
    "name": "LOT 343 BROUGHTON HILLS ROAD YACKA 5470",
    "locID": "LOC000131387323",
    "tech": "NULL",
    "upgrade": "NULL_NA",
    "gnaf_pid": "GASA_424291945",
    "tech_change_status": "Not Planned"
   }
  },
  {
   "type": "Feature",
   "geometry": {
    "type": "Point",
    "coordinates": [
     138.47707858,
     -33.58496248
    ]
   },
   "properties": {
    "name": "LOT 315 CROMER ROAD YACKA 5470",
    "locID": "LOC000148395891",
    "tech": "NULL",
    "upgrade": "NULL_NA",
    "gnaf_pid": "GASA_424296644",
    "tech_change_status": "Not Planned"
   }
  },
  {
   "type": "Feature",
   "geometry": {
    "type": "Point",
    "coordinates": [
     138.44414971,
     -33.57074694
    ]
   },
   "properties": {
    "name": "10 HAWKER STREET YACKA 5470",
    "locID": "LOC000131396882",
    "tech": "NULL",
    "upgrade": "NULL_NA",
    "gnaf_pid": "GASA_424306730",
    "tech_change_status": "Not Planned"
   }
  },
  {
   "type": "Feature",
   "geometry": {
    "type": "Point",
    "coordinates": [
     138.44424685,
     -33.57110507
    ]
   },
   "properties": {
    "name": "12 HAWKER STREET YACKA 5470",
    "locID": "LOC000060284974",
    "tech": "SATELLITE",
    "upgrade": "NULL_NA",
    "gnaf_pid": "GASA_424306731",
    "tech_change_status": "Not Planned"
   }
  },
  {
   "type": "Feature",
   "geometry": {
    "type": "Point",
    "coordinates": [
     138.44531475,
     -33.57108351
    ]
   },
   "properties": {
    "name": "13 HAWKER STREET YACKA 5470",
    "locID": "LOC000073959298",
    "tech": "NULL",
    "upgrade": "NULL_NA",
    "gnaf_pid": "GASA_424306732",
    "tech_change_status": "Not Planned"
   }
  },
  {
   "type": "Feature",
   "geometry": {
    "type": "Point",
    "coordinates": [
     138.44435561,
     -33.57137158
    ]
   },
   "properties": {
    "name": "14 HAWKER STREET YACKA 5470",
    "locID": "LOC000033133985",
    "tech": "NULL",
    "upgrade": "NULL_NA",
    "gnaf_pid": "GASA_424306733",
    "tech_change_status": "Not Planned"
   }
  },
  {
   "type": "Feature",
   "geometry": {
    "type": "Point",
    "coordinates": [
     138.44447535,
     -33.57163945
    ]
   },
   "properties": {
    "name": "16 HAWKER STREET YACKA 5470",
    "locID": "LOC000095571010",
    "tech": "SATELLITE",
    "upgrade": "NULL_NA",
    "gnaf_pid": "GASA_424306734",
    "tech_change_status": "Not Planned"
   }
  },
  {
   "type": "Feature",
   "geometry": {
    "type": "Point",
    "coordinates": [
     138.44468925,
     -33.57216103
    ]
   },
   "properties": {
    "name": "18 HAWKER STREET YACKA 5470",
    "locID": "LOC000085013595",
    "tech": "NULL",
    "upgrade": "NULL_NA",
    "gnaf_pid": "GASA_424306735",
    "tech_change_status": "Not Planned"
   }
  },
  {
   "type": "Feature",
   "geometry": {
    "type": "Point",
    "coordinates": [
     138.44483661,
     -33.57255035
    ]
   },
   "properties": {
    "name": "20 HAWKER STREET YACKA 5470",
    "locID": "LOC000094183550",
    "tech": "SATELLITE",
    "upgrade": "NULL_NA",
    "gnaf_pid": "GASA_424306737",
    "tech_change_status": "Not Planned"
   }
  },
  {
   "type": "Feature",
   "geometry": {
    "type": "Point",
    "coordinates": [
     138.44587299,
     -33.57242032
    ]
   },
   "properties": {
    "name": "21 HAWKER STREET YACKA 5470",
    "locID": "LOC000043484205",
    "tech": "SATELLITE",
    "upgrade": "NULL_NA",
    "gnaf_pid": "GASA_424306738",
    "tech_change_status": "Not Planned"
   }
  },
  {
   "type": "Feature",
   "geometry": {
    "type": "Point",
    "coordinates": [
     138.4459907,
     -33.57269088
    ]
   },
   "properties": {
    "name": "23 HAWKER STREET YACKA 5470",
    "locID": "LOC000047298701",
    "tech": "SATELLITE",
    "upgrade": "NULL_NA",
    "gnaf_pid": "GASA_424306739",
    "tech_change_status": "Not Planned"
   }
  },
  {
   "type": "Feature",
   "geometry": {
    "type": "Point",
    "coordinates": [
     138.4450357,
     -33.57297124
    ]
   },
   "properties": {
    "name": "24 HAWKER STREET YACKA 5470",
    "locID": "LOC000059401363",
    "tech": "SATELLITE",
    "upgrade": "NULL_NA",
    "gnaf_pid": "GASA_424306740",
    "tech_change_status": "Not Planned"
   }
  },
  {
   "type": "Feature",
   "geometry": {
    "type": "Point",
    "coordinates": [
     138.44883413,
     -33.57376532
    ]
   },
   "properties": {
    "name": "LOT 329 HAWKER STREET YACKA 5470",
    "locID": "LOC000176163456",
    "tech": "SATELLITE",
    "upgrade": "NULL_NA",
    "gnaf_pid": "GASA_424306741",
    "tech_change_status": "Not Planned"
   }
  },
  {
   "type": "Feature",
   "geometry": {
    "type": "Point",
    "coordinates": [
     138.44517335,
     -33.57268711
    ]
   },
   "properties": {
    "name": "LOT 758 HAWKER STREET YACKA 5470",
    "locID": "LOC000176163456",
    "tech": "SATELLITE",
    "upgrade": "NULL_NA",
    "gnaf_pid": "GASA_424306744",
    "tech_change_status": "Not Planned"
   }
  },
  {
   "type": "Feature",
   "geometry": {
    "type": "Point",
    "coordinates": [
     138.44096887,
     -33.57570089
    ]
   },
   "properties": {
    "name": "LOT 330 SOUTH TERRACE YACKA 5470",
    "locID": "LOC000131405695",
    "tech": "NULL",
    "upgrade": "NULL_NA",
    "gnaf_pid": "GASA_424333455",
    "tech_change_status": "Not Planned"
   }
  },
  {
   "type": "Feature",
   "geometry": {
    "type": "Point",
    "coordinates": [
     138.44271051,
     -33.57296733
    ]
   },
   "properties": {
    "name": "LOT 369 SOUTH TERRACE YACKA 5470",
    "locID": "LOC000076880091",
    "tech": "SATELLITE",
    "upgrade": "NULL_NA",
    "gnaf_pid": "GASA_424333457",
    "tech_change_status": "Not Planned"
   }
  },
  {
   "type": "Feature",
   "geometry": {
    "type": "Point",
    "coordinates": [
     138.43347364,
     -33.59000998
    ]
   },
   "properties": {
    "name": "LOT 159W SPRING FARM ROAD YACKA 5470",
    "locID": "LOC000148250086",
    "tech": "NULL",
    "upgrade": "NULL_NA",
    "gnaf_pid": "GASA_424333586",
    "tech_change_status": "Not Planned"
   }
  },
  {
   "type": "Feature",
   "geometry": {
    "type": "Point",
    "coordinates": [
     138.43143089,
     -33.58355632
    ]
   },
   "properties": {
    "name": "LOT 349 SPRING FARM ROAD YACKA 5470",
    "locID": "LOC000148250086",
    "tech": "NULL",
    "upgrade": "NULL_NA",
    "gnaf_pid": "GASA_424333588",
    "tech_change_status": "Not Planned"
   }
  },
  {
   "type": "Feature",
   "geometry": {
    "type": "Point",
    "coordinates": [
     138.43185647,
     -33.58495042
    ]
   },
   "properties": {
    "name": "LOT 354 SPRING FARM ROAD YACKA 5470",
    "locID": "LOC000148250086",
    "tech": "NULL",
    "upgrade": "NULL_NA",
    "gnaf_pid": "GASA_424333589",
    "tech_change_status": "Not Planned"
   }
  },
  {
   "type": "Feature",
   "geometry": {
    "type": "Point",
    "coordinates": [
     138.44034435,
     -33.59666499
    ]
   },
   "properties": {
    "name": "LOT 738 SPRING FARM ROAD YACKA 5470",
    "locID": "LOC000148250086",
    "tech": "NULL",
    "upgrade": "NULL_NA",
    "gnaf_pid": "GASA_424333590",
    "tech_change_status": "Not Planned"
   }
  },
  {
   "type": "Feature",
   "geometry": {
    "type": "Point",
    "coordinates": [
     138.4474553,
     -33.59478934
    ]
   },
   "properties": {
    "name": "LOT 132 WHITE HILL ROAD YACKA 5470",
    "locID": "LOC000148396653",
    "tech": "NULL",
    "upgrade": "NULL_NA",
    "gnaf_pid": "GASA_424340504",
    "tech_change_status": "Not Planned"
   }
  },
  {
   "type": "Feature",
   "geometry": {
    "type": "Point",
    "coordinates": [
     138.45777849,
     -33.59146626
    ]
   },
   "properties": {
    "name": "LOT 742 WHITE HILL ROAD YACKA 5470",
    "locID": "LOC000148396653",
    "tech": "NULL",
    "upgrade": "NULL_NA",
    "gnaf_pid": "GASA_424340506",
    "tech_change_status": "Not Planned"
   }
  },
  {
   "type": "Feature",
   "geometry": {
    "type": "Point",
    "coordinates": [
     138.54558086,
     -33.59625352
    ]
   },
   "properties": {
    "name": "LOT 100 YACKA-ANDREWS ROAD YACKA 5470",
    "locID": "LOC000148250310",
    "tech": "WIRELESS",
    "upgrade": "NULL_NA",
    "gnaf_pid": "GASA_424342061",
    "tech_change_status": "Not Planned",
    "program_type": "Fixed Wireless and Satellite Upgrade Program",
    "target_eligibility_quarter": "NA"
   }
  },
  {
   "type": "Feature",
   "geometry": {
    "type": "Point",
    "coordinates": [
     138.51780405,
     -33.60732891
    ]
   },
   "properties": {
    "name": "LOT 205 YACKA-ANDREWS ROAD YACKA 5470",
    "locID": "LOC000148250310",
    "tech": "WIRELESS",
    "upgrade": "NULL_NA",
    "gnaf_pid": "GASA_424342062",
    "tech_change_status": "Not Planned",
    "program_type": "Fixed Wireless and Satellite Upgrade Program",
    "target_eligibility_quarter": "NA"
   }
  },
  {
   "type": "Feature",
   "geometry": {
    "type": "Point",
    "coordinates": [
     138.47624605,
     -33.56527744
    ]
   },
   "properties": {
    "name": "LOT 60 YACKA-ANDREWS ROAD YACKA 5470",
    "locID": "LOC000148250310",
    "tech": "WIRELESS",
    "upgrade": "NULL_NA",
    "gnaf_pid": "GASA_424342069",
    "tech_change_status": "Not Planned",
    "program_type": "Fixed Wireless and Satellite Upgrade Program",
    "target_eligibility_quarter": "NA"
   }
  },
  {
   "type": "Feature",
   "geometry": {
    "type": "Point",
    "coordinates": [
     138.44536323,
     -33.57137176
    ]
   },
   "properties": {
    "name": "15 HAWKER STREET YACKA 5470",
    "locID": "LOC000001865716",
    "tech": "WIRELESS",
    "upgrade": "NULL_NA",
    "gnaf_pid": "GASA_424343518",
    "tech_change_status": "Not Planned",
    "program_type": "Fixed Wireless and Satellite Upgrade Program",
    "target_eligibility_quarter": "NA"
   }
  },
  {
   "type": "Feature",
   "geometry": {
    "type": "Point",
    "coordinates": [
     138.44551102,
     -33.57197783
    ]
   },
   "properties": {
    "name": "17 HAWKER STREET YACKA 5470",
    "locID": "LOC000033287554",
    "tech": "SATELLITE",
    "upgrade": "NULL_NA",
    "gnaf_pid": "GASA_424343519",
    "tech_change_status": "Not Planned"
   }
  },
  {
   "type": "Feature",
   "geometry": {
    "type": "Point",
    "coordinates": [
     138.44595842,
     -33.5720898
    ]
   },
   "properties": {
    "name": "19 HAWKER STREET YACKA 5470",
    "locID": "LOC000109829623",
    "tech": "NULL",
    "upgrade": "NULL_NA",
    "gnaf_pid": "GASA_424343521",
    "tech_change_status": "Not Planned"
   }
  },
  {
   "type": "Feature",
   "geometry": {
    "type": "Point",
    "coordinates": [
     138.44505325,
     -33.57006029
    ]
   },
   "properties": {
    "name": "7 HAWKER STREET YACKA 5470",
    "locID": "LOC000087616026",
    "tech": "NULL",
    "upgrade": "NULL_NA",
    "gnaf_pid": "GASA_424343524",
    "tech_change_status": "Not Planned"
   }
  },
  {
   "type": "Feature",
   "geometry": {
    "type": "Point",
    "coordinates": [
     138.4437164,
     -33.57015125
    ]
   },
   "properties": {
    "name": "8 HAWKER STREET YACKA 5470",
    "locID": "LOC000083408562",
    "tech": "SATELLITE",
    "upgrade": "NULL_NA",
    "gnaf_pid": "GASA_424343525",
    "tech_change_status": "Not Planned"
   }
  },
  {
   "type": "Feature",
   "geometry": {
    "type": "Point",
    "coordinates": [
     138.44509116,
     -33.57054331
    ]
   },
   "properties": {
    "name": "9 HAWKER STREET YACKA 5470",
    "locID": "LOC000081406167",
    "tech": "NULL",
    "upgrade": "NULL_NA",
    "gnaf_pid": "GASA_424343526",
    "tech_change_status": "Not Planned"
   }
  },
  {
   "type": "Feature",
   "geometry": {
    "type": "Point",
    "coordinates": [
     138.4500691,
     -33.56984226
    ]
   },
   "properties": {
    "name": "37 BROUGHTON ROAD YACKA 5470",
    "locID": "LOC000065980047",
    "tech": "NULL",
    "upgrade": "NULL_NA",
    "gnaf_pid": "GASA_424410349",
    "tech_change_status": "Not Planned"
   }
  },
  {
   "type": "Feature",
   "geometry": {
    "type": "Point",
    "coordinates": [
     138.44811231,
     -33.57146276
    ]
   },
   "properties": {
    "name": "19 BEARE STREET YACKA 5470",
    "locID": "LOC000094958788",
    "tech": "NULL",
    "upgrade": "NULL_NA",
    "gnaf_pid": "GASA_424526987",
    "tech_change_status": "Not Planned"
   }
  },
  {
   "type": "Feature",
   "geometry": {
    "type": "Point",
    "coordinates": [
     138.44772898,
     -33.56952288
    ]
   },
   "properties": {
    "name": "22 CHARLES STREET YACKA 5470",
    "locID": "LOC000142368240",
    "tech": "SATELLITE",
    "upgrade": "NULL_NA",
    "gnaf_pid": "GASA_424567876",
    "tech_change_status": "Not Planned"
   }
  },
  {
   "type": "Feature",
   "geometry": {
    "type": "Point",
    "coordinates": [
     138.45155186,
     -33.52114734
    ]
   },
   "properties": {
    "name": "LOT 1 HORROCKS HIGHWAY YACKA 5470",
    "locID": "LOC100073800226",
    "tech": "WIRELESS",
    "upgrade": "NULL_NA",
    "gnaf_pid": "GASA_424902217",
    "tech_change_status": "Not Planned",
    "program_type": "Fixed Wireless and Satellite Upgrade Program",
    "target_eligibility_quarter": "NA"
   }
  },
  {
   "type": "Feature",
   "geometry": {
    "type": "Point",
    "coordinates": [
     138.45345229,
     -33.57226285
    ]
   },
   "properties": {
    "name": "LOT 329 HORROCKS HIGHWAY YACKA 5470",
    "locID": "LOC100073800226",
    "tech": "WIRELESS",
    "upgrade": "NULL_NA",
    "gnaf_pid": "GASA_424902222",
    "tech_change_status": "Not Planned",
    "program_type": "Fixed Wireless and Satellite Upgrade Program",
    "target_eligibility_quarter": "NA"
   }
  },
  {
   "type": "Feature",
   "geometry": {
    "type": "Point",
    "coordinates": [
     138.43815651,
     -33.57400426
    ]
   },
   "properties": {
    "name": "LOT 331 HORROCKS HIGHWAY YACKA 5470",
    "locID": "LOC100073800226",
    "tech": "WIRELESS",
    "upgrade": "NULL_NA",
    "gnaf_pid": "GASA_424902224",
    "tech_change_status": "Not Planned",
    "program_type": "Fixed Wireless and Satellite Upgrade Program",
    "target_eligibility_quarter": "NA"
   }
  },
  {
   "type": "Feature",
   "geometry": {
    "type": "Point",
    "coordinates": [
     138.44420275,
     -33.56542849
    ]
   },
   "properties": {
    "name": "LOT 335 HORROCKS HIGHWAY YACKA 5470",
    "locID": "LOC100073800226",
    "tech": "WIRELESS",
    "upgrade": "NULL_NA",
    "gnaf_pid": "GASA_424902226",
    "tech_change_status": "Not Planned",
    "program_type": "Fixed Wireless and Satellite Upgrade Program",
    "target_eligibility_quarter": "NA"
   }
  },
  {
   "type": "Feature",
   "geometry": {
    "type": "Point",
    "coordinates": [
     138.4505496,
     -33.54587773
    ]
   },
   "properties": {
    "name": "LOT 764 HORROCKS HIGHWAY YACKA 5470",
    "locID": "LOC100073800226",
    "tech": "WIRELESS",
    "upgrade": "NULL_NA",
    "gnaf_pid": "GASA_424902229",
    "tech_change_status": "Not Planned",
    "program_type": "Fixed Wireless and Satellite Upgrade Program",
    "target_eligibility_quarter": "NA"
   }
  },
  {
   "type": "Feature",
   "geometry": {
    "type": "Point",
    "coordinates": [
     138.52891382,
     -33.53914769
    ]
   },
   "properties": {
    "name": "LOT 23 BROUGHTON HILLS ROAD YACKA 5470",
    "locID": "LOC100071971516",
    "tech": "NULL",
    "upgrade": "NULL_NA",
    "gnaf_pid": "GASA_424947643",
    "tech_change_status": "Not Planned"
   }
  },
  {
   "type": "Feature",
   "geometry": {
    "type": "Point",
    "coordinates": [
     138.44724579,
     -33.56942271
    ]
   },
   "properties": {
    "name": "7 CHARLES STREET YACKA 5470",
    "locID": "LOC100078084883",
    "tech": "NULL",
    "upgrade": "NULL_NA",
    "gnaf_pid": "GASA_424952969",
    "tech_change_status": "Not Planned"
   }
  },
  {
   "type": "Feature",
   "geometry": {
    "type": "Point",
    "coordinates": [
     138.4925105,
     -33.52324668
    ]
   },
   "properties": {
    "name": "71 BROUGHTON HILLS ROAD YACKA 5470",
    "locID": "LOC000131387323",
    "tech": "NULL",
    "upgrade": "NULL_NA",
    "gnaf_pid": "GASA_425072790",
    "tech_change_status": "Not Planned"
   }
  },
  {
   "type": "Feature",
   "geometry": {
    "type": "Point",
    "coordinates": [
     138.48026619,
     -33.51039318
    ]
   },
   "properties": {
    "name": "561 BOWMANS ROAD YACKA 5470",
    "locID": "LOC100079108511",
    "tech": "NULL",
    "upgrade": "NULL_NA",
    "gnaf_pid": "GASA_425105802",
    "tech_change_status": "Not Planned"
   }
  },
  {
   "type": "Feature",
   "geometry": {
    "type": "Point",
    "coordinates": [
     138.438056,
     -33.618259
    ]
   },
   "properties": {
    "name": "2064 COLLINSFIELD ROAD YACKA 5470",
    "locID": "LOC000150762508",
    "tech": "SATELLITE",
    "upgrade": "NULL_NA",
    "gnaf_pid": "GASA_425106582",
    "tech_change_status": "Not Planned"
   }
  },
  {
   "type": "Feature",
   "geometry": {
    "type": "Point",
    "coordinates": [
     138.44086834,
     -33.61627832
    ]
   },
   "properties": {
    "name": "2097 COLLINSFIELD ROAD YACKA 5470",
    "locID": "LOC000148245974",
    "tech": "WIRELESS",
    "upgrade": "NULL_NA",
    "gnaf_pid": "GASA_425106583",
    "tech_change_status": "Not Planned",
    "program_type": "Fixed Wireless and Satellite Upgrade Program",
    "target_eligibility_quarter": "NA"
   }
  },
  {
   "type": "Feature",
   "geometry": {
    "type": "Point",
    "coordinates": [
     138.42667717,
     -33.6215878
    ]
   },
   "properties": {
    "name": "LOT 140 COLLINSFIELD ROAD YACKA 5470",
    "locID": "LOC000116315990",
    "tech": "WIRELESS",
    "upgrade": "NULL_NA",
    "gnaf_pid": "GASA_425106584",
    "tech_change_status": "Not Planned",
    "program_type": "Fixed Wireless and Satellite Upgrade Program",
    "target_eligibility_quarter": "NA"
   }
  },
  {
   "type": "Feature",
   "geometry": {
    "type": "Point",
    "coordinates": [
     138.48271602,
     -33.57660273
    ]
   },
   "properties": {
    "name": "155 CROMER ROAD YACKA 5470",
    "locID": "LOC000148395891",
    "tech": "NULL",
    "upgrade": "NULL_NA",
    "gnaf_pid": "GASA_425106727",
    "tech_change_status": "Not Planned"
   }
  },
  {
   "type": "Feature",
   "geometry": {
    "type": "Point",
    "coordinates": [
     138.45659544,
     -33.57374398
    ]
   },
   "properties": {
    "name": "102 GLENFARM ROAD YACKA 5470",
    "locID": "LOC000150762764",
    "tech": "NULL",
    "upgrade": "NULL_NA",
    "gnaf_pid": "GASA_425107864",
    "tech_change_status": "Not Planned"
   }
  },
  {
   "type": "Feature",
   "geometry": {
    "type": "Point",
    "coordinates": [
     138.43014524,
     -33.5379686
    ]
   },
   "properties": {
    "name": "343 GREENWICH HILL ROAD YACKA 5470",
    "locID": "LOC000150256982",
    "tech": "WIRELESS",
    "upgrade": "NULL_NA",
    "gnaf_pid": "GASA_425108021",
    "tech_change_status": "Not Planned",
    "program_type": "Fixed Wireless and Satellite Upgrade Program",
    "target_eligibility_quarter": "NA"
   }
  },
  {
   "type": "Feature",
   "geometry": {
    "type": "Point",
    "coordinates": [
     138.4546244,
     -33.50540538
    ]
   },
   "properties": {
    "name": "138 HERMITAGE ROAD YACKA 5470",
    "locID": "LOC000150256995",
    "tech": "NULL",
    "upgrade": "NULL_NA",
    "gnaf_pid": "GASA_425108266",
    "tech_change_status": "Not Planned"
   }
  },
  {
   "type": "Feature",
   "geometry": {
    "type": "Point",
    "coordinates": [
     138.44480803,
     -33.6137331
    ]
   },
   "properties": {
    "name": "12256 HORROCKS HIGHWAY YACKA 5470",
    "locID": "LOC000148396023",
    "tech": "WIRELESS",
    "upgrade": "NULL_NA",
    "gnaf_pid": "GASA_425108425",
    "tech_change_status": "Not Planned",
    "program_type": "Fixed Wireless and Satellite Upgrade Program",
    "target_eligibility_quarter": "NA"
   }
  },
  {
   "type": "Feature",
   "geometry": {
    "type": "Point",
    "coordinates": [
     138.443356,
     -33.605792
    ]
   },
   "properties": {
    "name": "12345 HORROCKS HIGHWAY YACKA 5470",
    "locID": "LOC000148396034",
    "tech": "SATELLITE",
    "upgrade": "NULL_NA",
    "gnaf_pid": "GASA_425108426",
    "tech_change_status": "Not Planned"
   }
  },
  {
   "type": "Feature",
   "geometry": {
    "type": "Point",
    "coordinates": [
     138.44594555,
     -33.58190356
    ]
   },
   "properties": {
    "name": "12622 HORROCKS HIGHWAY YACKA 5470",
    "locID": "LOC000150763164",
    "tech": "NULL",
    "upgrade": "NULL_NA",
    "gnaf_pid": "GASA_425108427",
    "tech_change_status": "Not Planned"
   }
  },
  {
   "type": "Feature",
   "geometry": {
    "type": "Point",
    "coordinates": [
     138.4491922,
     -33.54222097
    ]
   },
   "properties": {
    "name": "13081 HORROCKS HIGHWAY YACKA 5470",
    "locID": "LOC000150257011",
    "tech": "NULL",
    "upgrade": "NULL_NA",
    "gnaf_pid": "GASA_425108429",
    "tech_change_status": "Not Planned"
   }
  },
  {
   "type": "Feature",
   "geometry": {
    "type": "Point",
    "coordinates": [
     138.49652052,
     -33.61562152
    ]
   },
   "properties": {
    "name": "1163 MAROLA ROAD YACKA 5470",
    "locID": "LOC000148242634",
    "tech": "WIRELESS",
    "upgrade": "NULL_NA",
    "gnaf_pid": "GASA_425109531",
    "tech_change_status": "Not Planned",
    "program_type": "Fixed Wireless and Satellite Upgrade Program",
    "target_eligibility_quarter": "NA"
   }
  },
  {
   "type": "Feature",
   "geometry": {
    "type": "Point",
    "coordinates": [
     138.4873551,
     -33.60390631
    ]
   },
   "properties": {
    "name": "1364 MAROLA ROAD YACKA 5470",
    "locID": "LOC000148396184",
    "tech": "NULL",
    "upgrade": "NULL_NA",
    "gnaf_pid": "GASA_425109532",
    "tech_change_status": "Not Planned"
   }
  },
  {
   "type": "Feature",
   "geometry": {
    "type": "Point",
    "coordinates": [
     138.48567218,
     -33.60256672
    ]
   },
   "properties": {
    "name": "1385 MAROLA ROAD YACKA 5470",
    "locID": "LOC000148396197",
    "tech": "WIRELESS",
    "upgrade": "NULL_NA",
    "gnaf_pid": "GASA_425109533",
    "tech_change_status": "Not Planned",
    "program_type": "Fixed Wireless and Satellite Upgrade Program",
    "target_eligibility_quarter": "NA"
   }
  },
  {
   "type": "Feature",
   "geometry": {
    "type": "Point",
    "coordinates": [
     138.48108163,
     -33.59448187
    ]
   },
   "properties": {
    "name": "1486 MAROLA ROAD YACKA 5470",
    "locID": "LOC000148396204",
    "tech": "WIRELESS",
    "upgrade": "NULL_NA",
    "gnaf_pid": "GASA_425109534",
    "tech_change_status": "Not Planned",
    "program_type": "Fixed Wireless and Satellite Upgrade Program",
    "target_eligibility_quarter": "NA"
   }
  },
  {
   "type": "Feature",
   "geometry": {
    "type": "Point",
    "coordinates": [
     138.44097498,
     -33.50381259
    ]
   },
   "properties": {
    "name": "1 OLD COACH ROAD YACKA 5470",
    "locID": "LOC000150257024",
    "tech": "WIRELESS",
    "upgrade": "NULL_NA",
    "gnaf_pid": "GASA_425110377",
    "tech_change_status": "Not Planned",
    "program_type": "Fixed Wireless and Satellite Upgrade Program",
    "target_eligibility_quarter": "NA"
   }
  },
  {
   "type": "Feature",
   "geometry": {
    "type": "Point",
    "coordinates": [
     138.4582308,
     -33.57646358
    ]
   },
   "properties": {
    "name": "132 PIPELINE ROAD YACKA 5470",
    "locID": "LOC000150763983",
    "tech": "NULL",
    "upgrade": "NULL_NA",
    "gnaf_pid": "GASA_425110792",
    "tech_change_status": "Not Planned"
   }
  },
  {
   "type": "Feature",
   "geometry": {
    "type": "Point",
    "coordinates": [
     138.4598379,
     -33.57563033
    ]
   },
   "properties": {
    "name": "149 PIPELINE ROAD YACKA 5470",
    "locID": "LOC000150763996",
    "tech": "NULL",
    "upgrade": "NULL_NA",
    "gnaf_pid": "GASA_425110793",
    "tech_change_status": "Not Planned"
   }
  },
  {
   "type": "Feature",
   "geometry": {
    "type": "Point",
    "coordinates": [
     138.48225809,
     -33.56357703
    ]
   },
   "properties": {
    "name": "399 PIPELINE ROAD YACKA 5470",
    "locID": "LOC000148396317",
    "tech": "NULL",
    "upgrade": "NULL_NA",
    "gnaf_pid": "GASA_425110795",
    "tech_change_status": "Not Planned"
   }
  },
  {
   "type": "Feature",
   "geometry": {
    "type": "Point",
    "coordinates": [
     138.48376435,
     -33.55681849
    ]
   },
   "properties": {
    "name": "480 PIPELINE ROAD YACKA 5470",
    "locID": "LOC000148396329",
    "tech": "NULL",
    "upgrade": "NULL_NA",
    "gnaf_pid": "GASA_425110796",
    "tech_change_status": "Not Planned"
   }
  },
  {
   "type": "Feature",
   "geometry": {
    "type": "Point",
    "coordinates": [
     138.45704044,
     -33.57126009
    ]
   },
   "properties": {
    "name": "33 RACECOURSE ROAD YACKA 5470",
    "locID": "LOC000150764203",
    "tech": "NULL",
    "upgrade": "NULL_NA",
    "gnaf_pid": "GASA_425111158",
    "tech_change_status": "Not Planned"
   }
  },
  {
   "type": "Feature",
   "geometry": {
    "type": "Point",
    "coordinates": [
     138.46248284,
     -33.55937798
    ]
   },
   "properties": {
    "name": "130 RIVER BLOCKS ROAD YACKA 5470",
    "locID": "LOC000148243269",
    "tech": "SATELLITE",
    "upgrade": "NULL_NA",
    "gnaf_pid": "GASA_425111351",
    "tech_change_status": "Not Planned"
   }
  },
  {
   "type": "Feature",
   "geometry": {
    "type": "Point",
    "coordinates": [
     138.46552909,
     -33.55934849
    ]
   },
   "properties": {
    "name": "158 RIVER BLOCKS ROAD YACKA 5470",
    "locID": "LOC000148244412",
    "tech": "SATELLITE",
    "upgrade": "NULL_NA",
    "gnaf_pid": "GASA_425111352",
    "tech_change_status": "Not Planned"
   }
  },
  {
   "type": "Feature",
   "geometry": {
    "type": "Point",
    "coordinates": [
     138.43841118,
     -33.58786537
    ]
   },
   "properties": {
    "name": "44 SPRING FARM ROAD YACKA 5470",
    "locID": "LOC000148250086",
    "tech": "NULL",
    "upgrade": "NULL_NA",
    "gnaf_pid": "GASA_425112019",
    "tech_change_status": "Not Planned"
   }
  },
  {
   "type": "Feature",
   "geometry": {
    "type": "Point",
    "coordinates": [
     138.46290856,
     -33.55089512
    ]
   },
   "properties": {
    "name": "204 WATTS RANGE ROAD YACKA 5470",
    "locID": "LOC000148396630",
    "tech": "NULL",
    "upgrade": "NULL_NA",
    "gnaf_pid": "GASA_425113253",
    "tech_change_status": "Not Planned"
   }
  },
  {
   "type": "Feature",
   "geometry": {
    "type": "Point",
    "coordinates": [
     138.48833326,
     -33.51880992
    ]
   },
   "properties": {
    "name": "632 WATTS RANGE ROAD YACKA 5470",
    "locID": "LOC000150257030",
    "tech": "NULL",
    "upgrade": "NULL_NA",
    "gnaf_pid": "GASA_425113254",
    "tech_change_status": "Not Planned"
   }
  },
  {
   "type": "Feature",
   "geometry": {
    "type": "Point",
    "coordinates": [
     138.456889,
     -33.60384507
    ]
   },
   "properties": {
    "name": "267 WHITE HILL ROAD YACKA 5470",
    "locID": "LOC000148396653",
    "tech": "NULL",
    "upgrade": "NULL_NA",
    "gnaf_pid": "GASA_425113336",
    "tech_change_status": "Not Planned"
   }
  },
  {
   "type": "Feature",
   "geometry": {
    "type": "Point",
    "coordinates": [
     138.49582052,
     -33.58060705
    ]
   },
   "properties": {
    "name": "460 YACKA-ANDREWS ROAD YACKA 5470",
    "locID": "LOC000148250310",
    "tech": "WIRELESS",
    "upgrade": "NULL_NA",
    "gnaf_pid": "GASA_425113709",
    "tech_change_status": "Not Planned",
    "program_type": "Fixed Wireless and Satellite Upgrade Program",
    "target_eligibility_quarter": "NA"
   }
  },
  {
   "type": "Feature",
   "geometry": {
    "type": "Point",
    "coordinates": [
     138.408024,
     -33.574054
    ]
   },
   "properties": {
    "name": "856 YACKA ROAD YACKA 5470",
    "locID": "LOC000145181334",
    "tech": "WIRELESS",
    "upgrade": "NULL_NA",
    "gnaf_pid": "GASA_425113712",
    "tech_change_status": "Not Planned",
    "program_type": "Fixed Wireless and Satellite Upgrade Program",
    "target_eligibility_quarter": "NA"
   }
  },
  {
   "type": "Feature",
   "geometry": {
    "type": "Point",
    "coordinates": [
     138.40541626,
     -33.51776432
    ]
   },
   "properties": {
    "name": "LOT 4 MALLEE GROVE ROAD YACKA 5470",
    "locID": "LOC000116315919",
    "tech": "SATELLITE",
    "upgrade": "NULL_NA",
    "gnaf_pid": "GASA_425298832",
    "tech_change_status": "Not Planned"
   }
  },
  {
   "type": "Feature",
   "geometry": {
    "type": "Point",
    "coordinates": [
     138.44682211,
     -33.58212756
    ]
   },
   "properties": {
    "name": "LOT 5 PIPELINE ROAD YACKA 5470",
    "locID": "LOC000150763996",
    "tech": "NULL",
    "upgrade": "NULL_NA",
    "gnaf_pid": "GASA_425393836",
    "tech_change_status": "Not Planned"
   }
  },
  {
   "type": "Feature",
   "geometry": {
    "type": "Point",
    "coordinates": [
     138.4072709,
     -33.59239286
    ]
   },
   "properties": {
    "name": "110 PEDLER ROAD YACKA 5470",
    "locID": "LOC000148407452",
    "tech": "WIRELESS",
    "upgrade": "NULL_NA",
    "gnaf_pid": "GASA_425503233",
    "tech_change_status": "Not Planned",
    "program_type": "Fixed Wireless and Satellite Upgrade Program",
    "target_eligibility_quarter": "NA"
   }
  },
  {
   "type": "Feature",
   "geometry": {
    "type": "Point",
    "coordinates": [
     138.44696046,
     -33.56880066
    ]
   },
   "properties": {
    "name": "1-3 BEARE STREET YACKA 5470",
    "locID": "LOC000131382886",
    "tech": "SATELLITE",
    "upgrade": "NULL_NA",
    "gnaf_pid": "GASA_425581052",
    "tech_change_status": "Not Planned"
   }
  },
  {
   "type": "Feature",
   "geometry": {
    "type": "Point",
    "coordinates": [
     138.44713144,
     -33.56915087
    ]
   },
   "properties": {
    "name": "5 BEARE STREET YACKA 5470",
    "locID": "LOC000095111145",
    "tech": "SATELLITE",
    "upgrade": "NULL_NA",
    "gnaf_pid": "GASA_425581053",
    "tech_change_status": "Not Planned"
   }
  },
  {
   "type": "Feature",
   "geometry": {
    "type": "Point",
    "coordinates": [
     138.44956552,
     -33.57148716
    ]
   },
   "properties": {
    "name": "22 GEORGE STREET YACKA 5470",
    "locID": "LOC000142382802",
    "tech": "SATELLITE",
    "upgrade": "NULL_NA",
    "gnaf_pid": "GASA_425581958",
    "tech_change_status": "Not Planned"
   }
  },
  {
   "type": "Feature",
   "geometry": {
    "type": "Point",
    "coordinates": [
     138.44413495,
     -33.57091043
    ]
   },
   "properties": {
    "name": "10A HAWKER STREET YACKA 5470",
    "locID": "LOC000131396882",
    "tech": "NULL",
    "upgrade": "NULL_NA",
    "gnaf_pid": "GASA_425582204",
    "tech_change_status": "Not Planned"
   }
  },
  {
   "type": "Feature",
   "geometry": {
    "type": "Point",
    "coordinates": [
     138.5023538,
     -33.61357022
    ]
   },
   "properties": {
    "name": "LOT 321 MAROLA ROAD YACKA 5470",
    "locID": "LOC000148396184",
    "tech": "NULL",
    "upgrade": "NULL_NA",
    "gnaf_pid": "GASA_425629549",
    "tech_change_status": "Not Planned"
   }
  },
  {
   "type": "Feature",
   "geometry": {
    "type": "Point",
    "coordinates": [
     138.47036431,
     -33.59360781
    ]
   },
   "properties": {
    "name": "LOT 326 MAROLA ROAD YACKA 5470",
    "locID": "LOC000148396184",
    "tech": "NULL",
    "upgrade": "NULL_NA",
    "gnaf_pid": "GASA_425629550",
    "tech_change_status": "Not Planned"
   }
  },
  {
   "type": "Feature",
   "geometry": {
    "type": "Point",
    "coordinates": [
     138.45787863,
     -33.56533873
    ]
   },
   "properties": {
    "name": "LOT 51 YACKA-ANDREWS ROAD YACKA 5470",
    "locID": "LOC000148250310",
    "tech": "WIRELESS",
    "upgrade": "NULL_NA",
    "gnaf_pid": "GASA_425630789",
    "tech_change_status": "Not Planned",
    "program_type": "Fixed Wireless and Satellite Upgrade Program",
    "target_eligibility_quarter": "NA"
   }
  },
  {
   "type": "Feature",
   "geometry": {
    "type": "Point",
    "coordinates": [
     138.43724872,
     -33.56895975
    ]
   },
   "properties": {
    "name": "LOT 279 YACKA ROAD YACKA 5470",
    "locID": "LOC000145181334",
    "tech": "WIRELESS",
    "upgrade": "NULL_NA",
    "gnaf_pid": "GASA_425630790",
    "tech_change_status": "Not Planned",
    "program_type": "Fixed Wireless and Satellite Upgrade Program",
    "target_eligibility_quarter": "NA"
   }
  },
  {
   "type": "Feature",
   "geometry": {
    "type": "Point",
    "coordinates": [
     138.43692428,
     -33.56643061
    ]
   },
   "properties": {
    "name": "LOT 280 YACKA ROAD YACKA 5470",
    "locID": "LOC000145181334",
    "tech": "WIRELESS",
    "upgrade": "NULL_NA",
    "gnaf_pid": "GASA_425630791",
    "tech_change_status": "Not Planned",
    "program_type": "Fixed Wireless and Satellite Upgrade Program",
    "target_eligibility_quarter": "NA"
   }
  },
  {
   "type": "Feature",
   "geometry": {
    "type": "Point",
    "coordinates": [
     138.43776179,
     -33.56069934
    ]
   },
   "properties": {
    "name": "LOT 28 YACKA ROAD YACKA 5470",
    "locID": "LOC000116306670",
    "tech": "WIRELESS",
    "upgrade": "NULL_NA",
    "gnaf_pid": "GASA_425630792",
    "tech_change_status": "Not Planned",
    "program_type": "Fixed Wireless and Satellite Upgrade Program",
    "target_eligibility_quarter": "NA"
   }
  },
  {
   "type": "Feature",
   "geometry": {
    "type": "Point",
    "coordinates": [
     138.442962,
     -33.56512443
    ]
   },
   "properties": {
    "name": "LOT 96 YACKA ROAD YACKA 5470",
    "locID": "LOC000116306670",
    "tech": "WIRELESS",
    "upgrade": "NULL_NA",
    "gnaf_pid": "GASA_425630793",
    "tech_change_status": "Not Planned",
    "program_type": "Fixed Wireless and Satellite Upgrade Program",
    "target_eligibility_quarter": "NA"
   }
  },
  {
   "type": "Feature",
   "geometry": {
    "type": "Point",
    "coordinates": [
     138.43713974,
     -33.56763102
    ]
   },
   "properties": {
    "name": "LOT 9 YACKA ROAD YACKA 5470",
    "locID": "LOC000116306670",
    "tech": "WIRELESS",
    "upgrade": "NULL_NA",
    "gnaf_pid": "GASA_425630794",
    "tech_change_status": "Not Planned",
    "program_type": "Fixed Wireless and Satellite Upgrade Program",
    "target_eligibility_quarter": "NA"
   }
  },
  {
   "type": "Feature",
   "geometry": {
    "type": "Point",
    "coordinates": [
     138.44297185,
     -33.57192977
    ]
   },
   "properties": {
    "name": "1 BROUGHTON ROAD YACKA 5470",
    "locID": "LOC000109943439",
    "tech": "SATELLITE",
    "upgrade": "NULL_NA",
    "gnaf_pid": "GASA_425708606",
    "tech_change_status": "Not Planned"
   }
  },
  {
   "type": "Feature",
   "geometry": {
    "type": "Point",
    "coordinates": [
     138.4363648,
     -33.57045046
    ]
   },
   "properties": {
    "name": "LOT 27 YACKA ROAD YACKA 5470",
    "locID": "LOC000116306670",
    "tech": "WIRELESS",
    "upgrade": "NULL_NA",
    "gnaf_pid": "GASA_425803116",
    "tech_change_status": "Not Planned",
    "program_type": "Fixed Wireless and Satellite Upgrade Program",
    "target_eligibility_quarter": "NA"
   }
  },
  {
   "type": "Feature",
   "geometry": {
    "type": "Point",
    "coordinates": [
     138.4641097,
     -33.56491472
    ]
   },
   "properties": {
    "name": "LOT 351 RIVER BLOCKS ROAD YACKA 5470",
    "locID": "LOC000148244412",
    "tech": "SATELLITE",
    "upgrade": "NULL_NA",
    "gnaf_pid": "GASA_719513794",
    "tech_change_status": "Not Planned"
   }
  },
  {
   "type": "Feature",
   "geometry": {
    "type": "Point",
    "coordinates": [
     138.4460415,
     -33.56017259
    ]
   },
   "properties": {
    "name": "LOT 5 HORROCKS HIGHWAY YACKA 5470",
    "locID": "LOC100073800226",
    "tech": "WIRELESS",
    "upgrade": "NULL_NA",
    "gnaf_pid": "GASA_719514697",
    "tech_change_status": "Not Planned",
    "program_type": "Fixed Wireless and Satellite Upgrade Program",
    "target_eligibility_quarter": "NA"
   }
  },
  {
   "type": "Feature",
   "geometry": {
    "type": "Point",
    "coordinates": [
     138.53884483,
     -33.5294453
    ]
   },
   "properties": {
    "name": "LOT 239 BROUGHTON HILLS ROAD YACKA 5470",
    "locID": "LOC100071971516",
    "tech": "NULL",
    "upgrade": "NULL_NA",
    "gnaf_pid": "GASA_719516635",
    "tech_change_status": "Not Planned"
   }
  },
  {
   "type": "Feature",
   "geometry": {
    "type": "Point",
    "coordinates": [
     138.47448938,
     -33.56013346
    ]
   },
   "properties": {
    "name": "LOT 1 RIVER BLOCKS ROAD YACKA 5470",
    "locID": "LOC100072076583",
    "tech": "NULL",
    "upgrade": "NULL_NA",
    "gnaf_pid": "GASA_719516658",
    "tech_change_status": "Not Planned"
   }
  },
  {
   "type": "Feature",
   "geometry": {
    "type": "Point",
    "coordinates": [
     138.4411661,
     -33.60361053
    ]
   },
   "properties": {
    "name": "LOT 735 HORROCKS HIGHWAY YACKA 5470",
    "locID": "LOC100073800226",
    "tech": "WIRELESS",
    "upgrade": "NULL_NA",
    "gnaf_pid": "GASA_719517261",
    "tech_change_status": "Not Planned",
    "program_type": "Fixed Wireless and Satellite Upgrade Program",
    "target_eligibility_quarter": "NA"
   }
  },
  {
   "type": "Feature",
   "geometry": {
    "type": "Point",
    "coordinates": [
     138.43346511,
     -33.61309266
    ]
   },
   "properties": {
    "name": "LOT 4 COLLINSFIELD ROAD YACKA 5470",
    "locID": "LOC000150762508",
    "tech": "SATELLITE",
    "upgrade": "NULL_NA",
    "gnaf_pid": "GASA_719520492",
    "tech_change_status": "Not Planned"
   }
  },
  {
   "type": "Feature",
   "geometry": {
    "type": "Point",
    "coordinates": [
     138.54550682,
     -33.52400751
    ]
   },
   "properties": {
    "name": "LOT 342 BROUGHTON HILLS ROAD YACKA 5470",
    "locID": "LOC000131387323",
    "tech": "NULL",
    "upgrade": "NULL_NA",
    "gnaf_pid": "GASA_719521652",
    "tech_change_status": "Not Planned"
   }
  },
  {
   "type": "Feature",
   "geometry": {
    "type": "Point",
    "coordinates": [
     138.44462164,
     -33.56942983
    ]
   },
   "properties": {
    "name": "3 HAWKER STREET YACKA 5470",
    "locID": "LOC000176163456",
    "tech": "SATELLITE",
    "upgrade": "NULL_NA",
    "gnaf_pid": "GASA_719649746",
    "tech_change_status": "Not Planned"
   }
  },
  {
   "type": "Feature",
   "geometry": {
    "type": "Point",
    "coordinates": [
     138.4452171,
     -33.57081093
    ]
   },
   "properties": {
    "name": "11 HAWKER STREET YACKA 5470",
    "locID": "LOC100078084910",
    "tech": "NULL",
    "upgrade": "NULL_NA",
    "gnaf_pid": "GASA_719650186",
    "tech_change_status": "Not Planned"
   }
  },
  {
   "type": "Feature",
   "geometry": {
    "type": "Point",
    "coordinates": [
     138.44479024,
     -33.56983667
    ]
   },
   "properties": {
    "name": "5 HAWKER STREET YACKA 5470",
    "locID": "LOC100078084906",
    "tech": "NULL",
    "upgrade": "NULL_NA",
    "gnaf_pid": "GASA_719650998",
    "tech_change_status": "Not Planned"
   }
  },
  {
   "type": "Feature",
   "geometry": {
    "type": "Point",
    "coordinates": [
     138.44086319,
     -33.57001977
    ]
   },
   "properties": {
    "name": "1 SOUTH TERRACE YACKA 5470",
    "locID": "LOC000142382357",
    "tech": "NULL",
    "upgrade": "NULL_NA",
    "gnaf_pid": "GASA_719772943",
    "tech_change_status": "Not Planned"
   }
  },
  {
   "type": "Feature",
   "geometry": {
    "type": "Point",
    "coordinates": [
     138.483627,
     -33.557005
    ]
   },
   "properties": {
    "name": "477 PIPELINE ROAD YACKA 5470",
    "locID": "LOC100071972023",
    "tech": "NULL",
    "upgrade": "NULL_NA",
    "gnaf_pid": "GASA_719774576",
    "tech_change_status": "Not Planned"
   }
  },
  {
   "type": "Feature",
   "geometry": {
    "type": "Point",
    "coordinates": [
     138.42868046,
     -33.58576359
    ]
   },
   "properties": {
    "name": "LOT 305 SPRING FARM ROAD YACKA 5470",
    "locID": "LOC000148250086",
    "tech": "NULL",
    "upgrade": "NULL_NA",
    "gnaf_pid": "GASA_719858753",
    "tech_change_status": "Not Planned"
   }
  },
  {
   "type": "Feature",
   "geometry": {
    "type": "Point",
    "coordinates": [
     138.43791293,
     -33.58828822
    ]
   },
   "properties": {
    "name": "LOT 347 SPRING FARM ROAD YACKA 5470",
    "locID": "LOC000148250086",
    "tech": "NULL",
    "upgrade": "NULL_NA",
    "gnaf_pid": "GASA_719858857",
    "tech_change_status": "Not Planned"
   }
  },
  {
   "type": "Feature",
   "geometry": {
    "type": "Point",
    "coordinates": [
     138.43889171,
     -33.61676407
    ]
   },
   "properties": {
    "name": "LOT 1 COLLINSFIELD ROAD YACKA 5470",
    "locID": "LOC000150762508",
    "tech": "SATELLITE",
    "upgrade": "NULL_NA",
    "gnaf_pid": "GASA_719861249",
    "tech_change_status": "Not Planned"
   }
  },
  {
   "type": "Feature",
   "geometry": {
    "type": "Point",
    "coordinates": [
     138.49662216,
     -33.52709858
    ]
   },
   "properties": {
    "name": "LOT 344 BROUGHTON HILLS ROAD YACKA 5470",
    "locID": "LOC000131387323",
    "tech": "NULL",
    "upgrade": "NULL_NA",
    "gnaf_pid": "GASA_719861502",
    "tech_change_status": "Not Planned"
   }
  },
  {
   "type": "Feature",
   "geometry": {
    "type": "Point",
    "coordinates": [
     138.44271177,
     -33.62193632
    ]
   },
   "properties": {
    "name": "LOT 201 COLLINSFIELD ROAD YACKA 5470",
    "locID": "LOC000116315990",
    "tech": "WIRELESS",
    "upgrade": "NULL_NA",
    "gnaf_pid": "GASA_720495051",
    "tech_change_status": "Not Planned",
    "program_type": "Fixed Wireless and Satellite Upgrade Program",
    "target_eligibility_quarter": "NA"
   }
  },
  {
   "type": "Feature",
   "geometry": {
    "type": "Point",
    "coordinates": [
     138.44772898,
     -33.56952288
    ]
   },
   "properties": {
    "name": "LOT 20 CHARLES STREET YACKA 5470",
    "locID": "LOC000184501162",
    "tech": "SATELLITE",
    "upgrade": "NULL_NA",
    "gnaf_pid": "GASA_721076251",
    "tech_change_status": "Not Planned"
   }
  },
  {
   "type": "Feature",
   "geometry": {
    "type": "Point",
    "coordinates": [
     138.44377131,
     -33.57169692
    ]
   },
   "properties": {
    "name": "5-7 BROUGHTON ROAD YACKA 5470",
    "locID": "LOC000131387323",
    "tech": "NULL",
    "upgrade": "NULL_NA",
    "gnaf_pid": "GASA_721112772",
    "tech_change_status": "Not Planned"
   }
  },
  {
   "type": "Feature",
   "geometry": {
    "type": "Point",
    "coordinates": [
     138.45171191,
     -33.57087346
    ]
   },
   "properties": {
    "name": "6 EAST TERRACE YACKA 5470",
    "locID": "LOC000142382357",
    "tech": "NULL",
    "upgrade": "NULL_NA",
    "gnaf_pid": "GASA_721201676",
    "tech_change_status": "Not Planned"
   }
  },
  {
   "type": "Feature",
   "geometry": {
    "type": "Point",
    "coordinates": [
     138.44434252,
     -33.57302683
    ]
   },
   "properties": {
    "name": "9 SOUTH TERRACE YACKA 5470",
    "locID": "LOC100087440948",
    "tech": "NULL",
    "upgrade": "NULL_NA",
    "gnaf_pid": "GASA_721251328",
    "tech_change_status": "Not Planned"
   }
  },
  {
   "type": "Feature",
   "geometry": {
    "type": "Point",
    "coordinates": [
     138.44794973,
     -33.56875135
    ]
   },
   "properties": {
    "name": "2 GEORGE STREET YACKA 5470",
    "locID": "LOC000142382802",
    "tech": "SATELLITE",
    "upgrade": "NULL_NA",
    "gnaf_pid": "GASA_721251650",
    "tech_change_status": "Not Planned"
   }
  },
  {
   "type": "Feature",
   "geometry": {
    "type": "Point",
    "coordinates": [
     138.44579212,
     -33.57049425
    ]
   },
   "properties": {
    "name": "10 CHARLES STREET YACKA 5470",
    "locID": "LOC000184501162",
    "tech": "SATELLITE",
    "upgrade": "NULL_NA",
    "gnaf_pid": "GASA_721253056",
    "tech_change_status": "Not Planned"
   }
  },
  {
   "type": "Feature",
   "geometry": {
    "type": "Point",
    "coordinates": [
     138.44272754,
     -33.57135902
    ]
   },
   "properties": {
    "name": "2 CHARLES STREET YACKA 5470",
    "locID": "LOC000095342150",
    "tech": "NULL",
    "upgrade": "NULL_NA",
    "gnaf_pid": "GASA_721412395",
    "tech_change_status": "Not Planned"
   }
  }
 ]
}