{
 "type": "FeatureCollection",
 "generated": "2026-05-18T23:45:19.427571",
 "suburb": "YANERBIE",
 "features": [
  {
   "type": "Feature",
   "geometry": {
    "type": "Point",
    "coordinates": [
     134.14166293,
     -32.92973511
    ]
   },
   "properties": {
    "name": "LOT 12 YANERBIE ROAD YANERBIE 5680",
    "locID": "LOC100082584257",
    "tech": "WIRELESS",
    "upgrade": "NULL_NA",
    "gnaf_pid": "GASA_424222278",
    "tech_change_status": "Not Planned",
    "program_type": "Fixed Wireless and Satellite Upgrade Program",
    "target_eligibility_quarter": "NA"
   }
  },
  {
   "type": "Feature",
   "geometry": {
    "type": "Point",
    "coordinates": [
     134.14242059,
     -32.92955076
    ]
   },
   "properties": {
    "name": "LOT 19 YANERBIE ROAD YANERBIE 5680",
    "locID": "LOC000113130504",
    "tech": "WIRELESS",
    "upgrade": "NULL_NA",
    "gnaf_pid": "GASA_424222284",
    "tech_change_status": "Not Planned",
    "program_type": "Fixed Wireless and Satellite Upgrade Program",
    "target_eligibility_quarter": "NA"
   }
  },
  {
   "type": "Feature",
   "geometry": {
    "type": "Point",
    "coordinates": [
     134.21374563,
     -32.94584188
    ]
   },
   "properties": {
    "name": "1690 SCEALE BAY ROAD YANERBIE 5680",
    "locID": "LOC000131695302",
    "tech": "WIRELESS",
    "upgrade": "NULL_NA",
    "gnaf_pid": "GASA_424960633",
    "tech_change_status": "Not Planned",
    "program_type": "Fixed Wireless and Satellite Upgrade Program",
    "target_eligibility_quarter": "NA"
   }
  },
  {
   "type": "Feature",
   "geometry": {
    "type": "Point",
    "coordinates": [
     134.1767224,
     -32.88691491
    ]
   },
   "properties": {
    "name": "179 WESTALL WAY LOOP YANERBIE 5680",
    "locID": "LOC000131695523",
    "tech": "WIRELESS",
    "upgrade": "NULL_NA",
    "gnaf_pid": "GASA_424961997",
    "tech_change_status": "Not Planned",
    "program_type": "Fixed Wireless and Satellite Upgrade Program",
    "target_eligibility_quarter": "NA"
   }
  },
  {
   "type": "Feature",
   "geometry": {
    "type": "Point",
    "coordinates": [
     134.14203757,
     -32.92831226
    ]
   },
   "properties": {
    "name": "305 YANERBIE ROAD YANERBIE 5680",
    "locID": "LOC000131725153",
    "tech": "WIRELESS",
    "upgrade": "NULL_NA",
    "gnaf_pid": "GASA_424962225",
    "tech_change_status": "Not Planned",
    "program_type": "Fixed Wireless and Satellite Upgrade Program",
    "target_eligibility_quarter": "NA"
   }
  },
  {
   "type": "Feature",
   "geometry": {
    "type": "Point",
    "coordinates": [
     134.14195629,
     -32.92871186
    ]
   },
   "properties": {
    "name": "309 YANERBIE ROAD YANERBIE 5680",
    "locID": "LOC000131725202",
    "tech": "WIRELESS",
    "upgrade": "NULL_NA",
    "gnaf_pid": "GASA_424962227",
    "tech_change_status": "Not Planned",
    "program_type": "Fixed Wireless and Satellite Upgrade Program",
    "target_eligibility_quarter": "NA"
   }
  },
  {
   "type": "Feature",
   "geometry": {
    "type": "Point",
    "coordinates": [
     134.14184407,
     -32.92917862
    ]
   },
   "properties": {
    "name": "315 YANERBIE ROAD YANERBIE 5680",
    "locID": "LOC000131725362",
    "tech": "WIRELESS",
    "upgrade": "NULL_NA",
    "gnaf_pid": "GASA_424962228",
    "tech_change_status": "Not Planned",
    "program_type": "Fixed Wireless and Satellite Upgrade Program",
    "target_eligibility_quarter": "NA"
   }
  },
  {
   "type": "Feature",
   "geometry": {
    "type": "Point",
    "coordinates": [
     134.14127909,
     -32.92999076
    ]
   },
   "properties": {
    "name": "325 YANERBIE ROAD YANERBIE 5680",
    "locID": "LOC000131729464",
    "tech": "WIRELESS",
    "upgrade": "NULL_NA",
    "gnaf_pid": "GASA_424962229",
    "tech_change_status": "Not Planned",
    "program_type": "Fixed Wireless and Satellite Upgrade Program",
    "target_eligibility_quarter": "NA"
   }
  },
  {
   "type": "Feature",
   "geometry": {
    "type": "Point",
    "coordinates": [
     134.19570276,
     -32.94548332
    ]
   },
   "properties": {
    "name": "LOT 3 SCEALE BAY ROAD YANERBIE 5680",
    "locID": "LOC100087319320",
    "tech": "WIRELESS",
    "upgrade": "NULL_NA",
    "gnaf_pid": "GASA_425714216",
    "tech_change_status": "Not Planned",
    "program_type": "Fixed Wireless and Satellite Upgrade Program",
    "target_eligibility_quarter": "NA"
   }
  },
  {
   "type": "Feature",
   "geometry": {
    "type": "Point",
    "coordinates": [
     134.138295,
     -32.910651
    ]
   },
   "properties": {
    "name": "682 WESTALL WAY LOOP YANERBIE 5680",
    "locID": "LOC100085364779",
    "tech": "SATELLITE",
    "upgrade": "NULL_NA",
    "gnaf_pid": "GASA_720367164",
    "tech_change_status": "Not Planned"
   }
  }
 ]
}