{
 "type": "FeatureCollection",
 "generated": "2024-11-04T19:30:15.895209",
 "suburb": "BESWICK",
 "features": [
  {
   "type": "Feature",
   "geometry": {
    "type": "Point",
    "coordinates": [
     133.1160298,
     -14.55462487
    ]
   },
   "properties": {
    "name": "2 CAMERON ROAD BESWICK 852",
    "locID": "LOC000118989507",
    "tech": "SATELLITE",
    "upgrade": "NULL_NA",
    "gnaf_pid": "GANT_718141660",
    "tech_change_status": "Not Planned"
   }
  },
  {
   "type": "Feature",
   "geometry": {
    "type": "Point",
    "coordinates": [
     133.1162478,
     -14.56016214
    ]
   },
   "properties": {
    "name": "32 MADIGAN ROAD BESWICK 852",
    "locID": "LOC000118982954",
    "tech": "NULL",
    "upgrade": "NULL_NA",
    "gnaf_pid": "GANT_718141908",
    "tech_change_status": "Not Planned"
   }
  },
  {
   "type": "Feature",
   "geometry": {
    "type": "Point",
    "coordinates": [
     133.11641599,
     -14.56045135
    ]
   },
   "properties": {
    "name": "34 MADIGAN ROAD BESWICK 852",
    "locID": "LOC000118964056",
    "tech": "NULL",
    "upgrade": "NULL_NA",
    "gnaf_pid": "GANT_718141909",
    "tech_change_status": "Not Planned"
   }
  },
  {
   "type": "Feature",
   "geometry": {
    "type": "Point",
    "coordinates": [
     133.11658823,
     -14.5607138
    ]
   },
   "properties": {
    "name": "36 MADIGAN ROAD BESWICK 852",
    "locID": "LOC000118964136",
    "tech": "NULL",
    "upgrade": "NULL_NA",
    "gnaf_pid": "GANT_718141910",
    "tech_change_status": "Not Planned"
   }
  },
  {
   "type": "Feature",
   "geometry": {
    "type": "Point",
    "coordinates": [
     133.11678073,
     -14.56099837
    ]
   },
   "properties": {
    "name": "38 MADIGAN ROAD BESWICK 852",
    "locID": "LOC000118964221",
    "tech": "NULL",
    "upgrade": "NULL_NA",
    "gnaf_pid": "GANT_718141911",
    "tech_change_status": "Not Planned"
   }
  },
  {
   "type": "Feature",
   "geometry": {
    "type": "Point",
    "coordinates": [
     133.11730663,
     -14.56126738
    ]
   },
   "properties": {
    "name": "39 MADIGAN ROAD BESWICK 852",
    "locID": "LOC000118964284",
    "tech": "NULL",
    "upgrade": "NULL_NA",
    "gnaf_pid": "GANT_718141912",
    "tech_change_status": "Not Planned"
   }
  },
  {
   "type": "Feature",
   "geometry": {
    "type": "Point",
    "coordinates": [
     133.11680605,
     -14.56132083
    ]
   },
   "properties": {
    "name": "40 MADIGAN ROAD BESWICK 852",
    "locID": "LOC000118976557",
    "tech": "NULL",
    "upgrade": "NULL_NA",
    "gnaf_pid": "GANT_718141913",
    "tech_change_status": "Not Planned"
   }
  },
  {
   "type": "Feature",
   "geometry": {
    "type": "Point",
    "coordinates": [
     133.11730649,
     -14.56161992
    ]
   },
   "properties": {
    "name": "41 MADIGAN ROAD BESWICK 852",
    "locID": "LOC000118976640",
    "tech": "NULL",
    "upgrade": "NULL_NA",
    "gnaf_pid": "GANT_718141914",
    "tech_change_status": "Not Planned"
   }
  },
  {
   "type": "Feature",
   "geometry": {
    "type": "Point",
    "coordinates": [
     133.11680049,
     -14.56163748
    ]
   },
   "properties": {
    "name": "42 MADIGAN ROAD BESWICK 852",
    "locID": "LOC000118976714",
    "tech": "NULL",
    "upgrade": "NULL_NA",
    "gnaf_pid": "GANT_718141915",
    "tech_change_status": "Not Planned"
   }
  },
  {
   "type": "Feature",
   "geometry": {
    "type": "Point",
    "coordinates": [
     133.11729932,
     -14.56193766
    ]
   },
   "properties": {
    "name": "43 MADIGAN ROAD BESWICK 852",
    "locID": "LOC000118977757",
    "tech": "NULL",
    "upgrade": "NULL_NA",
    "gnaf_pid": "GANT_718141916",
    "tech_change_status": "Not Planned"
   }
  },
  {
   "type": "Feature",
   "geometry": {
    "type": "Point",
    "coordinates": [
     133.11679239,
     -14.56195977
    ]
   },
   "properties": {
    "name": "44 MADIGAN ROAD BESWICK 852",
    "locID": "LOC000118977788",
    "tech": "SATELLITE",
    "upgrade": "NULL_NA",
    "gnaf_pid": "GANT_718141917",
    "tech_change_status": "Not Planned"
   }
  },
  {
   "type": "Feature",
   "geometry": {
    "type": "Point",
    "coordinates": [
     133.1167775,
     -14.5622731
    ]
   },
   "properties": {
    "name": "46 MADIGAN ROAD BESWICK 852",
    "locID": "LOC000118977918",
    "tech": "NULL",
    "upgrade": "NULL_NA",
    "gnaf_pid": "GANT_718141919",
    "tech_change_status": "Not Planned"
   }
  },
  {
   "type": "Feature",
   "geometry": {
    "type": "Point",
    "coordinates": [
     133.11677863,
     -14.56259542
    ]
   },
   "properties": {
    "name": "48 MADIGAN ROAD BESWICK 852",
    "locID": "LOC000118977941",
    "tech": "NULL",
    "upgrade": "NULL_NA",
    "gnaf_pid": "GANT_718141920",
    "tech_change_status": "Not Planned"
   }
  },
  {
   "type": "Feature",
   "geometry": {
    "type": "Point",
    "coordinates": [
     133.11641054,
     -14.56303136
    ]
   },
   "properties": {
    "name": "52 MADIGAN ROAD BESWICK 852",
    "locID": "LOC000118979021",
    "tech": "NULL",
    "upgrade": "NULL_NA",
    "gnaf_pid": "GANT_718141921",
    "tech_change_status": "Not Planned"
   }
  },
  {
   "type": "Feature",
   "geometry": {
    "type": "Point",
    "coordinates": [
     133.11605742,
     -14.55489968
    ]
   },
   "properties": {
    "name": "5 MADIGAN ROAD BESWICK 852",
    "locID": "LOC000118979021",
    "tech": "NULL",
    "upgrade": "NULL_NA",
    "gnaf_pid": "GANT_718141922",
    "tech_change_status": "Not Planned"
   }
  },
  {
   "type": "Feature",
   "geometry": {
    "type": "Point",
    "coordinates": [
     133.11559336,
     -14.55501463
    ]
   },
   "properties": {
    "name": "6 MADIGAN ROAD BESWICK 852",
    "locID": "LOC000118989582",
    "tech": "NULL",
    "upgrade": "NULL_NA",
    "gnaf_pid": "GANT_718141923",
    "tech_change_status": "Not Planned"
   }
  },
  {
   "type": "Feature",
   "geometry": {
    "type": "Point",
    "coordinates": [
     133.11861015,
     -14.56273364
    ]
   },
   "properties": {
    "name": "10 YANGULA STREET BESWICK 852",
    "locID": "LOC000118968206",
    "tech": "NULL",
    "upgrade": "NULL_NA",
    "gnaf_pid": "GANT_718142177",
    "tech_change_status": "Not Planned"
   }
  },
  {
   "type": "Feature",
   "geometry": {
    "type": "Point",
    "coordinates": [
     133.11893433,
     -14.56274035
    ]
   },
   "properties": {
    "name": "12 YANGULA STREET BESWICK 852",
    "locID": "LOC000118970958",
    "tech": "NULL",
    "upgrade": "NULL_NA",
    "gnaf_pid": "GANT_718142178",
    "tech_change_status": "Not Planned"
   }
  },
  {
   "type": "Feature",
   "geometry": {
    "type": "Point",
    "coordinates": [
     133.11940382,
     -14.56222907
    ]
   },
   "properties": {
    "name": "13 YANGULA STREET BESWICK 852",
    "locID": "LOC000118972346",
    "tech": "SATELLITE",
    "upgrade": "NULL_NA",
    "gnaf_pid": "GANT_718142179",
    "tech_change_status": "Not Planned"
   }
  },
  {
   "type": "Feature",
   "geometry": {
    "type": "Point",
    "coordinates": [
     133.11728932,
     -14.56270368
    ]
   },
   "properties": {
    "name": "2 YANGULA STREET BESWICK 852",
    "locID": "LOC000118977630",
    "tech": "SATELLITE",
    "upgrade": "NULL_NA",
    "gnaf_pid": "GANT_718142180",
    "tech_change_status": "Not Planned"
   }
  },
  {
   "type": "Feature",
   "geometry": {
    "type": "Point",
    "coordinates": [
     133.11763451,
     -14.56222138
    ]
   },
   "properties": {
    "name": "3 YANGULA STREET BESWICK 852",
    "locID": "LOC000118982776",
    "tech": "NULL",
    "upgrade": "NULL_NA",
    "gnaf_pid": "GANT_718142181",
    "tech_change_status": "Not Planned"
   }
  },
  {
   "type": "Feature",
   "geometry": {
    "type": "Point",
    "coordinates": [
     133.11763608,
     -14.56271311
    ]
   },
   "properties": {
    "name": "4 YANGULA STREET BESWICK 852",
    "locID": "LOC000118976526",
    "tech": "NULL",
    "upgrade": "NULL_NA",
    "gnaf_pid": "GANT_718142182",
    "tech_change_status": "Not Planned"
   }
  },
  {
   "type": "Feature",
   "geometry": {
    "type": "Point",
    "coordinates": [
     133.11796231,
     -14.56272658
    ]
   },
   "properties": {
    "name": "6 YANGULA STREET BESWICK 852",
    "locID": "LOC000118979304",
    "tech": "NULL",
    "upgrade": "NULL_NA",
    "gnaf_pid": "GANT_718142183",
    "tech_change_status": "Not Planned"
   }
  },
  {
   "type": "Feature",
   "geometry": {
    "type": "Point",
    "coordinates": [
     133.11828542,
     -14.56272918
    ]
   },
   "properties": {
    "name": "8 YANGULA STREET BESWICK 852",
    "locID": "LOC000118983107",
    "tech": "NULL",
    "upgrade": "NULL_NA",
    "gnaf_pid": "GANT_718142184",
    "tech_change_status": "Not Planned"
   }
  },
  {
   "type": "Feature",
   "geometry": {
    "type": "Point",
    "coordinates": [
     133.11710001,
     -14.55995944
    ]
   },
   "properties": {
    "name": "3 BERTBERT STREET BESWICK 852",
    "locID": "LOC000186111194",
    "tech": "NULL",
    "upgrade": "NULL_NA",
    "gnaf_pid": "GANT_718837086",
    "tech_change_status": "Not Planned"
   }
  },
  {
   "type": "Feature",
   "geometry": {
    "type": "Point",
    "coordinates": [
     133.11754291,
     -14.56022785
    ]
   },
   "properties": {
    "name": "4 BERTBERT STREET BESWICK 852",
    "locID": "LOC000013367208",
    "tech": "FTTP",
    "upgrade": "NULL_NA",
    "gnaf_pid": "GANT_718837087"
   }
  },
  {
   "type": "Feature",
   "geometry": {
    "type": "Point",
    "coordinates": [
     133.11738108,
     -14.55977863
    ]
   },
   "properties": {
    "name": "5 BERTBERT STREET BESWICK 852",
    "locID": "LOC000186111194",
    "tech": "NULL",
    "upgrade": "NULL_NA",
    "gnaf_pid": "GANT_718837088",
    "tech_change_status": "Not Planned"
   }
  },
  {
   "type": "Feature",
   "geometry": {
    "type": "Point",
    "coordinates": [
     133.11781612,
     -14.56007602
    ]
   },
   "properties": {
    "name": "2 GALKJORROTJ STREET BESWICK 852",
    "locID": "LOC000187766923",
    "tech": "FTTN",
    "upgrade": "NULL_NA",
    "gnaf_pid": "GANT_718837122",
    "tech_change_status": "Not Planned"
   }
  },
  {
   "type": "Feature",
   "geometry": {
    "type": "Point",
    "coordinates": [
     133.11812066,
     -14.56025805
    ]
   },
   "properties": {
    "name": "4 GALKJORROTJ STREET BESWICK 852",
    "locID": "LOC000145171636",
    "tech": "FTTP",
    "upgrade": "NULL_NA",
    "gnaf_pid": "GANT_718837123"
   }
  },
  {
   "type": "Feature",
   "geometry": {
    "type": "Point",
    "coordinates": [
     133.11993736,
     -14.56225722
    ]
   },
   "properties": {
    "name": "11 LAIWANGA STREET BESWICK 852",
    "locID": "LOC000174502934",
    "tech": "SATELLITE",
    "upgrade": "NULL_NA",
    "gnaf_pid": "GANT_718837212",
    "tech_change_status": "Not Planned"
   }
  },
  {
   "type": "Feature",
   "geometry": {
    "type": "Point",
    "coordinates": [
     133.11997646,
     -14.56059491
    ]
   },
   "properties": {
    "name": "1 LAIWANGA STREET BESWICK 852",
    "locID": "LOC000174502934",
    "tech": "SATELLITE",
    "upgrade": "NULL_NA",
    "gnaf_pid": "GANT_718837213",
    "tech_change_status": "Not Planned"
   }
  },
  {
   "type": "Feature",
   "geometry": {
    "type": "Point",
    "coordinates": [
     133.11997063,
     -14.5608604
    ]
   },
   "properties": {
    "name": "3 LAIWANGA STREET BESWICK 852",
    "locID": "LOC000174502934",
    "tech": "SATELLITE",
    "upgrade": "NULL_NA",
    "gnaf_pid": "GANT_718837214",
    "tech_change_status": "Not Planned"
   }
  },
  {
   "type": "Feature",
   "geometry": {
    "type": "Point",
    "coordinates": [
     133.11945821,
     -14.56085821
    ]
   },
   "properties": {
    "name": "4 LAIWANGA STREET BESWICK 852",
    "locID": "LOC000174502934",
    "tech": "SATELLITE",
    "upgrade": "NULL_NA",
    "gnaf_pid": "GANT_718837215",
    "tech_change_status": "Not Planned"
   }
  },
  {
   "type": "Feature",
   "geometry": {
    "type": "Point",
    "coordinates": [
     133.11995919,
     -14.56117985
    ]
   },
   "properties": {
    "name": "5 LAIWANGA STREET BESWICK 852",
    "locID": "LOC000174502934",
    "tech": "SATELLITE",
    "upgrade": "NULL_NA",
    "gnaf_pid": "GANT_718837216",
    "tech_change_status": "Not Planned"
   }
  },
  {
   "type": "Feature",
   "geometry": {
    "type": "Point",
    "coordinates": [
     133.11944538,
     -14.56118562
    ]
   },
   "properties": {
    "name": "6 LAIWANGA STREET BESWICK 852",
    "locID": "LOC000174502934",
    "tech": "SATELLITE",
    "upgrade": "NULL_NA",
    "gnaf_pid": "GANT_718837217",
    "tech_change_status": "Not Planned"
   }
  },
  {
   "type": "Feature",
   "geometry": {
    "type": "Point",
    "coordinates": [
     133.11995606,
     -14.56146043
    ]
   },
   "properties": {
    "name": "7 LAIWANGA STREET BESWICK 852",
    "locID": "LOC000174502934",
    "tech": "SATELLITE",
    "upgrade": "NULL_NA",
    "gnaf_pid": "GANT_718837218",
    "tech_change_status": "Not Planned"
   }
  },
  {
   "type": "Feature",
   "geometry": {
    "type": "Point",
    "coordinates": [
     133.11841181,
     -14.56132637
    ]
   },
   "properties": {
    "name": "8 LAIWANGA STREET BESWICK 852",
    "locID": "LOC000174502934",
    "tech": "SATELLITE",
    "upgrade": "NULL_NA",
    "gnaf_pid": "GANT_718837219",
    "tech_change_status": "Not Planned"
   }
  },
  {
   "type": "Feature",
   "geometry": {
    "type": "Point",
    "coordinates": [
     133.11994242,
     -14.56194374
    ]
   },
   "properties": {
    "name": "9 LAIWANGA STREET BESWICK 852",
    "locID": "LOC000174502934",
    "tech": "SATELLITE",
    "upgrade": "NULL_NA",
    "gnaf_pid": "GANT_718837220",
    "tech_change_status": "Not Planned"
   }
  },
  {
   "type": "Feature",
   "geometry": {
    "type": "Point",
    "coordinates": [
     133.11331063,
     -14.5562928
    ]
   },
   "properties": {
    "name": "LOT 13 BALANDA STREET BESWICK 852",
    "locID": "LOC000172536985",
    "tech": "SATELLITE",
    "upgrade": "NULL_NA",
    "gnaf_pid": "GANT_721142436",
    "tech_change_status": "Not Planned"
   }
  },
  {
   "type": "Feature",
   "geometry": {
    "type": "Point",
    "coordinates": [
     133.11584648,
     -14.55905892
    ]
   },
   "properties": {
    "name": "LOT 415 MADIGAN ROAD BESWICK 852",
    "locID": "LOC000118982954",
    "tech": "NULL",
    "upgrade": "NULL_NA",
    "gnaf_pid": "GANT_721202319",
    "tech_change_status": "Not Planned"
   }
  },
  {
   "type": "Feature",
   "geometry": {
    "type": "Point",
    "coordinates": [
     133.11469921,
     -14.55261589
    ]
   },
   "properties": {
    "name": "LOT 87 MYILLY STREET BESWICK 852",
    "locID": "LOC100080923922",
    "tech": "NULL",
    "upgrade": "NULL_NA",
    "gnaf_pid": "GANT_721282796",
    "tech_change_status": "Not Planned"
   }
  }
 ]
}