{
 "type": "FeatureCollection",
 "generated": "2024-11-14T22:08:02.558954",
 "suburb": "ALLAMBEE RESERVE",
 "features": [
  {
   "type": "Feature",
   "geometry": {
    "type": "Point",
    "coordinates": [
     146.07336545,
     -38.3290498
    ]
   },
   "properties": {
    "name": "570 MIRBOO-YARRAGON ROAD ALLAMBEE RESERVE 3871",
    "locID": "LOC000093617549",
    "tech": "SATELLITE",
    "upgrade": "NULL_NA",
    "gnaf_pid": "GAVIC410742430",
    "tech_change_status": "Not Planned"
   }
  },
  {
   "type": "Feature",
   "geometry": {
    "type": "Point",
    "coordinates": [
     146.05598875,
     -38.32184571
    ]
   },
   "properties": {
    "name": "820 MIRBOO-YARRAGON ROAD ALLAMBEE RESERVE 3871",
    "locID": "LOC000026937011",
    "tech": "SATELLITE",
    "upgrade": "NULL_NA",
    "gnaf_pid": "GAVIC410742648",
    "tech_change_status": "Not Planned"
   }
  },
  {
   "type": "Feature",
   "geometry": {
    "type": "Point",
    "coordinates": [
     146.0616093,
     -38.32244958
    ]
   },
   "properties": {
    "name": "765 MIRBOO-YARRAGON ROAD ALLAMBEE RESERVE 3871",
    "locID": "LOC000033487146",
    "tech": "SATELLITE",
    "upgrade": "NULL_NA",
    "gnaf_pid": "GAVIC421651299",
    "tech_change_status": "Not Planned"
   }
  },
  {
   "type": "Feature",
   "geometry": {
    "type": "Point",
    "coordinates": [
     146.04796475,
     -38.30289989
    ]
   },
   "properties": {
    "name": "687 MIRBOO-YARRAGON ROAD ALLAMBEE RESERVE 3871",
    "locID": "LOC000088859510",
    "tech": "NULL",
    "upgrade": "NULL_NA",
    "gnaf_pid": "GAVIC421984247",
    "tech_change_status": "Not Planned"
   }
  },
  {
   "type": "Feature",
   "geometry": {
    "type": "Point",
    "coordinates": [
     146.0511017,
     -38.289479
    ]
   },
   "properties": {
    "name": "440 MIRBOO-YARRAGON ROAD ALLAMBEE RESERVE 3871",
    "locID": "LOC000008480707",
    "tech": "NULL",
    "upgrade": "NULL_NA",
    "gnaf_pid": "GAVIC422030642",
    "tech_change_status": "Not Planned"
   }
  },
  {
   "type": "Feature",
   "geometry": {
    "type": "Point",
    "coordinates": [
     146.04887918,
     -38.3178225
    ]
   },
   "properties": {
    "name": "943 MIRBOO-YARRAGON ROAD ALLAMBEE RESERVE 3871",
    "locID": "LOC000023399943",
    "tech": "SATELLITE",
    "upgrade": "NULL_NA",
    "gnaf_pid": "GAVIC422031134",
    "tech_change_status": "Not Planned"
   }
  },
  {
   "type": "Feature",
   "geometry": {
    "type": "Point",
    "coordinates": [
     146.05866239,
     -38.29814663
    ]
   },
   "properties": {
    "name": "43 BARTONS OUTLET ROAD ALLAMBEE RESERVE 3871",
    "locID": "LOC000045679028",
    "tech": "SATELLITE",
    "upgrade": "NULL_NA",
    "gnaf_pid": "GAVIC422126324",
    "tech_change_status": "Not Planned"
   }
  },
  {
   "type": "Feature",
   "geometry": {
    "type": "Point",
    "coordinates": [
     146.05977569,
     -38.32447163
    ]
   },
   "properties": {
    "name": "35 CLARKES ROAD ALLAMBEE RESERVE 3871",
    "locID": "LOC000092902751",
    "tech": "WIRELESS",
    "upgrade": "NULL_NA",
    "gnaf_pid": "GAVIC422136934",
    "tech_change_status": "Not Planned",
    "program_type": "Fixed Wireless and Satellite Upgrade Program",
    "target_eligibility_quarter": "NA"
   }
  },
  {
   "type": "Feature",
   "geometry": {
    "type": "Point",
    "coordinates": [
     146.04829698,
     -38.29780823
    ]
   },
   "properties": {
    "name": "11 KEMPS ROAD ALLAMBEE RESERVE 3871",
    "locID": "LOC000012831764",
    "tech": "NULL",
    "upgrade": "NULL_NA",
    "gnaf_pid": "GAVIC422160422",
    "tech_change_status": "Not Planned"
   }
  },
  {
   "type": "Feature",
   "geometry": {
    "type": "Point",
    "coordinates": [
     146.04926111,
     -38.29716682
    ]
   },
   "properties": {
    "name": "12 KEMPS ROAD ALLAMBEE RESERVE 3871",
    "locID": "LOC000125336637",
    "tech": "SATELLITE",
    "upgrade": "NULL_NA",
    "gnaf_pid": "GAVIC422160423",
    "tech_change_status": "Not Planned"
   }
  },
  {
   "type": "Feature",
   "geometry": {
    "type": "Point",
    "coordinates": [
     146.05202835,
     -38.28592663
    ]
   },
   "properties": {
    "name": "390 MIRBOO-YARRAGON ROAD ALLAMBEE RESERVE 3871",
    "locID": "LOC000070932095",
    "tech": "SATELLITE",
    "upgrade": "NULL_NA",
    "gnaf_pid": "GAVIC422171939",
    "tech_change_status": "Not Planned"
   }
  },
  {
   "type": "Feature",
   "geometry": {
    "type": "Point",
    "coordinates": [
     146.05303224,
     -38.28610598
    ]
   },
   "properties": {
    "name": "397 MIRBOO-YARRAGON ROAD ALLAMBEE RESERVE 3871",
    "locID": "LOC000006107377",
    "tech": "SATELLITE",
    "upgrade": "NULL_NA",
    "gnaf_pid": "GAVIC422171940",
    "tech_change_status": "Not Planned"
   }
  },
  {
   "type": "Feature",
   "geometry": {
    "type": "Point",
    "coordinates": [
     146.05414881,
     -38.28993619
    ]
   },
   "properties": {
    "name": "465 MIRBOO-YARRAGON ROAD ALLAMBEE RESERVE 3871",
    "locID": "LOC000093916706",
    "tech": "NULL",
    "upgrade": "NULL_NA",
    "gnaf_pid": "GAVIC422171941",
    "tech_change_status": "Not Planned"
   }
  },
  {
   "type": "Feature",
   "geometry": {
    "type": "Point",
    "coordinates": [
     146.05355399,
     -38.29083261
    ]
   },
   "properties": {
    "name": "476 MIRBOO-YARRAGON ROAD ALLAMBEE RESERVE 3871",
    "locID": "LOC000013527673",
    "tech": "WIRELESS",
    "upgrade": "NULL_NA",
    "gnaf_pid": "GAVIC422171942",
    "tech_change_status": "Not Planned",
    "program_type": "Fixed Wireless and Satellite Upgrade Program",
    "target_eligibility_quarter": "NA"
   }
  },
  {
   "type": "Feature",
   "geometry": {
    "type": "Point",
    "coordinates": [
     146.05552453,
     -38.2931917
    ]
   },
   "properties": {
    "name": "515 MIRBOO-YARRAGON ROAD ALLAMBEE RESERVE 3871",
    "locID": "LOC000090947530",
    "tech": "NULL",
    "upgrade": "NULL_NA",
    "gnaf_pid": "GAVIC422171943",
    "tech_change_status": "Not Planned"
   }
  },
  {
   "type": "Feature",
   "geometry": {
    "type": "Point",
    "coordinates": [
     146.05557105,
     -38.29577859
    ]
   },
   "properties": {
    "name": "545 MIRBOO-YARRAGON ROAD ALLAMBEE RESERVE 3871",
    "locID": "LOC000125278097",
    "tech": "NULL",
    "upgrade": "NULL_NA",
    "gnaf_pid": "GAVIC422171944",
    "tech_change_status": "Not Planned"
   }
  },
  {
   "type": "Feature",
   "geometry": {
    "type": "Point",
    "coordinates": [
     146.0476007,
     -38.30276637
    ]
   },
   "properties": {
    "name": "686 MIRBOO-YARRAGON ROAD ALLAMBEE RESERVE 3871",
    "locID": "LOC000068086766",
    "tech": "SATELLITE",
    "upgrade": "NULL_NA",
    "gnaf_pid": "GAVIC422171945",
    "tech_change_status": "Not Planned"
   }
  },
  {
   "type": "Feature",
   "geometry": {
    "type": "Point",
    "coordinates": [
     146.0467481,
     -38.30498085
    ]
   },
   "properties": {
    "name": "704 MIRBOO-YARRAGON ROAD ALLAMBEE RESERVE 3871",
    "locID": "LOC000032505855",
    "tech": "NULL",
    "upgrade": "NULL_NA",
    "gnaf_pid": "GAVIC422171946",
    "tech_change_status": "Not Planned"
   }
  },
  {
   "type": "Feature",
   "geometry": {
    "type": "Point",
    "coordinates": [
     146.0501347,
     -38.31978833
    ]
   },
   "properties": {
    "name": "974 MIRBOO-YARRAGON ROAD ALLAMBEE RESERVE 3871",
    "locID": "LOC000055004673",
    "tech": "SATELLITE",
    "upgrade": "NULL_NA",
    "gnaf_pid": "GAVIC422171948",
    "tech_change_status": "Not Planned"
   }
  },
  {
   "type": "Feature",
   "geometry": {
    "type": "Point",
    "coordinates": [
     146.0479144,
     -38.32074364
    ]
   },
   "properties": {
    "name": "29 MORTONS LANE ALLAMBEE RESERVE 3871",
    "locID": "LOC000104558128",
    "tech": "SATELLITE",
    "upgrade": "NULL_NA",
    "gnaf_pid": "GAVIC422173385",
    "tech_change_status": "Not Planned"
   }
  },
  {
   "type": "Feature",
   "geometry": {
    "type": "Point",
    "coordinates": [
     146.07307345,
     -38.33041734
    ]
   },
   "properties": {
    "name": "555 MIRBOO-YARRAGON ROAD ALLAMBEE RESERVE 3871",
    "locID": "LOC000125801075",
    "tech": "WIRELESS",
    "upgrade": "NULL_NA",
    "gnaf_pid": "GAVIC423509240",
    "tech_change_status": "Not Planned",
    "program_type": "Fixed Wireless and Satellite Upgrade Program",
    "target_eligibility_quarter": "NA"
   }
  },
  {
   "type": "Feature",
   "geometry": {
    "type": "Point",
    "coordinates": [
     146.06092084,
     -38.32198985
    ]
   },
   "properties": {
    "name": "760 MIRBOO-YARRAGON ROAD ALLAMBEE RESERVE 3871",
    "locID": "LOC000125801340",
    "tech": "WIRELESS",
    "upgrade": "NULL_NA",
    "gnaf_pid": "GAVIC424243056",
    "tech_change_status": "Not Planned",
    "program_type": "Fixed Wireless and Satellite Upgrade Program",
    "target_eligibility_quarter": "NA"
   }
  },
  {
   "type": "Feature",
   "geometry": {
    "type": "Point",
    "coordinates": [
     146.04772858,
     -38.30790928
    ]
   },
   "properties": {
    "name": "1 MCCONVILLE LANE ALLAMBEE RESERVE 3871",
    "locID": "LOC000080429676",
    "tech": "SATELLITE",
    "upgrade": "NULL_NA",
    "gnaf_pid": "GAVIC424542004",
    "tech_change_status": "Not Planned"
   }
  },
  {
   "type": "Feature",
   "geometry": {
    "type": "Point",
    "coordinates": [
     146.04930133,
     -38.31096814
    ]
   },
   "properties": {
    "name": "40 MCCONVILLE LANE ALLAMBEE RESERVE 3871",
    "locID": "LOC000057025724",
    "tech": "WIRELESS",
    "upgrade": "NULL_NA",
    "gnaf_pid": "GAVIC424542005",
    "tech_change_status": "Not Planned",
    "program_type": "Fixed Wireless and Satellite Upgrade Program",
    "target_eligibility_quarter": "NA"
   }
  },
  {
   "type": "Feature",
   "geometry": {
    "type": "Point",
    "coordinates": [
     146.05020309,
     -38.31084475
    ]
   },
   "properties": {
    "name": "48 MCCONVILLE LANE ALLAMBEE RESERVE 3871",
    "locID": "LOC000013916448",
    "tech": "WIRELESS",
    "upgrade": "NULL_NA",
    "gnaf_pid": "GAVIC424542006",
    "tech_change_status": "Not Planned",
    "program_type": "Fixed Wireless and Satellite Upgrade Program",
    "target_eligibility_quarter": "NA"
   }
  },
  {
   "type": "Feature",
   "geometry": {
    "type": "Point",
    "coordinates": [
     146.04836305,
     -38.30823743
    ]
   },
   "properties": {
    "name": "7 MCCONVILLE LANE ALLAMBEE RESERVE 3871",
    "locID": "LOC000024309611",
    "tech": "NULL",
    "upgrade": "NULL_NA",
    "gnaf_pid": "GAVIC424542007",
    "tech_change_status": "Not Planned"
   }
  },
  {
   "type": "Feature",
   "geometry": {
    "type": "Point",
    "coordinates": [
     146.04982282,
     -38.31091929
    ]
   },
   "properties": {
    "name": "44 MCCONVILLE LANE ALLAMBEE RESERVE 3871",
    "locID": "LOC000188464490",
    "tech": "NULL",
    "upgrade": "NULL_NA",
    "gnaf_pid": "GAVIC424592490",
    "tech_change_status": "Not Planned"
   }
  }
 ]
}