{
 "type": "FeatureCollection",
 "generated": "2024-10-10T07:35:15.227225",
 "suburb": "BARRAKEE",
 "features": [
  {
   "type": "Feature",
   "geometry": {
    "type": "Point",
    "coordinates": [
     143.45182609,
     -36.26608475
    ]
   },
   "properties": {
    "name": "483 BARRAKEE ROAD BARRAKEE 3525",
    "locID": "LOC000083469684",
    "tech": "SATELLITE",
    "upgrade": "NULL_NA",
    "gnaf_pid": "GAVIC422126116",
    "tech_change_status": "Not Planned"
   }
  },
  {
   "type": "Feature",
   "geometry": {
    "type": "Point",
    "coordinates": [
     143.45262208,
     -36.26338753
    ]
   },
   "properties": {
    "name": "501 BARRAKEE ROAD BARRAKEE 3525",
    "locID": "LOC000020282407",
    "tech": "SATELLITE",
    "upgrade": "NULL_NA",
    "gnaf_pid": "GAVIC422126117",
    "tech_change_status": "Not Planned"
   }
  },
  {
   "type": "Feature",
   "geometry": {
    "type": "Point",
    "coordinates": [
     143.44100034,
     -36.25569344
    ]
   },
   "properties": {
    "name": "615 BORUNG-CHARLTON ROAD BARRAKEE 3525",
    "locID": "LOC000004426305",
    "tech": "NULL",
    "upgrade": "NULL_NA",
    "gnaf_pid": "GAVIC422129731",
    "tech_change_status": "Not Planned"
   }
  },
  {
   "type": "Feature",
   "geometry": {
    "type": "Point",
    "coordinates": [
     143.44602225,
     -36.25664075
    ]
   },
   "properties": {
    "name": "662 BORUNG-CHARLTON ROAD BARRAKEE 3525",
    "locID": "LOC000063192942",
    "tech": "NULL",
    "upgrade": "NULL_NA",
    "gnaf_pid": "GAVIC422129732",
    "tech_change_status": "Not Planned"
   }
  },
  {
   "type": "Feature",
   "geometry": {
    "type": "Point",
    "coordinates": [
     143.46375073,
     -36.29385236
    ]
   },
   "properties": {
    "name": "97 GRIEVES ROAD BARRAKEE 3525",
    "locID": "LOC000094925923",
    "tech": "NULL",
    "upgrade": "NULL_NA",
    "gnaf_pid": "GAVIC422152530",
    "tech_change_status": "Not Planned"
   }
  },
  {
   "type": "Feature",
   "geometry": {
    "type": "Point",
    "coordinates": [
     143.46916061,
     -36.29050147
    ]
   },
   "properties": {
    "name": "49 SMALES ROAD BARRAKEE 3525",
    "locID": "LOC000061892193",
    "tech": "SATELLITE",
    "upgrade": "NULL_NA",
    "gnaf_pid": "GAVIC422190495",
    "tech_change_status": "Not Planned"
   }
  }
 ]
}