{
 "type": "FeatureCollection",
 "generated": "2025-01-22T15:53:16.722601",
 "suburb": "BERRINGA",
 "features": [
  {
   "type": "Feature",
   "geometry": {
    "type": "Point",
    "coordinates": [
     143.67790148,
     -37.78664349
    ]
   },
   "properties": {
    "name": "22 PARKERS ROAD BERRINGA 3351",
    "locID": "LOC000033655087",
    "tech": "WIRELESS",
    "upgrade": "NULL_NA",
    "gnaf_pid": "GAVIC414267883",
    "tech_change_status": "Not Planned",
    "program_type": "Fixed Wireless and Satellite Upgrade Program",
    "target_eligibility_quarter": "NA"
   }
  },
  {
   "type": "Feature",
   "geometry": {
    "type": "Point",
    "coordinates": [
     143.70952107,
     -37.77596898
    ]
   },
   "properties": {
    "name": "109 SYKES ROAD BERRINGA 3351",
    "locID": "LOC000011894951",
    "tech": "WIRELESS",
    "upgrade": "NULL_NA",
    "gnaf_pid": "GAVIC419672886",
    "tech_change_status": "Not Planned",
    "program_type": "Fixed Wireless and Satellite Upgrade Program",
    "target_eligibility_quarter": "NA"
   }
  },
  {
   "type": "Feature",
   "geometry": {
    "type": "Point",
    "coordinates": [
     143.70597548,
     -37.77586644
    ]
   },
   "properties": {
    "name": "79 SYKES ROAD BERRINGA 3351",
    "locID": "LOC000041277876",
    "tech": "WIRELESS",
    "upgrade": "NULL_NA",
    "gnaf_pid": "GAVIC419959112",
    "tech_change_status": "Not Planned",
    "program_type": "Fixed Wireless and Satellite Upgrade Program",
    "target_eligibility_quarter": "NA"
   }
  },
  {
   "type": "Feature",
   "geometry": {
    "type": "Point",
    "coordinates": [
     143.70767129,
     -37.77548764
    ]
   },
   "properties": {
    "name": "95 SYKES ROAD BERRINGA 3351",
    "locID": "LOC000008007261",
    "tech": "WIRELESS",
    "upgrade": "NULL_NA",
    "gnaf_pid": "GAVIC419959113",
    "tech_change_status": "Not Planned",
    "program_type": "Fixed Wireless and Satellite Upgrade Program",
    "target_eligibility_quarter": "NA"
   }
  },
  {
   "type": "Feature",
   "geometry": {
    "type": "Point",
    "coordinates": [
     143.70481908,
     -37.77603985
    ]
   },
   "properties": {
    "name": "49 SYKES ROAD BERRINGA 3351",
    "locID": "LOC000082037536",
    "tech": "WIRELESS",
    "upgrade": "NULL_NA",
    "gnaf_pid": "GAVIC419973514",
    "tech_change_status": "Not Planned",
    "program_type": "Fixed Wireless and Satellite Upgrade Program",
    "target_eligibility_quarter": "NA"
   }
  },
  {
   "type": "Feature",
   "geometry": {
    "type": "Point",
    "coordinates": [
     143.6826453,
     -37.79071175
    ]
   },
   "properties": {
    "name": "40 WILLIAM COURT BERRINGA 3351",
    "locID": "LOC000083570791",
    "tech": "WIRELESS",
    "upgrade": "NULL_NA",
    "gnaf_pid": "GAVIC419999958",
    "tech_change_status": "Not Planned",
    "program_type": "Fixed Wireless and Satellite Upgrade Program",
    "target_eligibility_quarter": "NA"
   }
  },
  {
   "type": "Feature",
   "geometry": {
    "type": "Point",
    "coordinates": [
     143.67915657,
     -37.78671567
    ]
   },
   "properties": {
    "name": "34 PARKERS ROAD BERRINGA 3351",
    "locID": "LOC000106348267",
    "tech": "NULL",
    "upgrade": "NULL_NA",
    "gnaf_pid": "GAVIC419999961",
    "tech_change_status": "Not Planned"
   }
  },
  {
   "type": "Feature",
   "geometry": {
    "type": "Point",
    "coordinates": [
     143.68381526,
     -37.79637086
    ]
   },
   "properties": {
    "name": "18 DAWKINS ROAD BERRINGA 3351",
    "locID": "LOC000069230377",
    "tech": "WIRELESS",
    "upgrade": "NULL_NA",
    "gnaf_pid": "GAVIC420013222",
    "tech_change_status": "Not Planned",
    "program_type": "Fixed Wireless and Satellite Upgrade Program",
    "target_eligibility_quarter": "Jun 2025"
   }
  },
  {
   "type": "Feature",
   "geometry": {
    "type": "Point",
    "coordinates": [
     143.67886713,
     -37.78644431
    ]
   },
   "properties": {
    "name": "27 PARKERS ROAD BERRINGA 3351",
    "locID": "LOC100078151707",
    "tech": "NULL",
    "upgrade": "NULL_NA",
    "gnaf_pid": "GAVIC420258810",
    "tech_change_status": "Not Planned"
   }
  },
  {
   "type": "Feature",
   "geometry": {
    "type": "Point",
    "coordinates": [
     143.68259874,
     -37.7867793
    ]
   },
   "properties": {
    "name": "65 PARKERS ROAD BERRINGA 3351",
    "locID": "LOC100078662591",
    "tech": "WIRELESS",
    "upgrade": "NULL_NA",
    "gnaf_pid": "GAVIC420261644",
    "tech_change_status": "Not Planned",
    "program_type": "Fixed Wireless and Satellite Upgrade Program",
    "target_eligibility_quarter": "Jun 2025"
   }
  },
  {
   "type": "Feature",
   "geometry": {
    "type": "Point",
    "coordinates": [
     143.68365253,
     -37.79124746
    ]
   },
   "properties": {
    "name": "29 WILLIAM COURT BERRINGA 3351",
    "locID": "LOC000106725676",
    "tech": "WIRELESS",
    "upgrade": "NULL_NA",
    "gnaf_pid": "GAVIC420306219"
   }
  },
  {
   "type": "Feature",
   "geometry": {
    "type": "Point",
    "coordinates": [
     143.69257266,
     -37.75204304
    ]
   },
   "properties": {
    "name": "510 DONALD MCLEANS ROAD BERRINGA 3351",
    "locID": "LOC000096790195",
    "tech": "SATELLITE",
    "upgrade": "NULL_NA",
    "gnaf_pid": "GAVIC420314827",
    "tech_change_status": "Not Planned"
   }
  },
  {
   "type": "Feature",
   "geometry": {
    "type": "Point",
    "coordinates": [
     143.69187547,
     -37.76958875
    ]
   },
   "properties": {
    "name": "31 CELLANTE ROAD BERRINGA 3351",
    "locID": "LOC000012093936",
    "tech": "WIRELESS",
    "upgrade": "NULL_NA",
    "gnaf_pid": "GAVIC420575033",
    "tech_change_status": "Not Planned",
    "program_type": "Fixed Wireless and Satellite Upgrade Program",
    "target_eligibility_quarter": "Jun 2025"
   }
  },
  {
   "type": "Feature",
   "geometry": {
    "type": "Point",
    "coordinates": [
     143.69695965,
     -37.75250375
    ]
   },
   "properties": {
    "name": "560 DONALD MCLEANS ROAD BERRINGA 3351",
    "locID": "LOC000079501421",
    "tech": "NULL",
    "upgrade": "NULL_NA",
    "gnaf_pid": "GAVIC420622071",
    "tech_change_status": "Not Planned"
   }
  },
  {
   "type": "Feature",
   "geometry": {
    "type": "Point",
    "coordinates": [
     143.70077875,
     -37.77624464
    ]
   },
   "properties": {
    "name": "15 SYKES ROAD BERRINGA 3351",
    "locID": "LOC000005316705",
    "tech": "WIRELESS",
    "upgrade": "NULL_NA",
    "gnaf_pid": "GAVIC420889393",
    "tech_change_status": "Not Planned",
    "program_type": "Fixed Wireless and Satellite Upgrade Program",
    "target_eligibility_quarter": "Jun 2025"
   }
  },
  {
   "type": "Feature",
   "geometry": {
    "type": "Point",
    "coordinates": [
     143.68484933,
     -37.79137335
    ]
   },
   "properties": {
    "name": "19 WILLIAM COURT BERRINGA 3351",
    "locID": "LOC000041591742",
    "tech": "WIRELESS",
    "upgrade": "NULL_NA",
    "gnaf_pid": "GAVIC420897669",
    "tech_change_status": "Not Planned",
    "program_type": "Fixed Wireless and Satellite Upgrade Program",
    "target_eligibility_quarter": "NA"
   }
  },
  {
   "type": "Feature",
   "geometry": {
    "type": "Point",
    "coordinates": [
     143.67803636,
     -37.7866537
    ]
   },
   "properties": {
    "name": "24 PARKERS ROAD BERRINGA 3351",
    "locID": "LOC000054264172",
    "tech": "WIRELESS",
    "upgrade": "NULL_NA",
    "gnaf_pid": "GAVIC420897672",
    "tech_change_status": "Not Planned",
    "program_type": "Fixed Wireless and Satellite Upgrade Program",
    "target_eligibility_quarter": "NA"
   }
  },
  {
   "type": "Feature",
   "geometry": {
    "type": "Point",
    "coordinates": [
     143.68982782,
     -37.78320902
    ]
   },
   "properties": {
    "name": "136 BERRINGA ROAD BERRINGA 3351",
    "locID": "LOC000104238380",
    "tech": "WIRELESS",
    "upgrade": "NULL_NA",
    "gnaf_pid": "GAVIC421065557",
    "tech_change_status": "Not Planned",
    "program_type": "Fixed Wireless and Satellite Upgrade Program",
    "target_eligibility_quarter": "Jun 2025"
   }
  },
  {
   "type": "Feature",
   "geometry": {
    "type": "Point",
    "coordinates": [
     143.65571766,
     -37.74550234
    ]
   },
   "properties": {
    "name": "170 DONALD MCLEANS ROAD BERRINGA 3351",
    "locID": "LOC000062216292",
    "tech": "NULL",
    "upgrade": "NULL_NA",
    "gnaf_pid": "GAVIC421172394",
    "tech_change_status": "Not Planned"
   }
  },
  {
   "type": "Feature",
   "geometry": {
    "type": "Point",
    "coordinates": [
     143.69495675,
     -37.76785386
    ]
   },
   "properties": {
    "name": "93 CELLANTE ROAD BERRINGA 3351",
    "locID": "LOC000086596781",
    "tech": "WIRELESS",
    "upgrade": "NULL_NA",
    "gnaf_pid": "GAVIC421177842",
    "tech_change_status": "Not Planned",
    "program_type": "Fixed Wireless and Satellite Upgrade Program",
    "target_eligibility_quarter": "NA"
   }
  },
  {
   "type": "Feature",
   "geometry": {
    "type": "Point",
    "coordinates": [
     143.67582673,
     -37.78646065
    ]
   },
   "properties": {
    "name": "4 PARKERS ROAD BERRINGA 3351",
    "locID": "LOC000010972950",
    "tech": "WIRELESS",
    "upgrade": "NULL_NA",
    "gnaf_pid": "GAVIC421210990",
    "tech_change_status": "Not Planned",
    "program_type": "Fixed Wireless and Satellite Upgrade Program",
    "target_eligibility_quarter": "NA"
   }
  },
  {
   "type": "Feature",
   "geometry": {
    "type": "Point",
    "coordinates": [
     143.71264878,
     -37.7759408
    ]
   },
   "properties": {
    "name": "140 SYKES ROAD BERRINGA 3351",
    "locID": "LOC000051189382",
    "tech": "WIRELESS",
    "upgrade": "NULL_NA",
    "gnaf_pid": "GAVIC421444032",
    "tech_change_status": "Not Planned",
    "program_type": "Fixed Wireless and Satellite Upgrade Program",
    "target_eligibility_quarter": "NA"
   }
  },
  {
   "type": "Feature",
   "geometry": {
    "type": "Point",
    "coordinates": [
     143.65258644,
     -37.79379865
    ]
   },
   "properties": {
    "name": "209 DAVIS ROAD BERRINGA 3351",
    "locID": "LOC000063783017",
    "tech": "WIRELESS",
    "upgrade": "NULL_NA",
    "gnaf_pid": "GAVIC421444040",
    "tech_change_status": "Not Planned",
    "program_type": "Fixed Wireless and Satellite Upgrade Program",
    "target_eligibility_quarter": "Jun 2025"
   }
  },
  {
   "type": "Feature",
   "geometry": {
    "type": "Point",
    "coordinates": [
     143.70769364,
     -37.77609986
    ]
   },
   "properties": {
    "name": "94 SYKES ROAD BERRINGA 3351",
    "locID": "LOC000011034455",
    "tech": "SATELLITE",
    "upgrade": "NULL_NA",
    "gnaf_pid": "GAVIC421785843",
    "tech_change_status": "Not Planned"
   }
  },
  {
   "type": "Feature",
   "geometry": {
    "type": "Point",
    "coordinates": [
     143.68285761,
     -37.7871657
    ]
   },
   "properties": {
    "name": "74 PARKERS ROAD BERRINGA 3351",
    "locID": "LOC000079448204",
    "tech": "NULL",
    "upgrade": "NULL_NA",
    "gnaf_pid": "GAVIC421813186",
    "tech_change_status": "Not Planned"
   }
  },
  {
   "type": "Feature",
   "geometry": {
    "type": "Point",
    "coordinates": [
     143.67696478,
     -37.7865339
    ]
   },
   "properties": {
    "name": "14 PARKERS ROAD BERRINGA 3351",
    "locID": "LOC000066792499",
    "tech": "WIRELESS",
    "upgrade": "NULL_NA",
    "gnaf_pid": "GAVIC421813189",
    "tech_change_status": "Not Planned",
    "program_type": "Fixed Wireless and Satellite Upgrade Program",
    "target_eligibility_quarter": "NA"
   }
  },
  {
   "type": "Feature",
   "geometry": {
    "type": "Point",
    "coordinates": [
     143.68934669,
     -37.78500343
    ]
   },
   "properties": {
    "name": "148 BERRINGA ROAD BERRINGA 3351",
    "locID": "LOC000106715587",
    "tech": "WIRELESS",
    "upgrade": "NULL_NA",
    "gnaf_pid": "GAVIC422037500",
    "tech_change_status": "Not Planned"
   }
  },
  {
   "type": "Feature",
   "geometry": {
    "type": "Point",
    "coordinates": [
     143.68966219,
     -37.78502103
    ]
   },
   "properties": {
    "name": "149 BERRINGA ROAD BERRINGA 3351",
    "locID": "LOC000021195308",
    "tech": "WIRELESS",
    "upgrade": "NULL_NA",
    "gnaf_pid": "GAVIC422277681",
    "tech_change_status": "Not Planned"
   }
  },
  {
   "type": "Feature",
   "geometry": {
    "type": "Point",
    "coordinates": [
     143.68809994,
     -37.78981709
    ]
   },
   "properties": {
    "name": "210 BERRINGA ROAD BERRINGA 3351",
    "locID": "LOC000035027425",
    "tech": "WIRELESS",
    "upgrade": "NULL_NA",
    "gnaf_pid": "GAVIC422277682",
    "tech_change_status": "Not Planned",
    "program_type": "Fixed Wireless and Satellite Upgrade Program",
    "target_eligibility_quarter": "Jun 2025"
   }
  },
  {
   "type": "Feature",
   "geometry": {
    "type": "Point",
    "coordinates": [
     143.68662477,
     -37.79381877
    ]
   },
   "properties": {
    "name": "254 BERRINGA ROAD BERRINGA 3351",
    "locID": "LOC000002913554",
    "tech": "WIRELESS",
    "upgrade": "NULL_NA",
    "gnaf_pid": "GAVIC422277683",
    "tech_change_status": "Not Planned",
    "program_type": "Fixed Wireless and Satellite Upgrade Program",
    "target_eligibility_quarter": "NA"
   }
  },
  {
   "type": "Feature",
   "geometry": {
    "type": "Point",
    "coordinates": [
     143.6850858,
     -37.79902225
    ]
   },
   "properties": {
    "name": "314 BERRINGA ROAD BERRINGA 3351",
    "locID": "LOC000100426367",
    "tech": "WIRELESS",
    "upgrade": "NULL_NA",
    "gnaf_pid": "GAVIC422277684",
    "tech_change_status": "Not Planned",
    "program_type": "Fixed Wireless and Satellite Upgrade Program",
    "target_eligibility_quarter": "Jun 2025"
   }
  },
  {
   "type": "Feature",
   "geometry": {
    "type": "Point",
    "coordinates": [
     143.68518778,
     -37.80036803
    ]
   },
   "properties": {
    "name": "327 BERRINGA ROAD BERRINGA 3351",
    "locID": "LOC000012786711",
    "tech": "NULL",
    "upgrade": "NULL_NA",
    "gnaf_pid": "GAVIC422277686",
    "tech_change_status": "Not Planned"
   }
  },
  {
   "type": "Feature",
   "geometry": {
    "type": "Point",
    "coordinates": [
     143.69412193,
     -37.79731739
    ]
   },
   "properties": {
    "name": "179 SALVO BEND ROAD BERRINGA 3351",
    "locID": "LOC000079276419",
    "tech": "NULL",
    "upgrade": "NULL_NA",
    "gnaf_pid": "GAVIC422321151",
    "tech_change_status": "Not Planned"
   }
  },
  {
   "type": "Feature",
   "geometry": {
    "type": "Point",
    "coordinates": [
     143.6929342,
     -37.79933372
    ]
   },
   "properties": {
    "name": "199 SALVO BEND ROAD BERRINGA 3351",
    "locID": "LOC000086360541",
    "tech": "NULL",
    "upgrade": "NULL_NA",
    "gnaf_pid": "GAVIC422321152",
    "tech_change_status": "Not Planned"
   }
  },
  {
   "type": "Feature",
   "geometry": {
    "type": "Point",
    "coordinates": [
     143.69430966,
     -37.79142356
    ]
   },
   "properties": {
    "name": "109 SALVO BEND ROAD BERRINGA 3351",
    "locID": "LOC000035095813",
    "tech": "WIRELESS",
    "upgrade": "NULL_NA",
    "gnaf_pid": "GAVIC422423887",
    "tech_change_status": "Not Planned",
    "program_type": "Fixed Wireless and Satellite Upgrade Program",
    "target_eligibility_quarter": "NA"
   }
  },
  {
   "type": "Feature",
   "geometry": {
    "type": "Point",
    "coordinates": [
     143.69184303,
     -37.7837119
    ]
   },
   "properties": {
    "name": "19 SALVO BEND ROAD BERRINGA 3351",
    "locID": "LOC000005299356",
    "tech": "WIRELESS",
    "upgrade": "NULL_NA",
    "gnaf_pid": "GAVIC422423888",
    "tech_change_status": "Not Planned",
    "program_type": "Fixed Wireless and Satellite Upgrade Program",
    "target_eligibility_quarter": "NA"
   }
  },
  {
   "type": "Feature",
   "geometry": {
    "type": "Point",
    "coordinates": [
     143.69271706,
     -37.78652129
    ]
   },
   "properties": {
    "name": "49 SALVO BEND ROAD BERRINGA 3351",
    "locID": "LOC000012107352",
    "tech": "WIRELESS",
    "upgrade": "NULL_NA",
    "gnaf_pid": "GAVIC422423889",
    "tech_change_status": "Not Planned",
    "program_type": "Fixed Wireless and Satellite Upgrade Program",
    "target_eligibility_quarter": "NA"
   }
  },
  {
   "type": "Feature",
   "geometry": {
    "type": "Point",
    "coordinates": [
     143.69243741,
     -37.7870822
    ]
   },
   "properties": {
    "name": "60 SALVO BEND ROAD BERRINGA 3351",
    "locID": "LOC000065528548",
    "tech": "WIRELESS",
    "upgrade": "NULL_NA",
    "gnaf_pid": "GAVIC422423890",
    "tech_change_status": "Not Planned",
    "program_type": "Fixed Wireless and Satellite Upgrade Program",
    "target_eligibility_quarter": "NA"
   }
  },
  {
   "type": "Feature",
   "geometry": {
    "type": "Point",
    "coordinates": [
     143.69325965,
     -37.78783833
    ]
   },
   "properties": {
    "name": "69 SALVO BEND ROAD BERRINGA 3351",
    "locID": "LOC000051457417",
    "tech": "WIRELESS",
    "upgrade": "NULL_NA",
    "gnaf_pid": "GAVIC422423891",
    "tech_change_status": "Not Planned",
    "program_type": "Fixed Wireless and Satellite Upgrade Program",
    "target_eligibility_quarter": "NA"
   }
  },
  {
   "type": "Feature",
   "geometry": {
    "type": "Point",
    "coordinates": [
     143.69587893,
     -37.76667939
    ]
   },
   "properties": {
    "name": "97 CELLANTE ROAD BERRINGA 3351",
    "locID": "LOC000042723473",
    "tech": "WIRELESS",
    "upgrade": "NULL_NA",
    "gnaf_pid": "GAVIC423747453",
    "tech_change_status": "Not Planned",
    "program_type": "Fixed Wireless and Satellite Upgrade Program",
    "target_eligibility_quarter": "NA"
   }
  },
  {
   "type": "Feature",
   "geometry": {
    "type": "Point",
    "coordinates": [
     143.64160655,
     -37.75203705
    ]
   },
   "properties": {
    "name": "119 DERWENT JACKS ROAD BERRINGA 3351",
    "locID": "LOC000065773884",
    "tech": "WIRELESS",
    "upgrade": "NULL_NA",
    "gnaf_pid": "GAVIC423790066",
    "tech_change_status": "Not Planned",
    "program_type": "Fixed Wireless and Satellite Upgrade Program",
    "target_eligibility_quarter": "Jun 2025"
   }
  },
  {
   "type": "Feature",
   "geometry": {
    "type": "Point",
    "coordinates": [
     143.64461409,
     -37.7529968
    ]
   },
   "properties": {
    "name": "145 DERWENT JACKS ROAD BERRINGA 3351",
    "locID": "LOC000046166027",
    "tech": "WIRELESS",
    "upgrade": "NULL_NA",
    "gnaf_pid": "GAVIC423790067",
    "tech_change_status": "Not Planned",
    "program_type": "Fixed Wireless and Satellite Upgrade Program",
    "target_eligibility_quarter": "Jun 2025"
   }
  },
  {
   "type": "Feature",
   "geometry": {
    "type": "Point",
    "coordinates": [
     143.64997587,
     -37.75578195
    ]
   },
   "properties": {
    "name": "189 DERWENT JACKS ROAD BERRINGA 3351",
    "locID": "LOC000059416524",
    "tech": "WIRELESS",
    "upgrade": "NULL_NA",
    "gnaf_pid": "GAVIC423790068",
    "tech_change_status": "Not Planned",
    "program_type": "Fixed Wireless and Satellite Upgrade Program",
    "target_eligibility_quarter": "Jun 2025"
   }
  },
  {
   "type": "Feature",
   "geometry": {
    "type": "Point",
    "coordinates": [
     143.6523914,
     -37.75690384
    ]
   },
   "properties": {
    "name": "229 DERWENT JACKS ROAD BERRINGA 3351",
    "locID": "LOC000074663734",
    "tech": "SATELLITE",
    "upgrade": "NULL_NA",
    "gnaf_pid": "GAVIC423790069",
    "tech_change_status": "Not Planned"
   }
  },
  {
   "type": "Feature",
   "geometry": {
    "type": "Point",
    "coordinates": [
     143.65572933,
     -37.75693675
    ]
   },
   "properties": {
    "name": "259 DERWENT JACKS ROAD BERRINGA 3351",
    "locID": "LOC000065509600",
    "tech": "WIRELESS",
    "upgrade": "NULL_NA",
    "gnaf_pid": "GAVIC423790070",
    "tech_change_status": "Not Planned"
   }
  },
  {
   "type": "Feature",
   "geometry": {
    "type": "Point",
    "coordinates": [
     143.65937486,
     -37.75795381
    ]
   },
   "properties": {
    "name": "289 DERWENT JACKS ROAD BERRINGA 3351",
    "locID": "LOC000062317564",
    "tech": "WIRELESS",
    "upgrade": "NULL_NA",
    "gnaf_pid": "GAVIC423790071",
    "tech_change_status": "Not Planned",
    "program_type": "Fixed Wireless and Satellite Upgrade Program",
    "target_eligibility_quarter": "Jun 2025"
   }
  },
  {
   "type": "Feature",
   "geometry": {
    "type": "Point",
    "coordinates": [
     143.65983398,
     -37.75891174
    ]
   },
   "properties": {
    "name": "290 DERWENT JACKS ROAD BERRINGA 3351",
    "locID": "LOC000058255998",
    "tech": "WIRELESS",
    "upgrade": "NULL_NA",
    "gnaf_pid": "GAVIC423790072",
    "tech_change_status": "Not Planned",
    "program_type": "Fixed Wireless and Satellite Upgrade Program",
    "target_eligibility_quarter": "Jun 2025"
   }
  },
  {
   "type": "Feature",
   "geometry": {
    "type": "Point",
    "coordinates": [
     143.66558814,
     -37.76301671
    ]
   },
   "properties": {
    "name": "368 DERWENT JACKS ROAD BERRINGA 3351",
    "locID": "LOC000039044926",
    "tech": "WIRELESS",
    "upgrade": "NULL_NA",
    "gnaf_pid": "GAVIC423790073",
    "tech_change_status": "Not Planned",
    "program_type": "Fixed Wireless and Satellite Upgrade Program",
    "target_eligibility_quarter": "Jun 2025"
   }
  },
  {
   "type": "Feature",
   "geometry": {
    "type": "Point",
    "coordinates": [
     143.66571656,
     -37.76241183
    ]
   },
   "properties": {
    "name": "369 DERWENT JACKS ROAD BERRINGA 3351",
    "locID": "LOC000037787370",
    "tech": "WIRELESS",
    "upgrade": "NULL_NA",
    "gnaf_pid": "GAVIC423790074"
   }
  },
  {
   "type": "Feature",
   "geometry": {
    "type": "Point",
    "coordinates": [
     143.66618027,
     -37.76315006
    ]
   },
   "properties": {
    "name": "374 DERWENT JACKS ROAD BERRINGA 3351",
    "locID": "LOC000035314292",
    "tech": "WIRELESS",
    "upgrade": "NULL_NA",
    "gnaf_pid": "GAVIC423790075",
    "tech_change_status": "Not Planned",
    "program_type": "Fixed Wireless and Satellite Upgrade Program",
    "target_eligibility_quarter": "Jun 2025"
   }
  },
  {
   "type": "Feature",
   "geometry": {
    "type": "Point",
    "coordinates": [
     143.67022779,
     -37.7640248
    ]
   },
   "properties": {
    "name": "400 DERWENT JACKS ROAD BERRINGA 3351",
    "locID": "LOC000042641833",
    "tech": "WIRELESS",
    "upgrade": "NULL_NA",
    "gnaf_pid": "GAVIC423790076",
    "tech_change_status": "Not Planned",
    "program_type": "Fixed Wireless and Satellite Upgrade Program",
    "target_eligibility_quarter": "Jun 2025"
   }
  },
  {
   "type": "Feature",
   "geometry": {
    "type": "Point",
    "coordinates": [
     143.67104533,
     -37.76466405
    ]
   },
   "properties": {
    "name": "410 DERWENT JACKS ROAD BERRINGA 3351",
    "locID": "LOC000091352619",
    "tech": "WIRELESS",
    "upgrade": "NULL_NA",
    "gnaf_pid": "GAVIC423790077",
    "tech_change_status": "Not Planned",
    "program_type": "Fixed Wireless and Satellite Upgrade Program",
    "target_eligibility_quarter": "Jun 2025"
   }
  },
  {
   "type": "Feature",
   "geometry": {
    "type": "Point",
    "coordinates": [
     143.67292024,
     -37.76598213
    ]
   },
   "properties": {
    "name": "420 DERWENT JACKS ROAD BERRINGA 3351",
    "locID": "LOC000080595271",
    "tech": "WIRELESS",
    "upgrade": "NULL_NA",
    "gnaf_pid": "GAVIC423790078",
    "tech_change_status": "Not Planned",
    "program_type": "Fixed Wireless and Satellite Upgrade Program",
    "target_eligibility_quarter": "Jun 2025"
   }
  },
  {
   "type": "Feature",
   "geometry": {
    "type": "Point",
    "coordinates": [
     143.6756259,
     -37.76803936
    ]
   },
   "properties": {
    "name": "456 DERWENT JACKS ROAD BERRINGA 3351",
    "locID": "LOC000069494873",
    "tech": "WIRELESS",
    "upgrade": "NULL_NA",
    "gnaf_pid": "GAVIC423790079",
    "tech_change_status": "Not Planned",
    "program_type": "Fixed Wireless and Satellite Upgrade Program",
    "target_eligibility_quarter": "Jun 2025"
   }
  },
  {
   "type": "Feature",
   "geometry": {
    "type": "Point",
    "coordinates": [
     143.67455895,
     -37.76641348
    ]
   },
   "properties": {
    "name": "459 DERWENT JACKS ROAD BERRINGA 3351",
    "locID": "LOC000084910931",
    "tech": "WIRELESS",
    "upgrade": "NULL_NA",
    "gnaf_pid": "GAVIC423790080",
    "tech_change_status": "Not Planned",
    "program_type": "Fixed Wireless and Satellite Upgrade Program",
    "target_eligibility_quarter": "Jun 2025"
   }
  },
  {
   "type": "Feature",
   "geometry": {
    "type": "Point",
    "coordinates": [
     143.67771889,
     -37.76842315
    ]
   },
   "properties": {
    "name": "474 DERWENT JACKS ROAD BERRINGA 3351",
    "locID": "LOC000080754339",
    "tech": "WIRELESS",
    "upgrade": "NULL_NA",
    "gnaf_pid": "GAVIC423790081",
    "tech_change_status": "Not Planned",
    "program_type": "Fixed Wireless and Satellite Upgrade Program",
    "target_eligibility_quarter": "Jun 2025"
   }
  },
  {
   "type": "Feature",
   "geometry": {
    "type": "Point",
    "coordinates": [
     143.68491734,
     -37.7708495
    ]
   },
   "properties": {
    "name": "565 DERWENT JACKS ROAD BERRINGA 3351",
    "locID": "LOC000058055294",
    "tech": "SATELLITE",
    "upgrade": "NULL_NA",
    "gnaf_pid": "GAVIC423790082",
    "tech_change_status": "Not Planned"
   }
  },
  {
   "type": "Feature",
   "geometry": {
    "type": "Point",
    "coordinates": [
     143.68999606,
     -37.77222938
    ]
   },
   "properties": {
    "name": "610 DERWENT JACKS ROAD BERRINGA 3351",
    "locID": "LOC000058014289",
    "tech": "WIRELESS",
    "upgrade": "NULL_NA",
    "gnaf_pid": "GAVIC423790083",
    "tech_change_status": "Not Planned",
    "program_type": "Fixed Wireless and Satellite Upgrade Program",
    "target_eligibility_quarter": "Jun 2025"
   }
  },
  {
   "type": "Feature",
   "geometry": {
    "type": "Point",
    "coordinates": [
     143.69089001,
     -37.77197051
    ]
   },
   "properties": {
    "name": "625 DERWENT JACKS ROAD BERRINGA 3351",
    "locID": "LOC000047019154",
    "tech": "WIRELESS",
    "upgrade": "NULL_NA",
    "gnaf_pid": "GAVIC423790084",
    "tech_change_status": "Not Planned",
    "program_type": "Fixed Wireless and Satellite Upgrade Program",
    "target_eligibility_quarter": "Jun 2025"
   }
  },
  {
   "type": "Feature",
   "geometry": {
    "type": "Point",
    "coordinates": [
     143.69136595,
     -37.77244136
    ]
   },
   "properties": {
    "name": "638 DERWENT JACKS ROAD BERRINGA 3351",
    "locID": "LOC000079449768",
    "tech": "WIRELESS",
    "upgrade": "NULL_NA",
    "gnaf_pid": "GAVIC423790086",
    "tech_change_status": "Not Planned",
    "program_type": "Fixed Wireless and Satellite Upgrade Program",
    "target_eligibility_quarter": "NA"
   }
  },
  {
   "type": "Feature",
   "geometry": {
    "type": "Point",
    "coordinates": [
     143.69321445,
     -37.77221133
    ]
   },
   "properties": {
    "name": "639 DERWENT JACKS ROAD BERRINGA 3351",
    "locID": "LOC000050430894",
    "tech": "WIRELESS",
    "upgrade": "NULL_NA",
    "gnaf_pid": "GAVIC423790087",
    "tech_change_status": "Not Planned",
    "program_type": "Fixed Wireless and Satellite Upgrade Program",
    "target_eligibility_quarter": "NA"
   }
  },
  {
   "type": "Feature",
   "geometry": {
    "type": "Point",
    "coordinates": [
     143.69810753,
     -37.7725353
    ]
   },
   "properties": {
    "name": "685 DERWENT JACKS ROAD BERRINGA 3351",
    "locID": "LOC000059529408",
    "tech": "WIRELESS",
    "upgrade": "NULL_NA",
    "gnaf_pid": "GAVIC423790088",
    "tech_change_status": "Not Planned",
    "program_type": "Fixed Wireless and Satellite Upgrade Program",
    "target_eligibility_quarter": "NA"
   }
  },
  {
   "type": "Feature",
   "geometry": {
    "type": "Point",
    "coordinates": [
     143.66819569,
     -37.80031214
    ]
   },
   "properties": {
    "name": "369 MOONLIGHT ROAD BERRINGA 3351",
    "locID": "LOC000020174439",
    "tech": "WIRELESS",
    "upgrade": "NULL_NA",
    "gnaf_pid": "GAVIC423796421",
    "tech_change_status": "Not Planned",
    "program_type": "Fixed Wireless and Satellite Upgrade Program",
    "target_eligibility_quarter": "Jun 2025"
   }
  },
  {
   "type": "Feature",
   "geometry": {
    "type": "Point",
    "coordinates": [
     143.67356466,
     -37.79426126
    ]
   },
   "properties": {
    "name": "450 MOONLIGHT ROAD BERRINGA 3351",
    "locID": "LOC000050036293",
    "tech": "WIRELESS",
    "upgrade": "NULL_NA",
    "gnaf_pid": "GAVIC423796422",
    "tech_change_status": "Not Planned",
    "program_type": "Fixed Wireless and Satellite Upgrade Program",
    "target_eligibility_quarter": "Jun 2025"
   }
  },
  {
   "type": "Feature",
   "geometry": {
    "type": "Point",
    "coordinates": [
     143.6741653,
     -37.79359885
    ]
   },
   "properties": {
    "name": "458 MOONLIGHT ROAD BERRINGA 3351",
    "locID": "LOC000005239363",
    "tech": "WIRELESS",
    "upgrade": "NULL_NA",
    "gnaf_pid": "GAVIC423796423",
    "tech_change_status": "Not Planned",
    "program_type": "Fixed Wireless and Satellite Upgrade Program",
    "target_eligibility_quarter": "Jun 2025"
   }
  },
  {
   "type": "Feature",
   "geometry": {
    "type": "Point",
    "coordinates": [
     143.6744042,
     -37.79329608
    ]
   },
   "properties": {
    "name": "460 MOONLIGHT ROAD BERRINGA 3351",
    "locID": "LOC000057935894",
    "tech": "WIRELESS",
    "upgrade": "NULL_NA",
    "gnaf_pid": "GAVIC423796424",
    "tech_change_status": "Not Planned",
    "program_type": "Fixed Wireless and Satellite Upgrade Program",
    "target_eligibility_quarter": "Jun 2025"
   }
  },
  {
   "type": "Feature",
   "geometry": {
    "type": "Point",
    "coordinates": [
     143.67471008,
     -37.79138786
    ]
   },
   "properties": {
    "name": "480 MOONLIGHT ROAD BERRINGA 3351",
    "locID": "LOC000038905340",
    "tech": "WIRELESS",
    "upgrade": "NULL_NA",
    "gnaf_pid": "GAVIC423796425",
    "tech_change_status": "Not Planned",
    "program_type": "Fixed Wireless and Satellite Upgrade Program",
    "target_eligibility_quarter": "NA"
   }
  },
  {
   "type": "Feature",
   "geometry": {
    "type": "Point",
    "coordinates": [
     143.67484619,
     -37.79075401
    ]
   },
   "properties": {
    "name": "490 MOONLIGHT ROAD BERRINGA 3351",
    "locID": "LOC000023488235",
    "tech": "NULL",
    "upgrade": "NULL_NA",
    "gnaf_pid": "GAVIC423796426",
    "tech_change_status": "Not Planned"
   }
  },
  {
   "type": "Feature",
   "geometry": {
    "type": "Point",
    "coordinates": [
     143.67511189,
     -37.78930626
    ]
   },
   "properties": {
    "name": "510 MOONLIGHT ROAD BERRINGA 3351",
    "locID": "LOC000023883836",
    "tech": "WIRELESS",
    "upgrade": "NULL_NA",
    "gnaf_pid": "GAVIC423796427",
    "tech_change_status": "Not Planned",
    "program_type": "Fixed Wireless and Satellite Upgrade Program",
    "target_eligibility_quarter": "NA"
   }
  },
  {
   "type": "Feature",
   "geometry": {
    "type": "Point",
    "coordinates": [
     143.67623585,
     -37.78332461
    ]
   },
   "properties": {
    "name": "554 MOONLIGHT ROAD BERRINGA 3351",
    "locID": "LOC000083763235",
    "tech": "WIRELESS",
    "upgrade": "NULL_NA",
    "gnaf_pid": "GAVIC423796428",
    "tech_change_status": "Not Planned",
    "program_type": "Fixed Wireless and Satellite Upgrade Program",
    "target_eligibility_quarter": "NA"
   }
  },
  {
   "type": "Feature",
   "geometry": {
    "type": "Point",
    "coordinates": [
     143.67621589,
     -37.78264856
    ]
   },
   "properties": {
    "name": "588 MOONLIGHT ROAD BERRINGA 3351",
    "locID": "LOC000050278412",
    "tech": "WIRELESS",
    "upgrade": "NULL_NA",
    "gnaf_pid": "GAVIC423796429",
    "tech_change_status": "Not Planned",
    "program_type": "Fixed Wireless and Satellite Upgrade Program",
    "target_eligibility_quarter": "Jun 2025"
   }
  },
  {
   "type": "Feature",
   "geometry": {
    "type": "Point",
    "coordinates": [
     143.69406865,
     -37.7742765
    ]
   },
   "properties": {
    "name": "20 BERRINGA ROAD BERRINGA 3351",
    "locID": "LOC000124480054",
    "tech": "WIRELESS",
    "upgrade": "NULL_NA",
    "gnaf_pid": "GAVIC423964045",
    "tech_change_status": "Not Planned",
    "program_type": "Fixed Wireless and Satellite Upgrade Program",
    "target_eligibility_quarter": "Jun 2025"
   }
  },
  {
   "type": "Feature",
   "geometry": {
    "type": "Point",
    "coordinates": [
     143.68445061,
     -37.80145805
    ]
   },
   "properties": {
    "name": "340 BERRINGA ROAD BERRINGA 3351",
    "locID": "LOC000017734459",
    "tech": "WIRELESS",
    "upgrade": "NULL_NA",
    "gnaf_pid": "GAVIC423964047",
    "tech_change_status": "Not Planned",
    "program_type": "Fixed Wireless and Satellite Upgrade Program",
    "target_eligibility_quarter": "Jun 2025"
   }
  },
  {
   "type": "Feature",
   "geometry": {
    "type": "Point",
    "coordinates": [
     143.6938054,
     -37.77303435
    ]
   },
   "properties": {
    "name": "4 BERRINGA ROAD BERRINGA 3351",
    "locID": "LOC000030087592",
    "tech": "WIRELESS",
    "upgrade": "NULL_NA",
    "gnaf_pid": "GAVIC423964048",
    "tech_change_status": "Not Planned",
    "program_type": "Fixed Wireless and Satellite Upgrade Program",
    "target_eligibility_quarter": "Jun 2025"
   }
  },
  {
   "type": "Feature",
   "geometry": {
    "type": "Point",
    "coordinates": [
     143.68347173,
     -37.7729369
    ]
   },
   "properties": {
    "name": "726 MOONLIGHT ROAD BERRINGA 3351",
    "locID": "LOC000096662540",
    "tech": "WIRELESS",
    "upgrade": "NULL_NA",
    "gnaf_pid": "GAVIC423972823",
    "tech_change_status": "Not Planned",
    "program_type": "Fixed Wireless and Satellite Upgrade Program",
    "target_eligibility_quarter": "Jun 2025"
   }
  },
  {
   "type": "Feature",
   "geometry": {
    "type": "Point",
    "coordinates": [
     143.69015323,
     -37.7818853
    ]
   },
   "properties": {
    "name": "120 BERRINGA ROAD BERRINGA 3351",
    "locID": "LOC000036207026",
    "tech": "WIRELESS",
    "upgrade": "NULL_NA",
    "gnaf_pid": "GAVIC424021333",
    "tech_change_status": "Not Planned",
    "program_type": "Fixed Wireless and Satellite Upgrade Program",
    "target_eligibility_quarter": "NA"
   }
  },
  {
   "type": "Feature",
   "geometry": {
    "type": "Point",
    "coordinates": [
     143.68753768,
     -37.78740555
    ]
   },
   "properties": {
    "name": "105 PARKERS ROAD BERRINGA 3351",
    "locID": "LOC000057878867",
    "tech": "WIRELESS",
    "upgrade": "NULL_NA",
    "gnaf_pid": "GAVIC424033360",
    "tech_change_status": "Not Planned",
    "program_type": "Fixed Wireless and Satellite Upgrade Program",
    "target_eligibility_quarter": "Jun 2025"
   }
  },
  {
   "type": "Feature",
   "geometry": {
    "type": "Point",
    "coordinates": [
     143.69391495,
     -37.77511334
    ]
   },
   "properties": {
    "name": "34 BERRINGA ROAD BERRINGA 3351",
    "locID": "LOC000087225268",
    "tech": "WIRELESS",
    "upgrade": "NULL_NA",
    "gnaf_pid": "GAVIC424059825",
    "tech_change_status": "Not Planned",
    "program_type": "Fixed Wireless and Satellite Upgrade Program",
    "target_eligibility_quarter": "Jun 2025"
   }
  },
  {
   "type": "Feature",
   "geometry": {
    "type": "Point",
    "coordinates": [
     143.66244989,
     -37.7603304
    ]
   },
   "properties": {
    "name": "330 DERWENT JACKS ROAD BERRINGA 3351",
    "locID": "LOC000114261198",
    "tech": "WIRELESS",
    "upgrade": "NULL_NA",
    "gnaf_pid": "GAVIC424080241",
    "tech_change_status": "Not Planned",
    "program_type": "Fixed Wireless and Satellite Upgrade Program",
    "target_eligibility_quarter": "Jun 2025"
   }
  },
  {
   "type": "Feature",
   "geometry": {
    "type": "Point",
    "coordinates": [
     143.69356219,
     -37.77665323
    ]
   },
   "properties": {
    "name": "50 CALLAGHAN ROAD BERRINGA 3351",
    "locID": "LOC000071834820",
    "tech": "WIRELESS",
    "upgrade": "NULL_NA",
    "gnaf_pid": "GAVIC424235533",
    "tech_change_status": "Not Planned",
    "program_type": "Fixed Wireless and Satellite Upgrade Program",
    "target_eligibility_quarter": "Jun 2025"
   }
  },
  {
   "type": "Feature",
   "geometry": {
    "type": "Point",
    "coordinates": [
     143.67804704,
     -37.76992849
    ]
   },
   "properties": {
    "name": "590 OLD STATION ROAD BERRINGA 3351",
    "locID": "LOC000101111415",
    "tech": "SATELLITE",
    "upgrade": "WIRELESS",
    "gnaf_pid": "GAVIC424243900",
    "tech_change_status": "Eligible to Order"
   }
  },
  {
   "type": "Feature",
   "geometry": {
    "type": "Point",
    "coordinates": [
     143.69891147,
     -37.77479981
    ]
   },
   "properties": {
    "name": "690 SNOWGUM ROAD BERRINGA 3351",
    "locID": "LOC000082947088",
    "tech": "WIRELESS",
    "upgrade": "NULL_NA",
    "gnaf_pid": "GAVIC424246592",
    "tech_change_status": "Not Planned",
    "program_type": "Fixed Wireless and Satellite Upgrade Program",
    "target_eligibility_quarter": "NA"
   }
  },
  {
   "type": "Feature",
   "geometry": {
    "type": "Point",
    "coordinates": [
     143.7006605,
     -37.76020825
    ]
   },
   "properties": {
    "name": "762 STAFFORDSHIRE REEF ROAD BERRINGA 3351",
    "locID": "LOC000030991816",
    "tech": "WIRELESS",
    "upgrade": "NULL_NA",
    "gnaf_pid": "GAVIC424246947",
    "tech_change_status": "Not Planned",
    "program_type": "Fixed Wireless and Satellite Upgrade Program",
    "target_eligibility_quarter": "NA"
   }
  },
  {
   "type": "Feature",
   "geometry": {
    "type": "Point",
    "coordinates": [
     143.69893498,
     -37.76238335
    ]
   },
   "properties": {
    "name": "782 STAFFORDSHIRE REEF ROAD BERRINGA 3351",
    "locID": "LOC000028078945",
    "tech": "WIRELESS",
    "upgrade": "NULL_NA",
    "gnaf_pid": "GAVIC424246948",
    "tech_change_status": "Not Planned",
    "program_type": "Fixed Wireless and Satellite Upgrade Program",
    "target_eligibility_quarter": "NA"
   }
  },
  {
   "type": "Feature",
   "geometry": {
    "type": "Point",
    "coordinates": [
     143.69860535,
     -37.76299463
    ]
   },
   "properties": {
    "name": "784 STAFFORDSHIRE REEF ROAD BERRINGA 3351",
    "locID": "LOC000093121685",
    "tech": "WIRELESS",
    "upgrade": "NULL_NA",
    "gnaf_pid": "GAVIC424246949",
    "tech_change_status": "Not Planned",
    "program_type": "Fixed Wireless and Satellite Upgrade Program",
    "target_eligibility_quarter": "NA"
   }
  },
  {
   "type": "Feature",
   "geometry": {
    "type": "Point",
    "coordinates": [
     143.69856889,
     -37.7660501
    ]
   },
   "properties": {
    "name": "832 STAFFORDSHIRE REEF ROAD BERRINGA 3351",
    "locID": "LOC000057061596",
    "tech": "WIRELESS",
    "upgrade": "NULL_NA",
    "gnaf_pid": "GAVIC424246950",
    "tech_change_status": "Not Planned",
    "program_type": "Fixed Wireless and Satellite Upgrade Program",
    "target_eligibility_quarter": "NA"
   }
  },
  {
   "type": "Feature",
   "geometry": {
    "type": "Point",
    "coordinates": [
     143.69906249,
     -37.7671381
    ]
   },
   "properties": {
    "name": "846 STAFFORDSHIRE REEF ROAD BERRINGA 3351",
    "locID": "LOC000056316303",
    "tech": "WIRELESS",
    "upgrade": "NULL_NA",
    "gnaf_pid": "GAVIC424246951",
    "tech_change_status": "Not Planned",
    "program_type": "Fixed Wireless and Satellite Upgrade Program",
    "target_eligibility_quarter": "NA"
   }
  },
  {
   "type": "Feature",
   "geometry": {
    "type": "Point",
    "coordinates": [
     143.69544525,
     -37.77223994
    ]
   },
   "properties": {
    "name": "655 DERWENT JACKS ROAD BERRINGA 3351",
    "locID": "LOC000124439119",
    "tech": "WIRELESS",
    "upgrade": "NULL_NA",
    "gnaf_pid": "GAVIC424489504",
    "tech_change_status": "Not Planned",
    "program_type": "Fixed Wireless and Satellite Upgrade Program",
    "target_eligibility_quarter": "Jun 2025"
   }
  },
  {
   "type": "Feature",
   "geometry": {
    "type": "Point",
    "coordinates": [
     143.6873238,
     -37.77122823
    ]
   },
   "properties": {
    "name": "585 DERWENT JACKS ROAD BERRINGA 3351",
    "locID": "LOC000074678858",
    "tech": "WIRELESS",
    "upgrade": "NULL_NA",
    "gnaf_pid": "GAVIC424549239",
    "tech_change_status": "Not Planned",
    "program_type": "Fixed Wireless and Satellite Upgrade Program",
    "target_eligibility_quarter": "Jun 2025"
   }
  },
  {
   "type": "Feature",
   "geometry": {
    "type": "Point",
    "coordinates": [
     143.68527707,
     -37.77127537
    ]
   },
   "properties": {
    "name": "570 DERWENT JACKS ROAD BERRINGA 3351",
    "locID": "LOC000114710208",
    "tech": "WIRELESS",
    "upgrade": "NULL_NA",
    "gnaf_pid": "GAVIC424670124",
    "tech_change_status": "Not Planned",
    "program_type": "Fixed Wireless and Satellite Upgrade Program",
    "target_eligibility_quarter": "NA"
   }
  },
  {
   "type": "Feature",
   "geometry": {
    "type": "Point",
    "coordinates": [
     143.6951909,
     -37.767425
    ]
   },
   "properties": {
    "name": "95 CELLANTE ROAD BERRINGA 3351",
    "locID": "LOC000114585230",
    "tech": "WIRELESS",
    "upgrade": "NULL_NA",
    "gnaf_pid": "GAVIC424713723",
    "tech_change_status": "Not Planned",
    "program_type": "Fixed Wireless and Satellite Upgrade Program",
    "target_eligibility_quarter": "NA"
   }
  },
  {
   "type": "Feature",
   "geometry": {
    "type": "Point",
    "coordinates": [
     143.6836848,
     -37.77568935
    ]
   },
   "properties": {
    "name": "698 MOONLIGHT ROAD BERRINGA 3351",
    "locID": "LOC000124439161",
    "tech": "WIRELESS",
    "upgrade": "NULL_NA",
    "gnaf_pid": "GAVIC424786165",
    "tech_change_status": "Not Planned",
    "program_type": "Fixed Wireless and Satellite Upgrade Program",
    "target_eligibility_quarter": "Jun 2025"
   }
  },
  {
   "type": "Feature",
   "geometry": {
    "type": "Point",
    "coordinates": [
     143.68396545,
     -37.77560185
    ]
   },
   "properties": {
    "name": "700 MOONLIGHT ROAD BERRINGA 3351",
    "locID": "LOC000124439190",
    "tech": "WIRELESS",
    "upgrade": "NULL_NA",
    "gnaf_pid": "GAVIC424786166",
    "tech_change_status": "Not Planned"
   }
  },
  {
   "type": "Feature",
   "geometry": {
    "type": "Point",
    "coordinates": [
     143.69968588,
     -37.76856579
    ]
   },
   "properties": {
    "name": "863 STAFFORDSHIRE REEF ROAD BERRINGA 3351",
    "locID": "LOC000124443672",
    "tech": "WIRELESS",
    "upgrade": "NULL_NA",
    "gnaf_pid": "GAVIC424890074",
    "tech_change_status": "Not Planned",
    "program_type": "Fixed Wireless and Satellite Upgrade Program",
    "target_eligibility_quarter": "NA"
   }
  },
  {
   "type": "Feature",
   "geometry": {
    "type": "Point",
    "coordinates": [
     143.69310357,
     -37.75588493
    ]
   },
   "properties": {
    "name": "59 AUTUMN DRIVE BERRINGA 3351",
    "locID": "LOC000124434892",
    "tech": "NULL",
    "upgrade": "NULL_NA",
    "gnaf_pid": "GAVIC424906406",
    "tech_change_status": "Not Planned"
   }
  },
  {
   "type": "Feature",
   "geometry": {
    "type": "Point",
    "coordinates": [
     143.62737293,
     -37.76337991
    ]
   },
   "properties": {
    "name": "33 MCPHERSONS LANE BERRINGA 3351",
    "locID": "LOC100072037927",
    "tech": "WIRELESS",
    "upgrade": "NULL_NA",
    "gnaf_pid": "GAVIC425087308",
    "tech_change_status": "Not Planned",
    "program_type": "Fixed Wireless and Satellite Upgrade Program",
    "target_eligibility_quarter": "Jun 2025"
   }
  },
  {
   "type": "Feature",
   "geometry": {
    "type": "Point",
    "coordinates": [
     143.67703888,
     -37.77995855
    ]
   },
   "properties": {
    "name": "622 MOONLIGHT ROAD BERRINGA 3351",
    "locID": "LOC000150789129",
    "tech": "SATELLITE",
    "upgrade": "NULL_NA",
    "gnaf_pid": "GAVIC425281767",
    "tech_change_status": "Not Planned"
   }
  },
  {
   "type": "Feature",
   "geometry": {
    "type": "Point",
    "coordinates": [
     143.69117281,
     -37.77243677
    ]
   },
   "properties": {
    "name": "636 DERWENT JACKS ROAD BERRINGA 3351",
    "locID": "LOC000041350414",
    "tech": "WIRELESS",
    "upgrade": "NULL_NA",
    "gnaf_pid": "GAVIC425366537",
    "tech_change_status": "Not Planned",
    "program_type": "Fixed Wireless and Satellite Upgrade Program",
    "target_eligibility_quarter": "Jun 2025"
   }
  },
  {
   "type": "Feature",
   "geometry": {
    "type": "Point",
    "coordinates": [
     143.6751014,
     -37.75046523
    ]
   },
   "properties": {
    "name": "346 DONALD MCLEANS ROAD BERRINGA 3351",
    "locID": "LOC000152799516",
    "tech": "SATELLITE",
    "upgrade": "NULL_NA",
    "gnaf_pid": "GAVIC425515663",
    "tech_change_status": "Not Planned"
   }
  },
  {
   "type": "Feature",
   "geometry": {
    "type": "Point",
    "coordinates": [
     143.68506077,
     -37.79112041
    ]
   },
   "properties": {
    "name": "18 WILLIAM COURT BERRINGA 3351",
    "locID": "LOC000140105131",
    "tech": "WIRELESS",
    "upgrade": "NULL_NA",
    "gnaf_pid": "GAVIC425572568",
    "tech_change_status": "Not Planned",
    "program_type": "Fixed Wireless and Satellite Upgrade Program",
    "target_eligibility_quarter": "NA"
   }
  },
  {
   "type": "Feature",
   "geometry": {
    "type": "Point",
    "coordinates": [
     143.68663431,
     -37.79161615
    ]
   },
   "properties": {
    "name": "3 WILLIAM COURT BERRINGA 3351",
    "locID": "LOC100072038035",
    "tech": "WIRELESS",
    "upgrade": "NULL_NA",
    "gnaf_pid": "GAVIC425744855",
    "tech_change_status": "Not Planned",
    "program_type": "Fixed Wireless and Satellite Upgrade Program",
    "target_eligibility_quarter": "NA"
   }
  },
  {
   "type": "Feature",
   "geometry": {
    "type": "Point",
    "coordinates": [
     143.69314739,
     -37.79002285
    ]
   },
   "properties": {
    "name": "82 SALVO BEND ROAD BERRINGA 3351",
    "locID": "LOC000174534393",
    "tech": "WIRELESS",
    "upgrade": "NULL_NA",
    "gnaf_pid": "GAVIC719509520",
    "tech_change_status": "Not Planned",
    "program_type": "Fixed Wireless and Satellite Upgrade Program",
    "target_eligibility_quarter": "Jun 2025"
   }
  },
  {
   "type": "Feature",
   "geometry": {
    "type": "Point",
    "coordinates": [
     143.65826496,
     -37.75822899
    ]
   },
   "properties": {
    "name": "270 DERWENT JACKS ROAD BERRINGA 3351",
    "locID": "LOC000180251101",
    "tech": "WIRELESS",
    "upgrade": "NULL_NA",
    "gnaf_pid": "GAVIC719992540",
    "tech_change_status": "Not Planned",
    "program_type": "Fixed Wireless and Satellite Upgrade Program",
    "target_eligibility_quarter": "Jun 2025"
   }
  },
  {
   "type": "Feature",
   "geometry": {
    "type": "Point",
    "coordinates": [
     143.68764357,
     -37.77184157
    ]
   },
   "properties": {
    "name": "586 DERWENT JACKS ROAD BERRINGA 3351",
    "locID": "LOC100077375076",
    "tech": "WIRELESS",
    "upgrade": "NULL_NA",
    "gnaf_pid": "GAVIC720221445",
    "tech_change_status": "Not Planned",
    "program_type": "Fixed Wireless and Satellite Upgrade Program",
    "target_eligibility_quarter": "Jun 2025"
   }
  },
  {
   "type": "Feature",
   "geometry": {
    "type": "Point",
    "coordinates": [
     143.67978456,
     -37.76790112
    ]
   },
   "properties": {
    "name": "509 DERWENT JACKS ROAD BERRINGA 3351",
    "locID": "LOC100083104046",
    "tech": "WIRELESS",
    "upgrade": "NULL_NA",
    "gnaf_pid": "GAVIC720661159",
    "tech_change_status": "Not Planned",
    "program_type": "Fixed Wireless and Satellite Upgrade Program",
    "target_eligibility_quarter": "Jun 2025"
   }
  }
 ]
}