{
 "type": "FeatureCollection",
 "generated": "2024-10-10T08:41:13.280161",
 "suburb": "BET BET",
 "features": [
  {
   "type": "Feature",
   "geometry": {
    "type": "Point",
    "coordinates": [
     143.7433763,
     -36.94125736
    ]
   },
   "properties": {
    "name": "981 BET BET CREEK ROAD BET BET 3472",
    "locID": "LOC000103366663",
    "tech": "WIRELESS",
    "upgrade": "NULL_NA",
    "gnaf_pid": "GAVIC410903637",
    "tech_change_status": "Not Planned",
    "program_type": "Fixed Wireless and Satellite Upgrade Program",
    "target_eligibility_quarter": "NA"
   }
  },
  {
   "type": "Feature",
   "geometry": {
    "type": "Point",
    "coordinates": [
     143.76237493,
     -36.9392825
    ]
   },
   "properties": {
    "name": "972 MARYBOROUGH-DUNOLLY ROAD BET BET 3472",
    "locID": "LOC000070530531",
    "tech": "WIRELESS",
    "upgrade": "NULL_NA",
    "gnaf_pid": "GAVIC410904986",
    "tech_change_status": "Not Planned",
    "program_type": "Fixed Wireless and Satellite Upgrade Program",
    "target_eligibility_quarter": "NA"
   }
  },
  {
   "type": "Feature",
   "geometry": {
    "type": "Point",
    "coordinates": [
     143.75248448,
     -36.925521
    ]
   },
   "properties": {
    "name": "1176 BET BET CREEK ROAD BET BET 3472",
    "locID": "LOC000010238572",
    "tech": "WIRELESS",
    "upgrade": "NULL_NA",
    "gnaf_pid": "GAVIC419664175",
    "tech_change_status": "Not Planned",
    "program_type": "Fixed Wireless and Satellite Upgrade Program",
    "target_eligibility_quarter": "NA"
   }
  },
  {
   "type": "Feature",
   "geometry": {
    "type": "Point",
    "coordinates": [
     143.75952833,
     -36.9309806
    ]
   },
   "properties": {
    "name": "1068 MARYBOROUGH-DUNOLLY ROAD BET BET 3472",
    "locID": "LOC000036735950",
    "tech": "WIRELESS",
    "upgrade": "NULL_NA",
    "gnaf_pid": "GAVIC419667929",
    "tech_change_status": "Not Planned",
    "program_type": "Fixed Wireless and Satellite Upgrade Program",
    "target_eligibility_quarter": "NA"
   }
  },
  {
   "type": "Feature",
   "geometry": {
    "type": "Point",
    "coordinates": [
     143.75652487,
     -36.9223599
    ]
   },
   "properties": {
    "name": "1168 MARYBOROUGH-DUNOLLY ROAD BET BET 3472",
    "locID": "LOC000030660849",
    "tech": "WIRELESS",
    "upgrade": "NULL_NA",
    "gnaf_pid": "GAVIC419671271",
    "tech_change_status": "Not Planned",
    "program_type": "Fixed Wireless and Satellite Upgrade Program",
    "target_eligibility_quarter": "NA"
   }
  },
  {
   "type": "Feature",
   "geometry": {
    "type": "Point",
    "coordinates": [
     143.757212,
     -36.90657674
    ]
   },
   "properties": {
    "name": "1344 MARYBOROUGH-DUNOLLY ROAD BET BET 3472",
    "locID": "LOC000074348737",
    "tech": "WIRELESS",
    "upgrade": "NULL_NA",
    "gnaf_pid": "GAVIC419694335",
    "tech_change_status": "Not Planned",
    "program_type": "Fixed Wireless and Satellite Upgrade Program",
    "target_eligibility_quarter": "NA"
   }
  },
  {
   "type": "Feature",
   "geometry": {
    "type": "Point",
    "coordinates": [
     143.77042875,
     -36.91581233
    ]
   },
   "properties": {
    "name": "110 GEORGE STREET BET BET 3472",
    "locID": "LOC000102762584",
    "tech": "WIRELESS",
    "upgrade": "NULL_NA",
    "gnaf_pid": "GAVIC419960241",
    "tech_change_status": "Not Planned",
    "program_type": "Fixed Wireless and Satellite Upgrade Program",
    "target_eligibility_quarter": "NA"
   }
  },
  {
   "type": "Feature",
   "geometry": {
    "type": "Point",
    "coordinates": [
     143.76681726,
     -36.91463495
    ]
   },
   "properties": {
    "name": "13 TIMBERTOP ROAD BET BET 3472",
    "locID": "LOC000029298926",
    "tech": "WIRELESS",
    "upgrade": "NULL_NA",
    "gnaf_pid": "GAVIC419960242",
    "tech_change_status": "Not Planned",
    "program_type": "Fixed Wireless and Satellite Upgrade Program",
    "target_eligibility_quarter": "NA"
   }
  },
  {
   "type": "Feature",
   "geometry": {
    "type": "Point",
    "coordinates": [
     143.77276256,
     -36.91468069
    ]
   },
   "properties": {
    "name": "135 GEORGE STREET BET BET 3472",
    "locID": "LOC000103434082",
    "tech": "WIRELESS",
    "upgrade": "NULL_NA",
    "gnaf_pid": "GAVIC419960243",
    "tech_change_status": "Not Planned",
    "program_type": "Fixed Wireless and Satellite Upgrade Program",
    "target_eligibility_quarter": "NA"
   }
  },
  {
   "type": "Feature",
   "geometry": {
    "type": "Point",
    "coordinates": [
     143.7624614,
     -36.91242041
    ]
   },
   "properties": {
    "name": "41 LEES ROAD BET BET 3472",
    "locID": "LOC000106618432",
    "tech": "WIRELESS",
    "upgrade": "NULL_NA",
    "gnaf_pid": "GAVIC419961181",
    "tech_change_status": "Not Planned",
    "program_type": "Fixed Wireless and Satellite Upgrade Program",
    "target_eligibility_quarter": "NA"
   }
  },
  {
   "type": "Feature",
   "geometry": {
    "type": "Point",
    "coordinates": [
     143.74738706,
     -36.93454259
    ]
   },
   "properties": {
    "name": "1065 BET BET CREEK ROAD BET BET 3472",
    "locID": "LOC000023829893",
    "tech": "WIRELESS",
    "upgrade": "NULL_NA",
    "gnaf_pid": "GAVIC419979676",
    "tech_change_status": "Not Planned",
    "program_type": "Fixed Wireless and Satellite Upgrade Program",
    "target_eligibility_quarter": "NA"
   }
  },
  {
   "type": "Feature",
   "geometry": {
    "type": "Point",
    "coordinates": [
     143.76043193,
     -36.90449129
    ]
   },
   "properties": {
    "name": "43 BENNETTS LANE BET BET 3472",
    "locID": "LOC000094895151",
    "tech": "WIRELESS",
    "upgrade": "NULL_NA",
    "gnaf_pid": "GAVIC419983539",
    "tech_change_status": "Not Planned",
    "program_type": "Fixed Wireless and Satellite Upgrade Program",
    "target_eligibility_quarter": "NA"
   }
  },
  {
   "type": "Feature",
   "geometry": {
    "type": "Point",
    "coordinates": [
     143.75919876,
     -36.91004252
    ]
   },
   "properties": {
    "name": "1304 MARYBOROUGH-DUNOLLY ROAD BET BET 3472",
    "locID": "LOC000089674867",
    "tech": "WIRELESS",
    "upgrade": "NULL_NA",
    "gnaf_pid": "GAVIC420020775",
    "tech_change_status": "Not Planned",
    "program_type": "Fixed Wireless and Satellite Upgrade Program",
    "target_eligibility_quarter": "NA"
   }
  },
  {
   "type": "Feature",
   "geometry": {
    "type": "Point",
    "coordinates": [
     143.74363288,
     -36.94071694
    ]
   },
   "properties": {
    "name": "987 BET BET CREEK ROAD BET BET 3472",
    "locID": "LOC000102384568",
    "tech": "WIRELESS",
    "upgrade": "NULL_NA",
    "gnaf_pid": "GAVIC420039708",
    "tech_change_status": "Not Planned",
    "program_type": "Fixed Wireless and Satellite Upgrade Program",
    "target_eligibility_quarter": "NA"
   }
  },
  {
   "type": "Feature",
   "geometry": {
    "type": "Point",
    "coordinates": [
     143.75765784,
     -36.9071161
    ]
   },
   "properties": {
    "name": "1342 MARYBOROUGH-DUNOLLY ROAD BET BET 3472",
    "locID": "LOC000094875721",
    "tech": "WIRELESS",
    "upgrade": "NULL_NA",
    "gnaf_pid": "GAVIC420245551",
    "tech_change_status": "Not Planned",
    "program_type": "Fixed Wireless and Satellite Upgrade Program",
    "target_eligibility_quarter": "NA"
   }
  },
  {
   "type": "Feature",
   "geometry": {
    "type": "Point",
    "coordinates": [
     143.75499136,
     -36.92436791
    ]
   },
   "properties": {
    "name": "9 BET BET-MT HOOGHLY ROAD BET BET 3472",
    "locID": "LOC000047373337",
    "tech": "WIRELESS",
    "upgrade": "NULL_NA",
    "gnaf_pid": "GAVIC420271984",
    "tech_change_status": "Not Planned",
    "program_type": "Fixed Wireless and Satellite Upgrade Program",
    "target_eligibility_quarter": "NA"
   }
  },
  {
   "type": "Feature",
   "geometry": {
    "type": "Point",
    "coordinates": [
     143.76329734,
     -36.90821955
    ]
   },
   "properties": {
    "name": "95 LEES ROAD BET BET 3472",
    "locID": "LOC000106992169",
    "tech": "WIRELESS",
    "upgrade": "NULL_NA",
    "gnaf_pid": "GAVIC420288223",
    "tech_change_status": "Not Planned",
    "program_type": "Fixed Wireless and Satellite Upgrade Program",
    "target_eligibility_quarter": "NA"
   }
  },
  {
   "type": "Feature",
   "geometry": {
    "type": "Point",
    "coordinates": [
     143.75636288,
     -36.90543395
    ]
   },
   "properties": {
    "name": "1360 MARYBOROUGH-DUNOLLY ROAD BET BET 3472",
    "locID": "LOC000059624621",
    "tech": "WIRELESS",
    "upgrade": "NULL_NA",
    "gnaf_pid": "GAVIC420288224",
    "tech_change_status": "Not Planned",
    "program_type": "Fixed Wireless and Satellite Upgrade Program",
    "target_eligibility_quarter": "NA"
   }
  },
  {
   "type": "Feature",
   "geometry": {
    "type": "Point",
    "coordinates": [
     143.75771787,
     -36.90956134
    ]
   },
   "properties": {
    "name": "1315 MARYBOROUGH-DUNOLLY ROAD BET BET 3472",
    "locID": "LOC000029769957",
    "tech": "WIRELESS",
    "upgrade": "NULL_NA",
    "gnaf_pid": "GAVIC420551470",
    "tech_change_status": "Not Planned",
    "program_type": "Fixed Wireless and Satellite Upgrade Program",
    "target_eligibility_quarter": "NA"
   }
  },
  {
   "type": "Feature",
   "geometry": {
    "type": "Point",
    "coordinates": [
     143.77192525,
     -36.91486058
    ]
   },
   "properties": {
    "name": "131 GEORGE STREET BET BET 3472",
    "locID": "LOC000070612169",
    "tech": "WIRELESS",
    "upgrade": "NULL_NA",
    "gnaf_pid": "GAVIC420563282",
    "tech_change_status": "Not Planned",
    "program_type": "Fixed Wireless and Satellite Upgrade Program",
    "target_eligibility_quarter": "NA"
   }
  },
  {
   "type": "Feature",
   "geometry": {
    "type": "Point",
    "coordinates": [
     143.75756078,
     -36.92684498
    ]
   },
   "properties": {
    "name": "1116 MARYBOROUGH-DUNOLLY ROAD BET BET 3472",
    "locID": "LOC000091843380",
    "tech": "WIRELESS",
    "upgrade": "NULL_NA",
    "gnaf_pid": "GAVIC420580244",
    "tech_change_status": "Not Planned",
    "program_type": "Fixed Wireless and Satellite Upgrade Program",
    "target_eligibility_quarter": "NA"
   }
  },
  {
   "type": "Feature",
   "geometry": {
    "type": "Point",
    "coordinates": [
     143.74626431,
     -36.9232705
    ]
   },
   "properties": {
    "name": "89 BET BET-MT HOOGHLY ROAD BET BET 3472",
    "locID": "LOC000066150718",
    "tech": "WIRELESS",
    "upgrade": "NULL_NA",
    "gnaf_pid": "GAVIC420588743",
    "tech_change_status": "Not Planned",
    "program_type": "Fixed Wireless and Satellite Upgrade Program",
    "target_eligibility_quarter": "NA"
   }
  },
  {
   "type": "Feature",
   "geometry": {
    "type": "Point",
    "coordinates": [
     143.76209347,
     -36.9051521
    ]
   },
   "properties": {
    "name": "21 BENNETTS LANE BET BET 3472",
    "locID": "LOC000008063227",
    "tech": "WIRELESS",
    "upgrade": "NULL_NA",
    "gnaf_pid": "GAVIC420611319",
    "tech_change_status": "Not Planned",
    "program_type": "Fixed Wireless and Satellite Upgrade Program",
    "target_eligibility_quarter": "NA"
   }
  },
  {
   "type": "Feature",
   "geometry": {
    "type": "Point",
    "coordinates": [
     143.75709915,
     -36.9282985
    ]
   },
   "properties": {
    "name": "1085 MARYBOROUGH-DUNOLLY ROAD BET BET 3472",
    "locID": "LOC000103103798",
    "tech": "WIRELESS",
    "upgrade": "NULL_NA",
    "gnaf_pid": "GAVIC420865609",
    "tech_change_status": "Not Planned",
    "program_type": "Fixed Wireless and Satellite Upgrade Program",
    "target_eligibility_quarter": "NA"
   }
  },
  {
   "type": "Feature",
   "geometry": {
    "type": "Point",
    "coordinates": [
     143.757909,
     -36.9315229
    ]
   },
   "properties": {
    "name": "1065 MARYBOROUGH-DUNOLLY ROAD BET BET 3472",
    "locID": "LOC000037947792",
    "tech": "WIRELESS",
    "upgrade": "NULL_NA",
    "gnaf_pid": "GAVIC420865610",
    "tech_change_status": "Not Planned",
    "program_type": "Fixed Wireless and Satellite Upgrade Program",
    "target_eligibility_quarter": "NA"
   }
  },
  {
   "type": "Feature",
   "geometry": {
    "type": "Point",
    "coordinates": [
     143.7575605,
     -36.91718443
    ]
   },
   "properties": {
    "name": "1228 MARYBOROUGH-DUNOLLY ROAD BET BET 3472",
    "locID": "LOC000044781415",
    "tech": "WIRELESS",
    "upgrade": "NULL_NA",
    "gnaf_pid": "GAVIC420866829",
    "tech_change_status": "Not Planned",
    "program_type": "Fixed Wireless and Satellite Upgrade Program",
    "target_eligibility_quarter": "NA"
   }
  },
  {
   "type": "Feature",
   "geometry": {
    "type": "Point",
    "coordinates": [
     143.75752115,
     -36.91733855
    ]
   },
   "properties": {
    "name": "1226 MARYBOROUGH-DUNOLLY ROAD BET BET 3472",
    "locID": "LOC000073448250",
    "tech": "WIRELESS",
    "upgrade": "NULL_NA",
    "gnaf_pid": "GAVIC420866830",
    "tech_change_status": "Not Planned",
    "program_type": "Fixed Wireless and Satellite Upgrade Program",
    "target_eligibility_quarter": "NA"
   }
  },
  {
   "type": "Feature",
   "geometry": {
    "type": "Point",
    "coordinates": [
     143.76181851,
     -36.93992405
    ]
   },
   "properties": {
    "name": "965 MARYBOROUGH-DUNOLLY ROAD BET BET 3472",
    "locID": "LOC000034340530",
    "tech": "WIRELESS",
    "upgrade": "NULL_NA",
    "gnaf_pid": "GAVIC420868228",
    "tech_change_status": "Not Planned",
    "program_type": "Fixed Wireless and Satellite Upgrade Program",
    "target_eligibility_quarter": "NA"
   }
  },
  {
   "type": "Feature",
   "geometry": {
    "type": "Point",
    "coordinates": [
     143.76228494,
     -36.91312744
    ]
   },
   "properties": {
    "name": "39 LEES ROAD BET BET 3472",
    "locID": "LOC000039501664",
    "tech": "WIRELESS",
    "upgrade": "NULL_NA",
    "gnaf_pid": "GAVIC420872908",
    "tech_change_status": "Not Planned",
    "program_type": "Fixed Wireless and Satellite Upgrade Program",
    "target_eligibility_quarter": "NA"
   }
  },
  {
   "type": "Feature",
   "geometry": {
    "type": "Point",
    "coordinates": [
     143.76422148,
     -36.94281163
    ]
   },
   "properties": {
    "name": "932 MARYBOROUGH-DUNOLLY ROAD BET BET 3472",
    "locID": "LOC000077201064",
    "tech": "WIRELESS",
    "upgrade": "NULL_NA",
    "gnaf_pid": "GAVIC420878530",
    "tech_change_status": "Not Planned",
    "program_type": "Fixed Wireless and Satellite Upgrade Program",
    "target_eligibility_quarter": "NA"
   }
  },
  {
   "type": "Feature",
   "geometry": {
    "type": "Point",
    "coordinates": [
     143.75403546,
     -36.92383355
    ]
   },
   "properties": {
    "name": "20 BET BET-MT HOOGHLY ROAD BET BET 3472",
    "locID": "LOC000039114941",
    "tech": "WIRELESS",
    "upgrade": "NULL_NA",
    "gnaf_pid": "GAVIC420878537",
    "tech_change_status": "Not Planned",
    "program_type": "Fixed Wireless and Satellite Upgrade Program",
    "target_eligibility_quarter": "NA"
   }
  },
  {
   "type": "Feature",
   "geometry": {
    "type": "Point",
    "coordinates": [
     143.75184833,
     -36.92590094
    ]
   },
   "properties": {
    "name": "1168 BET BET CREEK ROAD BET BET 3472",
    "locID": "LOC000039819953",
    "tech": "WIRELESS",
    "upgrade": "NULL_NA",
    "gnaf_pid": "GAVIC420885354",
    "tech_change_status": "Not Planned",
    "program_type": "Fixed Wireless and Satellite Upgrade Program",
    "target_eligibility_quarter": "NA"
   }
  },
  {
   "type": "Feature",
   "geometry": {
    "type": "Point",
    "coordinates": [
     143.76311371,
     -36.90935028
    ]
   },
   "properties": {
    "name": "79 LEES ROAD BET BET 3472",
    "locID": "LOC000082630039",
    "tech": "WIRELESS",
    "upgrade": "NULL_NA",
    "gnaf_pid": "GAVIC420900218",
    "tech_change_status": "Not Planned",
    "program_type": "Fixed Wireless and Satellite Upgrade Program",
    "target_eligibility_quarter": "NA"
   }
  },
  {
   "type": "Feature",
   "geometry": {
    "type": "Point",
    "coordinates": [
     143.76449705,
     -36.9081916
    ]
   },
   "properties": {
    "name": "86 LEES ROAD BET BET 3472",
    "locID": "LOC000005315298",
    "tech": "WIRELESS",
    "upgrade": "NULL_NA",
    "gnaf_pid": "GAVIC421166189",
    "tech_change_status": "Not Planned",
    "program_type": "Fixed Wireless and Satellite Upgrade Program",
    "target_eligibility_quarter": "NA"
   }
  },
  {
   "type": "Feature",
   "geometry": {
    "type": "Point",
    "coordinates": [
     143.75171698,
     -36.92680149
    ]
   },
   "properties": {
    "name": "1160 BET BET CREEK ROAD BET BET 3472",
    "locID": "LOC000072661250",
    "tech": "WIRELESS",
    "upgrade": "NULL_NA",
    "gnaf_pid": "GAVIC421175556",
    "tech_change_status": "Not Planned",
    "program_type": "Fixed Wireless and Satellite Upgrade Program",
    "target_eligibility_quarter": "NA"
   }
  },
  {
   "type": "Feature",
   "geometry": {
    "type": "Point",
    "coordinates": [
     143.7564632,
     -36.92664037
    ]
   },
   "properties": {
    "name": "1115 MARYBOROUGH-DUNOLLY ROAD BET BET 3472",
    "locID": "LOC000060631018",
    "tech": "WIRELESS",
    "upgrade": "NULL_NA",
    "gnaf_pid": "GAVIC421181516",
    "tech_change_status": "Not Planned",
    "program_type": "Fixed Wireless and Satellite Upgrade Program",
    "target_eligibility_quarter": "NA"
   }
  },
  {
   "type": "Feature",
   "geometry": {
    "type": "Point",
    "coordinates": [
     143.75834126,
     -36.90801941
    ]
   },
   "properties": {
    "name": "1328 MARYBOROUGH-DUNOLLY ROAD BET BET 3472",
    "locID": "LOC000017684776",
    "tech": "WIRELESS",
    "upgrade": "NULL_NA",
    "gnaf_pid": "GAVIC421210267",
    "tech_change_status": "Not Planned",
    "program_type": "Fixed Wireless and Satellite Upgrade Program",
    "target_eligibility_quarter": "NA"
   }
  },
  {
   "type": "Feature",
   "geometry": {
    "type": "Point",
    "coordinates": [
     143.76366269,
     -36.9127439
    ]
   },
   "properties": {
    "name": "40 LEES ROAD BET BET 3472",
    "locID": "LOC000102884354",
    "tech": "WIRELESS",
    "upgrade": "NULL_NA",
    "gnaf_pid": "GAVIC421453881",
    "tech_change_status": "Not Planned",
    "program_type": "Fixed Wireless and Satellite Upgrade Program",
    "target_eligibility_quarter": "NA"
   }
  },
  {
   "type": "Feature",
   "geometry": {
    "type": "Point",
    "coordinates": [
     143.76583909,
     -36.90123036
    ]
   },
   "properties": {
    "name": "166 LEES ROAD BET BET 3472",
    "locID": "LOC000045106242",
    "tech": "WIRELESS",
    "upgrade": "NULL_NA",
    "gnaf_pid": "GAVIC421454610",
    "tech_change_status": "Not Planned",
    "program_type": "Fixed Wireless and Satellite Upgrade Program",
    "target_eligibility_quarter": "NA"
   }
  },
  {
   "type": "Feature",
   "geometry": {
    "type": "Point",
    "coordinates": [
     143.76349671,
     -36.9072146
    ]
   },
   "properties": {
    "name": "99 LEES ROAD BET BET 3472",
    "locID": "LOC000085113611",
    "tech": "WIRELESS",
    "upgrade": "NULL_NA",
    "gnaf_pid": "GAVIC421489106",
    "tech_change_status": "Not Planned",
    "program_type": "Fixed Wireless and Satellite Upgrade Program",
    "target_eligibility_quarter": "NA"
   }
  },
  {
   "type": "Feature",
   "geometry": {
    "type": "Point",
    "coordinates": [
     143.75612153,
     -36.92580163
    ]
   },
   "properties": {
    "name": "1129 MARYBOROUGH-DUNOLLY ROAD BET BET 3472",
    "locID": "LOC000033655574",
    "tech": "WIRELESS",
    "upgrade": "NULL_NA",
    "gnaf_pid": "GAVIC421506921",
    "tech_change_status": "Not Planned",
    "program_type": "Fixed Wireless and Satellite Upgrade Program",
    "target_eligibility_quarter": "NA"
   }
  },
  {
   "type": "Feature",
   "geometry": {
    "type": "Point",
    "coordinates": [
     143.77088689,
     -36.94209741
    ]
   },
   "properties": {
    "name": "69 RUSSELLS ROAD BET BET 3472",
    "locID": "LOC000003556558",
    "tech": "WIRELESS",
    "upgrade": "NULL_NA",
    "gnaf_pid": "GAVIC421541198",
    "tech_change_status": "Not Planned",
    "program_type": "Fixed Wireless and Satellite Upgrade Program",
    "target_eligibility_quarter": "NA"
   }
  },
  {
   "type": "Feature",
   "geometry": {
    "type": "Point",
    "coordinates": [
     143.761259,
     -36.91653393
    ]
   },
   "properties": {
    "name": "31 GEORGE STREET BET BET 3472",
    "locID": "LOC000044266579",
    "tech": "WIRELESS",
    "upgrade": "NULL_NA",
    "gnaf_pid": "GAVIC421561915",
    "tech_change_status": "Not Planned",
    "program_type": "Fixed Wireless and Satellite Upgrade Program",
    "target_eligibility_quarter": "NA"
   }
  },
  {
   "type": "Feature",
   "geometry": {
    "type": "Point",
    "coordinates": [
     143.76297093,
     -36.91689639
    ]
   },
   "properties": {
    "name": "44 GEORGE STREET BET BET 3472",
    "locID": "LOC000004305101",
    "tech": "WIRELESS",
    "upgrade": "NULL_NA",
    "gnaf_pid": "GAVIC421741273",
    "tech_change_status": "Not Planned",
    "program_type": "Fixed Wireless and Satellite Upgrade Program",
    "target_eligibility_quarter": "NA"
   }
  },
  {
   "type": "Feature",
   "geometry": {
    "type": "Point",
    "coordinates": [
     143.76234524,
     -36.90490038
    ]
   },
   "properties": {
    "name": "22 BENNETTS LANE BET BET 3472",
    "locID": "LOC000096589504",
    "tech": "WIRELESS",
    "upgrade": "NULL_NA",
    "gnaf_pid": "GAVIC421741470",
    "tech_change_status": "Not Planned",
    "program_type": "Fixed Wireless and Satellite Upgrade Program",
    "target_eligibility_quarter": "NA"
   }
  },
  {
   "type": "Feature",
   "geometry": {
    "type": "Point",
    "coordinates": [
     143.76530065,
     -36.90176571
    ]
   },
   "properties": {
    "name": "138 LEES ROAD BET BET 3472",
    "locID": "LOC000026740366",
    "tech": "WIRELESS",
    "upgrade": "NULL_NA",
    "gnaf_pid": "GAVIC421755693",
    "tech_change_status": "Not Planned",
    "program_type": "Fixed Wireless and Satellite Upgrade Program",
    "target_eligibility_quarter": "NA"
   }
  },
  {
   "type": "Feature",
   "geometry": {
    "type": "Point",
    "coordinates": [
     143.75857593,
     -36.91671026
    ]
   },
   "properties": {
    "name": "12 GEORGE STREET BET BET 3472",
    "locID": "LOC000073236982",
    "tech": "WIRELESS",
    "upgrade": "NULL_NA",
    "gnaf_pid": "GAVIC421785248",
    "tech_change_status": "Not Planned",
    "program_type": "Fixed Wireless and Satellite Upgrade Program",
    "target_eligibility_quarter": "NA"
   }
  },
  {
   "type": "Feature",
   "geometry": {
    "type": "Point",
    "coordinates": [
     143.75497256,
     -36.90452565
    ]
   },
   "properties": {
    "name": "1376 MARYBOROUGH-DUNOLLY ROAD BET BET 3472",
    "locID": "LOC000082169667",
    "tech": "WIRELESS",
    "upgrade": "NULL_NA",
    "gnaf_pid": "GAVIC421795661",
    "tech_change_status": "Not Planned",
    "program_type": "Fixed Wireless and Satellite Upgrade Program",
    "target_eligibility_quarter": "NA"
   }
  },
  {
   "type": "Feature",
   "geometry": {
    "type": "Point",
    "coordinates": [
     143.75456251,
     -36.90311465
    ]
   },
   "properties": {
    "name": "1388 MARYBOROUGH-DUNOLLY ROAD BET BET 3472",
    "locID": "LOC000067169956",
    "tech": "WIRELESS",
    "upgrade": "NULL_NA",
    "gnaf_pid": "GAVIC421795662",
    "tech_change_status": "Not Planned",
    "program_type": "Fixed Wireless and Satellite Upgrade Program",
    "target_eligibility_quarter": "NA"
   }
  },
  {
   "type": "Feature",
   "geometry": {
    "type": "Point",
    "coordinates": [
     143.760861,
     -36.90165264
    ]
   },
   "properties": {
    "name": "69 BENNETTS LANE BET BET 3472",
    "locID": "LOC000020475970",
    "tech": "WIRELESS",
    "upgrade": "NULL_NA",
    "gnaf_pid": "GAVIC421795663",
    "tech_change_status": "Not Planned",
    "program_type": "Fixed Wireless and Satellite Upgrade Program",
    "target_eligibility_quarter": "NA"
   }
  },
  {
   "type": "Feature",
   "geometry": {
    "type": "Point",
    "coordinates": [
     143.75167232,
     -36.92366609
    ]
   },
   "properties": {
    "name": "40 BET BET-MT HOOGHLY ROAD BET BET 3472",
    "locID": "LOC000063568391",
    "tech": "WIRELESS",
    "upgrade": "NULL_NA",
    "gnaf_pid": "GAVIC421805022",
    "tech_change_status": "Not Planned",
    "program_type": "Fixed Wireless and Satellite Upgrade Program",
    "target_eligibility_quarter": "NA"
   }
  },
  {
   "type": "Feature",
   "geometry": {
    "type": "Point",
    "coordinates": [
     143.75295566,
     -36.90055655
    ]
   },
   "properties": {
    "name": "931 TIMOR-BROMLEY ROAD BET BET 3472",
    "locID": "LOC000017880918",
    "tech": "WIRELESS",
    "upgrade": "NULL_NA",
    "gnaf_pid": "GAVIC422034600",
    "tech_change_status": "Not Planned",
    "program_type": "Fixed Wireless and Satellite Upgrade Program",
    "target_eligibility_quarter": "NA"
   }
  },
  {
   "type": "Feature",
   "geometry": {
    "type": "Point",
    "coordinates": [
     143.77209509,
     -36.92029724
    ]
   },
   "properties": {
    "name": "127 BET BET-BETLEY ROAD BET BET 3472",
    "locID": "LOC000100483794",
    "tech": "WIRELESS",
    "upgrade": "NULL_NA",
    "gnaf_pid": "GAVIC422128348",
    "tech_change_status": "Not Planned",
    "program_type": "Fixed Wireless and Satellite Upgrade Program",
    "target_eligibility_quarter": "NA"
   }
  },
  {
   "type": "Feature",
   "geometry": {
    "type": "Point",
    "coordinates": [
     143.77303599,
     -36.9227585
    ]
   },
   "properties": {
    "name": "147 BET BET-BETLEY ROAD BET BET 3472",
    "locID": "LOC000006199817",
    "tech": "WIRELESS",
    "upgrade": "NULL_NA",
    "gnaf_pid": "GAVIC422128349",
    "tech_change_status": "Not Planned",
    "program_type": "Fixed Wireless and Satellite Upgrade Program",
    "target_eligibility_quarter": "NA"
   }
  },
  {
   "type": "Feature",
   "geometry": {
    "type": "Point",
    "coordinates": [
     143.78011919,
     -36.92429089
    ]
   },
   "properties": {
    "name": "212 BET BET-BETLEY ROAD BET BET 3472",
    "locID": "LOC000025233271",
    "tech": "WIRELESS",
    "upgrade": "NULL_NA",
    "gnaf_pid": "GAVIC422128350",
    "tech_change_status": "Not Planned",
    "program_type": "Fixed Wireless and Satellite Upgrade Program",
    "target_eligibility_quarter": "NA"
   }
  },
  {
   "type": "Feature",
   "geometry": {
    "type": "Point",
    "coordinates": [
     143.75741864,
     -36.92114583
    ]
   },
   "properties": {
    "name": "2 BET BET-BETLEY ROAD BET BET 3472",
    "locID": "LOC000054135997",
    "tech": "WIRELESS",
    "upgrade": "NULL_NA",
    "gnaf_pid": "GAVIC422128351",
    "tech_change_status": "Not Planned",
    "program_type": "Fixed Wireless and Satellite Upgrade Program",
    "target_eligibility_quarter": "NA"
   }
  },
  {
   "type": "Feature",
   "geometry": {
    "type": "Point",
    "coordinates": [
     143.76053316,
     -36.92154103
    ]
   },
   "properties": {
    "name": "34 BET BET-BETLEY ROAD BET BET 3472",
    "locID": "LOC000051227772",
    "tech": "WIRELESS",
    "upgrade": "NULL_NA",
    "gnaf_pid": "GAVIC422128352",
    "tech_change_status": "Not Planned",
    "program_type": "Fixed Wireless and Satellite Upgrade Program",
    "target_eligibility_quarter": "NA"
   }
  },
  {
   "type": "Feature",
   "geometry": {
    "type": "Point",
    "coordinates": [
     143.73501899,
     -36.94081814
    ]
   },
   "properties": {
    "name": "416 TIMOR-BROMLEY ROAD BET BET 3472",
    "locID": "LOC000085458988",
    "tech": "WIRELESS",
    "upgrade": "NULL_NA",
    "gnaf_pid": "GAVIC422197019",
    "tech_change_status": "Not Planned",
    "program_type": "Fixed Wireless and Satellite Upgrade Program",
    "target_eligibility_quarter": "NA"
   }
  },
  {
   "type": "Feature",
   "geometry": {
    "type": "Point",
    "coordinates": [
     143.7362103,
     -36.9368555
    ]
   },
   "properties": {
    "name": "492 TIMOR-BROMLEY ROAD BET BET 3472",
    "locID": "LOC000092701158",
    "tech": "WIRELESS",
    "upgrade": "NULL_NA",
    "gnaf_pid": "GAVIC422197020",
    "tech_change_status": "Not Planned",
    "program_type": "Fixed Wireless and Satellite Upgrade Program",
    "target_eligibility_quarter": "NA"
   }
  },
  {
   "type": "Feature",
   "geometry": {
    "type": "Point",
    "coordinates": [
     143.73641687,
     -36.93167268
    ]
   },
   "properties": {
    "name": "581 TIMOR-BROMLEY ROAD BET BET 3472",
    "locID": "LOC000079795648",
    "tech": "WIRELESS",
    "upgrade": "NULL_NA",
    "gnaf_pid": "GAVIC422197022",
    "tech_change_status": "Not Planned",
    "program_type": "Fixed Wireless and Satellite Upgrade Program",
    "target_eligibility_quarter": "NA"
   }
  },
  {
   "type": "Feature",
   "geometry": {
    "type": "Point",
    "coordinates": [
     143.74340262,
     -36.9172274
    ]
   },
   "properties": {
    "name": "710 TIMOR-BROMLEY ROAD BET BET 3472",
    "locID": "LOC000095336620",
    "tech": "WIRELESS",
    "upgrade": "NULL_NA",
    "gnaf_pid": "GAVIC422197023",
    "tech_change_status": "Not Planned",
    "program_type": "Fixed Wireless and Satellite Upgrade Program",
    "target_eligibility_quarter": "NA"
   }
  },
  {
   "type": "Feature",
   "geometry": {
    "type": "Point",
    "coordinates": [
     143.74418686,
     -36.91668341
    ]
   },
   "properties": {
    "name": "730 TIMOR-BROMLEY ROAD BET BET 3472",
    "locID": "LOC000067864982",
    "tech": "NULL",
    "upgrade": "NULL_NA",
    "gnaf_pid": "GAVIC422197024",
    "tech_change_status": "Not Planned"
   }
  },
  {
   "type": "Feature",
   "geometry": {
    "type": "Point",
    "coordinates": [
     143.74603783,
     -36.91353153
    ]
   },
   "properties": {
    "name": "770 TIMOR-BROMLEY ROAD BET BET 3472",
    "locID": "LOC000038933113",
    "tech": "WIRELESS",
    "upgrade": "NULL_NA",
    "gnaf_pid": "GAVIC422197025",
    "tech_change_status": "Not Planned",
    "program_type": "Fixed Wireless and Satellite Upgrade Program",
    "target_eligibility_quarter": "NA"
   }
  },
  {
   "type": "Feature",
   "geometry": {
    "type": "Point",
    "coordinates": [
     143.74868323,
     -36.90742644
    ]
   },
   "properties": {
    "name": "851 TIMOR-BROMLEY ROAD BET BET 3472",
    "locID": "LOC000019393983",
    "tech": "WIRELESS",
    "upgrade": "NULL_NA",
    "gnaf_pid": "GAVIC422197026",
    "tech_change_status": "Not Planned",
    "program_type": "Fixed Wireless and Satellite Upgrade Program",
    "target_eligibility_quarter": "NA"
   }
  },
  {
   "type": "Feature",
   "geometry": {
    "type": "Point",
    "coordinates": [
     143.74943754,
     -36.9060844
    ]
   },
   "properties": {
    "name": "853 TIMOR-BROMLEY ROAD BET BET 3472",
    "locID": "LOC000044845216",
    "tech": "WIRELESS",
    "upgrade": "NULL_NA",
    "gnaf_pid": "GAVIC422197027",
    "tech_change_status": "Not Planned",
    "program_type": "Fixed Wireless and Satellite Upgrade Program",
    "target_eligibility_quarter": "NA"
   }
  },
  {
   "type": "Feature",
   "geometry": {
    "type": "Point",
    "coordinates": [
     143.75556077,
     -36.89959607
    ]
   },
   "properties": {
    "name": "938 TIMOR-BROMLEY ROAD BET BET 3472",
    "locID": "LOC000018532494",
    "tech": "WIRELESS",
    "upgrade": "NULL_NA",
    "gnaf_pid": "GAVIC422197029",
    "tech_change_status": "Not Planned",
    "program_type": "Fixed Wireless and Satellite Upgrade Program",
    "target_eligibility_quarter": "NA"
   }
  },
  {
   "type": "Feature",
   "geometry": {
    "type": "Point",
    "coordinates": [
     143.75683591,
     -36.89924993
    ]
   },
   "properties": {
    "name": "970 TIMOR-BROMLEY ROAD BET BET 3472",
    "locID": "LOC000034937821",
    "tech": "WIRELESS",
    "upgrade": "NULL_NA",
    "gnaf_pid": "GAVIC422197030",
    "tech_change_status": "Not Planned",
    "program_type": "Fixed Wireless and Satellite Upgrade Program",
    "target_eligibility_quarter": "NA"
   }
  },
  {
   "type": "Feature",
   "geometry": {
    "type": "Point",
    "coordinates": [
     143.75118373,
     -36.92946794
    ]
   },
   "properties": {
    "name": "1110 BET BET CREEK ROAD BET BET 3472",
    "locID": "LOC000050616613",
    "tech": "WIRELESS",
    "upgrade": "NULL_NA",
    "gnaf_pid": "GAVIC423273464",
    "tech_change_status": "Not Planned",
    "program_type": "Fixed Wireless and Satellite Upgrade Program",
    "target_eligibility_quarter": "NA"
   }
  },
  {
   "type": "Feature",
   "geometry": {
    "type": "Point",
    "coordinates": [
     143.75897265,
     -36.91753375
    ]
   },
   "properties": {
    "name": "9 CAMBRIDGE STREET BET BET 3472",
    "locID": "LOC000002867284",
    "tech": "WIRELESS",
    "upgrade": "NULL_NA",
    "gnaf_pid": "GAVIC423876105",
    "tech_change_status": "Not Planned",
    "program_type": "Fixed Wireless and Satellite Upgrade Program",
    "target_eligibility_quarter": "NA"
   }
  },
  {
   "type": "Feature",
   "geometry": {
    "type": "Point",
    "coordinates": [
     143.7576347,
     -36.91339208
    ]
   },
   "properties": {
    "name": "1303 MARYBOROUGH-DUNOLLY ROAD BET BET 3472",
    "locID": "LOC000113318574",
    "tech": "WIRELESS",
    "upgrade": "NULL_NA",
    "gnaf_pid": "GAVIC423887988",
    "tech_change_status": "Not Planned",
    "program_type": "Fixed Wireless and Satellite Upgrade Program",
    "target_eligibility_quarter": "NA"
   }
  },
  {
   "type": "Feature",
   "geometry": {
    "type": "Point",
    "coordinates": [
     143.74932148,
     -36.90726688
    ]
   },
   "properties": {
    "name": "852 TIMOR-BROMLEY ROAD BET BET 3472",
    "locID": "LOC000124934685",
    "tech": "WIRELESS",
    "upgrade": "NULL_NA",
    "gnaf_pid": "GAVIC423898206",
    "tech_change_status": "Not Planned",
    "program_type": "Fixed Wireless and Satellite Upgrade Program",
    "target_eligibility_quarter": "NA"
   }
  },
  {
   "type": "Feature",
   "geometry": {
    "type": "Point",
    "coordinates": [
     143.76349671,
     -36.9072146
    ]
   },
   "properties": {
    "name": "UNIT 1, 99 LEES ROAD BET BET 3472",
    "locID": "LOC000085113611",
    "tech": "WIRELESS",
    "upgrade": "NULL_NA",
    "gnaf_pid": "GAVIC423925298",
    "tech_change_status": "Not Planned",
    "program_type": "Fixed Wireless and Satellite Upgrade Program",
    "target_eligibility_quarter": "NA"
   }
  },
  {
   "type": "Feature",
   "geometry": {
    "type": "Point",
    "coordinates": [
     143.71861746,
     -36.93172991
    ]
   },
   "properties": {
    "name": "696 DUNOLLY-TIMOR ROAD BET BET 3472",
    "locID": "LOC000124934541",
    "tech": "WIRELESS",
    "upgrade": "NULL_NA",
    "gnaf_pid": "GAVIC423967119",
    "tech_change_status": "Not Planned",
    "program_type": "Fixed Wireless and Satellite Upgrade Program",
    "target_eligibility_quarter": "NA"
   }
  },
  {
   "type": "Feature",
   "geometry": {
    "type": "Point",
    "coordinates": [
     143.75159064,
     -36.92769843
    ]
   },
   "properties": {
    "name": "1152 BET BET CREEK ROAD BET BET 3472",
    "locID": "LOC100078650865",
    "tech": "WIRELESS",
    "upgrade": "NULL_NA",
    "gnaf_pid": "GAVIC424059840",
    "tech_change_status": "Not Planned",
    "program_type": "Fixed Wireless and Satellite Upgrade Program",
    "target_eligibility_quarter": "NA"
   }
  },
  {
   "type": "Feature",
   "geometry": {
    "type": "Point",
    "coordinates": [
     143.75954114,
     -36.91677771
    ]
   },
   "properties": {
    "name": "18 GEORGE STREET BET BET 3472",
    "locID": "LOC000124925837",
    "tech": "WIRELESS",
    "upgrade": "NULL_NA",
    "gnaf_pid": "GAVIC424446816",
    "tech_change_status": "Not Planned",
    "program_type": "Fixed Wireless and Satellite Upgrade Program",
    "target_eligibility_quarter": "NA"
   }
  },
  {
   "type": "Feature",
   "geometry": {
    "type": "Point",
    "coordinates": [
     143.74706046,
     -36.91105278
    ]
   },
   "properties": {
    "name": "810 TIMOR-BROMLEY ROAD BET BET 3472",
    "locID": "LOC000174976973",
    "tech": "WIRELESS",
    "upgrade": "NULL_NA",
    "gnaf_pid": "GAVIC424455368",
    "tech_change_status": "Not Planned",
    "program_type": "Fixed Wireless and Satellite Upgrade Program",
    "target_eligibility_quarter": "NA"
   }
  },
  {
   "type": "Feature",
   "geometry": {
    "type": "Point",
    "coordinates": [
     143.7748074,
     -36.9143622
    ]
   },
   "properties": {
    "name": "155 GEORGE STREET BET BET 3472",
    "locID": "LOC000124921714",
    "tech": "WIRELESS",
    "upgrade": "NULL_NA",
    "gnaf_pid": "GAVIC424879091",
    "tech_change_status": "Not Planned",
    "program_type": "Fixed Wireless and Satellite Upgrade Program",
    "target_eligibility_quarter": "NA"
   }
  },
  {
   "type": "Feature",
   "geometry": {
    "type": "Point",
    "coordinates": [
     143.75804424,
     -36.92133234
    ]
   },
   "properties": {
    "name": "12 BET BET-BETLEY ROAD BET BET 3472",
    "locID": "LOC000100483794",
    "tech": "WIRELESS",
    "upgrade": "NULL_NA",
    "gnaf_pid": "GAVIC719919928",
    "tech_change_status": "Not Planned",
    "program_type": "Fixed Wireless and Satellite Upgrade Program",
    "target_eligibility_quarter": "NA"
   }
  }
 ]
}