{
 "type": "FeatureCollection",
 "generated": "2024-12-06T17:24:35.273332",
 "suburb": "BETE BOLONG",
 "features": [
  {
   "type": "Feature",
   "geometry": {
    "type": "Point",
    "coordinates": [
     148.39248905,
     -37.69833655
    ]
   },
   "properties": {
    "name": "829 BUCHAN-ORBOST ROAD BETE BOLONG 3888",
    "locID": "LOC000073714767",
    "tech": "WIRELESS",
    "upgrade": "NULL_NA",
    "gnaf_pid": "GAVIC410899029",
    "tech_change_status": "Not Planned",
    "program_type": "Fixed Wireless and Satellite Upgrade Program",
    "target_eligibility_quarter": "NA"
   }
  },
  {
   "type": "Feature",
   "geometry": {
    "type": "Point",
    "coordinates": [
     148.39821325,
     -37.71405811
    ]
   },
   "properties": {
    "name": "637 BUCHAN-ORBOST ROAD BETE BOLONG 3888",
    "locID": "LOC000007085526",
    "tech": "WIRELESS",
    "upgrade": "NULL_NA",
    "gnaf_pid": "GAVIC410902727",
    "tech_change_status": "Not Planned",
    "program_type": "Fixed Wireless and Satellite Upgrade Program",
    "target_eligibility_quarter": "NA"
   }
  },
  {
   "type": "Feature",
   "geometry": {
    "type": "Point",
    "coordinates": [
     148.36275151,
     -37.68174877
    ]
   },
   "properties": {
    "name": "1266 BUCHAN-ORBOST ROAD BETE BOLONG 3888",
    "locID": "LOC000142401455",
    "tech": "WIRELESS",
    "upgrade": "NULL_NA",
    "gnaf_pid": "GAVIC410902728",
    "tech_change_status": "Not Planned"
   }
  },
  {
   "type": "Feature",
   "geometry": {
    "type": "Point",
    "coordinates": [
     148.38548878,
     -37.71092532
    ]
   },
   "properties": {
    "name": "119 BETE BOLONG ROAD BETE BOLONG 3888",
    "locID": "LOC000075383640",
    "tech": "WIRELESS",
    "upgrade": "NULL_NA",
    "gnaf_pid": "GAVIC422277763",
    "tech_change_status": "Not Planned",
    "program_type": "Fixed Wireless and Satellite Upgrade Program",
    "target_eligibility_quarter": "NA"
   }
  },
  {
   "type": "Feature",
   "geometry": {
    "type": "Point",
    "coordinates": [
     148.39618652,
     -37.71307085
    ]
   },
   "properties": {
    "name": "17 BETE BOLONG ROAD BETE BOLONG 3888",
    "locID": "LOC000102521705",
    "tech": "WIRELESS",
    "upgrade": "NULL_NA",
    "gnaf_pid": "GAVIC422277765",
    "tech_change_status": "Not Planned",
    "program_type": "Fixed Wireless and Satellite Upgrade Program",
    "target_eligibility_quarter": "NA"
   }
  },
  {
   "type": "Feature",
   "geometry": {
    "type": "Point",
    "coordinates": [
     148.37096419,
     -37.71388923
    ]
   },
   "properties": {
    "name": "257 BETE BOLONG ROAD BETE BOLONG 3888",
    "locID": "LOC000007195465",
    "tech": "NULL",
    "upgrade": "NULL_NA",
    "gnaf_pid": "GAVIC422277769",
    "tech_change_status": "Not Planned"
   }
  },
  {
   "type": "Feature",
   "geometry": {
    "type": "Point",
    "coordinates": [
     148.37664915,
     -37.69679494
    ]
   },
   "properties": {
    "name": "179 BIRKINS ROAD BETE BOLONG 3888",
    "locID": "LOC000096472256",
    "tech": "WIRELESS",
    "upgrade": "NULL_NA",
    "gnaf_pid": "GAVIC422277987",
    "tech_change_status": "Not Planned",
    "program_type": "Fixed Wireless and Satellite Upgrade Program",
    "target_eligibility_quarter": "NA"
   }
  },
  {
   "type": "Feature",
   "geometry": {
    "type": "Point",
    "coordinates": [
     148.384201,
     -37.7003296
    ]
   },
   "properties": {
    "name": "93 BIRKINS ROAD BETE BOLONG 3888",
    "locID": "LOC000003865157",
    "tech": "WIRELESS",
    "upgrade": "NULL_NA",
    "gnaf_pid": "GAVIC422277994",
    "tech_change_status": "Not Planned",
    "program_type": "Fixed Wireless and Satellite Upgrade Program",
    "target_eligibility_quarter": "NA"
   }
  },
  {
   "type": "Feature",
   "geometry": {
    "type": "Point",
    "coordinates": [
     148.38294175,
     -37.68385737
    ]
   },
   "properties": {
    "name": "1009 BUCHAN-ORBOST ROAD BETE BOLONG 3888",
    "locID": "LOC000039819377",
    "tech": "WIRELESS",
    "upgrade": "NULL_NA",
    "gnaf_pid": "GAVIC422280100",
    "tech_change_status": "Not Planned",
    "program_type": "Fixed Wireless and Satellite Upgrade Program",
    "target_eligibility_quarter": "NA"
   }
  },
  {
   "type": "Feature",
   "geometry": {
    "type": "Point",
    "coordinates": [
     148.38133503,
     -37.68158976
    ]
   },
   "properties": {
    "name": "1035 BUCHAN-ORBOST ROAD BETE BOLONG 3888",
    "locID": "LOC000008530568",
    "tech": "WIRELESS",
    "upgrade": "NULL_NA",
    "gnaf_pid": "GAVIC422280101",
    "tech_change_status": "Not Planned",
    "program_type": "Fixed Wireless and Satellite Upgrade Program",
    "target_eligibility_quarter": "NA"
   }
  },
  {
   "type": "Feature",
   "geometry": {
    "type": "Point",
    "coordinates": [
     148.37316816,
     -37.67658115
    ]
   },
   "properties": {
    "name": "1132 BUCHAN-ORBOST ROAD BETE BOLONG 3888",
    "locID": "LOC000172893790",
    "tech": "SATELLITE",
    "upgrade": "WIRELESS",
    "gnaf_pid": "GAVIC422280102",
    "tech_change_status": "Eligible to Order",
    "program_type": "Fixed Wireless and Satellite Upgrade Program",
    "target_eligibility_quarter": "NA"
   }
  },
  {
   "type": "Feature",
   "geometry": {
    "type": "Point",
    "coordinates": [
     148.3667947,
     -37.67962323
    ]
   },
   "properties": {
    "name": "1225 BUCHAN-ORBOST ROAD BETE BOLONG 3888",
    "locID": "LOC000021088577",
    "tech": "WIRELESS",
    "upgrade": "NULL_NA",
    "gnaf_pid": "GAVIC422280103",
    "tech_change_status": "Not Planned",
    "program_type": "Fixed Wireless and Satellite Upgrade Program",
    "target_eligibility_quarter": "NA"
   }
  },
  {
   "type": "Feature",
   "geometry": {
    "type": "Point",
    "coordinates": [
     148.36217939,
     -37.68255976
    ]
   },
   "properties": {
    "name": "1277 BUCHAN-ORBOST ROAD BETE BOLONG 3888",
    "locID": "LOC000006068873",
    "tech": "WIRELESS",
    "upgrade": "NULL_NA",
    "gnaf_pid": "GAVIC422280105",
    "tech_change_status": "Not Planned",
    "program_type": "Fixed Wireless and Satellite Upgrade Program",
    "target_eligibility_quarter": "NA"
   }
  },
  {
   "type": "Feature",
   "geometry": {
    "type": "Point",
    "coordinates": [
     148.3555961,
     -37.6848988
    ]
   },
   "properties": {
    "name": "1347 BUCHAN-ORBOST ROAD BETE BOLONG 3888",
    "locID": "LOC000096201117",
    "tech": "WIRELESS",
    "upgrade": "NULL_NA",
    "gnaf_pid": "GAVIC422280106",
    "tech_change_status": "Not Planned",
    "program_type": "Fixed Wireless and Satellite Upgrade Program",
    "target_eligibility_quarter": "NA"
   }
  },
  {
   "type": "Feature",
   "geometry": {
    "type": "Point",
    "coordinates": [
     148.41508533,
     -37.72224225
    ]
   },
   "properties": {
    "name": "453 BUCHAN-ORBOST ROAD BETE BOLONG 3888",
    "locID": "LOC000080367915",
    "tech": "WIRELESS",
    "upgrade": "NULL_NA",
    "gnaf_pid": "GAVIC422280109",
    "tech_change_status": "Not Planned",
    "program_type": "Fixed Wireless and Satellite Upgrade Program",
    "target_eligibility_quarter": "NA"
   }
  },
  {
   "type": "Feature",
   "geometry": {
    "type": "Point",
    "coordinates": [
     148.39325965,
     -37.69948385
    ]
   },
   "properties": {
    "name": "809 BUCHAN-ORBOST ROAD BETE BOLONG 3888",
    "locID": "LOC000104365623",
    "tech": "WIRELESS",
    "upgrade": "NULL_NA",
    "gnaf_pid": "GAVIC422280118",
    "tech_change_status": "Not Planned",
    "program_type": "Fixed Wireless and Satellite Upgrade Program",
    "target_eligibility_quarter": "NA"
   }
  },
  {
   "type": "Feature",
   "geometry": {
    "type": "Point",
    "coordinates": [
     148.39311428,
     -37.69898985
    ]
   },
   "properties": {
    "name": "815 BUCHAN-ORBOST ROAD BETE BOLONG 3888",
    "locID": "LOC000021125146",
    "tech": "WIRELESS",
    "upgrade": "NULL_NA",
    "gnaf_pid": "GAVIC422280119",
    "tech_change_status": "Not Planned",
    "program_type": "Fixed Wireless and Satellite Upgrade Program",
    "target_eligibility_quarter": "NA"
   }
  },
  {
   "type": "Feature",
   "geometry": {
    "type": "Point",
    "coordinates": [
     148.38273938,
     -37.7205532
    ]
   },
   "properties": {
    "name": "249 DEASEYS CUTTING ROAD BETE BOLONG 3888",
    "locID": "LOC000090998780",
    "tech": "SATELLITE",
    "upgrade": "WIRELESS",
    "gnaf_pid": "GAVIC422287001",
    "tech_change_status": "Eligible to Order",
    "program_type": "Fixed Wireless and Satellite Upgrade Program",
    "target_eligibility_quarter": "NA"
   }
  },
  {
   "type": "Feature",
   "geometry": {
    "type": "Point",
    "coordinates": [
     148.39950233,
     -37.71963155
    ]
   },
   "properties": {
    "name": "59 DEASEYS CUTTING ROAD BETE BOLONG 3888",
    "locID": "LOC000056821660",
    "tech": "WIRELESS",
    "upgrade": "NULL_NA",
    "gnaf_pid": "GAVIC422287004",
    "tech_change_status": "Not Planned",
    "program_type": "Fixed Wireless and Satellite Upgrade Program",
    "target_eligibility_quarter": "NA"
   }
  },
  {
   "type": "Feature",
   "geometry": {
    "type": "Point",
    "coordinates": [
     148.39892099,
     -37.71945197
    ]
   },
   "properties": {
    "name": "60 DEASEYS CUTTING ROAD BETE BOLONG 3888",
    "locID": "LOC000057569324",
    "tech": "WIRELESS",
    "upgrade": "NULL_NA",
    "gnaf_pid": "GAVIC422287005",
    "tech_change_status": "Not Planned",
    "program_type": "Fixed Wireless and Satellite Upgrade Program",
    "target_eligibility_quarter": "NA"
   }
  },
  {
   "type": "Feature",
   "geometry": {
    "type": "Point",
    "coordinates": [
     148.3974442,
     -37.71967861
    ]
   },
   "properties": {
    "name": "75 DEASEYS CUTTING ROAD BETE BOLONG 3888",
    "locID": "LOC000061877071",
    "tech": "WIRELESS",
    "upgrade": "NULL_NA",
    "gnaf_pid": "GAVIC422287007",
    "tech_change_status": "Not Planned",
    "program_type": "Fixed Wireless and Satellite Upgrade Program",
    "target_eligibility_quarter": "NA"
   }
  },
  {
   "type": "Feature",
   "geometry": {
    "type": "Point",
    "coordinates": [
     148.35803121,
     -37.69229869
    ]
   },
   "properties": {
    "name": "278 REEVES ROAD BETE BOLONG 3888",
    "locID": "LOC000002800952",
    "tech": "WIRELESS",
    "upgrade": "NULL_NA",
    "gnaf_pid": "GAVIC422319233",
    "tech_change_status": "Not Planned",
    "program_type": "Fixed Wireless and Satellite Upgrade Program",
    "target_eligibility_quarter": "NA"
   }
  },
  {
   "type": "Feature",
   "geometry": {
    "type": "Point",
    "coordinates": [
     148.3586132,
     -37.6911369
    ]
   },
   "properties": {
    "name": "292 REEVES ROAD BETE BOLONG 3888",
    "locID": "LOC000125794308",
    "tech": "WIRELESS",
    "upgrade": "NULL_NA",
    "gnaf_pid": "GAVIC422319235",
    "tech_change_status": "Not Planned",
    "program_type": "Fixed Wireless and Satellite Upgrade Program",
    "target_eligibility_quarter": "NA"
   }
  },
  {
   "type": "Feature",
   "geometry": {
    "type": "Point",
    "coordinates": [
     148.35871585,
     -37.68681865
    ]
   },
   "properties": {
    "name": "340 REEVES ROAD BETE BOLONG 3888",
    "locID": "LOC000027856374",
    "tech": "WIRELESS",
    "upgrade": "NULL_NA",
    "gnaf_pid": "GAVIC422319236",
    "tech_change_status": "Not Planned",
    "program_type": "Fixed Wireless and Satellite Upgrade Program",
    "target_eligibility_quarter": "NA"
   }
  },
  {
   "type": "Feature",
   "geometry": {
    "type": "Point",
    "coordinates": [
     148.36644854,
     -37.71876076
    ]
   },
   "properties": {
    "name": "28 ROBBIES TRACK BETE BOLONG 3888",
    "locID": "LOC000026796317",
    "tech": "NULL",
    "upgrade": "NULL_NA",
    "gnaf_pid": "GAVIC423287319",
    "tech_change_status": "Not Planned"
   }
  },
  {
   "type": "Feature",
   "geometry": {
    "type": "Point",
    "coordinates": [
     148.39465898,
     -37.70094261
    ]
   },
   "properties": {
    "name": "792 BUCHAN-ORBOST ROAD BETE BOLONG 3888",
    "locID": "LOC000050864812",
    "tech": "WIRELESS",
    "upgrade": "NULL_NA",
    "gnaf_pid": "GAVIC423803034",
    "tech_change_status": "Not Planned",
    "program_type": "Fixed Wireless and Satellite Upgrade Program",
    "target_eligibility_quarter": "NA"
   }
  },
  {
   "type": "Feature",
   "geometry": {
    "type": "Point",
    "coordinates": [
     148.35938814,
     -37.71556761
    ]
   },
   "properties": {
    "name": "375 BETE BOLONG ROAD BETE BOLONG 3888",
    "locID": "LOC000092972208",
    "tech": "SATELLITE",
    "upgrade": "NULL_NA",
    "gnaf_pid": "GAVIC423821380",
    "tech_change_status": "Not Planned"
   }
  },
  {
   "type": "Feature",
   "geometry": {
    "type": "Point",
    "coordinates": [
     148.40397878,
     -37.71836522
    ]
   },
   "properties": {
    "name": "565 BUCHAN-ORBOST ROAD BETE BOLONG 3888",
    "locID": "LOC000066940785",
    "tech": "WIRELESS",
    "upgrade": "NULL_NA",
    "gnaf_pid": "GAVIC423846743",
    "tech_change_status": "Not Planned",
    "program_type": "Fixed Wireless and Satellite Upgrade Program",
    "target_eligibility_quarter": "NA"
   }
  },
  {
   "type": "Feature",
   "geometry": {
    "type": "Point",
    "coordinates": [
     148.39063118,
     -37.69402782
    ]
   },
   "properties": {
    "name": "2 BIRKINS ROAD BETE BOLONG 3888",
    "locID": "LOC000091486151",
    "tech": "WIRELESS",
    "upgrade": "NULL_NA",
    "gnaf_pid": "GAVIC423918454",
    "tech_change_status": "Not Planned",
    "program_type": "Fixed Wireless and Satellite Upgrade Program",
    "target_eligibility_quarter": "NA"
   }
  },
  {
   "type": "Feature",
   "geometry": {
    "type": "Point",
    "coordinates": [
     148.38752115,
     -37.68927739
    ]
   },
   "properties": {
    "name": "935 BUCHAN-ORBOST ROAD BETE BOLONG 3888",
    "locID": "LOC000051301533",
    "tech": "WIRELESS",
    "upgrade": "NULL_NA",
    "gnaf_pid": "GAVIC423919126",
    "tech_change_status": "Not Planned",
    "program_type": "Fixed Wireless and Satellite Upgrade Program",
    "target_eligibility_quarter": "NA"
   }
  },
  {
   "type": "Feature",
   "geometry": {
    "type": "Point",
    "coordinates": [
     148.3639666,
     -37.7325786
    ]
   },
   "properties": {
    "name": "409 SIMPSONS CREEK ROAD BETE BOLONG 3888",
    "locID": "LOC000022802329",
    "tech": "WIRELESS",
    "upgrade": "NULL_NA",
    "gnaf_pid": "GAVIC423976627",
    "tech_change_status": "Not Planned",
    "program_type": "Fixed Wireless and Satellite Upgrade Program",
    "target_eligibility_quarter": "NA"
   }
  },
  {
   "type": "Feature",
   "geometry": {
    "type": "Point",
    "coordinates": [
     148.3658387,
     -37.73194405
    ]
   },
   "properties": {
    "name": "427 SIMPSONS CREEK ROAD BETE BOLONG 3888",
    "locID": "LOC000096936703",
    "tech": "WIRELESS",
    "upgrade": "NULL_NA",
    "gnaf_pid": "GAVIC423976628",
    "tech_change_status": "Not Planned",
    "program_type": "Fixed Wireless and Satellite Upgrade Program",
    "target_eligibility_quarter": "NA"
   }
  },
  {
   "type": "Feature",
   "geometry": {
    "type": "Point",
    "coordinates": [
     148.3666655,
     -37.7312405
    ]
   },
   "properties": {
    "name": "437 SIMPSONS CREEK ROAD BETE BOLONG 3888",
    "locID": "LOC000007756571",
    "tech": "NULL",
    "upgrade": "NULL_NA",
    "gnaf_pid": "GAVIC423976629",
    "tech_change_status": "Not Planned"
   }
  },
  {
   "type": "Feature",
   "geometry": {
    "type": "Point",
    "coordinates": [
     148.36898361,
     -37.72771665
    ]
   },
   "properties": {
    "name": "487 SIMPSONS CREEK ROAD BETE BOLONG 3888",
    "locID": "LOC000004382559",
    "tech": "WIRELESS",
    "upgrade": "NULL_NA",
    "gnaf_pid": "GAVIC423976631",
    "tech_change_status": "Not Planned",
    "program_type": "Fixed Wireless and Satellite Upgrade Program",
    "target_eligibility_quarter": "NA"
   }
  },
  {
   "type": "Feature",
   "geometry": {
    "type": "Point",
    "coordinates": [
     148.36872015,
     -37.72634979
    ]
   },
   "properties": {
    "name": "503 SIMPSONS CREEK ROAD BETE BOLONG 3888",
    "locID": "LOC000037034573",
    "tech": "SATELLITE",
    "upgrade": "NULL_NA",
    "gnaf_pid": "GAVIC423976632",
    "tech_change_status": "Not Planned"
   }
  },
  {
   "type": "Feature",
   "geometry": {
    "type": "Point",
    "coordinates": [
     148.35690296,
     -37.71862734
    ]
   },
   "properties": {
    "name": "665 SIMPSONS CREEK ROAD BETE BOLONG 3888",
    "locID": "LOC000092601840",
    "tech": "SATELLITE",
    "upgrade": "NULL_NA",
    "gnaf_pid": "GAVIC423976638",
    "tech_change_status": "Not Planned"
   }
  },
  {
   "type": "Feature",
   "geometry": {
    "type": "Point",
    "coordinates": [
     148.3563463,
     -37.71734491
    ]
   },
   "properties": {
    "name": "675 SIMPSONS CREEK ROAD BETE BOLONG 3888",
    "locID": "LOC000093957532",
    "tech": "NULL",
    "upgrade": "NULL_NA",
    "gnaf_pid": "GAVIC423976639",
    "tech_change_status": "Not Planned"
   }
  },
  {
   "type": "Feature",
   "geometry": {
    "type": "Point",
    "coordinates": [
     148.37697651,
     -37.69676021
    ]
   },
   "properties": {
    "name": "178 BIRKINS ROAD BETE BOLONG 3888",
    "locID": "LOC000008724256",
    "tech": "WIRELESS",
    "upgrade": "NULL_NA",
    "gnaf_pid": "GAVIC424021389",
    "tech_change_status": "Not Planned",
    "program_type": "Fixed Wireless and Satellite Upgrade Program",
    "target_eligibility_quarter": "NA"
   }
  },
  {
   "type": "Feature",
   "geometry": {
    "type": "Point",
    "coordinates": [
     148.37476964,
     -37.67733759
    ]
   },
   "properties": {
    "name": "1119 BUCHAN-ORBOST ROAD BETE BOLONG 3888",
    "locID": "LOC000039191041",
    "tech": "WIRELESS",
    "upgrade": "NULL_NA",
    "gnaf_pid": "GAVIC424022043",
    "tech_change_status": "Not Planned"
   }
  },
  {
   "type": "Feature",
   "geometry": {
    "type": "Point",
    "coordinates": [
     148.36787993,
     -37.72017986
    ]
   },
   "properties": {
    "name": "53 ROBBIES TRACK BETE BOLONG 3888",
    "locID": "LOC000125812408",
    "tech": "SATELLITE",
    "upgrade": "NULL_NA",
    "gnaf_pid": "GAVIC424269418",
    "tech_change_status": "Not Planned"
   }
  },
  {
   "type": "Feature",
   "geometry": {
    "type": "Point",
    "coordinates": [
     148.36396773,
     -37.71908846
    ]
   },
   "properties": {
    "name": "3 ROBBIES TRACK BETE BOLONG 3888",
    "locID": "LOC000024241660",
    "tech": "SATELLITE",
    "upgrade": "NULL_NA",
    "gnaf_pid": "GAVIC424274495",
    "tech_change_status": "Not Planned"
   }
  },
  {
   "type": "Feature",
   "geometry": {
    "type": "Point",
    "coordinates": [
     148.36298224,
     -37.68166043
    ]
   },
   "properties": {
    "name": "1262 BUCHAN-ORBOST ROAD BETE BOLONG 3888",
    "locID": "LOC000079823144",
    "tech": "WIRELESS",
    "upgrade": "NULL_NA",
    "gnaf_pid": "GAVIC424591780",
    "tech_change_status": "Not Planned",
    "program_type": "Fixed Wireless and Satellite Upgrade Program",
    "target_eligibility_quarter": "NA"
   }
  },
  {
   "type": "Feature",
   "geometry": {
    "type": "Point",
    "coordinates": [
     148.36275151,
     -37.68174877
    ]
   },
   "properties": {
    "name": "1264 BUCHAN-ORBOST ROAD BETE BOLONG 3888",
    "locID": "LOC000024411464",
    "tech": "WIRELESS",
    "upgrade": "NULL_NA",
    "gnaf_pid": "GAVIC424612339",
    "tech_change_status": "Not Planned",
    "program_type": "Fixed Wireless and Satellite Upgrade Program",
    "target_eligibility_quarter": "NA"
   }
  },
  {
   "type": "Feature",
   "geometry": {
    "type": "Point",
    "coordinates": [
     148.38092207,
     -37.68097955
    ]
   },
   "properties": {
    "name": "1043 BUCHAN-ORBOST ROAD BETE BOLONG 3888",
    "locID": "LOC100072037229",
    "tech": "WIRELESS",
    "upgrade": "NULL_NA",
    "gnaf_pid": "GAVIC425336200",
    "tech_change_status": "Not Planned",
    "program_type": "Fixed Wireless and Satellite Upgrade Program",
    "target_eligibility_quarter": "NA"
   }
  }
 ]
}