{
 "type": "FeatureCollection",
 "generated": "2025-03-10T03:52:16.596777",
 "suburb": "CHARAM",
 "features": [
  {
   "type": "Feature",
   "geometry": {
    "type": "Point",
    "coordinates": [
     141.53139854,
     -36.97744554
    ]
   },
   "properties": {
    "name": "17 MCLENNANS ROAD CHARAM 3318",
    "locID": "LOC000016848706",
    "tech": "NULL",
    "upgrade": "NULL_NA",
    "gnaf_pid": "GAVIC419669512",
    "tech_change_status": "Not Planned"
   }
  },
  {
   "type": "Feature",
   "geometry": {
    "type": "Point",
    "coordinates": [
     141.52003235,
     -36.97822346
    ]
   },
   "properties": {
    "name": "105 MARSHS ROAD CHARAM 3318",
    "locID": "LOC000071800280",
    "tech": "NULL",
    "upgrade": "NULL_NA",
    "gnaf_pid": "GAVIC419986988",
    "tech_change_status": "Not Planned"
   }
  },
  {
   "type": "Feature",
   "geometry": {
    "type": "Point",
    "coordinates": [
     141.43777185,
     -36.93633543
    ]
   },
   "properties": {
    "name": "7605 WIMMERA HIGHWAY CHARAM 3318",
    "locID": "LOC000004330876",
    "tech": "SATELLITE",
    "upgrade": "NULL_NA",
    "gnaf_pid": "GAVIC420582051",
    "tech_change_status": "Not Planned"
   }
  },
  {
   "type": "Feature",
   "geometry": {
    "type": "Point",
    "coordinates": [
     141.483351,
     -36.991246
    ]
   },
   "properties": {
    "name": "1020 CHARAM-WOMBELANO ROAD CHARAM 3318",
    "locID": "LOC000025273415",
    "tech": "NULL",
    "upgrade": "NULL_NA",
    "gnaf_pid": "GAVIC420582053",
    "tech_change_status": "Not Planned"
   }
  },
  {
   "type": "Feature",
   "geometry": {
    "type": "Point",
    "coordinates": [
     141.476873,
     -36.990434
    ]
   },
   "properties": {
    "name": "964 CHARAM-WOMBELANO ROAD CHARAM 3318",
    "locID": "LOC000011074717",
    "tech": "NULL",
    "upgrade": "NULL_NA",
    "gnaf_pid": "GAVIC420582054",
    "tech_change_status": "Not Planned"
   }
  },
  {
   "type": "Feature",
   "geometry": {
    "type": "Point",
    "coordinates": [
     141.44948349,
     -36.98644846
    ]
   },
   "properties": {
    "name": "715 CHARAM-WOMBELANO ROAD CHARAM 3318",
    "locID": "LOC000094204131",
    "tech": "SATELLITE",
    "upgrade": "NULL_NA",
    "gnaf_pid": "GAVIC420586049",
    "tech_change_status": "Not Planned"
   }
  },
  {
   "type": "Feature",
   "geometry": {
    "type": "Point",
    "coordinates": [
     141.491946,
     -36.99227055
    ]
   },
   "properties": {
    "name": "1098 CHARAM-WOMBELANO ROAD CHARAM 3318",
    "locID": "LOC000014593882",
    "tech": "NULL",
    "upgrade": "NULL_NA",
    "gnaf_pid": "GAVIC420764583",
    "tech_change_status": "Not Planned"
   }
  },
  {
   "type": "Feature",
   "geometry": {
    "type": "Point",
    "coordinates": [
     141.50200349,
     -36.9894904
    ]
   },
   "properties": {
    "name": "1196 CHARAM-WOMBELANO ROAD CHARAM 3318",
    "locID": "LOC000071677350",
    "tech": "NULL",
    "upgrade": "NULL_NA",
    "gnaf_pid": "GAVIC420893436",
    "tech_change_status": "Not Planned"
   }
  },
  {
   "type": "Feature",
   "geometry": {
    "type": "Point",
    "coordinates": [
     141.465848,
     -36.988251
    ]
   },
   "properties": {
    "name": "865 CHARAM-WOMBELANO ROAD CHARAM 3318",
    "locID": "LOC000059923932",
    "tech": "SATELLITE",
    "upgrade": "NULL_NA",
    "gnaf_pid": "GAVIC420946508",
    "tech_change_status": "Not Planned"
   }
  },
  {
   "type": "Feature",
   "geometry": {
    "type": "Point",
    "coordinates": [
     141.46818166,
     -36.99472986
    ]
   },
   "properties": {
    "name": "58 CAMERONS AND LAMPARDS ROAD CHARAM 3318",
    "locID": "LOC000073134109",
    "tech": "SATELLITE",
    "upgrade": "NULL_NA",
    "gnaf_pid": "GAVIC421167655",
    "tech_change_status": "Not Planned"
   }
  },
  {
   "type": "Feature",
   "geometry": {
    "type": "Point",
    "coordinates": [
     141.53421911,
     -36.96523753
    ]
   },
   "properties": {
    "name": "158 MCLENNANS ROAD CHARAM 3318",
    "locID": "LOC000002041412",
    "tech": "NULL",
    "upgrade": "NULL_NA",
    "gnaf_pid": "GAVIC421244188",
    "tech_change_status": "Not Planned"
   }
  },
  {
   "type": "Feature",
   "geometry": {
    "type": "Point",
    "coordinates": [
     141.51082022,
     -36.98608819
    ]
   },
   "properties": {
    "name": "1287 CHARAM-WOMBELANO ROAD CHARAM 3318",
    "locID": "LOC000100808841",
    "tech": "NULL",
    "upgrade": "NULL_NA",
    "gnaf_pid": "GAVIC421287444",
    "tech_change_status": "Not Planned"
   }
  },
  {
   "type": "Feature",
   "geometry": {
    "type": "Point",
    "coordinates": [
     141.51094339,
     -36.98607928
    ]
   },
   "properties": {
    "name": "1289 CHARAM-WOMBELANO ROAD CHARAM 3318",
    "locID": "LOC000027992454",
    "tech": "NULL",
    "upgrade": "NULL_NA",
    "gnaf_pid": "GAVIC421585502",
    "tech_change_status": "Not Planned"
   }
  },
  {
   "type": "Feature",
   "geometry": {
    "type": "Point",
    "coordinates": [
     141.44792862,
     -36.98627177
    ]
   },
   "properties": {
    "name": "701 CHARAM-WOMBELANO ROAD CHARAM 3318",
    "locID": "LOC000060864071",
    "tech": "NULL",
    "upgrade": "NULL_NA",
    "gnaf_pid": "GAVIC421786911",
    "tech_change_status": "Not Planned"
   }
  },
  {
   "type": "Feature",
   "geometry": {
    "type": "Point",
    "coordinates": [
     141.50505973,
     -36.89940928
    ]
   },
   "properties": {
    "name": "6861 WIMMERA HIGHWAY CHARAM 3318",
    "locID": "LOC000023007819",
    "tech": "NULL",
    "upgrade": "NULL_NA",
    "gnaf_pid": "GAVIC422121001",
    "tech_change_status": "Not Planned"
   }
  },
  {
   "type": "Feature",
   "geometry": {
    "type": "Point",
    "coordinates": [
     141.47683921,
     -36.91626118
    ]
   },
   "properties": {
    "name": "7185 WIMMERA HIGHWAY CHARAM 3318",
    "locID": "LOC000081691775",
    "tech": "NULL",
    "upgrade": "NULL_NA",
    "gnaf_pid": "GAVIC422334487",
    "tech_change_status": "Not Planned"
   }
  },
  {
   "type": "Feature",
   "geometry": {
    "type": "Point",
    "coordinates": [
     141.52352142,
     -36.97591989
    ]
   },
   "properties": {
    "name": "1536 GOROKE-HARROW ROAD CHARAM 3318",
    "locID": "LOC000034404532",
    "tech": "NULL",
    "upgrade": "NULL_NA",
    "gnaf_pid": "GAVIC424618413",
    "tech_change_status": "Not Planned"
   }
  },
  {
   "type": "Feature",
   "geometry": {
    "type": "Point",
    "coordinates": [
     141.50696168,
     -36.95271918
    ]
   },
   "properties": {
    "name": "1843 GOROKE-HARROW ROAD CHARAM 3318",
    "locID": "LOC000042600916",
    "tech": "NULL",
    "upgrade": "NULL_NA",
    "gnaf_pid": "GAVIC424618414",
    "tech_change_status": "Not Planned"
   }
  },
  {
   "type": "Feature",
   "geometry": {
    "type": "Point",
    "coordinates": [
     141.50709854,
     -36.94916412
    ]
   },
   "properties": {
    "name": "1883 GOROKE-HARROW ROAD CHARAM 3318",
    "locID": "LOC000002770006",
    "tech": "NULL",
    "upgrade": "NULL_NA",
    "gnaf_pid": "GAVIC424618415",
    "tech_change_status": "Not Planned"
   }
  },
  {
   "type": "Feature",
   "geometry": {
    "type": "Point",
    "coordinates": [
     141.50170777,
     -36.92105455
    ]
   },
   "properties": {
    "name": "2168 GOROKE-HARROW ROAD CHARAM 3318",
    "locID": "LOC000091495439",
    "tech": "NULL",
    "upgrade": "NULL_NA",
    "gnaf_pid": "GAVIC424618416",
    "tech_change_status": "Not Planned"
   }
  }
 ]
}