{
 "type": "FeatureCollection",
 "generated": "2024-10-28T17:39:07.374653",
 "suburb": "DALYENONG",
 "features": [
  {
   "type": "Feature",
   "geometry": {
    "type": "Point",
    "coordinates": [
     143.40452965,
     -36.8183599
    ]
   },
   "properties": {
    "name": "237 BURGE ROAD DALYENONG 3477",
    "locID": "LOC000069246270",
    "tech": "NULL",
    "upgrade": "NULL_NA",
    "gnaf_pid": "GAVIC422035775",
    "tech_change_status": "Not Planned"
   }
  },
  {
   "type": "Feature",
   "geometry": {
    "type": "Point",
    "coordinates": [
     143.39681477,
     -36.7931807
    ]
   },
   "properties": {
    "name": "1026 ARCHDALE ROAD DALYENONG 3477",
    "locID": "LOC000124820253",
    "tech": "NULL",
    "upgrade": "NULL_NA",
    "gnaf_pid": "GAVIC422123881",
    "tech_change_status": "Not Planned"
   }
  },
  {
   "type": "Feature",
   "geometry": {
    "type": "Point",
    "coordinates": [
     143.36389805,
     -36.77338551
    ]
   },
   "properties": {
    "name": "659 ARCHDALE ROAD DALYENONG 3477",
    "locID": "LOC000083031484",
    "tech": "NULL",
    "upgrade": "NULL_NA",
    "gnaf_pid": "GAVIC423786648",
    "tech_change_status": "Not Planned"
   }
  },
  {
   "type": "Feature",
   "geometry": {
    "type": "Point",
    "coordinates": [
     143.40600508,
     -36.80799391
    ]
   },
   "properties": {
    "name": "123 BURGE ROAD DALYENONG 3477",
    "locID": "LOC000124824583",
    "tech": "SATELLITE",
    "upgrade": "NULL_NA",
    "gnaf_pid": "GAVIC424022131",
    "tech_change_status": "Not Planned"
   }
  },
  {
   "type": "Feature",
   "geometry": {
    "type": "Point",
    "coordinates": [
     143.35588371,
     -36.79337225
    ]
   },
   "properties": {
    "name": "568 DALYENONG ROAD DALYENONG 3477",
    "locID": "LOC000124800766",
    "tech": "SATELLITE",
    "upgrade": "NULL_NA",
    "gnaf_pid": "GAVIC424535107",
    "tech_change_status": "Not Planned"
   }
  }
 ]
}