{
 "type": "FeatureCollection",
 "generated": "2025-03-10T10:04:42.693219",
 "suburb": "DROUIN EAST",
 "features": [
  {
   "type": "Feature",
   "geometry": {
    "type": "Point",
    "coordinates": [
     145.90104852,
     -38.10552869
    ]
   },
   "properties": {
    "name": "115 LARDNERS TRACK DROUIN EAST 3818",
    "locID": "LOC000073240758",
    "tech": "WIRELESS",
    "upgrade": "NULL_NA",
    "gnaf_pid": "GAVIC411266575",
    "tech_change_status": "Not Planned",
    "program_type": "Fixed Wireless and Satellite Upgrade Program",
    "target_eligibility_quarter": "NA"
   }
  },
  {
   "type": "Feature",
   "geometry": {
    "type": "Point",
    "coordinates": [
     145.89158402,
     -38.14212892
    ]
   },
   "properties": {
    "name": "7 PATERSON STREET DROUIN EAST 3818",
    "locID": "LOC000079306866",
    "tech": "FTTN",
    "upgrade": "NULL_NA",
    "gnaf_pid": "GAVIC411278959",
    "tech_change_status": "Not Planned"
   }
  },
  {
   "type": "Feature",
   "geometry": {
    "type": "Point",
    "coordinates": [
     145.89220539,
     -38.14288407
    ]
   },
   "properties": {
    "name": "14 PATERSON STREET DROUIN EAST 3818",
    "locID": "LOC000125277313",
    "tech": "FTTN",
    "upgrade": "NULL_NA",
    "gnaf_pid": "GAVIC411278963",
    "tech_change_status": "Not Planned"
   }
  },
  {
   "type": "Feature",
   "geometry": {
    "type": "Point",
    "coordinates": [
     145.89309069,
     -38.10832893
    ]
   },
   "properties": {
    "name": "565 BULN BULN ROAD DROUIN EAST 3818",
    "locID": "LOC000017027008",
    "tech": "WIRELESS",
    "upgrade": "NULL_NA",
    "gnaf_pid": "GAVIC411285136",
    "tech_change_status": "Not Planned",
    "program_type": "Fixed Wireless and Satellite Upgrade Program",
    "target_eligibility_quarter": "NA"
   }
  },
  {
   "type": "Feature",
   "geometry": {
    "type": "Point",
    "coordinates": [
     145.89320624,
     -38.14250363
    ]
   },
   "properties": {
    "name": "530 LARDNERS TRACK DROUIN EAST 3818",
    "locID": "LOC000060300585",
    "tech": "FTTN",
    "upgrade": "NULL_NA",
    "gnaf_pid": "GAVIC411285138",
    "tech_change_status": "Not Planned"
   }
  },
  {
   "type": "Feature",
   "geometry": {
    "type": "Point",
    "coordinates": [
     145.890675,
     -38.1424205
    ]
   },
   "properties": {
    "name": "4 BEVERLEY STREET DROUIN EAST 3818",
    "locID": "LOC000006943012",
    "tech": "FTTN",
    "upgrade": "NULL_NA",
    "gnaf_pid": "GAVIC411289578",
    "tech_change_status": "Not Planned"
   }
  },
  {
   "type": "Feature",
   "geometry": {
    "type": "Point",
    "coordinates": [
     145.90093823,
     -38.1037602
    ]
   },
   "properties": {
    "name": "90 LARDNERS TRACK DROUIN EAST 3818",
    "locID": "LOC000085502981",
    "tech": "WIRELESS",
    "upgrade": "NULL_NA",
    "gnaf_pid": "GAVIC411289579",
    "tech_change_status": "Not Planned",
    "program_type": "Fixed Wireless and Satellite Upgrade Program",
    "target_eligibility_quarter": "NA"
   }
  },
  {
   "type": "Feature",
   "geometry": {
    "type": "Point",
    "coordinates": [
     145.9000018,
     -38.10915884
    ]
   },
   "properties": {
    "name": "156 LARDNERS TRACK DROUIN EAST 3818",
    "locID": "LOC000086320191",
    "tech": "WIRELESS",
    "upgrade": "NULL_NA",
    "gnaf_pid": "GAVIC411289580",
    "tech_change_status": "Not Planned",
    "program_type": "Fixed Wireless and Satellite Upgrade Program",
    "target_eligibility_quarter": "NA"
   }
  },
  {
   "type": "Feature",
   "geometry": {
    "type": "Point",
    "coordinates": [
     145.90027326,
     -38.1077915
    ]
   },
   "properties": {
    "name": "140 LARDNERS TRACK DROUIN EAST 3818",
    "locID": "LOC000045724603",
    "tech": "WIRELESS",
    "upgrade": "NULL_NA",
    "gnaf_pid": "GAVIC411289581",
    "tech_change_status": "Not Planned",
    "program_type": "Fixed Wireless and Satellite Upgrade Program",
    "target_eligibility_quarter": "NA"
   }
  },
  {
   "type": "Feature",
   "geometry": {
    "type": "Point",
    "coordinates": [
     145.89027022,
     -38.14239525
    ]
   },
   "properties": {
    "name": "3 BEVERLEY STREET DROUIN EAST 3818",
    "locID": "LOC000029303273",
    "tech": "FTTN",
    "upgrade": "NULL_NA",
    "gnaf_pid": "GAVIC411290491",
    "tech_change_status": "Not Planned"
   }
  },
  {
   "type": "Feature",
   "geometry": {
    "type": "Point",
    "coordinates": [
     145.89130161,
     -38.12116821
    ]
   },
   "properties": {
    "name": "390 BULN BULN ROAD DROUIN EAST 3818",
    "locID": "LOC000092575226",
    "tech": "WIRELESS",
    "upgrade": "NULL_NA",
    "gnaf_pid": "GAVIC411290499",
    "tech_change_status": "Not Planned",
    "program_type": "Fixed Wireless and Satellite Upgrade Program",
    "target_eligibility_quarter": "NA"
   }
  },
  {
   "type": "Feature",
   "geometry": {
    "type": "Point",
    "coordinates": [
     145.88578564,
     -38.13109276
    ]
   },
   "properties": {
    "name": "240 BULN BULN ROAD DROUIN EAST 3818",
    "locID": "LOC000034202510",
    "tech": "WIRELESS",
    "upgrade": "NULL_NA",
    "gnaf_pid": "GAVIC411290505",
    "tech_change_status": "Not Planned",
    "program_type": "Fixed Wireless and Satellite Upgrade Program",
    "target_eligibility_quarter": "NA"
   }
  },
  {
   "type": "Feature",
   "geometry": {
    "type": "Point",
    "coordinates": [
     145.89951971,
     -38.11164171
    ]
   },
   "properties": {
    "name": "180 LARDNERS TRACK DROUIN EAST 3818",
    "locID": "LOC000025166039",
    "tech": "WIRELESS",
    "upgrade": "NULL_NA",
    "gnaf_pid": "GAVIC411290507",
    "tech_change_status": "Not Planned",
    "program_type": "Fixed Wireless and Satellite Upgrade Program",
    "target_eligibility_quarter": "NA"
   }
  },
  {
   "type": "Feature",
   "geometry": {
    "type": "Point",
    "coordinates": [
     145.8992975,
     -38.11276616
    ]
   },
   "properties": {
    "name": "196 LARDNERS TRACK DROUIN EAST 3818",
    "locID": "LOC000023821699",
    "tech": "WIRELESS",
    "upgrade": "NULL_NA",
    "gnaf_pid": "GAVIC411290508",
    "tech_change_status": "Not Planned",
    "program_type": "Fixed Wireless and Satellite Upgrade Program",
    "target_eligibility_quarter": "NA"
   }
  },
  {
   "type": "Feature",
   "geometry": {
    "type": "Point",
    "coordinates": [
     145.89389955,
     -38.1333457
    ]
   },
   "properties": {
    "name": "50 MORTON ROAD DROUIN EAST 3818",
    "locID": "LOC000070094645",
    "tech": "WIRELESS",
    "upgrade": "NULL_NA",
    "gnaf_pid": "GAVIC411294462",
    "tech_change_status": "Not Planned",
    "program_type": "Fixed Wireless and Satellite Upgrade Program",
    "target_eligibility_quarter": "NA"
   }
  },
  {
   "type": "Feature",
   "geometry": {
    "type": "Point",
    "coordinates": [
     145.88928437,
     -38.12342819
    ]
   },
   "properties": {
    "name": "355 BULN BULN ROAD DROUIN EAST 3818",
    "locID": "LOC000040141010",
    "tech": "WIRELESS",
    "upgrade": "NULL_NA",
    "gnaf_pid": "GAVIC411305028",
    "tech_change_status": "Not Planned",
    "program_type": "Fixed Wireless and Satellite Upgrade Program",
    "target_eligibility_quarter": "NA"
   }
  },
  {
   "type": "Feature",
   "geometry": {
    "type": "Point",
    "coordinates": [
     145.89099154,
     -38.1128151
    ]
   },
   "properties": {
    "name": "510 BULN BULN ROAD DROUIN EAST 3818",
    "locID": "LOC000015956149",
    "tech": "WIRELESS",
    "upgrade": "NULL_NA",
    "gnaf_pid": "GAVIC419717328",
    "tech_change_status": "Not Planned",
    "program_type": "Fixed Wireless and Satellite Upgrade Program",
    "target_eligibility_quarter": "NA"
   }
  },
  {
   "type": "Feature",
   "geometry": {
    "type": "Point",
    "coordinates": [
     145.89475391,
     -38.10816523
    ]
   },
   "properties": {
    "name": "570 BULN BULN ROAD DROUIN EAST 3818",
    "locID": "LOC000007875820",
    "tech": "WIRELESS",
    "upgrade": "NULL_NA",
    "gnaf_pid": "GAVIC419717330",
    "tech_change_status": "Not Planned",
    "program_type": "Fixed Wireless and Satellite Upgrade Program",
    "target_eligibility_quarter": "NA"
   }
  },
  {
   "type": "Feature",
   "geometry": {
    "type": "Point",
    "coordinates": [
     145.888603,
     -38.11343482
    ]
   },
   "properties": {
    "name": "485 BULN BULN ROAD DROUIN EAST 3818",
    "locID": "LOC100078652718",
    "tech": "WIRELESS",
    "upgrade": "NULL_NA",
    "gnaf_pid": "GAVIC419745281",
    "tech_change_status": "Not Planned",
    "program_type": "Fixed Wireless and Satellite Upgrade Program",
    "target_eligibility_quarter": "NA"
   }
  },
  {
   "type": "Feature",
   "geometry": {
    "type": "Point",
    "coordinates": [
     145.89200305,
     -38.14266067
    ]
   },
   "properties": {
    "name": "10-12 PATERSON STREET DROUIN EAST 3818",
    "locID": "LOC000037757723",
    "tech": "FTTN",
    "upgrade": "NULL_NA",
    "gnaf_pid": "GAVIC419760133",
    "tech_change_status": "Not Planned"
   }
  },
  {
   "type": "Feature",
   "geometry": {
    "type": "Point",
    "coordinates": [
     145.89056387,
     -38.14249119
    ]
   },
   "properties": {
    "name": "2 BEVERLEY STREET DROUIN EAST 3818",
    "locID": "LOC000070106269",
    "tech": "FTTN",
    "upgrade": "NULL_NA",
    "gnaf_pid": "GAVIC419811251",
    "tech_change_status": "Not Planned"
   }
  },
  {
   "type": "Feature",
   "geometry": {
    "type": "Point",
    "coordinates": [
     145.89064577,
     -38.14208069
    ]
   },
   "properties": {
    "name": "8 BEVERLEY STREET DROUIN EAST 3818",
    "locID": "LOC000014335262",
    "tech": "FTTN",
    "upgrade": "NULL_NA",
    "gnaf_pid": "GAVIC419811252",
    "tech_change_status": "Not Planned"
   }
  },
  {
   "type": "Feature",
   "geometry": {
    "type": "Point",
    "coordinates": [
     145.89247632,
     -38.11133597
    ]
   },
   "properties": {
    "name": "530 BULN BULN ROAD DROUIN EAST 3818",
    "locID": "LOC000046343495",
    "tech": "WIRELESS",
    "upgrade": "NULL_NA",
    "gnaf_pid": "GAVIC420006925",
    "tech_change_status": "Not Planned",
    "program_type": "Fixed Wireless and Satellite Upgrade Program",
    "target_eligibility_quarter": "NA"
   }
  },
  {
   "type": "Feature",
   "geometry": {
    "type": "Point",
    "coordinates": [
     145.89267062,
     -38.11055767
    ]
   },
   "properties": {
    "name": "540 BULN BULN ROAD DROUIN EAST 3818",
    "locID": "LOC000079538817",
    "tech": "WIRELESS",
    "upgrade": "NULL_NA",
    "gnaf_pid": "GAVIC420006926",
    "tech_change_status": "Not Planned",
    "program_type": "Fixed Wireless and Satellite Upgrade Program",
    "target_eligibility_quarter": "NA"
   }
  },
  {
   "type": "Feature",
   "geometry": {
    "type": "Point",
    "coordinates": [
     145.89039902,
     -38.14172789
    ]
   },
   "properties": {
    "name": "11 BEVERLEY STREET DROUIN EAST 3818",
    "locID": "LOC000054384820",
    "tech": "FTTN",
    "upgrade": "NULL_NA",
    "gnaf_pid": "GAVIC420083042",
    "tech_change_status": "Not Planned"
   }
  },
  {
   "type": "Feature",
   "geometry": {
    "type": "Point",
    "coordinates": [
     145.89042394,
     -38.14157834
    ]
   },
   "properties": {
    "name": "13 BEVERLEY STREET DROUIN EAST 3818",
    "locID": "LOC000082297718",
    "tech": "FTTN",
    "upgrade": "NULL_NA",
    "gnaf_pid": "GAVIC420431142",
    "tech_change_status": "Not Planned"
   }
  },
  {
   "type": "Feature",
   "geometry": {
    "type": "Point",
    "coordinates": [
     145.89321223,
     -38.10880902
    ]
   },
   "properties": {
    "name": "560 BULN BULN ROAD DROUIN EAST 3818",
    "locID": "LOC000059972886",
    "tech": "WIRELESS",
    "upgrade": "NULL_NA",
    "gnaf_pid": "GAVIC420612452",
    "tech_change_status": "Not Planned",
    "program_type": "Fixed Wireless and Satellite Upgrade Program",
    "target_eligibility_quarter": "NA"
   }
  },
  {
   "type": "Feature",
   "geometry": {
    "type": "Point",
    "coordinates": [
     145.88360463,
     -38.13083859
    ]
   },
   "properties": {
    "name": "220 BULN BULN ROAD DROUIN EAST 3818",
    "locID": "LOC000057441970",
    "tech": "WIRELESS",
    "upgrade": "NULL_NA",
    "gnaf_pid": "GAVIC420638527",
    "tech_change_status": "Not Planned",
    "program_type": "Fixed Wireless and Satellite Upgrade Program",
    "target_eligibility_quarter": "NA"
   }
  },
  {
   "type": "Feature",
   "geometry": {
    "type": "Point",
    "coordinates": [
     145.89312793,
     -38.14291483
    ]
   },
   "properties": {
    "name": "23 PATERSON STREET DROUIN EAST 3818",
    "locID": "LOC000066684901",
    "tech": "FTTN",
    "upgrade": "NULL_NA",
    "gnaf_pid": "GAVIC420694906",
    "tech_change_status": "Not Planned"
   }
  },
  {
   "type": "Feature",
   "geometry": {
    "type": "Point",
    "coordinates": [
     145.89176252,
     -38.14249825
    ]
   },
   "properties": {
    "name": "8 PATERSON STREET DROUIN EAST 3818",
    "locID": "LOC000013931745",
    "tech": "FTTN",
    "upgrade": "NULL_NA",
    "gnaf_pid": "GAVIC420697525",
    "tech_change_status": "Not Planned"
   }
  },
  {
   "type": "Feature",
   "geometry": {
    "type": "Point",
    "coordinates": [
     145.89265599,
     -38.1429372
    ]
   },
   "properties": {
    "name": "18 PATERSON STREET DROUIN EAST 3818",
    "locID": "LOC000036196075",
    "tech": "FTTN",
    "upgrade": "NULL_NA",
    "gnaf_pid": "GAVIC420697526",
    "tech_change_status": "Not Planned"
   }
  },
  {
   "type": "Feature",
   "geometry": {
    "type": "Point",
    "coordinates": [
     145.88828869,
     -38.11738946
    ]
   },
   "properties": {
    "name": "445 BULN BULN ROAD DROUIN EAST 3818",
    "locID": "LOC000002848573",
    "tech": "WIRELESS",
    "upgrade": "NULL_NA",
    "gnaf_pid": "GAVIC420716509",
    "tech_change_status": "Not Planned",
    "program_type": "Fixed Wireless and Satellite Upgrade Program",
    "target_eligibility_quarter": "NA"
   }
  },
  {
   "type": "Feature",
   "geometry": {
    "type": "Point",
    "coordinates": [
     145.89035295,
     -38.14219417
    ]
   },
   "properties": {
    "name": "5 BEVERLEY STREET DROUIN EAST 3818",
    "locID": "LOC000047233617",
    "tech": "FTTN",
    "upgrade": "NULL_NA",
    "gnaf_pid": "GAVIC420732878",
    "tech_change_status": "Not Planned"
   }
  },
  {
   "type": "Feature",
   "geometry": {
    "type": "Point",
    "coordinates": [
     145.89114193,
     -38.14219703
    ]
   },
   "properties": {
    "name": "2 PATERSON STREET DROUIN EAST 3818",
    "locID": "LOC000061978449",
    "tech": "FTTN",
    "upgrade": "NULL_NA",
    "gnaf_pid": "GAVIC421283139",
    "tech_change_status": "Not Planned"
   }
  },
  {
   "type": "Feature",
   "geometry": {
    "type": "Point",
    "coordinates": [
     145.89158505,
     -38.14241748
    ]
   },
   "properties": {
    "name": "6 PATERSON STREET DROUIN EAST 3818",
    "locID": "LOC000096767912",
    "tech": "FTTN",
    "upgrade": "NULL_NA",
    "gnaf_pid": "GAVIC421283140",
    "tech_change_status": "Not Planned"
   }
  },
  {
   "type": "Feature",
   "geometry": {
    "type": "Point",
    "coordinates": [
     145.89300609,
     -38.14311069
    ]
   },
   "properties": {
    "name": "22 PATERSON STREET DROUIN EAST 3818",
    "locID": "LOC000038722061",
    "tech": "FTTN",
    "upgrade": "NULL_NA",
    "gnaf_pid": "GAVIC421283142",
    "tech_change_status": "Not Planned"
   }
  },
  {
   "type": "Feature",
   "geometry": {
    "type": "Point",
    "coordinates": [
     145.89317703,
     -38.14318471
    ]
   },
   "properties": {
    "name": "24 PATERSON STREET DROUIN EAST 3818",
    "locID": "LOC000056644562",
    "tech": "FTTN",
    "upgrade": "NULL_NA",
    "gnaf_pid": "GAVIC421293918",
    "tech_change_status": "Not Planned"
   }
  },
  {
   "type": "Feature",
   "geometry": {
    "type": "Point",
    "coordinates": [
     145.890788,
     -38.14139
    ]
   },
   "properties": {
    "name": "14 BEVERLEY STREET DROUIN EAST 3818",
    "locID": "LOC000034870148",
    "tech": "FTTN",
    "upgrade": "NULL_NA",
    "gnaf_pid": "GAVIC421307366",
    "tech_change_status": "Not Planned"
   }
  },
  {
   "type": "Feature",
   "geometry": {
    "type": "Point",
    "coordinates": [
     145.8905007,
     -38.14138407
    ]
   },
   "properties": {
    "name": "15-17 BEVERLEY STREET DROUIN EAST 3818",
    "locID": "LOC000065566496",
    "tech": "FTTN",
    "upgrade": "NULL_NA",
    "gnaf_pid": "GAVIC421307367",
    "tech_change_status": "Not Planned"
   }
  },
  {
   "type": "Feature",
   "geometry": {
    "type": "Point",
    "coordinates": [
     145.89332156,
     -38.14299784
    ]
   },
   "properties": {
    "name": "25 PATERSON STREET DROUIN EAST 3818",
    "locID": "LOC000047791865",
    "tech": "FTTN",
    "upgrade": "NULL_NA",
    "gnaf_pid": "GAVIC421308787",
    "tech_change_status": "Not Planned"
   }
  },
  {
   "type": "Feature",
   "geometry": {
    "type": "Point",
    "coordinates": [
     145.89138561,
     -38.12954491
    ]
   },
   "properties": {
    "name": "300 BULN BULN ROAD DROUIN EAST 3818",
    "locID": "LOC000070432101",
    "tech": "WIRELESS",
    "upgrade": "NULL_NA",
    "gnaf_pid": "GAVIC421483883",
    "tech_change_status": "Not Planned",
    "program_type": "Fixed Wireless and Satellite Upgrade Program",
    "target_eligibility_quarter": "NA"
   }
  },
  {
   "type": "Feature",
   "geometry": {
    "type": "Point",
    "coordinates": [
     145.89217917,
     -38.14241745
    ]
   },
   "properties": {
    "name": "11 PATERSON STREET DROUIN EAST 3818",
    "locID": "LOC000038642778",
    "tech": "FTTN",
    "upgrade": "NULL_NA",
    "gnaf_pid": "GAVIC421607100",
    "tech_change_status": "Not Planned"
   }
  },
  {
   "type": "Feature",
   "geometry": {
    "type": "Point",
    "coordinates": [
     145.8907,
     -38.141146
    ]
   },
   "properties": {
    "name": "16 BEVERLEY STREET DROUIN EAST 3818",
    "locID": "LOC000061795076",
    "tech": "WIRELESS",
    "upgrade": "NULL_NA",
    "gnaf_pid": "GAVIC421621573",
    "tech_change_status": "Not Planned",
    "program_type": "Fixed Wireless and Satellite Upgrade Program",
    "target_eligibility_quarter": "NA"
   }
  },
  {
   "type": "Feature",
   "geometry": {
    "type": "Point",
    "coordinates": [
     145.89116184,
     -38.14197142
    ]
   },
   "properties": {
    "name": "1 PATERSON STREET DROUIN EAST 3818",
    "locID": "LOC000048087038",
    "tech": "FTTN",
    "upgrade": "NULL_NA",
    "gnaf_pid": "GAVIC421653985",
    "tech_change_status": "Not Planned"
   }
  },
  {
   "type": "Feature",
   "geometry": {
    "type": "Point",
    "coordinates": [
     145.89139458,
     -38.14231792
    ]
   },
   "properties": {
    "name": "4 PATERSON STREET DROUIN EAST 3818",
    "locID": "LOC000093131759",
    "tech": "FTTN",
    "upgrade": "NULL_NA",
    "gnaf_pid": "GAVIC421653986",
    "tech_change_status": "Not Planned"
   }
  },
  {
   "type": "Feature",
   "geometry": {
    "type": "Point",
    "coordinates": [
     145.89079725,
     -38.13175733
    ]
   },
   "properties": {
    "name": "10 MORTON ROAD DROUIN EAST 3818",
    "locID": "LOC000071241851",
    "tech": "WIRELESS",
    "upgrade": "NULL_NA",
    "gnaf_pid": "GAVIC421840112",
    "tech_change_status": "Not Planned",
    "program_type": "Fixed Wireless and Satellite Upgrade Program",
    "target_eligibility_quarter": "NA"
   }
  },
  {
   "type": "Feature",
   "geometry": {
    "type": "Point",
    "coordinates": [
     145.89149465,
     -38.14208559
    ]
   },
   "properties": {
    "name": "3 PATERSON STREET DROUIN EAST 3818",
    "locID": "LOC000037436827",
    "tech": "FTTN",
    "upgrade": "NULL_NA",
    "gnaf_pid": "GAVIC421894146",
    "tech_change_status": "Not Planned"
   }
  },
  {
   "type": "Feature",
   "geometry": {
    "type": "Point",
    "coordinates": [
     145.89283652,
     -38.14301945
    ]
   },
   "properties": {
    "name": "20 PATERSON STREET DROUIN EAST 3818",
    "locID": "LOC000033633917",
    "tech": "FTTN",
    "upgrade": "NULL_NA",
    "gnaf_pid": "GAVIC421894148",
    "tech_change_status": "Not Planned"
   }
  },
  {
   "type": "Feature",
   "geometry": {
    "type": "Point",
    "coordinates": [
     145.89331205,
     -38.14325973
    ]
   },
   "properties": {
    "name": "26 PATERSON STREET DROUIN EAST 3818",
    "locID": "LOC000018585454",
    "tech": "FTTN",
    "upgrade": "NULL_NA",
    "gnaf_pid": "GAVIC421894149",
    "tech_change_status": "Not Planned"
   }
  },
  {
   "type": "Feature",
   "geometry": {
    "type": "Point",
    "coordinates": [
     145.89037764,
     -38.14203511
    ]
   },
   "properties": {
    "name": "7 BEVERLEY STREET DROUIN EAST 3818",
    "locID": "LOC000052572674",
    "tech": "FTTN",
    "upgrade": "NULL_NA",
    "gnaf_pid": "GAVIC421916939",
    "tech_change_status": "Not Planned"
   }
  },
  {
   "type": "Feature",
   "geometry": {
    "type": "Point",
    "coordinates": [
     145.89041413,
     -38.14188226
    ]
   },
   "properties": {
    "name": "9 BEVERLEY STREET DROUIN EAST 3818",
    "locID": "LOC000103462059",
    "tech": "FTTN",
    "upgrade": "NULL_NA",
    "gnaf_pid": "GAVIC421916940",
    "tech_change_status": "Not Planned"
   }
  },
  {
   "type": "Feature",
   "geometry": {
    "type": "Point",
    "coordinates": [
     145.8944836,
     -38.13924414
    ]
   },
   "properties": {
    "name": "491 LARDNERS TRACK DROUIN EAST 3818",
    "locID": "LOC000106033995",
    "tech": "WIRELESS",
    "upgrade": "NULL_NA",
    "gnaf_pid": "GAVIC422163191",
    "tech_change_status": "Not Planned",
    "program_type": "Fixed Wireless and Satellite Upgrade Program",
    "target_eligibility_quarter": "NA"
   }
  },
  {
   "type": "Feature",
   "geometry": {
    "type": "Point",
    "coordinates": [
     145.88990836,
     -38.10305371
    ]
   },
   "properties": {
    "name": "86 LOCKWOOD ROAD DROUIN EAST 3818",
    "locID": "LOC000020543432",
    "tech": "WIRELESS",
    "upgrade": "NULL_NA",
    "gnaf_pid": "GAVIC422304999",
    "tech_change_status": "Not Planned",
    "program_type": "Fixed Wireless and Satellite Upgrade Program",
    "target_eligibility_quarter": "NA"
   }
  },
  {
   "type": "Feature",
   "geometry": {
    "type": "Point",
    "coordinates": [
     145.89491474,
     -38.10687709
    ]
   },
   "properties": {
    "name": "12 LOCKWOOD ROAD DROUIN EAST 3818",
    "locID": "LOC000085226688",
    "tech": "WIRELESS",
    "upgrade": "NULL_NA",
    "gnaf_pid": "GAVIC422407385",
    "tech_change_status": "Not Planned",
    "program_type": "Fixed Wireless and Satellite Upgrade Program",
    "target_eligibility_quarter": "NA"
   }
  },
  {
   "type": "Feature",
   "geometry": {
    "type": "Point",
    "coordinates": [
     145.89385999,
     -38.1057226
    ]
   },
   "properties": {
    "name": "30 LOCKWOOD ROAD DROUIN EAST 3818",
    "locID": "LOC000061858588",
    "tech": "WIRELESS",
    "upgrade": "NULL_NA",
    "gnaf_pid": "GAVIC422407386",
    "tech_change_status": "Not Planned",
    "program_type": "Fixed Wireless and Satellite Upgrade Program",
    "target_eligibility_quarter": "NA"
   }
  },
  {
   "type": "Feature",
   "geometry": {
    "type": "Point",
    "coordinates": [
     145.8900565,
     -38.1046131
    ]
   },
   "properties": {
    "name": "65 LOCKWOOD ROAD DROUIN EAST 3818",
    "locID": "LOC000046810157",
    "tech": "WIRELESS",
    "upgrade": "NULL_NA",
    "gnaf_pid": "GAVIC422407387",
    "tech_change_status": "Not Planned",
    "program_type": "Fixed Wireless and Satellite Upgrade Program",
    "target_eligibility_quarter": "NA"
   }
  },
  {
   "type": "Feature",
   "geometry": {
    "type": "Point",
    "coordinates": [
     145.89235181,
     -38.14250117
    ]
   },
   "properties": {
    "name": "13-15 PATERSON STREET DROUIN EAST 3818",
    "locID": "LOC000050086865",
    "tech": "FTTN",
    "upgrade": "NULL_NA",
    "gnaf_pid": "GAVIC422450823",
    "tech_change_status": "Not Planned"
   }
  },
  {
   "type": "Feature",
   "geometry": {
    "type": "Point",
    "coordinates": [
     145.8917075,
     -38.1138123
    ]
   },
   "properties": {
    "name": "19 LINTOTT ROAD DROUIN EAST 3818",
    "locID": "LOC000104659186",
    "tech": "WIRELESS",
    "upgrade": "NULL_NA",
    "gnaf_pid": "GAVIC423384791",
    "tech_change_status": "Not Planned",
    "program_type": "Fixed Wireless and Satellite Upgrade Program",
    "target_eligibility_quarter": "NA"
   }
  },
  {
   "type": "Feature",
   "geometry": {
    "type": "Point",
    "coordinates": [
     145.89295094,
     -38.11427554
    ]
   },
   "properties": {
    "name": "34 LINTOTT ROAD DROUIN EAST 3818",
    "locID": "LOC000066883685",
    "tech": "WIRELESS",
    "upgrade": "NULL_NA",
    "gnaf_pid": "GAVIC423384792",
    "tech_change_status": "Not Planned",
    "program_type": "Fixed Wireless and Satellite Upgrade Program",
    "target_eligibility_quarter": "NA"
   }
  },
  {
   "type": "Feature",
   "geometry": {
    "type": "Point",
    "coordinates": [
     145.88875835,
     -38.11661328
    ]
   },
   "properties": {
    "name": "490 BULN BULN ROAD DROUIN EAST 3818",
    "locID": "LOC000069786459",
    "tech": "WIRELESS",
    "upgrade": "NULL_NA",
    "gnaf_pid": "GAVIC423503530",
    "tech_change_status": "Not Planned",
    "program_type": "Fixed Wireless and Satellite Upgrade Program",
    "target_eligibility_quarter": "NA"
   }
  },
  {
   "type": "Feature",
   "geometry": {
    "type": "Point",
    "coordinates": [
     145.89139891,
     -38.12064071
    ]
   },
   "properties": {
    "name": "400 BULN BULN ROAD DROUIN EAST 3818",
    "locID": "LOC000056665182",
    "tech": "WIRELESS",
    "upgrade": "NULL_NA",
    "gnaf_pid": "GAVIC423623565",
    "tech_change_status": "Not Planned",
    "program_type": "Fixed Wireless and Satellite Upgrade Program",
    "target_eligibility_quarter": "NA"
   }
  },
  {
   "type": "Feature",
   "geometry": {
    "type": "Point",
    "coordinates": [
     145.89074313,
     -38.14158338
    ]
   },
   "properties": {
    "name": "10-12 BEVERLEY STREET DROUIN EAST 3818",
    "locID": "LOC000070449925",
    "tech": "FTTN",
    "upgrade": "NULL_NA",
    "gnaf_pid": "GAVIC423727039",
    "tech_change_status": "Not Planned"
   }
  },
  {
   "type": "Feature",
   "geometry": {
    "type": "Point",
    "coordinates": [
     145.89114426,
     -38.1193777
    ]
   },
   "properties": {
    "name": "414 BULN BULN ROAD DROUIN EAST 3818",
    "locID": "LOC000100298717",
    "tech": "WIRELESS",
    "upgrade": "NULL_NA",
    "gnaf_pid": "GAVIC424060368",
    "tech_change_status": "Not Planned",
    "program_type": "Fixed Wireless and Satellite Upgrade Program",
    "target_eligibility_quarter": "NA"
   }
  },
  {
   "type": "Feature",
   "geometry": {
    "type": "Point",
    "coordinates": [
     145.89247507,
     -38.14284583
    ]
   },
   "properties": {
    "name": "16 PATERSON STREET DROUIN EAST 3818",
    "locID": "LOC000092780799",
    "tech": "FTTN",
    "upgrade": "NULL_NA",
    "gnaf_pid": "GAVIC424970319",
    "tech_change_status": "Not Planned"
   }
  },
  {
   "type": "Feature",
   "geometry": {
    "type": "Point",
    "coordinates": [
     145.89427415,
     -38.14061072
    ]
   },
   "properties": {
    "name": "495 LARDNERS TRACK DROUIN EAST 3818",
    "locID": "LOC100072044402",
    "tech": "WIRELESS",
    "upgrade": "NULL_NA",
    "gnaf_pid": "GAVIC719411269",
    "tech_change_status": "Not Planned",
    "program_type": "Fixed Wireless and Satellite Upgrade Program",
    "target_eligibility_quarter": "NA"
   }
  },
  {
   "type": "Feature",
   "geometry": {
    "type": "Point",
    "coordinates": [
     145.89115324,
     -38.14296095
    ]
   },
   "properties": {
    "name": "1563 PRINCES WAY EAST DROUIN EAST 3818",
    "locID": "LOC000029312844",
    "tech": "FTTN",
    "upgrade": "NULL_NA",
    "gnaf_pid": "GAVIC720125933",
    "tech_change_status": "Not Planned"
   }
  },
  {
   "type": "Feature",
   "geometry": {
    "type": "Point",
    "coordinates": [
     145.89258527,
     -38.1436403
    ]
   },
   "properties": {
    "name": "1579 PRINCES WAY EAST DROUIN EAST 3818",
    "locID": "LOC000090985788",
    "tech": "FTTN",
    "upgrade": "NULL_NA",
    "gnaf_pid": "GAVIC720126627",
    "tech_change_status": "Not Planned"
   }
  },
  {
   "type": "Feature",
   "geometry": {
    "type": "Point",
    "coordinates": [
     145.89308357,
     -38.14369364
    ]
   },
   "properties": {
    "name": "UNIT 3, 1583 PRINCES WAY EAST DROUIN EAST 3818",
    "locID": "LOC000053804626",
    "tech": "FTTN",
    "upgrade": "NULL_NA",
    "gnaf_pid": "GAVIC720127318",
    "tech_change_status": "Not Planned"
   }
  },
  {
   "type": "Feature",
   "geometry": {
    "type": "Point",
    "coordinates": [
     145.89134584,
     -38.143044
    ]
   },
   "properties": {
    "name": "1567 PRINCES WAY EAST DROUIN EAST 3818",
    "locID": "LOC000084778743",
    "tech": "FTTN",
    "upgrade": "NULL_NA",
    "gnaf_pid": "GAVIC720127871",
    "tech_change_status": "Not Planned"
   }
  },
  {
   "type": "Feature",
   "geometry": {
    "type": "Point",
    "coordinates": [
     145.89315575,
     -38.14372929
    ]
   },
   "properties": {
    "name": "UNIT 2, 1583 PRINCES WAY EAST DROUIN EAST 3818",
    "locID": "LOC000053945902",
    "tech": "FTTN",
    "upgrade": "NULL_NA",
    "gnaf_pid": "GAVIC720129334",
    "tech_change_status": "Not Planned"
   }
  },
  {
   "type": "Feature",
   "geometry": {
    "type": "Point",
    "coordinates": [
     145.89242648,
     -38.14356647
    ]
   },
   "properties": {
    "name": "1577 PRINCES WAY EAST DROUIN EAST 3818",
    "locID": "LOC000035345551",
    "tech": "FTTN",
    "upgrade": "NULL_NA",
    "gnaf_pid": "GAVIC720130520",
    "tech_change_status": "Not Planned"
   }
  },
  {
   "type": "Feature",
   "geometry": {
    "type": "Point",
    "coordinates": [
     145.89289554,
     -38.14351235
    ]
   },
   "properties": {
    "name": "UNIT 2, 1581 PRINCES WAY EAST DROUIN EAST 3818",
    "locID": "LOC000094028115",
    "tech": "FTTN",
    "upgrade": "NULL_NA",
    "gnaf_pid": "GAVIC720130719",
    "tech_change_status": "Not Planned"
   }
  },
  {
   "type": "Feature",
   "geometry": {
    "type": "Point",
    "coordinates": [
     145.89223422,
     -38.14348364
    ]
   },
   "properties": {
    "name": "1575 PRINCES WAY EAST DROUIN EAST 3818",
    "locID": "LOC000037848561",
    "tech": "FTTN",
    "upgrade": "NULL_NA",
    "gnaf_pid": "GAVIC720132105",
    "tech_change_status": "Not Planned"
   }
  },
  {
   "type": "Feature",
   "geometry": {
    "type": "Point",
    "coordinates": [
     145.89207506,
     -38.14336396
    ]
   },
   "properties": {
    "name": "1573 PRINCES WAY EAST DROUIN EAST 3818",
    "locID": "LOC000098430455",
    "tech": "FTTN",
    "upgrade": "NULL_NA",
    "gnaf_pid": "GAVIC720132882",
    "tech_change_status": "Not Planned"
   }
  },
  {
   "type": "Feature",
   "geometry": {
    "type": "Point",
    "coordinates": [
     145.8930172,
     -38.1436609
    ]
   },
   "properties": {
    "name": "UNIT 4, 1583 PRINCES WAY EAST DROUIN EAST 3818",
    "locID": "LOC000054362975",
    "tech": "FTTN",
    "upgrade": "NULL_NA",
    "gnaf_pid": "GAVIC720135756",
    "tech_change_status": "Not Planned"
   }
  },
  {
   "type": "Feature",
   "geometry": {
    "type": "Point",
    "coordinates": [
     145.89323222,
     -38.14376467
    ]
   },
   "properties": {
    "name": "UNIT 1, 1583 PRINCES WAY EAST DROUIN EAST 3818",
    "locID": "LOC000053953440",
    "tech": "FTTN",
    "upgrade": "NULL_NA",
    "gnaf_pid": "GAVIC720136644",
    "tech_change_status": "Not Planned"
   }
  },
  {
   "type": "Feature",
   "geometry": {
    "type": "Point",
    "coordinates": [
     145.89284345,
     -38.14357201
    ]
   },
   "properties": {
    "name": "UNIT 1, 1581 PRINCES WAY EAST DROUIN EAST 3818",
    "locID": "LOC000094028115",
    "tech": "FTTN",
    "upgrade": "NULL_NA",
    "gnaf_pid": "GAVIC720139769",
    "tech_change_status": "Not Planned"
   }
  },
  {
   "type": "Feature",
   "geometry": {
    "type": "Point",
    "coordinates": [
     145.89097821,
     -38.1428757
    ]
   },
   "properties": {
    "name": "1561 PRINCES WAY EAST DROUIN EAST 3818",
    "locID": "LOC000086255934",
    "tech": "FTTN",
    "upgrade": "NULL_NA",
    "gnaf_pid": "GAVIC720141977",
    "tech_change_status": "Not Planned"
   }
  },
  {
   "type": "Feature",
   "geometry": {
    "type": "Point",
    "coordinates": [
     145.89168104,
     -38.14321702
    ]
   },
   "properties": {
    "name": "1569 PRINCES WAY EAST DROUIN EAST 3818",
    "locID": "LOC000107922653",
    "tech": "FTTN",
    "upgrade": "NULL_NA",
    "gnaf_pid": "GAVIC720143526",
    "tech_change_status": "Not Planned"
   }
  },
  {
   "type": "Feature",
   "geometry": {
    "type": "Point",
    "coordinates": [
     145.8930172,
     -38.1436609
    ]
   },
   "properties": {
    "name": "1583 PRINCES WAY EAST DROUIN EAST 3818",
    "locID": "LOC000053945902",
    "tech": "FTTN",
    "upgrade": "NULL_NA",
    "gnaf_pid": "GAVIC720169535",
    "tech_change_status": "Not Planned"
   }
  },
  {
   "type": "Feature",
   "geometry": {
    "type": "Point",
    "coordinates": [
     145.89284345,
     -38.14357201
    ]
   },
   "properties": {
    "name": "1581 PRINCES WAY EAST DROUIN EAST 3818",
    "locID": "LOC000094028115",
    "tech": "FTTN",
    "upgrade": "NULL_NA",
    "gnaf_pid": "GAVIC720169898",
    "tech_change_status": "Not Planned"
   }
  },
  {
   "type": "Feature",
   "geometry": {
    "type": "Point",
    "coordinates": [
     145.8930172,
     -38.1436609
    ]
   },
   "properties": {
    "name": "UNIT 6, 1583 PRINCES WAY EAST DROUIN EAST 3818",
    "locID": "LOC000184906254",
    "tech": "FTTN",
    "upgrade": "NULL_NA",
    "gnaf_pid": "GAVIC720169976",
    "tech_change_status": "Not Planned"
   }
  },
  {
   "type": "Feature",
   "geometry": {
    "type": "Point",
    "coordinates": [
     145.8930172,
     -38.1436609
    ]
   },
   "properties": {
    "name": "UNIT 5, 1583 PRINCES WAY EAST DROUIN EAST 3818",
    "locID": "LOC000159609641",
    "tech": "FTTN",
    "upgrade": "NULL_NA",
    "gnaf_pid": "GAVIC720170654",
    "tech_change_status": "Not Planned"
   }
  }
 ]
}