{
 "type": "FeatureCollection",
 "generated": "2024-12-25T12:27:35.859404",
 "suburb": "EMU CREEK",
 "features": [
  {
   "type": "Feature",
   "geometry": {
    "type": "Point",
    "coordinates": [
     144.34566238,
     -36.86972293
    ]
   },
   "properties": {
    "name": "100 VAHLAND ROAD EMU CREEK 3551",
    "locID": "LOC000095008510",
    "tech": "NULL",
    "upgrade": "NULL_NA",
    "gnaf_pid": "GAVIC411316185",
    "tech_change_status": "Not Planned"
   }
  },
  {
   "type": "Feature",
   "geometry": {
    "type": "Point",
    "coordinates": [
     144.32853935,
     -36.82476761
    ]
   },
   "properties": {
    "name": "135 JAMES COOK DRIVE EMU CREEK 3551",
    "locID": "LOC000037753138",
    "tech": "WIRELESS",
    "upgrade": "NULL_NA",
    "gnaf_pid": "GAVIC419727790",
    "tech_change_status": "Not Planned",
    "program_type": "Fixed Wireless and Satellite Upgrade Program",
    "target_eligibility_quarter": "NA"
   }
  },
  {
   "type": "Feature",
   "geometry": {
    "type": "Point",
    "coordinates": [
     144.34864651,
     -36.86866478
    ]
   },
   "properties": {
    "name": "64 VAHLAND ROAD EMU CREEK 3551",
    "locID": "LOC000025301038",
    "tech": "NULL",
    "upgrade": "NULL_NA",
    "gnaf_pid": "GAVIC420618625",
    "tech_change_status": "Not Planned"
   }
  },
  {
   "type": "Feature",
   "geometry": {
    "type": "Point",
    "coordinates": [
     144.33367127,
     -36.82093356
    ]
   },
   "properties": {
    "name": "79 SCHILLING LANE EMU CREEK 3551",
    "locID": "LOC000037206464",
    "tech": "SATELLITE",
    "upgrade": "WIRELESS",
    "gnaf_pid": "GAVIC421214253",
    "tech_change_status": "Eligible to Order",
    "program_type": "Fixed Wireless and Satellite Upgrade Program",
    "target_eligibility_quarter": "NA"
   }
  },
  {
   "type": "Feature",
   "geometry": {
    "type": "Point",
    "coordinates": [
     144.32909476,
     -36.82201343
    ]
   },
   "properties": {
    "name": "105 JAMES COOK DRIVE EMU CREEK 3551",
    "locID": "LOC000092748488",
    "tech": "WIRELESS",
    "upgrade": "NULL_NA",
    "gnaf_pid": "GAVIC421263355",
    "tech_change_status": "Not Planned",
    "program_type": "Fixed Wireless and Satellite Upgrade Program",
    "target_eligibility_quarter": "NA"
   }
  },
  {
   "type": "Feature",
   "geometry": {
    "type": "Point",
    "coordinates": [
     144.33547943,
     -36.82118348
    ]
   },
   "properties": {
    "name": "63 SCHILLING LANE EMU CREEK 3551",
    "locID": "LOC000012011755",
    "tech": "WIRELESS",
    "upgrade": "NULL_NA",
    "gnaf_pid": "GAVIC421870151",
    "tech_change_status": "Not Planned",
    "program_type": "Fixed Wireless and Satellite Upgrade Program",
    "target_eligibility_quarter": "NA"
   }
  },
  {
   "type": "Feature",
   "geometry": {
    "type": "Point",
    "coordinates": [
     144.32898355,
     -36.82263276
    ]
   },
   "properties": {
    "name": "111 JAMES COOK DRIVE EMU CREEK 3551",
    "locID": "LOC000012787943",
    "tech": "WIRELESS",
    "upgrade": "NULL_NA",
    "gnaf_pid": "GAVIC421870152",
    "tech_change_status": "Not Planned",
    "program_type": "Fixed Wireless and Satellite Upgrade Program",
    "target_eligibility_quarter": "NA"
   }
  },
  {
   "type": "Feature",
   "geometry": {
    "type": "Point",
    "coordinates": [
     144.32852703,
     -36.82486925
    ]
   },
   "properties": {
    "name": "137 JAMES COOK DRIVE EMU CREEK 3551",
    "locID": "LOC000032459569",
    "tech": "WIRELESS",
    "upgrade": "NULL_NA",
    "gnaf_pid": "GAVIC423829537",
    "tech_change_status": "Not Planned",
    "program_type": "Fixed Wireless and Satellite Upgrade Program",
    "target_eligibility_quarter": "NA"
   }
  },
  {
   "type": "Feature",
   "geometry": {
    "type": "Point",
    "coordinates": [
     144.34666923,
     -36.84118595
    ]
   },
   "properties": {
    "name": "267 STORYS ROAD EMU CREEK 3551",
    "locID": "LOC000025122193",
    "tech": "WIRELESS",
    "upgrade": "NULL_NA",
    "gnaf_pid": "GAVIC424367825",
    "tech_change_status": "Not Planned",
    "program_type": "Fixed Wireless and Satellite Upgrade Program",
    "target_eligibility_quarter": "NA"
   }
  }
 ]
}