{
 "type": "FeatureCollection",
 "generated": "2026-05-20T07:35:12.781390",
 "suburb": "ESMOND",
 "features": [
  {
   "type": "Feature",
   "geometry": {
    "type": "Point",
    "coordinates": [
     146.18038485,
     -36.07451632
    ]
   },
   "properties": {
    "name": "3550 WANGARATTA-YARRAWONGA ROAD ESMOND 3730",
    "locID": "LOC000124999293",
    "tech": "WIRELESS",
    "upgrade": "NULL_NA",
    "gnaf_pid": "GAVIC422029638",
    "tech_change_status": "Not Planned",
    "program_type": "Fixed Wireless and Satellite Upgrade Program",
    "target_eligibility_quarter": "NA"
   }
  },
  {
   "type": "Feature",
   "geometry": {
    "type": "Point",
    "coordinates": [
     146.17498179,
     -36.04911416
    ]
   },
   "properties": {
    "name": "66 LEWINGTONS ROAD ESMOND 3730",
    "locID": "LOC000102354234",
    "tech": "WIRELESS",
    "upgrade": "NULL_NA",
    "gnaf_pid": "GAVIC422164100",
    "tech_change_status": "Not Planned",
    "program_type": "Fixed Wireless and Satellite Upgrade Program",
    "target_eligibility_quarter": "NA"
   }
  },
  {
   "type": "Feature",
   "geometry": {
    "type": "Point",
    "coordinates": [
     146.19023726,
     -36.0686231
    ]
   },
   "properties": {
    "name": "6899 MURRAY VALLEY HIGHWAY ESMOND 3730",
    "locID": "LOC000085416406",
    "tech": "WIRELESS",
    "upgrade": "NULL_NA",
    "gnaf_pid": "GAVIC422174741",
    "tech_change_status": "Not Planned",
    "program_type": "Fixed Wireless and Satellite Upgrade Program",
    "target_eligibility_quarter": "NA"
   }
  },
  {
   "type": "Feature",
   "geometry": {
    "type": "Point",
    "coordinates": [
     146.1902625,
     -36.06815011
    ]
   },
   "properties": {
    "name": "6900 MURRAY VALLEY HIGHWAY ESMOND 3730",
    "locID": "LOC000124990608",
    "tech": "WIRELESS",
    "upgrade": "NULL_NA",
    "gnaf_pid": "GAVIC422174742",
    "tech_change_status": "Not Planned",
    "program_type": "Fixed Wireless and Satellite Upgrade Program",
    "target_eligibility_quarter": "NA"
   }
  },
  {
   "type": "Feature",
   "geometry": {
    "type": "Point",
    "coordinates": [
     146.17486158,
     -36.06112076
    ]
   },
   "properties": {
    "name": "7076 MURRAY VALLEY HIGHWAY ESMOND 3730",
    "locID": "LOC000033529648",
    "tech": "WIRELESS",
    "upgrade": "NULL_NA",
    "gnaf_pid": "GAVIC422174744",
    "tech_change_status": "Not Planned",
    "program_type": "Fixed Wireless and Satellite Upgrade Program",
    "target_eligibility_quarter": "NA"
   }
  },
  {
   "type": "Feature",
   "geometry": {
    "type": "Point",
    "coordinates": [
     146.17744295,
     -36.0500794
    ]
   },
   "properties": {
    "name": "87 OVENS ROAD ESMOND 3730",
    "locID": "LOC000047415925",
    "tech": "WIRELESS",
    "upgrade": "NULL_NA",
    "gnaf_pid": "GAVIC423510150",
    "tech_change_status": "Not Planned",
    "program_type": "Fixed Wireless and Satellite Upgrade Program",
    "target_eligibility_quarter": "NA"
   }
  },
  {
   "type": "Feature",
   "geometry": {
    "type": "Point",
    "coordinates": [
     146.17741115,
     -36.04993493
    ]
   },
   "properties": {
    "name": "85 OVENS ROAD ESMOND 3730",
    "locID": "LOC000096635530",
    "tech": "WIRELESS",
    "upgrade": "NULL_NA",
    "gnaf_pid": "GAVIC423797318",
    "tech_change_status": "Not Planned",
    "program_type": "Fixed Wireless and Satellite Upgrade Program",
    "target_eligibility_quarter": "NA"
   }
  },
  {
   "type": "Feature",
   "geometry": {
    "type": "Point",
    "coordinates": [
     146.1773958,
     -36.04959637
    ]
   },
   "properties": {
    "name": "81 OVENS ROAD ESMOND 3730",
    "locID": "LOC000174626735",
    "tech": "WIRELESS",
    "upgrade": "NULL_NA",
    "gnaf_pid": "GAVIC423834731",
    "tech_change_status": "Not Planned",
    "program_type": "Fixed Wireless and Satellite Upgrade Program",
    "target_eligibility_quarter": "NA"
   }
  },
  {
   "type": "Feature",
   "geometry": {
    "type": "Point",
    "coordinates": [
     146.1773578,
     -36.0497272
    ]
   },
   "properties": {
    "name": "83 OVENS ROAD ESMOND 3730",
    "locID": "LOC000101381502",
    "tech": "WIRELESS",
    "upgrade": "NULL_NA",
    "gnaf_pid": "GAVIC423834732",
    "tech_change_status": "Not Planned",
    "program_type": "Fixed Wireless and Satellite Upgrade Program",
    "target_eligibility_quarter": "NA"
   }
  },
  {
   "type": "Feature",
   "geometry": {
    "type": "Point",
    "coordinates": [
     146.17897842,
     -36.07253763
    ]
   },
   "properties": {
    "name": "3567 WANGARATTA-YARRAWONGA ROAD ESMOND 3730",
    "locID": "LOC000185843836",
    "tech": "WIRELESS",
    "upgrade": "NULL_NA",
    "gnaf_pid": "GAVIC720446110",
    "tech_change_status": "Not Planned",
    "program_type": "Fixed Wireless and Satellite Upgrade Program",
    "target_eligibility_quarter": "NA"
   }
  }
 ]
}