{
 "type": "FeatureCollection",
 "generated": "2025-01-23T09:08:18.801342",
 "suburb": "GHERINGHAP",
 "features": [
  {
   "type": "Feature",
   "geometry": {
    "type": "Point",
    "coordinates": [
     144.22497583,
     -38.04481552
    ]
   },
   "properties": {
    "name": "124 RUSSELL ROAD GHERINGHAP 3331",
    "locID": "LOC000090024226",
    "tech": "SATELLITE",
    "upgrade": "WIRELESS",
    "gnaf_pid": "GAVIC411444142",
    "tech_change_status": "Eligible to Order"
   }
  },
  {
   "type": "Feature",
   "geometry": {
    "type": "Point",
    "coordinates": [
     144.23378841,
     -38.07602615
    ]
   },
   "properties": {
    "name": "1290 MIDLAND HIGHWAY GHERINGHAP 3331",
    "locID": "LOC000067072640",
    "tech": "WIRELESS",
    "upgrade": "NULL_NA",
    "gnaf_pid": "GAVIC411444143",
    "tech_change_status": "Not Planned",
    "program_type": "Fixed Wireless and Satellite Upgrade Program",
    "target_eligibility_quarter": "NA"
   }
  },
  {
   "type": "Feature",
   "geometry": {
    "type": "Point",
    "coordinates": [
     144.23821963,
     -38.05247076
    ]
   },
   "properties": {
    "name": "241 BAKERS BRIDGE ROAD GHERINGHAP 3331",
    "locID": "LOC000036914081",
    "tech": "WIRELESS",
    "upgrade": "NULL_NA",
    "gnaf_pid": "GAVIC411444145",
    "tech_change_status": "Not Planned"
   }
  },
  {
   "type": "Feature",
   "geometry": {
    "type": "Point",
    "coordinates": [
     144.22182941,
     -38.06723731
    ]
   },
   "properties": {
    "name": "1435 MIDLAND HIGHWAY GHERINGHAP 3331",
    "locID": "LOC000081402406",
    "tech": "WIRELESS",
    "upgrade": "NULL_NA",
    "gnaf_pid": "GAVIC411444150",
    "tech_change_status": "Eligible to Order",
    "program_type": "Fixed Wireless and Satellite Upgrade Program",
    "target_eligibility_quarter": "NA"
   }
  },
  {
   "type": "Feature",
   "geometry": {
    "type": "Point",
    "coordinates": [
     144.21800999,
     -38.061369
    ]
   },
   "properties": {
    "name": "21 RUSSELL ROAD GHERINGHAP 3331",
    "locID": "LOC000046676398",
    "tech": "WIRELESS",
    "upgrade": "NULL_NA",
    "gnaf_pid": "GAVIC411444155",
    "tech_change_status": "Not Planned"
   }
  },
  {
   "type": "Feature",
   "geometry": {
    "type": "Point",
    "coordinates": [
     144.23066548,
     -38.06888653
    ]
   },
   "properties": {
    "name": "31 BAKERS BRIDGE ROAD GHERINGHAP 3331",
    "locID": "LOC000083553528",
    "tech": "WIRELESS",
    "upgrade": "NULL_NA",
    "gnaf_pid": "GAVIC411444992",
    "tech_change_status": "Not Planned",
    "program_type": "Fixed Wireless and Satellite Upgrade Program",
    "target_eligibility_quarter": "NA"
   }
  },
  {
   "type": "Feature",
   "geometry": {
    "type": "Point",
    "coordinates": [
     144.2187082,
     -38.061295
    ]
   },
   "properties": {
    "name": "24 RUSSELL ROAD GHERINGHAP 3331",
    "locID": "LOC000016886696",
    "tech": "WIRELESS",
    "upgrade": "NULL_NA",
    "gnaf_pid": "GAVIC411444994",
    "tech_change_status": "Not Planned"
   }
  },
  {
   "type": "Feature",
   "geometry": {
    "type": "Point",
    "coordinates": [
     144.21863024,
     -38.06054995
    ]
   },
   "properties": {
    "name": "32 RUSSELL ROAD GHERINGHAP 3331",
    "locID": "LOC000042699706",
    "tech": "WIRELESS",
    "upgrade": "NULL_NA",
    "gnaf_pid": "GAVIC411452029",
    "tech_change_status": "Not Planned",
    "program_type": "Fixed Wireless and Satellite Upgrade Program",
    "target_eligibility_quarter": "NA"
   }
  },
  {
   "type": "Feature",
   "geometry": {
    "type": "Point",
    "coordinates": [
     144.2559897,
     -38.10273474
    ]
   },
   "properties": {
    "name": "501 FYANSFORD-GHERINGHAP ROAD GHERINGHAP 3331",
    "locID": "LOC000106458233",
    "tech": "WIRELESS",
    "upgrade": "NULL_NA",
    "gnaf_pid": "GAVIC419662418",
    "tech_change_status": "Not Planned",
    "program_type": "Fixed Wireless and Satellite Upgrade Program",
    "target_eligibility_quarter": "NA"
   }
  },
  {
   "type": "Feature",
   "geometry": {
    "type": "Point",
    "coordinates": [
     144.23383401,
     -38.06682625
    ]
   },
   "properties": {
    "name": "80 BAKERS BRIDGE ROAD GHERINGHAP 3331",
    "locID": "LOC000006041096",
    "tech": "SATELLITE",
    "upgrade": "WIRELESS",
    "gnaf_pid": "GAVIC419663342",
    "tech_change_status": "Eligible to Order",
    "program_type": "Fixed Wireless and Satellite Upgrade Program",
    "target_eligibility_quarter": "NA"
   }
  },
  {
   "type": "Feature",
   "geometry": {
    "type": "Point",
    "coordinates": [
     144.21850551,
     -38.09448575
    ]
   },
   "properties": {
    "name": "299 BOOLEY ROAD GHERINGHAP 3331",
    "locID": "LOC000019403605",
    "tech": "WIRELESS",
    "upgrade": "NULL_NA",
    "gnaf_pid": "GAVIC419727282",
    "tech_change_status": "Not Planned",
    "program_type": "Fixed Wireless and Satellite Upgrade Program",
    "target_eligibility_quarter": "NA"
   }
  },
  {
   "type": "Feature",
   "geometry": {
    "type": "Point",
    "coordinates": [
     144.24278136,
     -38.08491349
    ]
   },
   "properties": {
    "name": "732 FYANSFORD-GHERINGHAP ROAD GHERINGHAP 3331",
    "locID": "LOC000107581886",
    "tech": "WIRELESS",
    "upgrade": "NULL_NA",
    "gnaf_pid": "GAVIC419740509",
    "tech_change_status": "Not Planned",
    "program_type": "Fixed Wireless and Satellite Upgrade Program",
    "target_eligibility_quarter": "NA"
   }
  },
  {
   "type": "Feature",
   "geometry": {
    "type": "Point",
    "coordinates": [
     144.25104951,
     -38.09657709
    ]
   },
   "properties": {
    "name": "583 FYANSFORD-GHERINGHAP ROAD GHERINGHAP 3331",
    "locID": "LOC000092290532",
    "tech": "WIRELESS",
    "upgrade": "NULL_NA",
    "gnaf_pid": "GAVIC419951849",
    "tech_change_status": "Not Planned",
    "program_type": "Fixed Wireless and Satellite Upgrade Program",
    "target_eligibility_quarter": "NA"
   }
  },
  {
   "type": "Feature",
   "geometry": {
    "type": "Point",
    "coordinates": [
     144.23603746,
     -38.07482001
    ]
   },
   "properties": {
    "name": "87 STATION STREET GHERINGHAP 3331",
    "locID": "LOC000091520932",
    "tech": "WIRELESS",
    "upgrade": "NULL_NA",
    "gnaf_pid": "GAVIC420028103",
    "tech_change_status": "Not Planned",
    "program_type": "Fixed Wireless and Satellite Upgrade Program",
    "target_eligibility_quarter": "NA"
   }
  },
  {
   "type": "Feature",
   "geometry": {
    "type": "Point",
    "coordinates": [
     144.22204675,
     -38.07986262
    ]
   },
   "properties": {
    "name": "94 MCCURDY ROAD GHERINGHAP 3331",
    "locID": "LOC000071753642",
    "tech": "WIRELESS",
    "upgrade": "NULL_NA",
    "gnaf_pid": "GAVIC420222598",
    "tech_change_status": "Not Planned",
    "program_type": "Fixed Wireless and Satellite Upgrade Program",
    "target_eligibility_quarter": "NA"
   }
  },
  {
   "type": "Feature",
   "geometry": {
    "type": "Point",
    "coordinates": [
     144.22309062,
     -38.08001415
    ]
   },
   "properties": {
    "name": "84 MCCURDY ROAD GHERINGHAP 3331",
    "locID": "LOC000055947404",
    "tech": "WIRELESS",
    "upgrade": "NULL_NA",
    "gnaf_pid": "GAVIC420231381",
    "tech_change_status": "Not Planned",
    "program_type": "Fixed Wireless and Satellite Upgrade Program",
    "target_eligibility_quarter": "NA"
   }
  },
  {
   "type": "Feature",
   "geometry": {
    "type": "Point",
    "coordinates": [
     144.22530795,
     -38.07004299
    ]
   },
   "properties": {
    "name": "1395 MIDLAND HIGHWAY GHERINGHAP 3331",
    "locID": "LOC000016960618",
    "tech": "WIRELESS",
    "upgrade": "NULL_NA",
    "gnaf_pid": "GAVIC420231382",
    "tech_change_status": "Not Planned",
    "program_type": "Fixed Wireless and Satellite Upgrade Program",
    "target_eligibility_quarter": "NA"
   }
  },
  {
   "type": "Feature",
   "geometry": {
    "type": "Point",
    "coordinates": [
     144.22918989,
     -38.08074903
    ]
   },
   "properties": {
    "name": "34 MCCURDY ROAD GHERINGHAP 3331",
    "locID": "LOC000088810582",
    "tech": "WIRELESS",
    "upgrade": "NULL_NA",
    "gnaf_pid": "GAVIC420231383",
    "tech_change_status": "Not Planned",
    "program_type": "Fixed Wireless and Satellite Upgrade Program",
    "target_eligibility_quarter": "NA"
   }
  },
  {
   "type": "Feature",
   "geometry": {
    "type": "Point",
    "coordinates": [
     144.23317348,
     -38.07555935
    ]
   },
   "properties": {
    "name": "1298 MIDLAND HIGHWAY GHERINGHAP 3331",
    "locID": "LOC000069785308",
    "tech": "WIRELESS",
    "upgrade": "NULL_NA",
    "gnaf_pid": "GAVIC420245429",
    "tech_change_status": "Not Planned",
    "program_type": "Fixed Wireless and Satellite Upgrade Program",
    "target_eligibility_quarter": "NA"
   }
  },
  {
   "type": "Feature",
   "geometry": {
    "type": "Point",
    "coordinates": [
     144.23706411,
     -38.06089032
    ]
   },
   "properties": {
    "name": "150 BAKERS BRIDGE ROAD GHERINGHAP 3331",
    "locID": "LOC000009722556",
    "tech": "WIRELESS",
    "upgrade": "NULL_NA",
    "gnaf_pid": "GAVIC420343026",
    "tech_change_status": "Not Planned"
   }
  },
  {
   "type": "Feature",
   "geometry": {
    "type": "Point",
    "coordinates": [
     144.22549354,
     -38.08036057
    ]
   },
   "properties": {
    "name": "64 MCCURDY ROAD GHERINGHAP 3331",
    "locID": "LOC000060561268",
    "tech": "WIRELESS",
    "upgrade": "NULL_NA",
    "gnaf_pid": "GAVIC420552644",
    "tech_change_status": "Not Planned",
    "program_type": "Fixed Wireless and Satellite Upgrade Program",
    "target_eligibility_quarter": "NA"
   }
  },
  {
   "type": "Feature",
   "geometry": {
    "type": "Point",
    "coordinates": [
     144.234245,
     -38.06606715
    ]
   },
   "properties": {
    "name": "85 BAKERS BRIDGE ROAD GHERINGHAP 3331",
    "locID": "LOC000106357764",
    "tech": "WIRELESS",
    "upgrade": "NULL_NA",
    "gnaf_pid": "GAVIC420560648",
    "tech_change_status": "Not Planned",
    "program_type": "Fixed Wireless and Satellite Upgrade Program",
    "target_eligibility_quarter": "NA"
   }
  },
  {
   "type": "Feature",
   "geometry": {
    "type": "Point",
    "coordinates": [
     144.22867195,
     -38.08101714
    ]
   },
   "properties": {
    "name": "35 MCCURDY ROAD GHERINGHAP 3331",
    "locID": "LOC000013762827",
    "tech": "WIRELESS",
    "upgrade": "NULL_NA",
    "gnaf_pid": "GAVIC420628316",
    "tech_change_status": "Not Planned",
    "program_type": "Fixed Wireless and Satellite Upgrade Program",
    "target_eligibility_quarter": "NA"
   }
  },
  {
   "type": "Feature",
   "geometry": {
    "type": "Point",
    "coordinates": [
     144.21188636,
     -38.09328568
    ]
   },
   "properties": {
    "name": "360 BOOLEY ROAD GHERINGHAP 3331",
    "locID": "LOC000045048085",
    "tech": "WIRELESS",
    "upgrade": "NULL_NA",
    "gnaf_pid": "GAVIC420863343",
    "tech_change_status": "Not Planned",
    "program_type": "Fixed Wireless and Satellite Upgrade Program",
    "target_eligibility_quarter": "NA"
   }
  },
  {
   "type": "Feature",
   "geometry": {
    "type": "Point",
    "coordinates": [
     144.22801647,
     -38.08064777
    ]
   },
   "properties": {
    "name": "40 MCCURDY ROAD GHERINGHAP 3331",
    "locID": "LOC000057657880",
    "tech": "WIRELESS",
    "upgrade": "NULL_NA",
    "gnaf_pid": "GAVIC420863348",
    "tech_change_status": "Not Planned",
    "program_type": "Fixed Wireless and Satellite Upgrade Program",
    "target_eligibility_quarter": "NA"
   }
  },
  {
   "type": "Feature",
   "geometry": {
    "type": "Point",
    "coordinates": [
     144.23249538,
     -38.0823358
    ]
   },
   "properties": {
    "name": "64 RYAN ROAD GHERINGHAP 3331",
    "locID": "LOC000044232968",
    "tech": "WIRELESS",
    "upgrade": "NULL_NA",
    "gnaf_pid": "GAVIC420863349",
    "tech_change_status": "Not Planned",
    "program_type": "Fixed Wireless and Satellite Upgrade Program",
    "target_eligibility_quarter": "Mar 2025"
   }
  },
  {
   "type": "Feature",
   "geometry": {
    "type": "Point",
    "coordinates": [
     144.23294042,
     -38.08161403
    ]
   },
   "properties": {
    "name": "55 RYAN ROAD GHERINGHAP 3331",
    "locID": "LOC000035996350",
    "tech": "WIRELESS",
    "upgrade": "NULL_NA",
    "gnaf_pid": "GAVIC420863350",
    "tech_change_status": "Not Planned",
    "program_type": "Fixed Wireless and Satellite Upgrade Program",
    "target_eligibility_quarter": "NA"
   }
  },
  {
   "type": "Feature",
   "geometry": {
    "type": "Point",
    "coordinates": [
     144.23280864,
     -38.08043167
    ]
   },
   "properties": {
    "name": "46 RYAN ROAD GHERINGHAP 3331",
    "locID": "LOC000082163328",
    "tech": "WIRELESS",
    "upgrade": "NULL_NA",
    "gnaf_pid": "GAVIC420937615",
    "tech_change_status": "Not Planned",
    "program_type": "Fixed Wireless and Satellite Upgrade Program",
    "target_eligibility_quarter": "NA"
   }
  },
  {
   "type": "Feature",
   "geometry": {
    "type": "Point",
    "coordinates": [
     144.216365,
     -38.09428921
    ]
   },
   "properties": {
    "name": "325 BOOLEY ROAD GHERINGHAP 3331",
    "locID": "LOC000007790083",
    "tech": "WIRELESS",
    "upgrade": "NULL_NA",
    "gnaf_pid": "GAVIC420948790",
    "tech_change_status": "Not Planned"
   }
  },
  {
   "type": "Feature",
   "geometry": {
    "type": "Point",
    "coordinates": [
     144.2208995,
     -38.07980165
    ]
   },
   "properties": {
    "name": "104 MCCURDY ROAD GHERINGHAP 3331",
    "locID": "LOC000050011094",
    "tech": "WIRELESS",
    "upgrade": "NULL_NA",
    "gnaf_pid": "GAVIC421166628",
    "tech_change_status": "Not Planned",
    "program_type": "Fixed Wireless and Satellite Upgrade Program",
    "target_eligibility_quarter": "NA"
   }
  },
  {
   "type": "Feature",
   "geometry": {
    "type": "Point",
    "coordinates": [
     144.22469236,
     -38.09488736
    ]
   },
   "properties": {
    "name": "250 BOOLEY ROAD GHERINGHAP 3331",
    "locID": "LOC000103384418",
    "tech": "WIRELESS",
    "upgrade": "NULL_NA",
    "gnaf_pid": "GAVIC421166629",
    "tech_change_status": "Not Planned",
    "program_type": "Fixed Wireless and Satellite Upgrade Program",
    "target_eligibility_quarter": "NA"
   }
  },
  {
   "type": "Feature",
   "geometry": {
    "type": "Point",
    "coordinates": [
     144.25247658,
     -38.07605945
    ]
   },
   "properties": {
    "name": "55 BUCHTER ROAD GHERINGHAP 3331",
    "locID": "LOC000078920066",
    "tech": "WIRELESS",
    "upgrade": "NULL_NA",
    "gnaf_pid": "GAVIC421241431",
    "tech_change_status": "Not Planned",
    "program_type": "Fixed Wireless and Satellite Upgrade Program",
    "target_eligibility_quarter": "NA"
   }
  },
  {
   "type": "Feature",
   "geometry": {
    "type": "Point",
    "coordinates": [
     144.2350871,
     -38.07472007
    ]
   },
   "properties": {
    "name": "79 STATION STREET GHERINGHAP 3331",
    "locID": "LOC000124533515",
    "tech": "WIRELESS",
    "upgrade": "NULL_NA",
    "gnaf_pid": "GAVIC421264766",
    "tech_change_status": "Not Planned",
    "program_type": "Fixed Wireless and Satellite Upgrade Program",
    "target_eligibility_quarter": "NA"
   }
  },
  {
   "type": "Feature",
   "geometry": {
    "type": "Point",
    "coordinates": [
     144.22824141,
     -38.07156274
    ]
   },
   "properties": {
    "name": "1366 MIDLAND HIGHWAY GHERINGHAP 3331",
    "locID": "LOC000067964395",
    "tech": "WIRELESS",
    "upgrade": "NULL_NA",
    "gnaf_pid": "GAVIC421450411",
    "tech_change_status": "Not Planned",
    "program_type": "Fixed Wireless and Satellite Upgrade Program",
    "target_eligibility_quarter": "Mar 2025"
   }
  },
  {
   "type": "Feature",
   "geometry": {
    "type": "Point",
    "coordinates": [
     144.22080375,
     -38.06541851
    ]
   },
   "properties": {
    "name": "1460 MIDLAND HIGHWAY GHERINGHAP 3331",
    "locID": "LOC000057051437",
    "tech": "WIRELESS",
    "upgrade": "NULL_NA",
    "gnaf_pid": "GAVIC421457343",
    "tech_change_status": "Not Planned",
    "program_type": "Fixed Wireless and Satellite Upgrade Program",
    "target_eligibility_quarter": "Mar 2025"
   }
  },
  {
   "type": "Feature",
   "geometry": {
    "type": "Point",
    "coordinates": [
     144.22911257,
     -38.08101831
    ]
   },
   "properties": {
    "name": "29 MCCURDY ROAD GHERINGHAP 3331",
    "locID": "LOC000028523127",
    "tech": "WIRELESS",
    "upgrade": "NULL_NA",
    "gnaf_pid": "GAVIC421479589",
    "tech_change_status": "Not Planned",
    "program_type": "Fixed Wireless and Satellite Upgrade Program",
    "target_eligibility_quarter": "NA"
   }
  },
  {
   "type": "Feature",
   "geometry": {
    "type": "Point",
    "coordinates": [
     144.23397133,
     -38.07718324
    ]
   },
   "properties": {
    "name": "1279 MIDLAND HIGHWAY GHERINGHAP 3331",
    "locID": "LOC000026067345",
    "tech": "WIRELESS",
    "upgrade": "NULL_NA",
    "gnaf_pid": "GAVIC421479590",
    "tech_change_status": "Not Planned",
    "program_type": "Fixed Wireless and Satellite Upgrade Program",
    "target_eligibility_quarter": "NA"
   }
  },
  {
   "type": "Feature",
   "geometry": {
    "type": "Point",
    "coordinates": [
     144.2215071,
     -38.08029185
    ]
   },
   "properties": {
    "name": "99 MCCURDY ROAD GHERINGHAP 3331",
    "locID": "LOC000025217241",
    "tech": "WIRELESS",
    "upgrade": "NULL_NA",
    "gnaf_pid": "GAVIC421733294",
    "tech_change_status": "Not Planned",
    "program_type": "Fixed Wireless and Satellite Upgrade Program",
    "target_eligibility_quarter": "NA"
   }
  },
  {
   "type": "Feature",
   "geometry": {
    "type": "Point",
    "coordinates": [
     144.23070357,
     -38.08121191
    ]
   },
   "properties": {
    "name": "19 MCCURDY ROAD GHERINGHAP 3331",
    "locID": "LOC000088278664",
    "tech": "WIRELESS",
    "upgrade": "NULL_NA",
    "gnaf_pid": "GAVIC421747478",
    "tech_change_status": "Not Planned",
    "program_type": "Fixed Wireless and Satellite Upgrade Program",
    "target_eligibility_quarter": "Mar 2025"
   }
  },
  {
   "type": "Feature",
   "geometry": {
    "type": "Point",
    "coordinates": [
     144.21827848,
     -38.06006408
    ]
   },
   "properties": {
    "name": "37 RUSSELL ROAD GHERINGHAP 3331",
    "locID": "LOC000102249545",
    "tech": "WIRELESS",
    "upgrade": "NULL_NA",
    "gnaf_pid": "GAVIC421766385",
    "tech_change_status": "Not Planned",
    "program_type": "Fixed Wireless and Satellite Upgrade Program",
    "target_eligibility_quarter": "NA"
   }
  },
  {
   "type": "Feature",
   "geometry": {
    "type": "Point",
    "coordinates": [
     144.22056818,
     -38.0797777
    ]
   },
   "properties": {
    "name": "110 MCCURDY ROAD GHERINGHAP 3331",
    "locID": "LOC000066293712",
    "tech": "WIRELESS",
    "upgrade": "NULL_NA",
    "gnaf_pid": "GAVIC421769584",
    "tech_change_status": "Not Planned",
    "program_type": "Fixed Wireless and Satellite Upgrade Program",
    "target_eligibility_quarter": "NA"
   }
  },
  {
   "type": "Feature",
   "geometry": {
    "type": "Point",
    "coordinates": [
     144.22646455,
     -38.08073466
    ]
   },
   "properties": {
    "name": "39 MCCURDY ROAD GHERINGHAP 3331",
    "locID": "LOC000048837225",
    "tech": "WIRELESS",
    "upgrade": "NULL_NA",
    "gnaf_pid": "GAVIC421769585",
    "tech_change_status": "Not Planned",
    "program_type": "Fixed Wireless and Satellite Upgrade Program",
    "target_eligibility_quarter": "NA"
   }
  },
  {
   "type": "Feature",
   "geometry": {
    "type": "Point",
    "coordinates": [
     144.23044575,
     -38.09298025
    ]
   },
   "properties": {
    "name": "184 RYAN ROAD GHERINGHAP 3331",
    "locID": "LOC000080086988",
    "tech": "WIRELESS",
    "upgrade": "NULL_NA",
    "gnaf_pid": "GAVIC421769586",
    "tech_change_status": "Not Planned",
    "program_type": "Fixed Wireless and Satellite Upgrade Program",
    "target_eligibility_quarter": "NA"
   }
  },
  {
   "type": "Feature",
   "geometry": {
    "type": "Point",
    "coordinates": [
     144.236816,
     -38.0615727
    ]
   },
   "properties": {
    "name": "144 BAKERS BRIDGE ROAD GHERINGHAP 3331",
    "locID": "LOC000115740736",
    "tech": "WIRELESS",
    "upgrade": "NULL_NA",
    "gnaf_pid": "GAVIC422275510",
    "tech_change_status": "Not Planned"
   }
  },
  {
   "type": "Feature",
   "geometry": {
    "type": "Point",
    "coordinates": [
     144.22337305,
     -38.09499793
    ]
   },
   "properties": {
    "name": "261 BOOLEY ROAD GHERINGHAP 3331",
    "locID": "LOC000033648487",
    "tech": "WIRELESS",
    "upgrade": "NULL_NA",
    "gnaf_pid": "GAVIC423658666",
    "tech_change_status": "Not Planned",
    "program_type": "Fixed Wireless and Satellite Upgrade Program",
    "target_eligibility_quarter": "NA"
   }
  },
  {
   "type": "Feature",
   "geometry": {
    "type": "Point",
    "coordinates": [
     144.23760675,
     -38.09668735
    ]
   },
   "properties": {
    "name": "133 BOOLEY ROAD GHERINGHAP 3331",
    "locID": "LOC000067920385",
    "tech": "WIRELESS",
    "upgrade": "NULL_NA",
    "gnaf_pid": "GAVIC423701553",
    "tech_change_status": "Not Planned",
    "program_type": "Fixed Wireless and Satellite Upgrade Program",
    "target_eligibility_quarter": "NA"
   }
  },
  {
   "type": "Feature",
   "geometry": {
    "type": "Point",
    "coordinates": [
     144.21195659,
     -38.07901294
    ]
   },
   "properties": {
    "name": "185 MCCURDY ROAD GHERINGHAP 3331",
    "locID": "LOC000059035313",
    "tech": "WIRELESS",
    "upgrade": "NULL_NA",
    "gnaf_pid": "GAVIC423754823",
    "tech_change_status": "Not Planned",
    "program_type": "Fixed Wireless and Satellite Upgrade Program",
    "target_eligibility_quarter": "NA"
   }
  },
  {
   "type": "Feature",
   "geometry": {
    "type": "Point",
    "coordinates": [
     144.23324375,
     -38.07560245
    ]
   },
   "properties": {
    "name": "1296 MIDLAND HIGHWAY GHERINGHAP 3331",
    "locID": "LOC000002012519",
    "tech": "WIRELESS",
    "upgrade": "NULL_NA",
    "gnaf_pid": "GAVIC423796185",
    "tech_change_status": "Not Planned",
    "program_type": "Fixed Wireless and Satellite Upgrade Program",
    "target_eligibility_quarter": "NA"
   }
  },
  {
   "type": "Feature",
   "geometry": {
    "type": "Point",
    "coordinates": [
     144.21925138,
     -38.07974536
    ]
   },
   "properties": {
    "name": "LOT 1 MCCURDY ROAD GHERINGHAP 3331",
    "locID": "LOC000088278664",
    "tech": "WIRELESS",
    "upgrade": "NULL_NA",
    "gnaf_pid": "GAVIC423854286",
    "tech_change_status": "Not Planned",
    "program_type": "Fixed Wireless and Satellite Upgrade Program",
    "target_eligibility_quarter": "Mar 2025"
   }
  },
  {
   "type": "Feature",
   "geometry": {
    "type": "Point",
    "coordinates": [
     144.2165338,
     -38.09392384
    ]
   },
   "properties": {
    "name": "330 BOOLEY ROAD GHERINGHAP 3331",
    "locID": "LOC000046480279",
    "tech": "WIRELESS",
    "upgrade": "NULL_NA",
    "gnaf_pid": "GAVIC423964495",
    "tech_change_status": "Not Planned",
    "program_type": "Fixed Wireless and Satellite Upgrade Program",
    "target_eligibility_quarter": "NA"
   }
  },
  {
   "type": "Feature",
   "geometry": {
    "type": "Point",
    "coordinates": [
     144.23737228,
     -38.05625103
    ]
   },
   "properties": {
    "name": "199 BAKERS BRIDGE ROAD GHERINGHAP 3331",
    "locID": "LOC000115743111",
    "tech": "WIRELESS",
    "upgrade": "NULL_NA",
    "gnaf_pid": "GAVIC424778729",
    "tech_change_status": "Not Planned"
   }
  },
  {
   "type": "Feature",
   "geometry": {
    "type": "Point",
    "coordinates": [
     144.22828247,
     -38.07158094
    ]
   },
   "properties": {
    "name": "10 BAKERS BRIDGE ROAD GHERINGHAP 3331",
    "locID": "LOC000150789642",
    "tech": "WIRELESS",
    "upgrade": "NULL_NA",
    "gnaf_pid": "GAVIC425324350",
    "tech_change_status": "Not Planned",
    "program_type": "Fixed Wireless and Satellite Upgrade Program",
    "target_eligibility_quarter": "NA"
   }
  },
  {
   "type": "Feature",
   "geometry": {
    "type": "Point",
    "coordinates": [
     144.2304029,
     -38.09593985
    ]
   },
   "properties": {
    "name": "199 BOOLEY ROAD GHERINGHAP 3331",
    "locID": "LOC100077376238",
    "tech": "WIRELESS",
    "upgrade": "NULL_NA",
    "gnaf_pid": "GAVIC425668455",
    "tech_change_status": "Not Planned",
    "program_type": "Fixed Wireless and Satellite Upgrade Program",
    "target_eligibility_quarter": "NA"
   }
  },
  {
   "type": "Feature",
   "geometry": {
    "type": "Point",
    "coordinates": [
     144.21532054,
     -38.07956953
    ]
   },
   "properties": {
    "name": "155 MCCURDY ROAD GHERINGHAP 3331",
    "locID": "LOC000181934729",
    "tech": "WIRELESS",
    "upgrade": "NULL_NA",
    "gnaf_pid": "GAVIC425738753",
    "tech_change_status": "Not Planned",
    "program_type": "Fixed Wireless and Satellite Upgrade Program",
    "target_eligibility_quarter": "NA"
   }
  },
  {
   "type": "Feature",
   "geometry": {
    "type": "Point",
    "coordinates": [
     144.23221816,
     -38.08384444
    ]
   },
   "properties": {
    "name": "82 RYAN ROAD GHERINGHAP 3331",
    "locID": "LOC000182385735",
    "tech": "WIRELESS",
    "upgrade": "NULL_NA",
    "gnaf_pid": "GAVIC719619737",
    "tech_change_status": "Not Planned",
    "program_type": "Fixed Wireless and Satellite Upgrade Program",
    "target_eligibility_quarter": "NA"
   }
  },
  {
   "type": "Feature",
   "geometry": {
    "type": "Point",
    "coordinates": [
     144.2374421,
     -38.07901565
    ]
   },
   "properties": {
    "name": "1244 MIDLAND HIGHWAY GHERINGHAP 3331",
    "locID": "LOC000186318707",
    "tech": "WIRELESS",
    "upgrade": "NULL_NA",
    "gnaf_pid": "GAVIC720510943",
    "tech_change_status": "Not Planned",
    "program_type": "Fixed Wireless and Satellite Upgrade Program",
    "target_eligibility_quarter": "NA"
   }
  },
  {
   "type": "Feature",
   "geometry": {
    "type": "Point",
    "coordinates": [
     144.2374421,
     -38.07901565
    ]
   },
   "properties": {
    "name": "UNIT 1, 1244 MIDLAND HIGHWAY GHERINGHAP 3331",
    "locID": "LOC000186318707",
    "tech": "WIRELESS",
    "upgrade": "NULL_NA",
    "gnaf_pid": "GAVIC720830300",
    "tech_change_status": "Not Planned",
    "program_type": "Fixed Wireless and Satellite Upgrade Program",
    "target_eligibility_quarter": "NA"
   }
  }
 ]
}