{
 "type": "FeatureCollection",
 "generated": "2024-12-25T16:57:57.644137",
 "suburb": "GRANITE ROCK",
 "features": [
  {
   "type": "Feature",
   "geometry": {
    "type": "Point",
    "coordinates": [
     147.67032281,
     -37.76844981
    ]
   },
   "properties": {
    "name": "185 DEPTFORD ROAD GRANITE ROCK 3875",
    "locID": "LOC000098127564",
    "tech": "WIRELESS",
    "upgrade": "NULL_NA",
    "gnaf_pid": "GAVIC411482888",
    "tech_change_status": "Not Planned",
    "program_type": "Fixed Wireless and Satellite Upgrade Program",
    "target_eligibility_quarter": "NA"
   }
  },
  {
   "type": "Feature",
   "geometry": {
    "type": "Point",
    "coordinates": [
     147.67556308,
     -37.73883109
    ]
   },
   "properties": {
    "name": "140 WATERHOLES ROAD GRANITE ROCK 3875",
    "locID": "LOC000059693387",
    "tech": "SATELLITE",
    "upgrade": "NULL_NA",
    "gnaf_pid": "GAVIC411482891",
    "tech_change_status": "Not Planned"
   }
  },
  {
   "type": "Feature",
   "geometry": {
    "type": "Point",
    "coordinates": [
     147.66462536,
     -37.7760274
    ]
   },
   "properties": {
    "name": "485 BALFOURS ROAD GRANITE ROCK 3875",
    "locID": "LOC000071092657",
    "tech": "WIRELESS",
    "upgrade": "NULL_NA",
    "gnaf_pid": "GAVIC411501097",
    "tech_change_status": "Not Planned",
    "program_type": "Fixed Wireless and Satellite Upgrade Program",
    "target_eligibility_quarter": "NA"
   }
  },
  {
   "type": "Feature",
   "geometry": {
    "type": "Point",
    "coordinates": [
     147.69155433,
     -37.72888024
    ]
   },
   "properties": {
    "name": "130 BELLBIRD ROAD GRANITE ROCK 3875",
    "locID": "LOC000108689281",
    "tech": "SATELLITE",
    "upgrade": "NULL_NA",
    "gnaf_pid": "GAVIC411501348",
    "tech_change_status": "Not Planned"
   }
  },
  {
   "type": "Feature",
   "geometry": {
    "type": "Point",
    "coordinates": [
     147.66963385,
     -37.76730139
    ]
   },
   "properties": {
    "name": "205 DEPTFORD ROAD GRANITE ROCK 3875",
    "locID": "LOC000010231925",
    "tech": "WIRELESS",
    "upgrade": "NULL_NA",
    "gnaf_pid": "GAVIC411505517",
    "tech_change_status": "Not Planned",
    "program_type": "Fixed Wireless and Satellite Upgrade Program",
    "target_eligibility_quarter": "NA"
   }
  },
  {
   "type": "Feature",
   "geometry": {
    "type": "Point",
    "coordinates": [
     147.65646105,
     -37.78246345
    ]
   },
   "properties": {
    "name": "338 BALFOURS ROAD GRANITE ROCK 3875",
    "locID": "LOC000026854570",
    "tech": "WIRELESS",
    "upgrade": "NULL_NA",
    "gnaf_pid": "GAVIC411505521",
    "tech_change_status": "Not Planned",
    "program_type": "Fixed Wireless and Satellite Upgrade Program",
    "target_eligibility_quarter": "NA"
   }
  },
  {
   "type": "Feature",
   "geometry": {
    "type": "Point",
    "coordinates": [
     147.6565704,
     -37.78198515
    ]
   },
   "properties": {
    "name": "325 BALFOURS ROAD GRANITE ROCK 3875",
    "locID": "LOC000074762144",
    "tech": "WIRELESS",
    "upgrade": "NULL_NA",
    "gnaf_pid": "GAVIC411510205",
    "tech_change_status": "Not Planned",
    "program_type": "Fixed Wireless and Satellite Upgrade Program",
    "target_eligibility_quarter": "NA"
   }
  },
  {
   "type": "Feature",
   "geometry": {
    "type": "Point",
    "coordinates": [
     147.64723004,
     -37.76399364
    ]
   },
   "properties": {
    "name": "125 NORTHS ROAD GRANITE ROCK 3875",
    "locID": "LOC000050233609",
    "tech": "WIRELESS",
    "upgrade": "NULL_NA",
    "gnaf_pid": "GAVIC411513811",
    "tech_change_status": "Not Planned",
    "program_type": "Fixed Wireless and Satellite Upgrade Program",
    "target_eligibility_quarter": "NA"
   }
  },
  {
   "type": "Feature",
   "geometry": {
    "type": "Point",
    "coordinates": [
     147.66985341,
     -37.76394726
    ]
   },
   "properties": {
    "name": "240 DEPTFORD ROAD GRANITE ROCK 3875",
    "locID": "LOC000034828043",
    "tech": "WIRELESS",
    "upgrade": "NULL_NA",
    "gnaf_pid": "GAVIC419666097",
    "tech_change_status": "Not Planned",
    "program_type": "Fixed Wireless and Satellite Upgrade Program",
    "target_eligibility_quarter": "NA"
   }
  },
  {
   "type": "Feature",
   "geometry": {
    "type": "Point",
    "coordinates": [
     147.66953288,
     -37.76743718
    ]
   },
   "properties": {
    "name": "195 DEPTFORD ROAD GRANITE ROCK 3875",
    "locID": "LOC000093838604",
    "tech": "WIRELESS",
    "upgrade": "NULL_NA",
    "gnaf_pid": "GAVIC419667220",
    "tech_change_status": "Not Planned",
    "program_type": "Fixed Wireless and Satellite Upgrade Program",
    "target_eligibility_quarter": "NA"
   }
  },
  {
   "type": "Feature",
   "geometry": {
    "type": "Point",
    "coordinates": [
     147.66744896,
     -37.76041634
    ]
   },
   "properties": {
    "name": "275 DEPTFORD ROAD GRANITE ROCK 3875",
    "locID": "LOC000038817715",
    "tech": "WIRELESS",
    "upgrade": "NULL_NA",
    "gnaf_pid": "GAVIC419717504",
    "tech_change_status": "Not Planned",
    "program_type": "Fixed Wireless and Satellite Upgrade Program",
    "target_eligibility_quarter": "NA"
   }
  },
  {
   "type": "Feature",
   "geometry": {
    "type": "Point",
    "coordinates": [
     147.65158255,
     -37.78643224
    ]
   },
   "properties": {
    "name": "275 BALFOURS ROAD GRANITE ROCK 3875",
    "locID": "LOC000085375806",
    "tech": "WIRELESS",
    "upgrade": "NULL_NA",
    "gnaf_pid": "GAVIC419763770",
    "tech_change_status": "Not Planned",
    "program_type": "Fixed Wireless and Satellite Upgrade Program",
    "target_eligibility_quarter": "NA"
   }
  },
  {
   "type": "Feature",
   "geometry": {
    "type": "Point",
    "coordinates": [
     147.65208504,
     -37.78473763
    ]
   },
   "properties": {
    "name": "285 BALFOURS ROAD GRANITE ROCK 3875",
    "locID": "LOC000012591731",
    "tech": "WIRELESS",
    "upgrade": "NULL_NA",
    "gnaf_pid": "GAVIC419774008",
    "tech_change_status": "Not Planned",
    "program_type": "Fixed Wireless and Satellite Upgrade Program",
    "target_eligibility_quarter": "NA"
   }
  },
  {
   "type": "Feature",
   "geometry": {
    "type": "Point",
    "coordinates": [
     147.67227765,
     -37.75330698
    ]
   },
   "properties": {
    "name": "10 WATERHOLES ROAD GRANITE ROCK 3875",
    "locID": "LOC000109940721",
    "tech": "WIRELESS",
    "upgrade": "NULL_NA",
    "gnaf_pid": "GAVIC419775300",
    "tech_change_status": "Not Planned",
    "program_type": "Fixed Wireless and Satellite Upgrade Program",
    "target_eligibility_quarter": "NA"
   }
  },
  {
   "type": "Feature",
   "geometry": {
    "type": "Point",
    "coordinates": [
     147.66924968,
     -37.76810356
    ]
   },
   "properties": {
    "name": "555 BALFOURS ROAD GRANITE ROCK 3875",
    "locID": "LOC000022159388",
    "tech": "WIRELESS",
    "upgrade": "NULL_NA",
    "gnaf_pid": "GAVIC419827356",
    "tech_change_status": "Not Planned",
    "program_type": "Fixed Wireless and Satellite Upgrade Program",
    "target_eligibility_quarter": "NA"
   }
  },
  {
   "type": "Feature",
   "geometry": {
    "type": "Point",
    "coordinates": [
     147.68237635,
     -37.7466423
    ]
   },
   "properties": {
    "name": "65 PALMERS ROAD GRANITE ROCK 3875",
    "locID": "LOC000044639323",
    "tech": "WIRELESS",
    "upgrade": "NULL_NA",
    "gnaf_pid": "GAVIC419831017",
    "tech_change_status": "Not Planned",
    "program_type": "Fixed Wireless and Satellite Upgrade Program",
    "target_eligibility_quarter": "NA"
   }
  },
  {
   "type": "Feature",
   "geometry": {
    "type": "Point",
    "coordinates": [
     147.68066595,
     -37.73338481
    ]
   },
   "properties": {
    "name": "30 BELLBIRD ROAD GRANITE ROCK 3875",
    "locID": "LOC000125806518",
    "tech": "SATELLITE",
    "upgrade": "NULL_NA",
    "gnaf_pid": "GAVIC419848071",
    "tech_change_status": "Not Planned"
   }
  },
  {
   "type": "Feature",
   "geometry": {
    "type": "Point",
    "coordinates": [
     147.6683082,
     -37.75964576
    ]
   },
   "properties": {
    "name": "280 DEPTFORD ROAD GRANITE ROCK 3875",
    "locID": "LOC000067587601",
    "tech": "WIRELESS",
    "upgrade": "NULL_NA",
    "gnaf_pid": "GAVIC419951536",
    "tech_change_status": "Not Planned",
    "program_type": "Fixed Wireless and Satellite Upgrade Program",
    "target_eligibility_quarter": "NA"
   }
  },
  {
   "type": "Feature",
   "geometry": {
    "type": "Point",
    "coordinates": [
     147.65988974,
     -37.78619375
    ]
   },
   "properties": {
    "name": "60 SALMONDS ROAD GRANITE ROCK 3875",
    "locID": "LOC000055225835",
    "tech": "WIRELESS",
    "upgrade": "NULL_NA",
    "gnaf_pid": "GAVIC419966710",
    "tech_change_status": "Not Planned",
    "program_type": "Fixed Wireless and Satellite Upgrade Program",
    "target_eligibility_quarter": "NA"
   }
  },
  {
   "type": "Feature",
   "geometry": {
    "type": "Point",
    "coordinates": [
     147.6690781,
     -37.76358213
    ]
   },
   "properties": {
    "name": "235 DEPTFORD ROAD GRANITE ROCK 3875",
    "locID": "LOC000019406415",
    "tech": "WIRELESS",
    "upgrade": "NULL_NA",
    "gnaf_pid": "GAVIC419966712",
    "tech_change_status": "Not Planned",
    "program_type": "Fixed Wireless and Satellite Upgrade Program",
    "target_eligibility_quarter": "NA"
   }
  },
  {
   "type": "Feature",
   "geometry": {
    "type": "Point",
    "coordinates": [
     147.6803867,
     -37.77443023
    ]
   },
   "properties": {
    "name": "55 DEPTFORD ROAD GRANITE ROCK 3875",
    "locID": "LOC000070966625",
    "tech": "WIRELESS",
    "upgrade": "NULL_NA",
    "gnaf_pid": "GAVIC420055072",
    "tech_change_status": "Not Planned",
    "program_type": "Fixed Wireless and Satellite Upgrade Program",
    "target_eligibility_quarter": "NA"
   }
  },
  {
   "type": "Feature",
   "geometry": {
    "type": "Point",
    "coordinates": [
     147.67812546,
     -37.7733998
    ]
   },
   "properties": {
    "name": "85 DEPTFORD ROAD GRANITE ROCK 3875",
    "locID": "LOC000016044731",
    "tech": "WIRELESS",
    "upgrade": "NULL_NA",
    "gnaf_pid": "GAVIC420055955",
    "tech_change_status": "Not Planned",
    "program_type": "Fixed Wireless and Satellite Upgrade Program",
    "target_eligibility_quarter": "NA"
   }
  },
  {
   "type": "Feature",
   "geometry": {
    "type": "Point",
    "coordinates": [
     147.66014865,
     -37.78466006
    ]
   },
   "properties": {
    "name": "30 SALMONDS ROAD GRANITE ROCK 3875",
    "locID": "LOC000010274481",
    "tech": "WIRELESS",
    "upgrade": "NULL_NA",
    "gnaf_pid": "GAVIC420060111",
    "tech_change_status": "Not Planned",
    "program_type": "Fixed Wireless and Satellite Upgrade Program",
    "target_eligibility_quarter": "NA"
   }
  },
  {
   "type": "Feature",
   "geometry": {
    "type": "Point",
    "coordinates": [
     147.66040035,
     -37.78614583
    ]
   },
   "properties": {
    "name": "55 SALMONDS ROAD GRANITE ROCK 3875",
    "locID": "LOC000038562685",
    "tech": "WIRELESS",
    "upgrade": "NULL_NA",
    "gnaf_pid": "GAVIC420061342",
    "tech_change_status": "Not Planned",
    "program_type": "Fixed Wireless and Satellite Upgrade Program",
    "target_eligibility_quarter": "NA"
   }
  },
  {
   "type": "Feature",
   "geometry": {
    "type": "Point",
    "coordinates": [
     147.65736473,
     -37.78191764
    ]
   },
   "properties": {
    "name": "335 BALFOURS ROAD GRANITE ROCK 3875",
    "locID": "LOC000025900069",
    "tech": "WIRELESS",
    "upgrade": "NULL_NA",
    "gnaf_pid": "GAVIC420063277",
    "tech_change_status": "Not Planned",
    "program_type": "Fixed Wireless and Satellite Upgrade Program",
    "target_eligibility_quarter": "NA"
   }
  },
  {
   "type": "Feature",
   "geometry": {
    "type": "Point",
    "coordinates": [
     147.65910398,
     -37.78211521
    ]
   },
   "properties": {
    "name": "350 BALFOURS ROAD GRANITE ROCK 3875",
    "locID": "LOC000021893374",
    "tech": "WIRELESS",
    "upgrade": "NULL_NA",
    "gnaf_pid": "GAVIC420068194",
    "tech_change_status": "Not Planned",
    "program_type": "Fixed Wireless and Satellite Upgrade Program",
    "target_eligibility_quarter": "NA"
   }
  },
  {
   "type": "Feature",
   "geometry": {
    "type": "Point",
    "coordinates": [
     147.66365635,
     -37.77687108
    ]
   },
   "properties": {
    "name": "445 BALFOURS ROAD GRANITE ROCK 3875",
    "locID": "LOC000033817475",
    "tech": "WIRELESS",
    "upgrade": "NULL_NA",
    "gnaf_pid": "GAVIC420131395",
    "tech_change_status": "Not Planned",
    "program_type": "Fixed Wireless and Satellite Upgrade Program",
    "target_eligibility_quarter": "NA"
   }
  },
  {
   "type": "Feature",
   "geometry": {
    "type": "Point",
    "coordinates": [
     147.694005,
     -37.74479879
    ]
   },
   "properties": {
    "name": "185 PALMERS ROAD GRANITE ROCK 3875",
    "locID": "LOC000083175992",
    "tech": "WIRELESS",
    "upgrade": "NULL_NA",
    "gnaf_pid": "GAVIC420163605",
    "tech_change_status": "Not Planned",
    "program_type": "Fixed Wireless and Satellite Upgrade Program",
    "target_eligibility_quarter": "NA"
   }
  },
  {
   "type": "Feature",
   "geometry": {
    "type": "Point",
    "coordinates": [
     147.65919424,
     -37.78164399
    ]
   },
   "properties": {
    "name": "355 BALFOURS ROAD GRANITE ROCK 3875",
    "locID": "LOC000035179922",
    "tech": "WIRELESS",
    "upgrade": "NULL_NA",
    "gnaf_pid": "GAVIC420339877",
    "tech_change_status": "Not Planned",
    "program_type": "Fixed Wireless and Satellite Upgrade Program",
    "target_eligibility_quarter": "NA"
   }
  },
  {
   "type": "Feature",
   "geometry": {
    "type": "Point",
    "coordinates": [
     147.65925174,
     -37.78172479
    ]
   },
   "properties": {
    "name": "357 BALFOURS ROAD GRANITE ROCK 3875",
    "locID": "LOC000005211835",
    "tech": "WIRELESS",
    "upgrade": "NULL_NA",
    "gnaf_pid": "GAVIC420339878",
    "tech_change_status": "Not Planned",
    "program_type": "Fixed Wireless and Satellite Upgrade Program",
    "target_eligibility_quarter": "NA"
   }
  },
  {
   "type": "Feature",
   "geometry": {
    "type": "Point",
    "coordinates": [
     147.66047473,
     -37.78556858
    ]
   },
   "properties": {
    "name": "45 SALMONDS ROAD GRANITE ROCK 3875",
    "locID": "LOC000081028731",
    "tech": "WIRELESS",
    "upgrade": "NULL_NA",
    "gnaf_pid": "GAVIC420351514",
    "tech_change_status": "Not Planned",
    "program_type": "Fixed Wireless and Satellite Upgrade Program",
    "target_eligibility_quarter": "NA"
   }
  },
  {
   "type": "Feature",
   "geometry": {
    "type": "Point",
    "coordinates": [
     147.66236299,
     -37.77954624
    ]
   },
   "properties": {
    "name": "405 BALFOURS ROAD GRANITE ROCK 3875",
    "locID": "LOC000081267223",
    "tech": "WIRELESS",
    "upgrade": "NULL_NA",
    "gnaf_pid": "GAVIC420368440",
    "tech_change_status": "Not Planned",
    "program_type": "Fixed Wireless and Satellite Upgrade Program",
    "target_eligibility_quarter": "NA"
   }
  },
  {
   "type": "Feature",
   "geometry": {
    "type": "Point",
    "coordinates": [
     147.67130326,
     -37.75368515
    ]
   },
   "properties": {
    "name": "365 DEPTFORD ROAD GRANITE ROCK 3875",
    "locID": "LOC000043281293",
    "tech": "WIRELESS",
    "upgrade": "NULL_NA",
    "gnaf_pid": "GAVIC420368442",
    "tech_change_status": "Not Planned",
    "program_type": "Fixed Wireless and Satellite Upgrade Program",
    "target_eligibility_quarter": "NA"
   }
  },
  {
   "type": "Feature",
   "geometry": {
    "type": "Point",
    "coordinates": [
     147.66303621,
     -37.77946881
    ]
   },
   "properties": {
    "name": "410 BALFOURS ROAD GRANITE ROCK 3875",
    "locID": "LOC000004381956",
    "tech": "WIRELESS",
    "upgrade": "NULL_NA",
    "gnaf_pid": "GAVIC420368443",
    "tech_change_status": "Not Planned",
    "program_type": "Fixed Wireless and Satellite Upgrade Program",
    "target_eligibility_quarter": "NA"
   }
  },
  {
   "type": "Feature",
   "geometry": {
    "type": "Point",
    "coordinates": [
     147.67703493,
     -37.74716884
    ]
   },
   "properties": {
    "name": "80 WATERHOLES ROAD GRANITE ROCK 3875",
    "locID": "LOC000079021899",
    "tech": "WIRELESS",
    "upgrade": "NULL_NA",
    "gnaf_pid": "GAVIC420370019",
    "tech_change_status": "Not Planned",
    "program_type": "Fixed Wireless and Satellite Upgrade Program",
    "target_eligibility_quarter": "NA"
   }
  },
  {
   "type": "Feature",
   "geometry": {
    "type": "Point",
    "coordinates": [
     147.67471108,
     -37.737493
    ]
   },
   "properties": {
    "name": "195 WATERHOLES ROAD GRANITE ROCK 3875",
    "locID": "LOC000066659957",
    "tech": "SATELLITE",
    "upgrade": "NULL_NA",
    "gnaf_pid": "GAVIC420370021",
    "tech_change_status": "Not Planned"
   }
  },
  {
   "type": "Feature",
   "geometry": {
    "type": "Point",
    "coordinates": [
     147.66216415,
     -37.79048425
    ]
   },
   "properties": {
    "name": "40 ORCHARD ROAD GRANITE ROCK 3875",
    "locID": "LOC000083093302",
    "tech": "WIRELESS",
    "upgrade": "NULL_NA",
    "gnaf_pid": "GAVIC420377433",
    "tech_change_status": "Not Planned",
    "program_type": "Fixed Wireless and Satellite Upgrade Program",
    "target_eligibility_quarter": "NA"
   }
  },
  {
   "type": "Feature",
   "geometry": {
    "type": "Point",
    "coordinates": [
     147.66871035,
     -37.76939769
    ]
   },
   "properties": {
    "name": "535 BALFOURS ROAD GRANITE ROCK 3875",
    "locID": "LOC000050442878",
    "tech": "WIRELESS",
    "upgrade": "NULL_NA",
    "gnaf_pid": "GAVIC420441564",
    "tech_change_status": "Not Planned",
    "program_type": "Fixed Wireless and Satellite Upgrade Program",
    "target_eligibility_quarter": "NA"
   }
  },
  {
   "type": "Feature",
   "geometry": {
    "type": "Point",
    "coordinates": [
     147.66470715,
     -37.778821
    ]
   },
   "properties": {
    "name": "20 EAGLE VIEW ROAD GRANITE ROCK 3875",
    "locID": "LOC000100932923",
    "tech": "WIRELESS",
    "upgrade": "NULL_NA",
    "gnaf_pid": "GAVIC420446994",
    "tech_change_status": "Not Planned",
    "program_type": "Fixed Wireless and Satellite Upgrade Program",
    "target_eligibility_quarter": "NA"
   }
  },
  {
   "type": "Feature",
   "geometry": {
    "type": "Point",
    "coordinates": [
     147.67614531,
     -37.77252584
    ]
   },
   "properties": {
    "name": "89 DEPTFORD ROAD GRANITE ROCK 3875",
    "locID": "LOC000003623343",
    "tech": "WIRELESS",
    "upgrade": "NULL_NA",
    "gnaf_pid": "GAVIC420643995",
    "tech_change_status": "Not Planned",
    "program_type": "Fixed Wireless and Satellite Upgrade Program",
    "target_eligibility_quarter": "NA"
   }
  },
  {
   "type": "Feature",
   "geometry": {
    "type": "Point",
    "coordinates": [
     147.66701658,
     -37.77537544
    ]
   },
   "properties": {
    "name": "470 BALFOURS ROAD GRANITE ROCK 3875",
    "locID": "LOC000069394855",
    "tech": "WIRELESS",
    "upgrade": "NULL_NA",
    "gnaf_pid": "GAVIC420666801",
    "tech_change_status": "Not Planned",
    "program_type": "Fixed Wireless and Satellite Upgrade Program",
    "target_eligibility_quarter": "NA"
   }
  },
  {
   "type": "Feature",
   "geometry": {
    "type": "Point",
    "coordinates": [
     147.65341465,
     -37.78429899
    ]
   },
   "properties": {
    "name": "300 BALFOURS ROAD GRANITE ROCK 3875",
    "locID": "LOC000031015446",
    "tech": "WIRELESS",
    "upgrade": "NULL_NA",
    "gnaf_pid": "GAVIC420672060",
    "tech_change_status": "Not Planned",
    "program_type": "Fixed Wireless and Satellite Upgrade Program",
    "target_eligibility_quarter": "NA"
   }
  },
  {
   "type": "Feature",
   "geometry": {
    "type": "Point",
    "coordinates": [
     147.67107615,
     -37.7686001
    ]
   },
   "properties": {
    "name": "170 DEPTFORD ROAD GRANITE ROCK 3875",
    "locID": "LOC000011145331",
    "tech": "WIRELESS",
    "upgrade": "NULL_NA",
    "gnaf_pid": "GAVIC420673281",
    "tech_change_status": "Not Planned",
    "program_type": "Fixed Wireless and Satellite Upgrade Program",
    "target_eligibility_quarter": "NA"
   }
  },
  {
   "type": "Feature",
   "geometry": {
    "type": "Point",
    "coordinates": [
     147.67523798,
     -37.75053203
    ]
   },
   "properties": {
    "name": "50 WATERHOLES ROAD GRANITE ROCK 3875",
    "locID": "LOC000088048369",
    "tech": "WIRELESS",
    "upgrade": "NULL_NA",
    "gnaf_pid": "GAVIC420673282",
    "tech_change_status": "Not Planned",
    "program_type": "Fixed Wireless and Satellite Upgrade Program",
    "target_eligibility_quarter": "NA"
   }
  },
  {
   "type": "Feature",
   "geometry": {
    "type": "Point",
    "coordinates": [
     147.66312395,
     -37.77828914
    ]
   },
   "properties": {
    "name": "425 BALFOURS ROAD GRANITE ROCK 3875",
    "locID": "LOC000038512483",
    "tech": "WIRELESS",
    "upgrade": "NULL_NA",
    "gnaf_pid": "GAVIC420690097",
    "tech_change_status": "Not Planned",
    "program_type": "Fixed Wireless and Satellite Upgrade Program",
    "target_eligibility_quarter": "NA"
   }
  },
  {
   "type": "Feature",
   "geometry": {
    "type": "Point",
    "coordinates": [
     147.67467168,
     -37.77068865
    ]
   },
   "properties": {
    "name": "120 DEPTFORD ROAD GRANITE ROCK 3875",
    "locID": "LOC000050015243",
    "tech": "WIRELESS",
    "upgrade": "NULL_NA",
    "gnaf_pid": "GAVIC420726657",
    "tech_change_status": "Not Planned",
    "program_type": "Fixed Wireless and Satellite Upgrade Program",
    "target_eligibility_quarter": "NA"
   }
  },
  {
   "type": "Feature",
   "geometry": {
    "type": "Point",
    "coordinates": [
     147.6739823,
     -37.7710441
    ]
   },
   "properties": {
    "name": "135 DEPTFORD ROAD GRANITE ROCK 3875",
    "locID": "LOC000030971140",
    "tech": "WIRELESS",
    "upgrade": "NULL_NA",
    "gnaf_pid": "GAVIC420862463",
    "tech_change_status": "Not Planned",
    "program_type": "Fixed Wireless and Satellite Upgrade Program",
    "target_eligibility_quarter": "NA"
   }
  },
  {
   "type": "Feature",
   "geometry": {
    "type": "Point",
    "coordinates": [
     147.69377574,
     -37.72629615
    ]
   },
   "properties": {
    "name": "170 BELLBIRD ROAD GRANITE ROCK 3875",
    "locID": "LOC000070112955",
    "tech": "SATELLITE",
    "upgrade": "NULL_NA",
    "gnaf_pid": "GAVIC420880811",
    "tech_change_status": "Not Planned"
   }
  },
  {
   "type": "Feature",
   "geometry": {
    "type": "Point",
    "coordinates": [
     147.67957938,
     -37.77345451
    ]
   },
   "properties": {
    "name": "70 DEPTFORD ROAD GRANITE ROCK 3875",
    "locID": "LOC000012113363",
    "tech": "WIRELESS",
    "upgrade": "NULL_NA",
    "gnaf_pid": "GAVIC420885338",
    "tech_change_status": "Not Planned",
    "program_type": "Fixed Wireless and Satellite Upgrade Program",
    "target_eligibility_quarter": "NA"
   }
  },
  {
   "type": "Feature",
   "geometry": {
    "type": "Point",
    "coordinates": [
     147.66304616,
     -37.77847885
    ]
   },
   "properties": {
    "name": "415 BALFOURS ROAD GRANITE ROCK 3875",
    "locID": "LOC000085350688",
    "tech": "WIRELESS",
    "upgrade": "NULL_NA",
    "gnaf_pid": "GAVIC420968562",
    "tech_change_status": "Not Planned",
    "program_type": "Fixed Wireless and Satellite Upgrade Program",
    "target_eligibility_quarter": "NA"
   }
  },
  {
   "type": "Feature",
   "geometry": {
    "type": "Point",
    "coordinates": [
     147.66897154,
     -37.76183419
    ]
   },
   "properties": {
    "name": "250 DEPTFORD ROAD GRANITE ROCK 3875",
    "locID": "LOC000036070608",
    "tech": "WIRELESS",
    "upgrade": "NULL_NA",
    "gnaf_pid": "GAVIC420980788",
    "tech_change_status": "Not Planned",
    "program_type": "Fixed Wireless and Satellite Upgrade Program",
    "target_eligibility_quarter": "NA"
   }
  },
  {
   "type": "Feature",
   "geometry": {
    "type": "Point",
    "coordinates": [
     147.68709559,
     -37.74635349
    ]
   },
   "properties": {
    "name": "100 PALMERS ROAD GRANITE ROCK 3875",
    "locID": "LOC000077008796",
    "tech": "WIRELESS",
    "upgrade": "NULL_NA",
    "gnaf_pid": "GAVIC420980789",
    "tech_change_status": "Not Planned",
    "program_type": "Fixed Wireless and Satellite Upgrade Program",
    "target_eligibility_quarter": "NA"
   }
  },
  {
   "type": "Feature",
   "geometry": {
    "type": "Point",
    "coordinates": [
     147.65807933,
     -37.7818235
    ]
   },
   "properties": {
    "name": "345 BALFOURS ROAD GRANITE ROCK 3875",
    "locID": "LOC000082367662",
    "tech": "WIRELESS",
    "upgrade": "NULL_NA",
    "gnaf_pid": "GAVIC421042334",
    "tech_change_status": "Not Planned",
    "program_type": "Fixed Wireless and Satellite Upgrade Program",
    "target_eligibility_quarter": "NA"
   }
  },
  {
   "type": "Feature",
   "geometry": {
    "type": "Point",
    "coordinates": [
     147.66067438,
     -37.7812051
    ]
   },
   "properties": {
    "name": "373 BALFOURS ROAD GRANITE ROCK 3875",
    "locID": "LOC000003599856",
    "tech": "WIRELESS",
    "upgrade": "NULL_NA",
    "gnaf_pid": "GAVIC421044630",
    "tech_change_status": "Not Planned",
    "program_type": "Fixed Wireless and Satellite Upgrade Program",
    "target_eligibility_quarter": "NA"
   }
  },
  {
   "type": "Feature",
   "geometry": {
    "type": "Point",
    "coordinates": [
     147.69435603,
     -37.72403043
    ]
   },
   "properties": {
    "name": "200 BELLBIRD ROAD GRANITE ROCK 3875",
    "locID": "LOC000007720877",
    "tech": "SATELLITE",
    "upgrade": "NULL_NA",
    "gnaf_pid": "GAVIC421153207",
    "tech_change_status": "Not Planned"
   }
  },
  {
   "type": "Feature",
   "geometry": {
    "type": "Point",
    "coordinates": [
     147.66129079,
     -37.78156219
    ]
   },
   "properties": {
    "name": "5 SALMONDS ROAD GRANITE ROCK 3875",
    "locID": "LOC000049238306",
    "tech": "WIRELESS",
    "upgrade": "NULL_NA",
    "gnaf_pid": "GAVIC421248544",
    "tech_change_status": "Not Planned",
    "program_type": "Fixed Wireless and Satellite Upgrade Program",
    "target_eligibility_quarter": "NA"
   }
  },
  {
   "type": "Feature",
   "geometry": {
    "type": "Point",
    "coordinates": [
     147.67483695,
     -37.75100103
    ]
   },
   "properties": {
    "name": "40 WATERHOLES ROAD GRANITE ROCK 3875",
    "locID": "LOC000079424561",
    "tech": "WIRELESS",
    "upgrade": "NULL_NA",
    "gnaf_pid": "GAVIC421265733",
    "tech_change_status": "Not Planned",
    "program_type": "Fixed Wireless and Satellite Upgrade Program",
    "target_eligibility_quarter": "NA"
   }
  },
  {
   "type": "Feature",
   "geometry": {
    "type": "Point",
    "coordinates": [
     147.6625027,
     -37.77999958
    ]
   },
   "properties": {
    "name": "390 BALFOURS ROAD GRANITE ROCK 3875",
    "locID": "LOC000095867347",
    "tech": "WIRELESS",
    "upgrade": "NULL_NA",
    "gnaf_pid": "GAVIC421273754",
    "tech_change_status": "Not Planned",
    "program_type": "Fixed Wireless and Satellite Upgrade Program",
    "target_eligibility_quarter": "NA"
   }
  },
  {
   "type": "Feature",
   "geometry": {
    "type": "Point",
    "coordinates": [
     147.65483126,
     -37.78299996
    ]
   },
   "properties": {
    "name": "315 BALFOURS ROAD GRANITE ROCK 3875",
    "locID": "LOC000023485201",
    "tech": "WIRELESS",
    "upgrade": "NULL_NA",
    "gnaf_pid": "GAVIC421274411",
    "tech_change_status": "Not Planned",
    "program_type": "Fixed Wireless and Satellite Upgrade Program",
    "target_eligibility_quarter": "NA"
   }
  },
  {
   "type": "Feature",
   "geometry": {
    "type": "Point",
    "coordinates": [
     147.6824697,
     -37.7778362
    ]
   },
   "properties": {
    "name": "15 DEPTFORD ROAD GRANITE ROCK 3875",
    "locID": "LOC000071933928",
    "tech": "WIRELESS",
    "upgrade": "NULL_NA",
    "gnaf_pid": "GAVIC421279076",
    "tech_change_status": "Not Planned",
    "program_type": "Fixed Wireless and Satellite Upgrade Program",
    "target_eligibility_quarter": "NA"
   }
  },
  {
   "type": "Feature",
   "geometry": {
    "type": "Point",
    "coordinates": [
     147.68953313,
     -37.729169
    ]
   },
   "properties": {
    "name": "120 BELLBIRD ROAD GRANITE ROCK 3875",
    "locID": "LOC000061830756",
    "tech": "NULL",
    "upgrade": "NULL_NA",
    "gnaf_pid": "GAVIC421329515",
    "tech_change_status": "Not Planned"
   }
  },
  {
   "type": "Feature",
   "geometry": {
    "type": "Point",
    "coordinates": [
     147.67065489,
     -37.76884919
    ]
   },
   "properties": {
    "name": "175 DEPTFORD ROAD GRANITE ROCK 3875",
    "locID": "LOC000101422861",
    "tech": "WIRELESS",
    "upgrade": "NULL_NA",
    "gnaf_pid": "GAVIC421351560",
    "tech_change_status": "Not Planned",
    "program_type": "Fixed Wireless and Satellite Upgrade Program",
    "target_eligibility_quarter": "NA"
   }
  },
  {
   "type": "Feature",
   "geometry": {
    "type": "Point",
    "coordinates": [
     147.68831978,
     -37.73022181
    ]
   },
   "properties": {
    "name": "110 BELLBIRD ROAD GRANITE ROCK 3875",
    "locID": "LOC000060299510",
    "tech": "SATELLITE",
    "upgrade": "NULL_NA",
    "gnaf_pid": "GAVIC421363407",
    "tech_change_status": "Not Planned"
   }
  },
  {
   "type": "Feature",
   "geometry": {
    "type": "Point",
    "coordinates": [
     147.67119803,
     -37.75443075
    ]
   },
   "properties": {
    "name": "355 DEPTFORD ROAD GRANITE ROCK 3875",
    "locID": "LOC000032747110",
    "tech": "WIRELESS",
    "upgrade": "NULL_NA",
    "gnaf_pid": "GAVIC421480853",
    "tech_change_status": "Not Planned",
    "program_type": "Fixed Wireless and Satellite Upgrade Program",
    "target_eligibility_quarter": "NA"
   }
  },
  {
   "type": "Feature",
   "geometry": {
    "type": "Point",
    "coordinates": [
     147.6826184,
     -37.74704649
    ]
   },
   "properties": {
    "name": "70 PALMERS ROAD GRANITE ROCK 3875",
    "locID": "LOC000097013154",
    "tech": "WIRELESS",
    "upgrade": "NULL_NA",
    "gnaf_pid": "GAVIC421563824",
    "tech_change_status": "Not Planned",
    "program_type": "Fixed Wireless and Satellite Upgrade Program",
    "target_eligibility_quarter": "NA"
   }
  },
  {
   "type": "Feature",
   "geometry": {
    "type": "Point",
    "coordinates": [
     147.6697026,
     -37.74972538
    ]
   },
   "properties": {
    "name": "410 DEPTFORD ROAD GRANITE ROCK 3875",
    "locID": "LOC000073739121",
    "tech": "WIRELESS",
    "upgrade": "NULL_NA",
    "gnaf_pid": "GAVIC421568081",
    "tech_change_status": "Not Planned",
    "program_type": "Fixed Wireless and Satellite Upgrade Program",
    "target_eligibility_quarter": "NA"
   }
  },
  {
   "type": "Feature",
   "geometry": {
    "type": "Point",
    "coordinates": [
     147.65220404,
     -37.78522706
    ]
   },
   "properties": {
    "name": "280 BALFOURS ROAD GRANITE ROCK 3875",
    "locID": "LOC000081418298",
    "tech": "WIRELESS",
    "upgrade": "NULL_NA",
    "gnaf_pid": "GAVIC421578849",
    "tech_change_status": "Not Planned",
    "program_type": "Fixed Wireless and Satellite Upgrade Program",
    "target_eligibility_quarter": "NA"
   }
  },
  {
   "type": "Feature",
   "geometry": {
    "type": "Point",
    "coordinates": [
     147.68332845,
     -37.77860635
    ]
   },
   "properties": {
    "name": "5 DEPTFORD ROAD GRANITE ROCK 3875",
    "locID": "LOC000063646771",
    "tech": "WIRELESS",
    "upgrade": "NULL_NA",
    "gnaf_pid": "GAVIC421578853",
    "tech_change_status": "Not Planned",
    "program_type": "Fixed Wireless and Satellite Upgrade Program",
    "target_eligibility_quarter": "NA"
   }
  },
  {
   "type": "Feature",
   "geometry": {
    "type": "Point",
    "coordinates": [
     147.66509893,
     -37.77818786
    ]
   },
   "properties": {
    "name": "30 EAGLE VIEW ROAD GRANITE ROCK 3875",
    "locID": "LOC000071518106",
    "tech": "WIRELESS",
    "upgrade": "NULL_NA",
    "gnaf_pid": "GAVIC421582375",
    "tech_change_status": "Not Planned",
    "program_type": "Fixed Wireless and Satellite Upgrade Program",
    "target_eligibility_quarter": "NA"
   }
  },
  {
   "type": "Feature",
   "geometry": {
    "type": "Point",
    "coordinates": [
     147.66751222,
     -37.77406379
    ]
   },
   "properties": {
    "name": "480 BALFOURS ROAD GRANITE ROCK 3875",
    "locID": "LOC000086364993",
    "tech": "WIRELESS",
    "upgrade": "NULL_NA",
    "gnaf_pid": "GAVIC421582377",
    "tech_change_status": "Not Planned",
    "program_type": "Fixed Wireless and Satellite Upgrade Program",
    "target_eligibility_quarter": "NA"
   }
  },
  {
   "type": "Feature",
   "geometry": {
    "type": "Point",
    "coordinates": [
     147.66740893,
     -37.77239947
    ]
   },
   "properties": {
    "name": "505 BALFOURS ROAD GRANITE ROCK 3875",
    "locID": "LOC000063698290",
    "tech": "WIRELESS",
    "upgrade": "NULL_NA",
    "gnaf_pid": "GAVIC421604418",
    "tech_change_status": "Not Planned",
    "program_type": "Fixed Wireless and Satellite Upgrade Program",
    "target_eligibility_quarter": "NA"
   }
  },
  {
   "type": "Feature",
   "geometry": {
    "type": "Point",
    "coordinates": [
     147.66183811,
     -37.78066323
    ]
   },
   "properties": {
    "name": "380 BALFOURS ROAD GRANITE ROCK 3875",
    "locID": "LOC000104910322",
    "tech": "WIRELESS",
    "upgrade": "NULL_NA",
    "gnaf_pid": "GAVIC421617428",
    "tech_change_status": "Not Planned",
    "program_type": "Fixed Wireless and Satellite Upgrade Program",
    "target_eligibility_quarter": "NA"
   }
  },
  {
   "type": "Feature",
   "geometry": {
    "type": "Point",
    "coordinates": [
     147.6609108,
     -37.78101623
    ]
   },
   "properties": {
    "name": "375 BALFOURS ROAD GRANITE ROCK 3875",
    "locID": "LOC000029683395",
    "tech": "WIRELESS",
    "upgrade": "NULL_NA",
    "gnaf_pid": "GAVIC421647812",
    "tech_change_status": "Not Planned",
    "program_type": "Fixed Wireless and Satellite Upgrade Program",
    "target_eligibility_quarter": "NA"
   }
  },
  {
   "type": "Feature",
   "geometry": {
    "type": "Point",
    "coordinates": [
     147.65017123,
     -37.78782505
    ]
   },
   "properties": {
    "name": "240 BALFOURS ROAD GRANITE ROCK 3875",
    "locID": "LOC000100367633",
    "tech": "WIRELESS",
    "upgrade": "NULL_NA",
    "gnaf_pid": "GAVIC421818664",
    "tech_change_status": "Not Planned",
    "program_type": "Fixed Wireless and Satellite Upgrade Program",
    "target_eligibility_quarter": "NA"
   }
  },
  {
   "type": "Feature",
   "geometry": {
    "type": "Point",
    "coordinates": [
     147.67627168,
     -37.74686676
    ]
   },
   "properties": {
    "name": "85 WATERHOLES ROAD GRANITE ROCK 3875",
    "locID": "LOC000035013701",
    "tech": "WIRELESS",
    "upgrade": "NULL_NA",
    "gnaf_pid": "GAVIC421838768",
    "tech_change_status": "Not Planned",
    "program_type": "Fixed Wireless and Satellite Upgrade Program",
    "target_eligibility_quarter": "NA"
   }
  },
  {
   "type": "Feature",
   "geometry": {
    "type": "Point",
    "coordinates": [
     147.6499863,
     -37.78745653
    ]
   },
   "properties": {
    "name": "245 BALFOURS ROAD GRANITE ROCK 3875",
    "locID": "LOC000011070000",
    "tech": "WIRELESS",
    "upgrade": "NULL_NA",
    "gnaf_pid": "GAVIC421856452",
    "tech_change_status": "Not Planned",
    "program_type": "Fixed Wireless and Satellite Upgrade Program",
    "target_eligibility_quarter": "NA"
   }
  },
  {
   "type": "Feature",
   "geometry": {
    "type": "Point",
    "coordinates": [
     147.66572564,
     -37.775895
    ]
   },
   "properties": {
    "name": "440 BALFOURS ROAD GRANITE ROCK 3875",
    "locID": "LOC000094055113",
    "tech": "WIRELESS",
    "upgrade": "NULL_NA",
    "gnaf_pid": "GAVIC421857341",
    "tech_change_status": "Not Planned",
    "program_type": "Fixed Wireless and Satellite Upgrade Program",
    "target_eligibility_quarter": "NA"
   }
  },
  {
   "type": "Feature",
   "geometry": {
    "type": "Point",
    "coordinates": [
     147.65693323,
     -37.78192003
    ]
   },
   "properties": {
    "name": "329 BALFOURS ROAD GRANITE ROCK 3875",
    "locID": "LOC000071383145",
    "tech": "WIRELESS",
    "upgrade": "NULL_NA",
    "gnaf_pid": "GAVIC421886100",
    "tech_change_status": "Not Planned",
    "program_type": "Fixed Wireless and Satellite Upgrade Program",
    "target_eligibility_quarter": "NA"
   }
  },
  {
   "type": "Feature",
   "geometry": {
    "type": "Point",
    "coordinates": [
     147.66444496,
     -37.77617263
    ]
   },
   "properties": {
    "name": "455 BALFOURS ROAD GRANITE ROCK 3875",
    "locID": "LOC000091690564",
    "tech": "WIRELESS",
    "upgrade": "NULL_NA",
    "gnaf_pid": "GAVIC421886101",
    "tech_change_status": "Not Planned",
    "program_type": "Fixed Wireless and Satellite Upgrade Program",
    "target_eligibility_quarter": "NA"
   }
  },
  {
   "type": "Feature",
   "geometry": {
    "type": "Point",
    "coordinates": [
     147.65601186,
     -37.78262616
    ]
   },
   "properties": {
    "name": "330 BALFOURS ROAD GRANITE ROCK 3875",
    "locID": "LOC000100945884",
    "tech": "WIRELESS",
    "upgrade": "NULL_NA",
    "gnaf_pid": "GAVIC421892025",
    "tech_change_status": "Not Planned",
    "program_type": "Fixed Wireless and Satellite Upgrade Program",
    "target_eligibility_quarter": "NA"
   }
  },
  {
   "type": "Feature",
   "geometry": {
    "type": "Point",
    "coordinates": [
     147.66775893,
     -37.77248467
    ]
   },
   "properties": {
    "name": "510 BALFOURS ROAD GRANITE ROCK 3875",
    "locID": "LOC000099089668",
    "tech": "WIRELESS",
    "upgrade": "NULL_NA",
    "gnaf_pid": "GAVIC421907312",
    "tech_change_status": "Not Planned",
    "program_type": "Fixed Wireless and Satellite Upgrade Program",
    "target_eligibility_quarter": "NA"
   }
  },
  {
   "type": "Feature",
   "geometry": {
    "type": "Point",
    "coordinates": [
     147.65276124,
     -37.76732425
    ]
   },
   "properties": {
    "name": "541 BALFOURS ROAD GRANITE ROCK 3875",
    "locID": "LOC000092995131",
    "tech": "WIRELESS",
    "upgrade": "NULL_NA",
    "gnaf_pid": "GAVIC421995790",
    "tech_change_status": "Not Planned",
    "program_type": "Fixed Wireless and Satellite Upgrade Program",
    "target_eligibility_quarter": "NA"
   }
  },
  {
   "type": "Feature",
   "geometry": {
    "type": "Point",
    "coordinates": [
     147.66078121,
     -37.78427799
    ]
   },
   "properties": {
    "name": "25 SALMONDS ROAD GRANITE ROCK 3875",
    "locID": "LOC000007811187",
    "tech": "WIRELESS",
    "upgrade": "NULL_NA",
    "gnaf_pid": "GAVIC422321131",
    "tech_change_status": "Not Planned",
    "program_type": "Fixed Wireless and Satellite Upgrade Program",
    "target_eligibility_quarter": "NA"
   }
  },
  {
   "type": "Feature",
   "geometry": {
    "type": "Point",
    "coordinates": [
     147.66059797,
     -37.78771946
    ]
   },
   "properties": {
    "name": "70 SALMONDS ROAD GRANITE ROCK 3875",
    "locID": "LOC000092096303",
    "tech": "WIRELESS",
    "upgrade": "NULL_NA",
    "gnaf_pid": "GAVIC422321133",
    "tech_change_status": "Not Planned",
    "program_type": "Fixed Wireless and Satellite Upgrade Program",
    "target_eligibility_quarter": "NA"
   }
  },
  {
   "type": "Feature",
   "geometry": {
    "type": "Point",
    "coordinates": [
     147.65397623,
     -37.78692561
    ]
   },
   "properties": {
    "name": "18 RONWIN COURT GRANITE ROCK 3875",
    "locID": "LOC000040818126",
    "tech": "WIRELESS",
    "upgrade": "NULL_NA",
    "gnaf_pid": "GAVIC423107713",
    "tech_change_status": "Not Planned",
    "program_type": "Fixed Wireless and Satellite Upgrade Program",
    "target_eligibility_quarter": "NA"
   }
  },
  {
   "type": "Feature",
   "geometry": {
    "type": "Point",
    "coordinates": [
     147.67546447,
     -37.74048622
    ]
   },
   "properties": {
    "name": "130 WATERHOLES ROAD GRANITE ROCK 3875",
    "locID": "LOC000034129203",
    "tech": "WIRELESS",
    "upgrade": "NULL_NA",
    "gnaf_pid": "GAVIC423109413",
    "tech_change_status": "Not Planned",
    "program_type": "Fixed Wireless and Satellite Upgrade Program",
    "target_eligibility_quarter": "NA"
   }
  },
  {
   "type": "Feature",
   "geometry": {
    "type": "Point",
    "coordinates": [
     147.69410177,
     -37.74501124
    ]
   },
   "properties": {
    "name": "170 PALMERS ROAD GRANITE ROCK 3875",
    "locID": "LOC000058660111",
    "tech": "WIRELESS",
    "upgrade": "NULL_NA",
    "gnaf_pid": "GAVIC423510167",
    "tech_change_status": "Not Planned",
    "program_type": "Fixed Wireless and Satellite Upgrade Program",
    "target_eligibility_quarter": "NA"
   }
  },
  {
   "type": "Feature",
   "geometry": {
    "type": "Point",
    "coordinates": [
     147.65374976,
     -37.78366623
    ]
   },
   "properties": {
    "name": "305 BALFOURS ROAD GRANITE ROCK 3875",
    "locID": "LOC000050397793",
    "tech": "WIRELESS",
    "upgrade": "NULL_NA",
    "gnaf_pid": "GAVIC423786964",
    "tech_change_status": "Not Planned",
    "program_type": "Fixed Wireless and Satellite Upgrade Program",
    "target_eligibility_quarter": "NA"
   }
  },
  {
   "type": "Feature",
   "geometry": {
    "type": "Point",
    "coordinates": [
     147.65231012,
     -37.78691357
    ]
   },
   "properties": {
    "name": "4 RONWIN COURT GRANITE ROCK 3875",
    "locID": "LOC000018632414",
    "tech": "WIRELESS",
    "upgrade": "NULL_NA",
    "gnaf_pid": "GAVIC423850236",
    "tech_change_status": "Not Planned",
    "program_type": "Fixed Wireless and Satellite Upgrade Program",
    "target_eligibility_quarter": "NA"
   }
  },
  {
   "type": "Feature",
   "geometry": {
    "type": "Point",
    "coordinates": [
     147.65319067,
     -37.78665561
    ]
   },
   "properties": {
    "name": "9 RONWIN COURT GRANITE ROCK 3875",
    "locID": "LOC000080800501",
    "tech": "WIRELESS",
    "upgrade": "NULL_NA",
    "gnaf_pid": "GAVIC423850237",
    "tech_change_status": "Not Planned",
    "program_type": "Fixed Wireless and Satellite Upgrade Program",
    "target_eligibility_quarter": "NA"
   }
  },
  {
   "type": "Feature",
   "geometry": {
    "type": "Point",
    "coordinates": [
     147.6527151,
     -37.78431256
    ]
   },
   "properties": {
    "name": "293 BALFOURS ROAD GRANITE ROCK 3875",
    "locID": "LOC000125802015",
    "tech": "WIRELESS",
    "upgrade": "NULL_NA",
    "gnaf_pid": "GAVIC424077617",
    "tech_change_status": "Not Planned",
    "program_type": "Fixed Wireless and Satellite Upgrade Program",
    "target_eligibility_quarter": "NA"
   }
  },
  {
   "type": "Feature",
   "geometry": {
    "type": "Point",
    "coordinates": [
     147.65278925,
     -37.78270801
    ]
   },
   "properties": {
    "name": "17 BRIGHTSIDE DRIVE GRANITE ROCK 3875",
    "locID": "LOC100081830945",
    "tech": "WIRELESS",
    "upgrade": "NULL_NA",
    "gnaf_pid": "GAVIC424078601",
    "tech_change_status": "Not Planned",
    "program_type": "Fixed Wireless and Satellite Upgrade Program",
    "target_eligibility_quarter": "NA"
   }
  },
  {
   "type": "Feature",
   "geometry": {
    "type": "Point",
    "coordinates": [
     147.65314619,
     -37.78255835
    ]
   },
   "properties": {
    "name": "18 BRIGHTSIDE DRIVE GRANITE ROCK 3875",
    "locID": "LOC000040858707",
    "tech": "WIRELESS",
    "upgrade": "NULL_NA",
    "gnaf_pid": "GAVIC424078602",
    "tech_change_status": "Not Planned",
    "program_type": "Fixed Wireless and Satellite Upgrade Program",
    "target_eligibility_quarter": "NA"
   }
  },
  {
   "type": "Feature",
   "geometry": {
    "type": "Point",
    "coordinates": [
     147.65293556,
     -37.78164505
    ]
   },
   "properties": {
    "name": "28 BRIGHTSIDE DRIVE GRANITE ROCK 3875",
    "locID": "LOC000025243363",
    "tech": "WIRELESS",
    "upgrade": "NULL_NA",
    "gnaf_pid": "GAVIC424078603",
    "tech_change_status": "Not Planned",
    "program_type": "Fixed Wireless and Satellite Upgrade Program",
    "target_eligibility_quarter": "NA"
   }
  },
  {
   "type": "Feature",
   "geometry": {
    "type": "Point",
    "coordinates": [
     147.6525564,
     -37.78167053
    ]
   },
   "properties": {
    "name": "29 BRIGHTSIDE DRIVE GRANITE ROCK 3875",
    "locID": "LOC000125801939",
    "tech": "WIRELESS",
    "upgrade": "NULL_NA",
    "gnaf_pid": "GAVIC424078604",
    "tech_change_status": "Not Planned",
    "program_type": "Fixed Wireless and Satellite Upgrade Program",
    "target_eligibility_quarter": "NA"
   }
  },
  {
   "type": "Feature",
   "geometry": {
    "type": "Point",
    "coordinates": [
     147.65394938,
     -37.78659592
    ]
   },
   "properties": {
    "name": "17 RONWIN COURT GRANITE ROCK 3875",
    "locID": "LOC000160123736",
    "tech": "WIRELESS",
    "upgrade": "NULL_NA",
    "gnaf_pid": "GAVIC424087716",
    "tech_change_status": "Not Planned",
    "program_type": "Fixed Wireless and Satellite Upgrade Program",
    "target_eligibility_quarter": "NA"
   }
  },
  {
   "type": "Feature",
   "geometry": {
    "type": "Point",
    "coordinates": [
     147.65444139,
     -37.7867155
    ]
   },
   "properties": {
    "name": "21 RONWIN COURT GRANITE ROCK 3875",
    "locID": "LOC000081417480",
    "tech": "WIRELESS",
    "upgrade": "NULL_NA",
    "gnaf_pid": "GAVIC424087717",
    "tech_change_status": "Not Planned",
    "program_type": "Fixed Wireless and Satellite Upgrade Program",
    "target_eligibility_quarter": "NA"
   }
  },
  {
   "type": "Feature",
   "geometry": {
    "type": "Point",
    "coordinates": [
     147.6523854,
     -37.78659493
    ]
   },
   "properties": {
    "name": "3 RONWIN COURT GRANITE ROCK 3875",
    "locID": "LOC000061022645",
    "tech": "WIRELESS",
    "upgrade": "NULL_NA",
    "gnaf_pid": "GAVIC424087718",
    "tech_change_status": "Not Planned",
    "program_type": "Fixed Wireless and Satellite Upgrade Program",
    "target_eligibility_quarter": "NA"
   }
  },
  {
   "type": "Feature",
   "geometry": {
    "type": "Point",
    "coordinates": [
     147.66924968,
     -37.76810356
    ]
   },
   "properties": {
    "name": "555A BALFOURS ROAD GRANITE ROCK 3875",
    "locID": "LOC000125761375",
    "tech": "WIRELESS",
    "upgrade": "NULL_NA",
    "gnaf_pid": "GAVIC424234195",
    "tech_change_status": "Not Planned",
    "program_type": "Fixed Wireless and Satellite Upgrade Program",
    "target_eligibility_quarter": "NA"
   }
  },
  {
   "type": "Feature",
   "geometry": {
    "type": "Point",
    "coordinates": [
     147.66310799,
     -37.75027244
    ]
   },
   "properties": {
    "name": "35 PHEASANT TRACK GRANITE ROCK 3875",
    "locID": "LOC000125811439",
    "tech": "WIRELESS",
    "upgrade": "NULL_NA",
    "gnaf_pid": "GAVIC424930336",
    "tech_change_status": "Not Planned",
    "program_type": "Fixed Wireless and Satellite Upgrade Program",
    "target_eligibility_quarter": "NA"
   }
  },
  {
   "type": "Feature",
   "geometry": {
    "type": "Point",
    "coordinates": [
     147.66665616,
     -37.74884498
    ]
   },
   "properties": {
    "name": "5 PHEASANT TRACK GRANITE ROCK 3875",
    "locID": "LOC000125829009",
    "tech": "WIRELESS",
    "upgrade": "NULL_NA",
    "gnaf_pid": "GAVIC424930337",
    "tech_change_status": "Not Planned",
    "program_type": "Fixed Wireless and Satellite Upgrade Program",
    "target_eligibility_quarter": "NA"
   }
  },
  {
   "type": "Feature",
   "geometry": {
    "type": "Point",
    "coordinates": [
     147.6659406,
     -37.74918058
    ]
   },
   "properties": {
    "name": "9 PHEASANT TRACK GRANITE ROCK 3875",
    "locID": "LOC000125788828",
    "tech": "SATELLITE",
    "upgrade": "WIRELESS",
    "gnaf_pid": "GAVIC424930338",
    "tech_change_status": "Eligible to Order",
    "program_type": "Fixed Wireless and Satellite Upgrade Program",
    "target_eligibility_quarter": "NA"
   }
  },
  {
   "type": "Feature",
   "geometry": {
    "type": "Point",
    "coordinates": [
     147.65232323,
     -37.78091475
    ]
   },
   "properties": {
    "name": "35 BRIGHTSIDE DRIVE GRANITE ROCK 3875",
    "locID": "LOC100056239026",
    "tech": "WIRELESS",
    "upgrade": "NULL_NA",
    "gnaf_pid": "GAVIC425513310",
    "tech_change_status": "Not Planned",
    "program_type": "Fixed Wireless and Satellite Upgrade Program",
    "target_eligibility_quarter": "NA"
   }
  },
  {
   "type": "Feature",
   "geometry": {
    "type": "Point",
    "coordinates": [
     147.65294376,
     -37.78086063
    ]
   },
   "properties": {
    "name": "36 BRIGHTSIDE DRIVE GRANITE ROCK 3875",
    "locID": "LOC000181123702",
    "tech": "WIRELESS",
    "upgrade": "NULL_NA",
    "gnaf_pid": "GAVIC425730802",
    "tech_change_status": "Not Planned",
    "program_type": "Fixed Wireless and Satellite Upgrade Program",
    "target_eligibility_quarter": "NA"
   }
  },
  {
   "type": "Feature",
   "geometry": {
    "type": "Point",
    "coordinates": [
     147.65266403,
     -37.78089627
    ]
   },
   "properties": {
    "name": "38 BRIGHTSIDE DRIVE GRANITE ROCK 3875",
    "locID": "LOC000182505993",
    "tech": "WIRELESS",
    "upgrade": "NULL_NA",
    "gnaf_pid": "GAVIC720127587",
    "tech_change_status": "Not Planned",
    "program_type": "Fixed Wireless and Satellite Upgrade Program",
    "target_eligibility_quarter": "NA"
   }
  },
  {
   "type": "Feature",
   "geometry": {
    "type": "Point",
    "coordinates": [
     147.66110502,
     -37.78197579
    ]
   },
   "properties": {
    "name": "23 SALMONDS ROAD GRANITE ROCK 3875",
    "locID": "LOC000184513356",
    "tech": "WIRELESS",
    "upgrade": "NULL_NA",
    "gnaf_pid": "GAVIC720526698",
    "tech_change_status": "Not Planned",
    "program_type": "Fixed Wireless and Satellite Upgrade Program",
    "target_eligibility_quarter": "NA"
   }
  }
 ]
}