{
 "type": "FeatureCollection",
 "generated": "2025-02-12T16:39:52.973599",
 "suburb": "HAZELWOOD SOUTH",
 "features": [
  {
   "type": "Feature",
   "geometry": {
    "type": "Point",
    "coordinates": [
     146.45015446,
     -38.31941726
    ]
   },
   "properties": {
    "name": "72 HOLTS ROAD HAZELWOOD SOUTH 3840",
    "locID": "LOC000066342607",
    "tech": "WIRELESS",
    "upgrade": "NULL_NA",
    "gnaf_pid": "GAVIC411551444",
    "tech_change_status": "Not Planned",
    "program_type": "Fixed Wireless and Satellite Upgrade Program",
    "target_eligibility_quarter": "NA"
   }
  },
  {
   "type": "Feature",
   "geometry": {
    "type": "Point",
    "coordinates": [
     146.46112505,
     -38.30240785
    ]
   },
   "properties": {
    "name": "140 THOMSON ROAD HAZELWOOD SOUTH 3840",
    "locID": "LOC000071931408",
    "tech": "WIRELESS",
    "upgrade": "NULL_NA",
    "gnaf_pid": "GAVIC411551445",
    "tech_change_status": "Not Planned",
    "program_type": "Fixed Wireless and Satellite Upgrade Program",
    "target_eligibility_quarter": "NA"
   }
  },
  {
   "type": "Feature",
   "geometry": {
    "type": "Point",
    "coordinates": [
     146.4482905,
     -38.3193274
    ]
   },
   "properties": {
    "name": "85 HOLTS ROAD HAZELWOOD SOUTH 3840",
    "locID": "LOC000079660416",
    "tech": "WIRELESS",
    "upgrade": "NULL_NA",
    "gnaf_pid": "GAVIC411551448",
    "tech_change_status": "Not Planned",
    "program_type": "Fixed Wireless and Satellite Upgrade Program",
    "target_eligibility_quarter": "NA"
   }
  },
  {
   "type": "Feature",
   "geometry": {
    "type": "Point",
    "coordinates": [
     146.46038879,
     -38.32922514
    ]
   },
   "properties": {
    "name": "455 GLENDONALD ROAD HAZELWOOD SOUTH 3840",
    "locID": "LOC000051040937",
    "tech": "WIRELESS",
    "upgrade": "NULL_NA",
    "gnaf_pid": "GAVIC411552429",
    "tech_change_status": "Not Planned",
    "program_type": "Fixed Wireless and Satellite Upgrade Program",
    "target_eligibility_quarter": "NA"
   }
  },
  {
   "type": "Feature",
   "geometry": {
    "type": "Point",
    "coordinates": [
     146.46127179,
     -38.3289498
    ]
   },
   "properties": {
    "name": "465 GLENDONALD ROAD HAZELWOOD SOUTH 3840",
    "locID": "LOC000038607913",
    "tech": "WIRELESS",
    "upgrade": "NULL_NA",
    "gnaf_pid": "GAVIC411552430",
    "tech_change_status": "Not Planned",
    "program_type": "Fixed Wireless and Satellite Upgrade Program",
    "target_eligibility_quarter": "NA"
   }
  },
  {
   "type": "Feature",
   "geometry": {
    "type": "Point",
    "coordinates": [
     146.45082109,
     -38.33416451
    ]
   },
   "properties": {
    "name": "340 GLENDONALD ROAD HAZELWOOD SOUTH 3840",
    "locID": "LOC000010086205",
    "tech": "WIRELESS",
    "upgrade": "NULL_NA",
    "gnaf_pid": "GAVIC411552431",
    "tech_change_status": "Not Planned",
    "program_type": "Fixed Wireless and Satellite Upgrade Program",
    "target_eligibility_quarter": "NA"
   }
  },
  {
   "type": "Feature",
   "geometry": {
    "type": "Point",
    "coordinates": [
     146.45527449,
     -38.32007203
    ]
   },
   "properties": {
    "name": "25 HOLTS ROAD HAZELWOOD SOUTH 3840",
    "locID": "LOC000041365826",
    "tech": "WIRELESS",
    "upgrade": "NULL_NA",
    "gnaf_pid": "GAVIC411561260",
    "tech_change_status": "Not Planned",
    "program_type": "Fixed Wireless and Satellite Upgrade Program",
    "target_eligibility_quarter": "NA"
   }
  },
  {
   "type": "Feature",
   "geometry": {
    "type": "Point",
    "coordinates": [
     146.4616279,
     -38.3086467
    ]
   },
   "properties": {
    "name": "215 THOMSON ROAD HAZELWOOD SOUTH 3840",
    "locID": "LOC000024372525",
    "tech": "WIRELESS",
    "upgrade": "NULL_NA",
    "gnaf_pid": "GAVIC411561261",
    "tech_change_status": "Not Planned",
    "program_type": "Fixed Wireless and Satellite Upgrade Program",
    "target_eligibility_quarter": "NA"
   }
  },
  {
   "type": "Feature",
   "geometry": {
    "type": "Point",
    "coordinates": [
     146.45078591,
     -38.32366503
    ]
   },
   "properties": {
    "name": "80 SALISBURY LANE HAZELWOOD SOUTH 3840",
    "locID": "LOC000030259155",
    "tech": "WIRELESS",
    "upgrade": "NULL_NA",
    "gnaf_pid": "GAVIC411565298",
    "tech_change_status": "Not Planned",
    "program_type": "Fixed Wireless and Satellite Upgrade Program",
    "target_eligibility_quarter": "NA"
   }
  },
  {
   "type": "Feature",
   "geometry": {
    "type": "Point",
    "coordinates": [
     146.45252301,
     -38.32238439
    ]
   },
   "properties": {
    "name": "40 SALISBURY LANE HAZELWOOD SOUTH 3840",
    "locID": "LOC000003654582",
    "tech": "WIRELESS",
    "upgrade": "NULL_NA",
    "gnaf_pid": "GAVIC411566071",
    "tech_change_status": "Not Planned",
    "program_type": "Fixed Wireless and Satellite Upgrade Program",
    "target_eligibility_quarter": "NA"
   }
  },
  {
   "type": "Feature",
   "geometry": {
    "type": "Point",
    "coordinates": [
     146.46689411,
     -38.3345451
    ]
   },
   "properties": {
    "name": "575 THOMSON ROAD HAZELWOOD SOUTH 3840",
    "locID": "LOC000096643377",
    "tech": "WIRELESS",
    "upgrade": "NULL_NA",
    "gnaf_pid": "GAVIC411566075",
    "tech_change_status": "Not Planned",
    "program_type": "Fixed Wireless and Satellite Upgrade Program",
    "target_eligibility_quarter": "NA"
   }
  },
  {
   "type": "Feature",
   "geometry": {
    "type": "Point",
    "coordinates": [
     146.45781512,
     -38.32518315
    ]
   },
   "properties": {
    "name": "LOT 3 STONEHAVEN ROAD HAZELWOOD SOUTH 3840",
    "locID": "LOC000058459499",
    "tech": "WIRELESS",
    "upgrade": "NULL_NA",
    "gnaf_pid": "GAVIC412693391",
    "tech_change_status": "Not Planned",
    "program_type": "Fixed Wireless and Satellite Upgrade Program",
    "target_eligibility_quarter": "NA"
   }
  },
  {
   "type": "Feature",
   "geometry": {
    "type": "Point",
    "coordinates": [
     146.4552314,
     -38.33261685
    ]
   },
   "properties": {
    "name": "LOT 1 GLENDONALD ROAD HAZELWOOD SOUTH 3840",
    "locID": "LOC000163045046",
    "tech": "WIRELESS",
    "upgrade": "NULL_NA",
    "gnaf_pid": "GAVIC412693486",
    "tech_change_status": "Not Planned",
    "program_type": "Fixed Wireless and Satellite Upgrade Program",
    "target_eligibility_quarter": "NA"
   }
  },
  {
   "type": "Feature",
   "geometry": {
    "type": "Point",
    "coordinates": [
     146.4623313,
     -38.3295585
    ]
   },
   "properties": {
    "name": "490 THOMSON ROAD HAZELWOOD SOUTH 3840",
    "locID": "LOC000058441420",
    "tech": "WIRELESS",
    "upgrade": "NULL_NA",
    "gnaf_pid": "GAVIC419787217",
    "tech_change_status": "Not Planned",
    "program_type": "Fixed Wireless and Satellite Upgrade Program",
    "target_eligibility_quarter": "NA"
   }
  },
  {
   "type": "Feature",
   "geometry": {
    "type": "Point",
    "coordinates": [
     146.46134652,
     -38.30155193
    ]
   },
   "properties": {
    "name": "130 THOMSON ROAD HAZELWOOD SOUTH 3840",
    "locID": "LOC000009425953",
    "tech": "WIRELESS",
    "upgrade": "NULL_NA",
    "gnaf_pid": "GAVIC419788449",
    "tech_change_status": "Not Planned",
    "program_type": "Fixed Wireless and Satellite Upgrade Program",
    "target_eligibility_quarter": "NA"
   }
  },
  {
   "type": "Feature",
   "geometry": {
    "type": "Point",
    "coordinates": [
     146.4577542,
     -38.29739046
    ]
   },
   "properties": {
    "name": "40 SUNNYVIEW ROAD HAZELWOOD SOUTH 3840",
    "locID": "LOC000007013171",
    "tech": "WIRELESS",
    "upgrade": "NULL_NA",
    "gnaf_pid": "GAVIC419788450",
    "tech_change_status": "Not Planned",
    "program_type": "Fixed Wireless and Satellite Upgrade Program",
    "target_eligibility_quarter": "NA"
   }
  },
  {
   "type": "Feature",
   "geometry": {
    "type": "Point",
    "coordinates": [
     146.45632589,
     -38.29723065
    ]
   },
   "properties": {
    "name": "20 SUNNYVIEW ROAD HAZELWOOD SOUTH 3840",
    "locID": "LOC000048645245",
    "tech": "WIRELESS",
    "upgrade": "NULL_NA",
    "gnaf_pid": "GAVIC419788451",
    "tech_change_status": "Not Planned",
    "program_type": "Fixed Wireless and Satellite Upgrade Program",
    "target_eligibility_quarter": "NA"
   }
  },
  {
   "type": "Feature",
   "geometry": {
    "type": "Point",
    "coordinates": [
     146.46106235,
     -38.30778793
    ]
   },
   "properties": {
    "name": "200 THOMSON ROAD HAZELWOOD SOUTH 3840",
    "locID": "LOC000090814472",
    "tech": "WIRELESS",
    "upgrade": "NULL_NA",
    "gnaf_pid": "GAVIC419788452",
    "tech_change_status": "Not Planned",
    "program_type": "Fixed Wireless and Satellite Upgrade Program",
    "target_eligibility_quarter": "NA"
   }
  },
  {
   "type": "Feature",
   "geometry": {
    "type": "Point",
    "coordinates": [
     146.45670515,
     -38.29698005
    ]
   },
   "properties": {
    "name": "25 SUNNYVIEW ROAD HAZELWOOD SOUTH 3840",
    "locID": "LOC000061919054",
    "tech": "WIRELESS",
    "upgrade": "NULL_NA",
    "gnaf_pid": "GAVIC420069890",
    "tech_change_status": "Not Planned",
    "program_type": "Fixed Wireless and Satellite Upgrade Program",
    "target_eligibility_quarter": "NA"
   }
  },
  {
   "type": "Feature",
   "geometry": {
    "type": "Point",
    "coordinates": [
     146.45880999,
     -38.29381744
    ]
   },
   "properties": {
    "name": "30 THOMSON ROAD HAZELWOOD SOUTH 3840",
    "locID": "LOC000081012938",
    "tech": "WIRELESS",
    "upgrade": "NULL_NA",
    "gnaf_pid": "GAVIC420069891",
    "tech_change_status": "Not Planned",
    "program_type": "Fixed Wireless and Satellite Upgrade Program",
    "target_eligibility_quarter": "Sep 2025"
   }
  },
  {
   "type": "Feature",
   "geometry": {
    "type": "Point",
    "coordinates": [
     146.45894331,
     -38.297423
    ]
   },
   "properties": {
    "name": "50 SUNNYVIEW ROAD HAZELWOOD SOUTH 3840",
    "locID": "LOC000053106913",
    "tech": "WIRELESS",
    "upgrade": "NULL_NA",
    "gnaf_pid": "GAVIC420071591",
    "tech_change_status": "Not Planned",
    "program_type": "Fixed Wireless and Satellite Upgrade Program",
    "target_eligibility_quarter": "NA"
   }
  },
  {
   "type": "Feature",
   "geometry": {
    "type": "Point",
    "coordinates": [
     146.4422587,
     -38.31526136
    ]
   },
   "properties": {
    "name": "140 LAWLESS ROAD HAZELWOOD SOUTH 3840",
    "locID": "LOC000026863352",
    "tech": "WIRELESS",
    "upgrade": "NULL_NA",
    "gnaf_pid": "GAVIC420071592",
    "tech_change_status": "Not Planned",
    "program_type": "Fixed Wireless and Satellite Upgrade Program",
    "target_eligibility_quarter": "NA"
   }
  },
  {
   "type": "Feature",
   "geometry": {
    "type": "Point",
    "coordinates": [
     146.45234681,
     -38.3169131
    ]
   },
   "properties": {
    "name": "55 LAWLESS ROAD HAZELWOOD SOUTH 3840",
    "locID": "LOC000052001539",
    "tech": "WIRELESS",
    "upgrade": "NULL_NA",
    "gnaf_pid": "GAVIC420071593",
    "tech_change_status": "Not Planned",
    "program_type": "Fixed Wireless and Satellite Upgrade Program",
    "target_eligibility_quarter": "NA"
   }
  },
  {
   "type": "Feature",
   "geometry": {
    "type": "Point",
    "coordinates": [
     146.44804178,
     -38.3189387
    ]
   },
   "properties": {
    "name": "90 HOLTS ROAD HAZELWOOD SOUTH 3840",
    "locID": "LOC000041451735",
    "tech": "WIRELESS",
    "upgrade": "NULL_NA",
    "gnaf_pid": "GAVIC420071595",
    "tech_change_status": "Not Planned",
    "program_type": "Fixed Wireless and Satellite Upgrade Program",
    "target_eligibility_quarter": "NA"
   }
  },
  {
   "type": "Feature",
   "geometry": {
    "type": "Point",
    "coordinates": [
     146.45295468,
     -38.32279195
    ]
   },
   "properties": {
    "name": "55 SALISBURY LANE HAZELWOOD SOUTH 3840",
    "locID": "LOC000009366693",
    "tech": "WIRELESS",
    "upgrade": "NULL_NA",
    "gnaf_pid": "GAVIC420071596",
    "tech_change_status": "Not Planned",
    "program_type": "Fixed Wireless and Satellite Upgrade Program",
    "target_eligibility_quarter": "NA"
   }
  },
  {
   "type": "Feature",
   "geometry": {
    "type": "Point",
    "coordinates": [
     146.45900505,
     -38.32298225
    ]
   },
   "properties": {
    "name": "380 THOMSON ROAD HAZELWOOD SOUTH 3840",
    "locID": "LOC000014763986",
    "tech": "WIRELESS",
    "upgrade": "NULL_NA",
    "gnaf_pid": "GAVIC420071597",
    "tech_change_status": "Not Planned",
    "program_type": "Fixed Wireless and Satellite Upgrade Program",
    "target_eligibility_quarter": "NA"
   }
  },
  {
   "type": "Feature",
   "geometry": {
    "type": "Point",
    "coordinates": [
     146.45869636,
     -38.32449489
    ]
   },
   "properties": {
    "name": "20 STONEHAVEN ROAD HAZELWOOD SOUTH 3840",
    "locID": "LOC000072892526",
    "tech": "WIRELESS",
    "upgrade": "NULL_NA",
    "gnaf_pid": "GAVIC420071598",
    "tech_change_status": "Not Planned",
    "program_type": "Fixed Wireless and Satellite Upgrade Program",
    "target_eligibility_quarter": "NA"
   }
  },
  {
   "type": "Feature",
   "geometry": {
    "type": "Point",
    "coordinates": [
     146.45636095,
     -38.31704893
    ]
   },
   "properties": {
    "name": "10 LAWLESS ROAD HAZELWOOD SOUTH 3840",
    "locID": "LOC000012722028",
    "tech": "WIRELESS",
    "upgrade": "NULL_NA",
    "gnaf_pid": "GAVIC420071600",
    "tech_change_status": "Not Planned",
    "program_type": "Fixed Wireless and Satellite Upgrade Program",
    "target_eligibility_quarter": "NA"
   }
  },
  {
   "type": "Feature",
   "geometry": {
    "type": "Point",
    "coordinates": [
     146.45820083,
     -38.33112565
    ]
   },
   "properties": {
    "name": "420 GLENDONALD ROAD HAZELWOOD SOUTH 3840",
    "locID": "LOC000026844672",
    "tech": "WIRELESS",
    "upgrade": "NULL_NA",
    "gnaf_pid": "GAVIC420071601",
    "tech_change_status": "Not Planned",
    "program_type": "Fixed Wireless and Satellite Upgrade Program",
    "target_eligibility_quarter": "NA"
   }
  },
  {
   "type": "Feature",
   "geometry": {
    "type": "Point",
    "coordinates": [
     146.46351456,
     -38.33045614
    ]
   },
   "properties": {
    "name": "510 THOMSON ROAD HAZELWOOD SOUTH 3840",
    "locID": "LOC000092227277",
    "tech": "WIRELESS",
    "upgrade": "NULL_NA",
    "gnaf_pid": "GAVIC420071602",
    "tech_change_status": "Not Planned",
    "program_type": "Fixed Wireless and Satellite Upgrade Program",
    "target_eligibility_quarter": "NA"
   }
  },
  {
   "type": "Feature",
   "geometry": {
    "type": "Point",
    "coordinates": [
     146.45801993,
     -38.33083643
    ]
   },
   "properties": {
    "name": "425 GLENDONALD ROAD HAZELWOOD SOUTH 3840",
    "locID": "LOC000037720764",
    "tech": "WIRELESS",
    "upgrade": "NULL_NA",
    "gnaf_pid": "GAVIC420079793",
    "tech_change_status": "Not Planned",
    "program_type": "Fixed Wireless and Satellite Upgrade Program",
    "target_eligibility_quarter": "NA"
   }
  },
  {
   "type": "Feature",
   "geometry": {
    "type": "Point",
    "coordinates": [
     146.44986284,
     -38.29896694
    ]
   },
   "properties": {
    "name": "80 FARRANS ROAD HAZELWOOD SOUTH 3840",
    "locID": "LOC100078653194",
    "tech": "WIRELESS",
    "upgrade": "NULL_NA",
    "gnaf_pid": "GAVIC420253489",
    "tech_change_status": "Not Planned",
    "program_type": "Fixed Wireless and Satellite Upgrade Program",
    "target_eligibility_quarter": "NA"
   }
  },
  {
   "type": "Feature",
   "geometry": {
    "type": "Point",
    "coordinates": [
     146.4573678,
     -38.29706424
    ]
   },
   "properties": {
    "name": "35 SUNNYVIEW ROAD HAZELWOOD SOUTH 3840",
    "locID": "LOC000071467942",
    "tech": "WIRELESS",
    "upgrade": "NULL_NA",
    "gnaf_pid": "GAVIC420369795",
    "tech_change_status": "Not Planned",
    "program_type": "Fixed Wireless and Satellite Upgrade Program",
    "target_eligibility_quarter": "NA"
   }
  },
  {
   "type": "Feature",
   "geometry": {
    "type": "Point",
    "coordinates": [
     146.45928551,
     -38.2944595
    ]
   },
   "properties": {
    "name": "40 THOMSON ROAD HAZELWOOD SOUTH 3840",
    "locID": "LOC000011291831",
    "tech": "WIRELESS",
    "upgrade": "NULL_NA",
    "gnaf_pid": "GAVIC420369796",
    "tech_change_status": "Not Planned",
    "program_type": "Fixed Wireless and Satellite Upgrade Program",
    "target_eligibility_quarter": "Sep 2025"
   }
  },
  {
   "type": "Feature",
   "geometry": {
    "type": "Point",
    "coordinates": [
     146.44859788,
     -38.3029084
    ]
   },
   "properties": {
    "name": "125 FARRANS ROAD HAZELWOOD SOUTH 3840",
    "locID": "LOC000057273419",
    "tech": "WIRELESS",
    "upgrade": "NULL_NA",
    "gnaf_pid": "GAVIC420389573",
    "tech_change_status": "Not Planned",
    "program_type": "Fixed Wireless and Satellite Upgrade Program",
    "target_eligibility_quarter": "NA"
   }
  },
  {
   "type": "Feature",
   "geometry": {
    "type": "Point",
    "coordinates": [
     146.4609276,
     -38.30899496
    ]
   },
   "properties": {
    "name": "210 THOMSON ROAD HAZELWOOD SOUTH 3840",
    "locID": "LOC000013048338",
    "tech": "WIRELESS",
    "upgrade": "NULL_NA",
    "gnaf_pid": "GAVIC420389575",
    "tech_change_status": "Not Planned",
    "program_type": "Fixed Wireless and Satellite Upgrade Program",
    "target_eligibility_quarter": "NA"
   }
  },
  {
   "type": "Feature",
   "geometry": {
    "type": "Point",
    "coordinates": [
     146.45328385,
     -38.31704364
    ]
   },
   "properties": {
    "name": "35 LAWLESS ROAD HAZELWOOD SOUTH 3840",
    "locID": "LOC000104343411",
    "tech": "WIRELESS",
    "upgrade": "NULL_NA",
    "gnaf_pid": "GAVIC420389576",
    "tech_change_status": "Not Planned",
    "program_type": "Fixed Wireless and Satellite Upgrade Program",
    "target_eligibility_quarter": "NA"
   }
  },
  {
   "type": "Feature",
   "geometry": {
    "type": "Point",
    "coordinates": [
     146.44777676,
     -38.3191898
    ]
   },
   "properties": {
    "name": "95 HOLTS ROAD HAZELWOOD SOUTH 3840",
    "locID": "LOC000063722970",
    "tech": "WIRELESS",
    "upgrade": "NULL_NA",
    "gnaf_pid": "GAVIC420389577",
    "tech_change_status": "Not Planned",
    "program_type": "Fixed Wireless and Satellite Upgrade Program",
    "target_eligibility_quarter": "NA"
   }
  },
  {
   "type": "Feature",
   "geometry": {
    "type": "Point",
    "coordinates": [
     146.45455584,
     -38.31979831
    ]
   },
   "properties": {
    "name": "40 HOLTS ROAD HAZELWOOD SOUTH 3840",
    "locID": "LOC100078870386",
    "tech": "WIRELESS",
    "upgrade": "NULL_NA",
    "gnaf_pid": "GAVIC420389578",
    "tech_change_status": "Not Planned",
    "program_type": "Fixed Wireless and Satellite Upgrade Program",
    "target_eligibility_quarter": "NA"
   }
  },
  {
   "type": "Feature",
   "geometry": {
    "type": "Point",
    "coordinates": [
     146.46109561,
     -38.30484105
    ]
   },
   "properties": {
    "name": "170 THOMSON ROAD HAZELWOOD SOUTH 3840",
    "locID": "LOC000013859323",
    "tech": "WIRELESS",
    "upgrade": "NULL_NA",
    "gnaf_pid": "GAVIC420690283",
    "tech_change_status": "Not Planned",
    "program_type": "Fixed Wireless and Satellite Upgrade Program",
    "target_eligibility_quarter": "NA"
   }
  },
  {
   "type": "Feature",
   "geometry": {
    "type": "Point",
    "coordinates": [
     146.4553796,
     -38.31978411
    ]
   },
   "properties": {
    "name": "30 HOLTS ROAD HAZELWOOD SOUTH 3840",
    "locID": "LOC000090940242",
    "tech": "WIRELESS",
    "upgrade": "NULL_NA",
    "gnaf_pid": "GAVIC420691164",
    "tech_change_status": "Not Planned",
    "program_type": "Fixed Wireless and Satellite Upgrade Program",
    "target_eligibility_quarter": "NA"
   }
  },
  {
   "type": "Feature",
   "geometry": {
    "type": "Point",
    "coordinates": [
     146.45559481,
     -38.32312869
    ]
   },
   "properties": {
    "name": "35 SALISBURY LANE HAZELWOOD SOUTH 3840",
    "locID": "LOC000002791019",
    "tech": "WIRELESS",
    "upgrade": "NULL_NA",
    "gnaf_pid": "GAVIC420691165",
    "tech_change_status": "Not Planned",
    "program_type": "Fixed Wireless and Satellite Upgrade Program",
    "target_eligibility_quarter": "NA"
   }
  },
  {
   "type": "Feature",
   "geometry": {
    "type": "Point",
    "coordinates": [
     146.4557262,
     -38.32544545
    ]
   },
   "properties": {
    "name": "50 STONEHAVEN ROAD HAZELWOOD SOUTH 3840",
    "locID": "LOC000058459499",
    "tech": "WIRELESS",
    "upgrade": "NULL_NA",
    "gnaf_pid": "GAVIC420691166",
    "tech_change_status": "Not Planned",
    "program_type": "Fixed Wireless and Satellite Upgrade Program",
    "target_eligibility_quarter": "NA"
   }
  },
  {
   "type": "Feature",
   "geometry": {
    "type": "Point",
    "coordinates": [
     146.45758019,
     -38.31308014
    ]
   },
   "properties": {
    "name": "260 THOMSON ROAD HAZELWOOD SOUTH 3840",
    "locID": "LOC000037895354",
    "tech": "WIRELESS",
    "upgrade": "NULL_NA",
    "gnaf_pid": "GAVIC420691167",
    "tech_change_status": "Not Planned",
    "program_type": "Fixed Wireless and Satellite Upgrade Program",
    "target_eligibility_quarter": "NA"
   }
  },
  {
   "type": "Feature",
   "geometry": {
    "type": "Point",
    "coordinates": [
     146.4579712,
     -38.31740785
    ]
   },
   "properties": {
    "name": "310 THOMSON ROAD HAZELWOOD SOUTH 3840",
    "locID": "LOC000032004093",
    "tech": "WIRELESS",
    "upgrade": "NULL_NA",
    "gnaf_pid": "GAVIC420691168",
    "tech_change_status": "Not Planned",
    "program_type": "Fixed Wireless and Satellite Upgrade Program",
    "target_eligibility_quarter": "NA"
   }
  },
  {
   "type": "Feature",
   "geometry": {
    "type": "Point",
    "coordinates": [
     146.45574121,
     -38.33261932
    ]
   },
   "properties": {
    "name": "390 GLENDONALD ROAD HAZELWOOD SOUTH 3840",
    "locID": "LOC000006141258",
    "tech": "WIRELESS",
    "upgrade": "NULL_NA",
    "gnaf_pid": "GAVIC420691170",
    "tech_change_status": "Not Planned",
    "program_type": "Fixed Wireless and Satellite Upgrade Program",
    "target_eligibility_quarter": "NA"
   }
  },
  {
   "type": "Feature",
   "geometry": {
    "type": "Point",
    "coordinates": [
     146.45633884,
     -38.3322616
    ]
   },
   "properties": {
    "name": "400 GLENDONALD ROAD HAZELWOOD SOUTH 3840",
    "locID": "LOC000065494119",
    "tech": "WIRELESS",
    "upgrade": "NULL_NA",
    "gnaf_pid": "GAVIC420691171",
    "tech_change_status": "Not Planned",
    "program_type": "Fixed Wireless and Satellite Upgrade Program",
    "target_eligibility_quarter": "NA"
   }
  },
  {
   "type": "Feature",
   "geometry": {
    "type": "Point",
    "coordinates": [
     146.45760288,
     -38.33152845
    ]
   },
   "properties": {
    "name": "410 GLENDONALD ROAD HAZELWOOD SOUTH 3840",
    "locID": "LOC000112839022",
    "tech": "WIRELESS",
    "upgrade": "NULL_NA",
    "gnaf_pid": "GAVIC420698775",
    "tech_change_status": "Not Planned",
    "program_type": "Fixed Wireless and Satellite Upgrade Program",
    "target_eligibility_quarter": "NA"
   }
  },
  {
   "type": "Feature",
   "geometry": {
    "type": "Point",
    "coordinates": [
     146.46105873,
     -38.30364224
    ]
   },
   "properties": {
    "name": "150 THOMSON ROAD HAZELWOOD SOUTH 3840",
    "locID": "LOC000101350448",
    "tech": "WIRELESS",
    "upgrade": "NULL_NA",
    "gnaf_pid": "GAVIC420980019",
    "tech_change_status": "Not Planned",
    "program_type": "Fixed Wireless and Satellite Upgrade Program",
    "target_eligibility_quarter": "NA"
   }
  },
  {
   "type": "Feature",
   "geometry": {
    "type": "Point",
    "coordinates": [
     146.45121546,
     -38.3167636
    ]
   },
   "properties": {
    "name": "65 LAWLESS ROAD HAZELWOOD SOUTH 3840",
    "locID": "LOC000125252909",
    "tech": "WIRELESS",
    "upgrade": "NULL_NA",
    "gnaf_pid": "GAVIC420980020",
    "tech_change_status": "Not Planned",
    "program_type": "Fixed Wireless and Satellite Upgrade Program",
    "target_eligibility_quarter": "NA"
   }
  },
  {
   "type": "Feature",
   "geometry": {
    "type": "Point",
    "coordinates": [
     146.4523366,
     -38.32224738
    ]
   },
   "properties": {
    "name": "LOT 15 TUMNEY ROAD HAZELWOOD SOUTH 3840",
    "locID": "LOC000054308895",
    "tech": "WIRELESS",
    "upgrade": "NULL_NA",
    "gnaf_pid": "GAVIC420980022",
    "tech_change_status": "Not Planned",
    "program_type": "Fixed Wireless and Satellite Upgrade Program",
    "target_eligibility_quarter": "NA"
   }
  },
  {
   "type": "Feature",
   "geometry": {
    "type": "Point",
    "coordinates": [
     146.4553308,
     -38.33241914
    ]
   },
   "properties": {
    "name": "385 GLENDONALD ROAD HAZELWOOD SOUTH 3840",
    "locID": "LOC000096861290",
    "tech": "WIRELESS",
    "upgrade": "NULL_NA",
    "gnaf_pid": "GAVIC420980023",
    "tech_change_status": "Not Planned",
    "program_type": "Fixed Wireless and Satellite Upgrade Program",
    "target_eligibility_quarter": "NA"
   }
  },
  {
   "type": "Feature",
   "geometry": {
    "type": "Point",
    "coordinates": [
     146.4596814,
     -38.29504714
    ]
   },
   "properties": {
    "name": "50 THOMSON ROAD HAZELWOOD SOUTH 3840",
    "locID": "LOC000043585230",
    "tech": "WIRELESS",
    "upgrade": "NULL_NA",
    "gnaf_pid": "GAVIC420986828",
    "tech_change_status": "Not Planned",
    "program_type": "Fixed Wireless and Satellite Upgrade Program",
    "target_eligibility_quarter": "Sep 2025"
   }
  },
  {
   "type": "Feature",
   "geometry": {
    "type": "Point",
    "coordinates": [
     146.46179708,
     -38.29962802
    ]
   },
   "properties": {
    "name": "100 THOMSON ROAD HAZELWOOD SOUTH 3840",
    "locID": "LOC000049863901",
    "tech": "WIRELESS",
    "upgrade": "NULL_NA",
    "gnaf_pid": "GAVIC420990716",
    "tech_change_status": "Not Planned",
    "program_type": "Fixed Wireless and Satellite Upgrade Program",
    "target_eligibility_quarter": "Sep 2025"
   }
  },
  {
   "type": "Feature",
   "geometry": {
    "type": "Point",
    "coordinates": [
     146.46245258,
     -38.32863079
    ]
   },
   "properties": {
    "name": "485 THOMSON ROAD HAZELWOOD SOUTH 3840",
    "locID": "LOC000080546259",
    "tech": "WIRELESS",
    "upgrade": "NULL_NA",
    "gnaf_pid": "GAVIC421002427",
    "tech_change_status": "Not Planned",
    "program_type": "Fixed Wireless and Satellite Upgrade Program",
    "target_eligibility_quarter": "NA"
   }
  },
  {
   "type": "Feature",
   "geometry": {
    "type": "Point",
    "coordinates": [
     146.45650285,
     -38.3256203
    ]
   },
   "properties": {
    "name": "45 STONEHAVEN ROAD HAZELWOOD SOUTH 3840",
    "locID": "LOC000067839750",
    "tech": "WIRELESS",
    "upgrade": "NULL_NA",
    "gnaf_pid": "GAVIC421282452",
    "tech_change_status": "Not Planned",
    "program_type": "Fixed Wireless and Satellite Upgrade Program",
    "target_eligibility_quarter": "NA"
   }
  },
  {
   "type": "Feature",
   "geometry": {
    "type": "Point",
    "coordinates": [
     146.45720759,
     -38.31396163
    ]
   },
   "properties": {
    "name": "270 THOMSON ROAD HAZELWOOD SOUTH 3840",
    "locID": "LOC000038626759",
    "tech": "WIRELESS",
    "upgrade": "NULL_NA",
    "gnaf_pid": "GAVIC421282453",
    "tech_change_status": "Not Planned",
    "program_type": "Fixed Wireless and Satellite Upgrade Program",
    "target_eligibility_quarter": "NA"
   }
  },
  {
   "type": "Feature",
   "geometry": {
    "type": "Point",
    "coordinates": [
     146.45926655,
     -38.3108799
    ]
   },
   "properties": {
    "name": "240 THOMSON ROAD HAZELWOOD SOUTH 3840",
    "locID": "LOC000040590072",
    "tech": "WIRELESS",
    "upgrade": "NULL_NA",
    "gnaf_pid": "GAVIC421298218",
    "tech_change_status": "Not Planned",
    "program_type": "Fixed Wireless and Satellite Upgrade Program",
    "target_eligibility_quarter": "NA"
   }
  },
  {
   "type": "Feature",
   "geometry": {
    "type": "Point",
    "coordinates": [
     146.45809025,
     -38.31831865
    ]
   },
   "properties": {
    "name": "330 THOMSON ROAD HAZELWOOD SOUTH 3840",
    "locID": "LOC000019371772",
    "tech": "WIRELESS",
    "upgrade": "NULL_NA",
    "gnaf_pid": "GAVIC421308095",
    "tech_change_status": "Not Planned",
    "program_type": "Fixed Wireless and Satellite Upgrade Program",
    "target_eligibility_quarter": "NA"
   }
  },
  {
   "type": "Feature",
   "geometry": {
    "type": "Point",
    "coordinates": [
     146.45696218,
     -38.33152548
    ]
   },
   "properties": {
    "name": "405 GLENDONALD ROAD HAZELWOOD SOUTH 3840",
    "locID": "LOC000058900481",
    "tech": "WIRELESS",
    "upgrade": "NULL_NA",
    "gnaf_pid": "GAVIC421317037",
    "tech_change_status": "Not Planned",
    "program_type": "Fixed Wireless and Satellite Upgrade Program",
    "target_eligibility_quarter": "NA"
   }
  },
  {
   "type": "Feature",
   "geometry": {
    "type": "Point",
    "coordinates": [
     146.46168145,
     -38.30604238
    ]
   },
   "properties": {
    "name": "175 THOMSON ROAD HAZELWOOD SOUTH 3840",
    "locID": "LOC000022167488",
    "tech": "WIRELESS",
    "upgrade": "NULL_NA",
    "gnaf_pid": "GAVIC421455429",
    "tech_change_status": "Not Planned",
    "program_type": "Fixed Wireless and Satellite Upgrade Program",
    "target_eligibility_quarter": "Sep 2025"
   }
  },
  {
   "type": "Feature",
   "geometry": {
    "type": "Point",
    "coordinates": [
     146.46192936,
     -38.29725648
    ]
   },
   "properties": {
    "name": "75 THOMSON ROAD HAZELWOOD SOUTH 3840",
    "locID": "LOC000079718842",
    "tech": "WIRELESS",
    "upgrade": "NULL_NA",
    "gnaf_pid": "GAVIC421585317",
    "tech_change_status": "Not Planned",
    "program_type": "Fixed Wireless and Satellite Upgrade Program",
    "target_eligibility_quarter": "Sep 2025"
   }
  },
  {
   "type": "Feature",
   "geometry": {
    "type": "Point",
    "coordinates": [
     146.45403066,
     -38.29524628
    ]
   },
   "properties": {
    "name": "15 FARRANS ROAD HAZELWOOD SOUTH 3840",
    "locID": "LOC000066439126",
    "tech": "WIRELESS",
    "upgrade": "NULL_NA",
    "gnaf_pid": "GAVIC421596555",
    "tech_change_status": "Not Planned",
    "program_type": "Fixed Wireless and Satellite Upgrade Program",
    "target_eligibility_quarter": "NA"
   }
  },
  {
   "type": "Feature",
   "geometry": {
    "type": "Point",
    "coordinates": [
     146.45849725,
     -38.32204261
    ]
   },
   "properties": {
    "name": "370 THOMSON ROAD HAZELWOOD SOUTH 3840",
    "locID": "LOC000033498716",
    "tech": "WIRELESS",
    "upgrade": "NULL_NA",
    "gnaf_pid": "GAVIC421608556",
    "tech_change_status": "Not Planned",
    "program_type": "Fixed Wireless and Satellite Upgrade Program",
    "target_eligibility_quarter": "NA"
   }
  },
  {
   "type": "Feature",
   "geometry": {
    "type": "Point",
    "coordinates": [
     146.45919768,
     -38.32355524
    ]
   },
   "properties": {
    "name": "15 STONEHAVEN ROAD HAZELWOOD SOUTH 3840",
    "locID": "LOC000042639230",
    "tech": "WIRELESS",
    "upgrade": "NULL_NA",
    "gnaf_pid": "GAVIC421608557",
    "tech_change_status": "Not Planned",
    "program_type": "Fixed Wireless and Satellite Upgrade Program",
    "target_eligibility_quarter": "NA"
   }
  },
  {
   "type": "Feature",
   "geometry": {
    "type": "Point",
    "coordinates": [
     146.46421521,
     -38.33163995
    ]
   },
   "properties": {
    "name": "520 THOMSON ROAD HAZELWOOD SOUTH 3840",
    "locID": "LOC000081255188",
    "tech": "WIRELESS",
    "upgrade": "NULL_NA",
    "gnaf_pid": "GAVIC421608558",
    "tech_change_status": "Not Planned",
    "program_type": "Fixed Wireless and Satellite Upgrade Program",
    "target_eligibility_quarter": "NA"
   }
  },
  {
   "type": "Feature",
   "geometry": {
    "type": "Point",
    "coordinates": [
     146.46181731,
     -38.29849065
    ]
   },
   "properties": {
    "name": "90 THOMSON ROAD HAZELWOOD SOUTH 3840",
    "locID": "LOC000055199504",
    "tech": "WIRELESS",
    "upgrade": "NULL_NA",
    "gnaf_pid": "GAVIC421619545",
    "tech_change_status": "Not Planned",
    "program_type": "Fixed Wireless and Satellite Upgrade Program",
    "target_eligibility_quarter": "NA"
   }
  },
  {
   "type": "Feature",
   "geometry": {
    "type": "Point",
    "coordinates": [
     146.46102642,
     -38.30646295
    ]
   },
   "properties": {
    "name": "190 THOMSON ROAD HAZELWOOD SOUTH 3840",
    "locID": "LOC000035867138",
    "tech": "WIRELESS",
    "upgrade": "NULL_NA",
    "gnaf_pid": "GAVIC421619546",
    "tech_change_status": "Not Planned",
    "program_type": "Fixed Wireless and Satellite Upgrade Program",
    "target_eligibility_quarter": "NA"
   }
  },
  {
   "type": "Feature",
   "geometry": {
    "type": "Point",
    "coordinates": [
     146.45209775,
     -38.31656946
    ]
   },
   "properties": {
    "name": "50 LAWLESS ROAD HAZELWOOD SOUTH 3840",
    "locID": "LOC000088981280",
    "tech": "WIRELESS",
    "upgrade": "NULL_NA",
    "gnaf_pid": "GAVIC421619547",
    "tech_change_status": "Not Planned",
    "program_type": "Fixed Wireless and Satellite Upgrade Program",
    "target_eligibility_quarter": "NA"
   }
  },
  {
   "type": "Feature",
   "geometry": {
    "type": "Point",
    "coordinates": [
     146.45056645,
     -38.31636403
    ]
   },
   "properties": {
    "name": "70 LAWLESS ROAD HAZELWOOD SOUTH 3840",
    "locID": "LOC000042126538",
    "tech": "WIRELESS",
    "upgrade": "NULL_NA",
    "gnaf_pid": "GAVIC421619548",
    "tech_change_status": "Not Planned",
    "program_type": "Fixed Wireless and Satellite Upgrade Program",
    "target_eligibility_quarter": "NA"
   }
  },
  {
   "type": "Feature",
   "geometry": {
    "type": "Point",
    "coordinates": [
     146.4568648,
     -38.32004335
    ]
   },
   "properties": {
    "name": "15 HOLTS ROAD HAZELWOOD SOUTH 3840",
    "locID": "LOC000046331633",
    "tech": "WIRELESS",
    "upgrade": "NULL_NA",
    "gnaf_pid": "GAVIC421619549",
    "tech_change_status": "Not Planned",
    "program_type": "Fixed Wireless and Satellite Upgrade Program",
    "target_eligibility_quarter": "NA"
   }
  },
  {
   "type": "Feature",
   "geometry": {
    "type": "Point",
    "coordinates": [
     146.45935855,
     -38.29694725
    ]
   },
   "properties": {
    "name": "55 SUNNYVIEW ROAD HAZELWOOD SOUTH 3840",
    "locID": "LOC000009406188",
    "tech": "WIRELESS",
    "upgrade": "NULL_NA",
    "gnaf_pid": "GAVIC421857246",
    "tech_change_status": "Not Planned",
    "program_type": "Fixed Wireless and Satellite Upgrade Program",
    "target_eligibility_quarter": "Sep 2025"
   }
  },
  {
   "type": "Feature",
   "geometry": {
    "type": "Point",
    "coordinates": [
     146.46193079,
     -38.30170859
    ]
   },
   "properties": {
    "name": "125 THOMSON ROAD HAZELWOOD SOUTH 3840",
    "locID": "LOC000067762546",
    "tech": "WIRELESS",
    "upgrade": "NULL_NA",
    "gnaf_pid": "GAVIC421859437",
    "tech_change_status": "Not Planned",
    "program_type": "Fixed Wireless and Satellite Upgrade Program",
    "target_eligibility_quarter": "Sep 2025"
   }
  },
  {
   "type": "Feature",
   "geometry": {
    "type": "Point",
    "coordinates": [
     146.45182671,
     -38.2978676
    ]
   },
   "properties": {
    "name": "55 FARRANS ROAD HAZELWOOD SOUTH 3840",
    "locID": "LOC000080667019",
    "tech": "WIRELESS",
    "upgrade": "NULL_NA",
    "gnaf_pid": "GAVIC421859438",
    "tech_change_status": "Not Planned",
    "program_type": "Fixed Wireless and Satellite Upgrade Program",
    "target_eligibility_quarter": "NA"
   }
  },
  {
   "type": "Feature",
   "geometry": {
    "type": "Point",
    "coordinates": [
     146.44849558,
     -38.3164174
    ]
   },
   "properties": {
    "name": "85 LAWLESS ROAD HAZELWOOD SOUTH 3840",
    "locID": "LOC000100465831",
    "tech": "WIRELESS",
    "upgrade": "NULL_NA",
    "gnaf_pid": "GAVIC421859439",
    "tech_change_status": "Not Planned",
    "program_type": "Fixed Wireless and Satellite Upgrade Program",
    "target_eligibility_quarter": "NA"
   }
  },
  {
   "type": "Feature",
   "geometry": {
    "type": "Point",
    "coordinates": [
     146.45478098,
     -38.31723085
    ]
   },
   "properties": {
    "name": "25 LAWLESS ROAD HAZELWOOD SOUTH 3840",
    "locID": "LOC000056923064",
    "tech": "WIRELESS",
    "upgrade": "NULL_NA",
    "gnaf_pid": "GAVIC421859440",
    "tech_change_status": "Not Planned",
    "program_type": "Fixed Wireless and Satellite Upgrade Program",
    "target_eligibility_quarter": "NA"
   }
  },
  {
   "type": "Feature",
   "geometry": {
    "type": "Point",
    "coordinates": [
     146.45774656,
     -38.31992125
    ]
   },
   "properties": {
    "name": "350 THOMSON ROAD HAZELWOOD SOUTH 3840",
    "locID": "LOC000018546439",
    "tech": "WIRELESS",
    "upgrade": "NULL_NA",
    "gnaf_pid": "GAVIC421859441",
    "tech_change_status": "Not Planned",
    "program_type": "Fixed Wireless and Satellite Upgrade Program",
    "target_eligibility_quarter": "NA"
   }
  },
  {
   "type": "Feature",
   "geometry": {
    "type": "Point",
    "coordinates": [
     146.4584366,
     -38.31174125
    ]
   },
   "properties": {
    "name": "242 THOMSON ROAD HAZELWOOD SOUTH 3840",
    "locID": "LOC000024381466",
    "tech": "WIRELESS",
    "upgrade": "NULL_NA",
    "gnaf_pid": "GAVIC421859442",
    "tech_change_status": "Not Planned",
    "program_type": "Fixed Wireless and Satellite Upgrade Program",
    "target_eligibility_quarter": "NA"
   }
  },
  {
   "type": "Feature",
   "geometry": {
    "type": "Point",
    "coordinates": [
     146.45713055,
     -38.3150878
    ]
   },
   "properties": {
    "name": "290 THOMSON ROAD HAZELWOOD SOUTH 3840",
    "locID": "LOC000083778995",
    "tech": "WIRELESS",
    "upgrade": "NULL_NA",
    "gnaf_pid": "GAVIC421883172",
    "tech_change_status": "Not Planned",
    "program_type": "Fixed Wireless and Satellite Upgrade Program",
    "target_eligibility_quarter": "NA"
   }
  },
  {
   "type": "Feature",
   "geometry": {
    "type": "Point",
    "coordinates": [
     146.45317196,
     -38.31670965
    ]
   },
   "properties": {
    "name": "40 LAWLESS ROAD HAZELWOOD SOUTH 3840",
    "locID": "LOC000025144605",
    "tech": "WIRELESS",
    "upgrade": "NULL_NA",
    "gnaf_pid": "GAVIC421883173",
    "tech_change_status": "Not Planned",
    "program_type": "Fixed Wireless and Satellite Upgrade Program",
    "target_eligibility_quarter": "NA"
   }
  },
  {
   "type": "Feature",
   "geometry": {
    "type": "Point",
    "coordinates": [
     146.4606755,
     -38.29670096
    ]
   },
   "properties": {
    "name": "70 SUNNYVIEW ROAD HAZELWOOD SOUTH 3840",
    "locID": "LOC000075497651",
    "tech": "WIRELESS",
    "upgrade": "NULL_NA",
    "gnaf_pid": "GAVIC422035344",
    "tech_change_status": "Not Planned",
    "program_type": "Fixed Wireless and Satellite Upgrade Program",
    "target_eligibility_quarter": "Sep 2025"
   }
  },
  {
   "type": "Feature",
   "geometry": {
    "type": "Point",
    "coordinates": [
     146.45719214,
     -38.33137334
    ]
   },
   "properties": {
    "name": "415 GLENDONALD ROAD HAZELWOOD SOUTH 3840",
    "locID": "LOC000105739071",
    "tech": "WIRELESS",
    "upgrade": "NULL_NA",
    "gnaf_pid": "GAVIC422149722",
    "tech_change_status": "Not Planned",
    "program_type": "Fixed Wireless and Satellite Upgrade Program",
    "target_eligibility_quarter": "NA"
   }
  },
  {
   "type": "Feature",
   "geometry": {
    "type": "Point",
    "coordinates": [
     146.45904065,
     -38.33050768
    ]
   },
   "properties": {
    "name": "430 GLENDONALD ROAD HAZELWOOD SOUTH 3840",
    "locID": "LOC000044634496",
    "tech": "WIRELESS",
    "upgrade": "NULL_NA",
    "gnaf_pid": "GAVIC422149723",
    "tech_change_status": "Not Planned",
    "program_type": "Fixed Wireless and Satellite Upgrade Program",
    "target_eligibility_quarter": "NA"
   }
  },
  {
   "type": "Feature",
   "geometry": {
    "type": "Point",
    "coordinates": [
     146.45980296,
     -38.32953786
    ]
   },
   "properties": {
    "name": "445 GLENDONALD ROAD HAZELWOOD SOUTH 3840",
    "locID": "LOC000101234782",
    "tech": "WIRELESS",
    "upgrade": "NULL_NA",
    "gnaf_pid": "GAVIC422149724",
    "tech_change_status": "Not Planned",
    "program_type": "Fixed Wireless and Satellite Upgrade Program",
    "target_eligibility_quarter": "NA"
   }
  },
  {
   "type": "Feature",
   "geometry": {
    "type": "Point",
    "coordinates": [
     146.46084501,
     -38.32941649
    ]
   },
   "properties": {
    "name": "450 GLENDONALD ROAD HAZELWOOD SOUTH 3840",
    "locID": "LOC000040640414",
    "tech": "WIRELESS",
    "upgrade": "NULL_NA",
    "gnaf_pid": "GAVIC422149725",
    "tech_change_status": "Not Planned",
    "program_type": "Fixed Wireless and Satellite Upgrade Program",
    "target_eligibility_quarter": "NA"
   }
  },
  {
   "type": "Feature",
   "geometry": {
    "type": "Point",
    "coordinates": [
     146.45159315,
     -38.32281264
    ]
   },
   "properties": {
    "name": "70 SALISBURY LANE HAZELWOOD SOUTH 3840",
    "locID": "LOC000075857875",
    "tech": "WIRELESS",
    "upgrade": "NULL_NA",
    "gnaf_pid": "GAVIC422188012",
    "tech_change_status": "Not Planned",
    "program_type": "Fixed Wireless and Satellite Upgrade Program",
    "target_eligibility_quarter": "NA"
   }
  },
  {
   "type": "Feature",
   "geometry": {
    "type": "Point",
    "coordinates": [
     146.45134836,
     -38.32341531
    ]
   },
   "properties": {
    "name": "75 SALISBURY LANE HAZELWOOD SOUTH 3840",
    "locID": "LOC000060394276",
    "tech": "WIRELESS",
    "upgrade": "NULL_NA",
    "gnaf_pid": "GAVIC422188013",
    "tech_change_status": "Not Planned",
    "program_type": "Fixed Wireless and Satellite Upgrade Program",
    "target_eligibility_quarter": "NA"
   }
  },
  {
   "type": "Feature",
   "geometry": {
    "type": "Point",
    "coordinates": [
     146.46626279,
     -38.33638074
    ]
   },
   "properties": {
    "name": "592 THOMSON ROAD HAZELWOOD SOUTH 3840",
    "locID": "LOC000099998408",
    "tech": "WIRELESS",
    "upgrade": "NULL_NA",
    "gnaf_pid": "GAVIC422196614",
    "tech_change_status": "Not Planned",
    "program_type": "Fixed Wireless and Satellite Upgrade Program",
    "target_eligibility_quarter": "NA"
   }
  },
  {
   "type": "Feature",
   "geometry": {
    "type": "Point",
    "coordinates": [
     146.45624603,
     -38.29260694
    ]
   },
   "properties": {
    "name": "1235 HAZELWOOD ROAD HAZELWOOD SOUTH 3840",
    "locID": "LOC000100604293",
    "tech": "WIRELESS",
    "upgrade": "NULL_NA",
    "gnaf_pid": "GAVIC422297038",
    "tech_change_status": "Not Planned",
    "program_type": "Fixed Wireless and Satellite Upgrade Program",
    "target_eligibility_quarter": "Sep 2025"
   }
  },
  {
   "type": "Feature",
   "geometry": {
    "type": "Point",
    "coordinates": [
     146.45587783,
     -38.29291165
    ]
   },
   "properties": {
    "name": "1245 HAZELWOOD ROAD HAZELWOOD SOUTH 3840",
    "locID": "LOC000036112646",
    "tech": "WIRELESS",
    "upgrade": "NULL_NA",
    "gnaf_pid": "GAVIC422297039",
    "tech_change_status": "Not Planned",
    "program_type": "Fixed Wireless and Satellite Upgrade Program",
    "target_eligibility_quarter": "NA"
   }
  },
  {
   "type": "Feature",
   "geometry": {
    "type": "Point",
    "coordinates": [
     146.46550204,
     -38.33246594
    ]
   },
   "properties": {
    "name": "540 THOMSON ROAD HAZELWOOD SOUTH 3840",
    "locID": "LOC000065600270",
    "tech": "WIRELESS",
    "upgrade": "NULL_NA",
    "gnaf_pid": "GAVIC422328819",
    "tech_change_status": "Not Planned",
    "program_type": "Fixed Wireless and Satellite Upgrade Program",
    "target_eligibility_quarter": "NA"
   }
  },
  {
   "type": "Feature",
   "geometry": {
    "type": "Point",
    "coordinates": [
     146.46769127,
     -38.34092691
    ]
   },
   "properties": {
    "name": "645 THOMSON ROAD HAZELWOOD SOUTH 3840",
    "locID": "LOC000068097824",
    "tech": "SATELLITE",
    "upgrade": "NULL_NA",
    "gnaf_pid": "GAVIC422430357",
    "tech_change_status": "Not Planned"
   }
  },
  {
   "type": "Feature",
   "geometry": {
    "type": "Point",
    "coordinates": [
     146.45580144,
     -38.33221405
    ]
   },
   "properties": {
    "name": "395 GLENDONALD ROAD HAZELWOOD SOUTH 3840",
    "locID": "LOC000107018795",
    "tech": "WIRELESS",
    "upgrade": "NULL_NA",
    "gnaf_pid": "GAVIC423103561",
    "tech_change_status": "Not Planned",
    "program_type": "Fixed Wireless and Satellite Upgrade Program",
    "target_eligibility_quarter": "NA"
   }
  },
  {
   "type": "Feature",
   "geometry": {
    "type": "Point",
    "coordinates": [
     146.45712665,
     -38.3140784
    ]
   },
   "properties": {
    "name": "272 THOMSON ROAD HAZELWOOD SOUTH 3840",
    "locID": "LOC000062572025",
    "tech": "WIRELESS",
    "upgrade": "NULL_NA",
    "gnaf_pid": "GAVIC423108950",
    "tech_change_status": "Not Planned",
    "program_type": "Fixed Wireless and Satellite Upgrade Program",
    "target_eligibility_quarter": "NA"
   }
  },
  {
   "type": "Feature",
   "geometry": {
    "type": "Point",
    "coordinates": [
     146.45301201,
     -38.32125111
    ]
   },
   "properties": {
    "name": "15 TUMNEY ROAD HAZELWOOD SOUTH 3840",
    "locID": "LOC000054308895",
    "tech": "WIRELESS",
    "upgrade": "NULL_NA",
    "gnaf_pid": "GAVIC423378885",
    "tech_change_status": "Not Planned",
    "program_type": "Fixed Wireless and Satellite Upgrade Program",
    "target_eligibility_quarter": "NA"
   }
  },
  {
   "type": "Feature",
   "geometry": {
    "type": "Point",
    "coordinates": [
     146.45534865,
     -38.29333278
    ]
   },
   "properties": {
    "name": "1255 HAZELWOOD ROAD HAZELWOOD SOUTH 3840",
    "locID": "LOC000062673905",
    "tech": "WIRELESS",
    "upgrade": "NULL_NA",
    "gnaf_pid": "GAVIC423506899",
    "tech_change_status": "Not Planned",
    "program_type": "Fixed Wireless and Satellite Upgrade Program",
    "target_eligibility_quarter": "NA"
   }
  },
  {
   "type": "Feature",
   "geometry": {
    "type": "Point",
    "coordinates": [
     146.45382566,
     -38.29666026
    ]
   },
   "properties": {
    "name": "25 FARRANS ROAD HAZELWOOD SOUTH 3840",
    "locID": "LOC000092654411",
    "tech": "WIRELESS",
    "upgrade": "NULL_NA",
    "gnaf_pid": "GAVIC423719265",
    "tech_change_status": "Not Planned",
    "program_type": "Fixed Wireless and Satellite Upgrade Program",
    "target_eligibility_quarter": "NA"
   }
  },
  {
   "type": "Feature",
   "geometry": {
    "type": "Point",
    "coordinates": [
     146.45360183,
     -38.29753341
    ]
   },
   "properties": {
    "name": "35 FARRANS ROAD HAZELWOOD SOUTH 3840",
    "locID": "LOC000106263143",
    "tech": "WIRELESS",
    "upgrade": "NULL_NA",
    "gnaf_pid": "GAVIC423719266",
    "tech_change_status": "Not Planned",
    "program_type": "Fixed Wireless and Satellite Upgrade Program",
    "target_eligibility_quarter": "NA"
   }
  },
  {
   "type": "Feature",
   "geometry": {
    "type": "Point",
    "coordinates": [
     146.45168245,
     -38.33373595
    ]
   },
   "properties": {
    "name": "353 GLENDONALD ROAD HAZELWOOD SOUTH 3840",
    "locID": "LOC000003920944",
    "tech": "WIRELESS",
    "upgrade": "NULL_NA",
    "gnaf_pid": "GAVIC423750495",
    "tech_change_status": "Not Planned",
    "program_type": "Fixed Wireless and Satellite Upgrade Program",
    "target_eligibility_quarter": "NA"
   }
  },
  {
   "type": "Feature",
   "geometry": {
    "type": "Point",
    "coordinates": [
     146.4500033,
     -38.32276915
    ]
   },
   "properties": {
    "name": "82 SALISBURY LANE HAZELWOOD SOUTH 3840",
    "locID": "LOC000095659575",
    "tech": "WIRELESS",
    "upgrade": "NULL_NA",
    "gnaf_pid": "GAVIC423798917",
    "tech_change_status": "Not Planned",
    "program_type": "Fixed Wireless and Satellite Upgrade Program",
    "target_eligibility_quarter": "NA"
   }
  },
  {
   "type": "Feature",
   "geometry": {
    "type": "Point",
    "coordinates": [
     146.46047431,
     -38.3254043
    ]
   },
   "properties": {
    "name": "30 DUSTING ROAD HAZELWOOD SOUTH 3840",
    "locID": "LOC000100192037",
    "tech": "WIRELESS",
    "upgrade": "NULL_NA",
    "gnaf_pid": "GAVIC423824936",
    "tech_change_status": "Not Planned",
    "program_type": "Fixed Wireless and Satellite Upgrade Program",
    "target_eligibility_quarter": "NA"
   }
  },
  {
   "type": "Feature",
   "geometry": {
    "type": "Point",
    "coordinates": [
     146.44934889,
     -38.33366194
    ]
   },
   "properties": {
    "name": "333 GLENDONALD ROAD HAZELWOOD SOUTH 3840",
    "locID": "LOC000071703739",
    "tech": "WIRELESS",
    "upgrade": "NULL_NA",
    "gnaf_pid": "GAVIC423827740",
    "tech_change_status": "Not Planned",
    "program_type": "Fixed Wireless and Satellite Upgrade Program",
    "target_eligibility_quarter": "NA"
   }
  },
  {
   "type": "Feature",
   "geometry": {
    "type": "Point",
    "coordinates": [
     146.4552314,
     -38.33261685
    ]
   },
   "properties": {
    "name": "LOT 30 GLENDONALD ROAD HAZELWOOD SOUTH 3840",
    "locID": "LOC000058900481",
    "tech": "WIRELESS",
    "upgrade": "NULL_NA",
    "gnaf_pid": "GAVIC423852926",
    "tech_change_status": "Not Planned",
    "program_type": "Fixed Wireless and Satellite Upgrade Program",
    "target_eligibility_quarter": "NA"
   }
  },
  {
   "type": "Feature",
   "geometry": {
    "type": "Point",
    "coordinates": [
     146.4552314,
     -38.33261685
    ]
   },
   "properties": {
    "name": "LOT 3 GLENDONALD ROAD HAZELWOOD SOUTH 3840",
    "locID": "LOC000155134861",
    "tech": "WIRELESS",
    "upgrade": "NULL_NA",
    "gnaf_pid": "GAVIC423852927",
    "tech_change_status": "Not Planned",
    "program_type": "Fixed Wireless and Satellite Upgrade Program",
    "target_eligibility_quarter": "NA"
   }
  },
  {
   "type": "Feature",
   "geometry": {
    "type": "Point",
    "coordinates": [
     146.44992681,
     -38.31644239
    ]
   },
   "properties": {
    "name": "2 LAWLESS ROAD HAZELWOOD SOUTH 3840",
    "locID": "LOC000056923064",
    "tech": "WIRELESS",
    "upgrade": "NULL_NA",
    "gnaf_pid": "GAVIC423853617",
    "tech_change_status": "Not Planned",
    "program_type": "Fixed Wireless and Satellite Upgrade Program",
    "target_eligibility_quarter": "NA"
   }
  },
  {
   "type": "Feature",
   "geometry": {
    "type": "Point",
    "coordinates": [
     146.45192368,
     -38.33361091
    ]
   },
   "properties": {
    "name": "361 GLENDONALD ROAD HAZELWOOD SOUTH 3840",
    "locID": "LOC000125297176",
    "tech": "WIRELESS",
    "upgrade": "NULL_NA",
    "gnaf_pid": "GAVIC423881993",
    "tech_change_status": "Not Planned",
    "program_type": "Fixed Wireless and Satellite Upgrade Program",
    "target_eligibility_quarter": "NA"
   }
  },
  {
   "type": "Feature",
   "geometry": {
    "type": "Point",
    "coordinates": [
     146.4521233,
     -38.33444999
    ]
   },
   "properties": {
    "name": "1 MCKENZIE LANE HAZELWOOD SOUTH 3840",
    "locID": "LOC000034467064",
    "tech": "WIRELESS",
    "upgrade": "NULL_NA",
    "gnaf_pid": "GAVIC423972208",
    "tech_change_status": "Not Planned",
    "program_type": "Fixed Wireless and Satellite Upgrade Program",
    "target_eligibility_quarter": "NA"
   }
  },
  {
   "type": "Feature",
   "geometry": {
    "type": "Point",
    "coordinates": [
     146.476846,
     -38.33490535
    ]
   },
   "properties": {
    "name": "340 RULES ROAD HAZELWOOD SOUTH 3840",
    "locID": "LOC000107894332",
    "tech": "WIRELESS",
    "upgrade": "NULL_NA",
    "gnaf_pid": "GAVIC423976016",
    "tech_change_status": "Not Planned",
    "program_type": "Fixed Wireless and Satellite Upgrade Program",
    "target_eligibility_quarter": "NA"
   }
  },
  {
   "type": "Feature",
   "geometry": {
    "type": "Point",
    "coordinates": [
     146.47738619,
     -38.33775565
    ]
   },
   "properties": {
    "name": "380 RULES ROAD HAZELWOOD SOUTH 3840",
    "locID": "LOC000098252021",
    "tech": "WIRELESS",
    "upgrade": "NULL_NA",
    "gnaf_pid": "GAVIC424034739",
    "tech_change_status": "Not Planned",
    "program_type": "Fixed Wireless and Satellite Upgrade Program",
    "target_eligibility_quarter": "Sep 2025"
   }
  },
  {
   "type": "Feature",
   "geometry": {
    "type": "Point",
    "coordinates": [
     146.45801545,
     -38.31356807
    ]
   },
   "properties": {
    "name": "281 THOMSON ROAD HAZELWOOD SOUTH 3840",
    "locID": "LOC000092281246",
    "tech": "WIRELESS",
    "upgrade": "NULL_NA",
    "gnaf_pid": "GAVIC424036644",
    "tech_change_status": "Not Planned",
    "program_type": "Fixed Wireless and Satellite Upgrade Program",
    "target_eligibility_quarter": "NA"
   }
  },
  {
   "type": "Feature",
   "geometry": {
    "type": "Point",
    "coordinates": [
     146.45164518,
     -38.33564639
    ]
   },
   "properties": {
    "name": "16 MCKENZIE LANE HAZELWOOD SOUTH 3840",
    "locID": "LOC000101050474",
    "tech": "WIRELESS",
    "upgrade": "NULL_NA",
    "gnaf_pid": "GAVIC424040715",
    "tech_change_status": "Not Planned",
    "program_type": "Fixed Wireless and Satellite Upgrade Program",
    "target_eligibility_quarter": "NA"
   }
  },
  {
   "type": "Feature",
   "geometry": {
    "type": "Point",
    "coordinates": [
     146.46057341,
     -38.32592748
    ]
   },
   "properties": {
    "name": "36 DUSTING ROAD HAZELWOOD SOUTH 3840",
    "locID": "LOC000044677886",
    "tech": "WIRELESS",
    "upgrade": "NULL_NA",
    "gnaf_pid": "GAVIC424094520",
    "tech_change_status": "Not Planned",
    "program_type": "Fixed Wireless and Satellite Upgrade Program",
    "target_eligibility_quarter": "NA"
   }
  },
  {
   "type": "Feature",
   "geometry": {
    "type": "Point",
    "coordinates": [
     146.45863394,
     -38.32519755
    ]
   },
   "properties": {
    "name": "27 STONEHAVEN ROAD HAZELWOOD SOUTH 3840",
    "locID": "LOC000008019307",
    "tech": "WIRELESS",
    "upgrade": "NULL_NA",
    "gnaf_pid": "GAVIC424097635",
    "tech_change_status": "Not Planned",
    "program_type": "Fixed Wireless and Satellite Upgrade Program",
    "target_eligibility_quarter": "NA"
   }
  },
  {
   "type": "Feature",
   "geometry": {
    "type": "Point",
    "coordinates": [
     146.45696166,
     -38.31472654
    ]
   },
   "properties": {
    "name": "286 THOMSON ROAD HAZELWOOD SOUTH 3840",
    "locID": "LOC000115859558",
    "tech": "WIRELESS",
    "upgrade": "NULL_NA",
    "gnaf_pid": "GAVIC424506869",
    "tech_change_status": "Not Planned",
    "program_type": "Fixed Wireless and Satellite Upgrade Program",
    "target_eligibility_quarter": "NA"
   }
  },
  {
   "type": "Feature",
   "geometry": {
    "type": "Point",
    "coordinates": [
     146.46526591,
     -38.3396837
    ]
   },
   "properties": {
    "name": "590 THOMSON ROAD HAZELWOOD SOUTH 3840",
    "locID": "LOC000115859641",
    "tech": "WIRELESS",
    "upgrade": "NULL_NA",
    "gnaf_pid": "GAVIC424789353",
    "tech_change_status": "Not Planned",
    "program_type": "Fixed Wireless and Satellite Upgrade Program",
    "target_eligibility_quarter": "NA"
   }
  },
  {
   "type": "Feature",
   "geometry": {
    "type": "Point",
    "coordinates": [
     146.45363,
     -38.3334116
    ]
   },
   "properties": {
    "name": "372 GLENDONALD ROAD HAZELWOOD SOUTH 3840",
    "locID": "LOC000125297239",
    "tech": "WIRELESS",
    "upgrade": "NULL_NA",
    "gnaf_pid": "GAVIC424911519",
    "tech_change_status": "Not Planned",
    "program_type": "Fixed Wireless and Satellite Upgrade Program",
    "target_eligibility_quarter": "NA"
   }
  },
  {
   "type": "Feature",
   "geometry": {
    "type": "Point",
    "coordinates": [
     146.45272236,
     -38.33133353
    ]
   },
   "properties": {
    "name": "25 MITCHELL OUTLOOK HAZELWOOD SOUTH 3840",
    "locID": "LOC000017708033",
    "tech": "WIRELESS",
    "upgrade": "NULL_NA",
    "gnaf_pid": "GAVIC425229807",
    "tech_change_status": "Not Planned",
    "program_type": "Fixed Wireless and Satellite Upgrade Program",
    "target_eligibility_quarter": "NA"
   }
  },
  {
   "type": "Feature",
   "geometry": {
    "type": "Point",
    "coordinates": [
     146.45385183,
     -38.33295954
    ]
   },
   "properties": {
    "name": "6 MITCHELL OUTLOOK HAZELWOOD SOUTH 3840",
    "locID": "LOC000027539973",
    "tech": "WIRELESS",
    "upgrade": "NULL_NA",
    "gnaf_pid": "GAVIC425229808",
    "tech_change_status": "Not Planned",
    "program_type": "Fixed Wireless and Satellite Upgrade Program",
    "target_eligibility_quarter": "NA"
   }
  },
  {
   "type": "Feature",
   "geometry": {
    "type": "Point",
    "coordinates": [
     146.45269652,
     -38.33236084
    ]
   },
   "properties": {
    "name": "9 MITCHELL OUTLOOK HAZELWOOD SOUTH 3840",
    "locID": "LOC000062288310",
    "tech": "WIRELESS",
    "upgrade": "NULL_NA",
    "gnaf_pid": "GAVIC425229809",
    "tech_change_status": "Not Planned",
    "program_type": "Fixed Wireless and Satellite Upgrade Program",
    "target_eligibility_quarter": "NA"
   }
  },
  {
   "type": "Feature",
   "geometry": {
    "type": "Point",
    "coordinates": [
     146.45709812,
     -38.31483531
    ]
   },
   "properties": {
    "name": "288 THOMSON ROAD HAZELWOOD SOUTH 3840",
    "locID": "LOC000139174538",
    "tech": "WIRELESS",
    "upgrade": "NULL_NA",
    "gnaf_pid": "GAVIC425414363",
    "tech_change_status": "Not Planned",
    "program_type": "Fixed Wireless and Satellite Upgrade Program",
    "target_eligibility_quarter": "NA"
   }
  },
  {
   "type": "Feature",
   "geometry": {
    "type": "Point",
    "coordinates": [
     146.45196528,
     -38.32068708
    ]
   },
   "properties": {
    "name": "10 TUMNEY ROAD HAZELWOOD SOUTH 3840",
    "locID": "LOC100080276136",
    "tech": "WIRELESS",
    "upgrade": "NULL_NA",
    "gnaf_pid": "GAVIC721040705",
    "tech_change_status": "Not Planned",
    "program_type": "Fixed Wireless and Satellite Upgrade Program",
    "target_eligibility_quarter": "NA"
   }
  },
  {
   "type": "Feature",
   "geometry": {
    "type": "Point",
    "coordinates": [
     146.45559481,
     -38.32312869
    ]
   },
   "properties": {
    "name": "35A SALISBURY LANE HAZELWOOD SOUTH 3840",
    "locID": "LOC000189762011",
    "tech": "WIRELESS",
    "upgrade": "NULL_NA",
    "gnaf_pid": "GAVIC721328656",
    "tech_change_status": "Not Planned",
    "program_type": "Fixed Wireless and Satellite Upgrade Program",
    "target_eligibility_quarter": "NA"
   }
  }
 ]
}