{
 "type": "FeatureCollection",
 "generated": "2025-01-31T11:38:03.245034",
 "suburb": "KIALLA WEST",
 "features": [
  {
   "type": "Feature",
   "geometry": {
    "type": "Point",
    "coordinates": [
     145.38923654,
     -36.48801013
    ]
   },
   "properties": {
    "name": "7142 GOULBURN VALLEY HIGHWAY KIALLA WEST 3631",
    "locID": "LOC000083674622",
    "tech": "WIRELESS",
    "upgrade": "NULL_NA",
    "gnaf_pid": "GAVIC411676335",
    "tech_change_status": "Not Planned",
    "program_type": "Fixed Wireless and Satellite Upgrade Program",
    "target_eligibility_quarter": "Jun 2025"
   }
  },
  {
   "type": "Feature",
   "geometry": {
    "type": "Point",
    "coordinates": [
     145.38923946,
     -36.4706399
    ]
   },
   "properties": {
    "name": "7322 GOULBURN VALLEY HIGHWAY KIALLA WEST 3631",
    "locID": "LOC000022890479",
    "tech": "WIRELESS",
    "upgrade": "NULL_NA",
    "gnaf_pid": "GAVIC411689032",
    "tech_change_status": "Not Planned",
    "program_type": "Fixed Wireless and Satellite Upgrade Program",
    "target_eligibility_quarter": "NA"
   }
  },
  {
   "type": "Feature",
   "geometry": {
    "type": "Point",
    "coordinates": [
     145.38017503,
     -36.4626881
    ]
   },
   "properties": {
    "name": "80 BENNETTS ROAD KIALLA WEST 3631",
    "locID": "LOC000138871161",
    "tech": "FTTN",
    "upgrade": "FTTP_SA",
    "gnaf_pid": "GAVIC419668573",
    "tech_change_status": "Eligible to Order",
    "program_type": "On-Demand N2P SDU/MDU Simple",
    "target_eligibility_quarter": "NA"
   }
  },
  {
   "type": "Feature",
   "geometry": {
    "type": "Point",
    "coordinates": [
     145.3892374,
     -36.46535758
    ]
   },
   "properties": {
    "name": "7380 GOULBURN VALLEY HIGHWAY KIALLA WEST 3631",
    "locID": "LOC000082313301",
    "tech": "FTTN",
    "upgrade": "FTTP",
    "gnaf_pid": "GAVIC419668574",
    "tech_change_status": "Eligible to Order",
    "program_type": "On-Demand N2P SDU/MDU Simple",
    "target_eligibility_quarter": "NA"
   }
  },
  {
   "type": "Feature",
   "geometry": {
    "type": "Point",
    "coordinates": [
     145.38924539,
     -36.46335655
    ]
   },
   "properties": {
    "name": "7410 GOULBURN VALLEY HIGHWAY KIALLA WEST 3631",
    "locID": "LOC000015634165",
    "tech": "FTTP",
    "upgrade": "FTTP_NA",
    "gnaf_pid": "GAVIC419668575",
    "tech_change_status": "Previous Tech Disconnected",
    "program_type": "On-Demand N2P SDU/MDU Simple",
    "target_eligibility_quarter": "NA"
   }
  },
  {
   "type": "Feature",
   "geometry": {
    "type": "Point",
    "coordinates": [
     145.38923624,
     -36.48910084
    ]
   },
   "properties": {
    "name": "7140 GOULBURN VALLEY HIGHWAY KIALLA WEST 3631",
    "locID": "LOC000093840773",
    "tech": "WIRELESS",
    "upgrade": "NULL_NA",
    "gnaf_pid": "GAVIC419768101",
    "tech_change_status": "Not Planned",
    "program_type": "Fixed Wireless and Satellite Upgrade Program",
    "target_eligibility_quarter": "Jun 2025"
   }
  },
  {
   "type": "Feature",
   "geometry": {
    "type": "Point",
    "coordinates": [
     145.38838315,
     -36.48986453
    ]
   },
   "properties": {
    "name": "7115 GOULBURN VALLEY HIGHWAY KIALLA WEST 3631",
    "locID": "LOC000098265426",
    "tech": "WIRELESS",
    "upgrade": "NULL_NA",
    "gnaf_pid": "GAVIC419768102",
    "tech_change_status": "Not Planned",
    "program_type": "Fixed Wireless and Satellite Upgrade Program",
    "target_eligibility_quarter": "Jun 2025"
   }
  },
  {
   "type": "Feature",
   "geometry": {
    "type": "Point",
    "coordinates": [
     145.38531975,
     -36.46300882
    ]
   },
   "properties": {
    "name": "9 BENNETTS ROAD KIALLA WEST 3631",
    "locID": "LOC000060565684",
    "tech": "FTTN",
    "upgrade": "FTTP",
    "gnaf_pid": "GAVIC419770020",
    "tech_change_status": "Eligible to Order",
    "program_type": "On-Demand N2P SDU/MDU Simple",
    "target_eligibility_quarter": "NA"
   }
  },
  {
   "type": "Feature",
   "geometry": {
    "type": "Point",
    "coordinates": [
     145.38821175,
     -36.45831268
    ]
   },
   "properties": {
    "name": "7461 GOULBURN VALLEY HIGHWAY KIALLA WEST 3631",
    "locID": "LOC000066529668",
    "tech": "FTTN",
    "upgrade": "FTTP_SA",
    "gnaf_pid": "GAVIC419770975",
    "tech_change_status": "Eligible to Order",
    "program_type": "On-Demand N2P SDU/MDU Simple",
    "target_eligibility_quarter": "NA"
   }
  },
  {
   "type": "Feature",
   "geometry": {
    "type": "Point",
    "coordinates": [
     145.38923949,
     -36.4609497
    ]
   },
   "properties": {
    "name": "7440 GOULBURN VALLEY HIGHWAY KIALLA WEST 3631",
    "locID": "LOC000040799706",
    "tech": "FTTN",
    "upgrade": "FTTP_SA",
    "gnaf_pid": "GAVIC419772597",
    "tech_change_status": "Eligible to Order",
    "program_type": "On-Demand N2P SDU/MDU Simple",
    "target_eligibility_quarter": "NA"
   }
  },
  {
   "type": "Feature",
   "geometry": {
    "type": "Point",
    "coordinates": [
     145.38821931,
     -36.4638655
    ]
   },
   "properties": {
    "name": "3 SERVICE ROAD KIALLA WEST 3631",
    "locID": "LOC000105534478",
    "tech": "FTTN",
    "upgrade": "FTTP_SA",
    "gnaf_pid": "GAVIC419773662",
    "tech_change_status": "Eligible to Order",
    "program_type": "On-Demand N2P SDU/MDU Simple",
    "target_eligibility_quarter": "NA"
   }
  },
  {
   "type": "Feature",
   "geometry": {
    "type": "Point",
    "coordinates": [
     145.39686905,
     -36.45710171
    ]
   },
   "properties": {
    "name": "160 MITCHELL ROAD KIALLA WEST 3631",
    "locID": "LOC000091983872",
    "tech": "SATELLITE",
    "upgrade": "WIRELESS",
    "gnaf_pid": "GAVIC419777133",
    "tech_change_status": "Eligible to Order",
    "program_type": "Fixed Wireless and Satellite Upgrade Program",
    "target_eligibility_quarter": "Jun 2025"
   }
  },
  {
   "type": "Feature",
   "geometry": {
    "type": "Point",
    "coordinates": [
     145.40788568,
     -36.4653646
    ]
   },
   "properties": {
    "name": "960 ARCHER ROAD KIALLA WEST 3631",
    "locID": "LOC000069525930",
    "tech": "WIRELESS",
    "upgrade": "NULL_NA",
    "gnaf_pid": "GAVIC419777135",
    "tech_change_status": "Not Planned",
    "program_type": "Fixed Wireless and Satellite Upgrade Program",
    "target_eligibility_quarter": "Jun 2025"
   }
  },
  {
   "type": "Feature",
   "geometry": {
    "type": "Point",
    "coordinates": [
     145.3892398,
     -36.4636269
    ]
   },
   "properties": {
    "name": "7406 GOULBURN VALLEY HIGHWAY KIALLA WEST 3631",
    "locID": "LOC000050076365",
    "tech": "FTTN",
    "upgrade": "FTTP_SA",
    "gnaf_pid": "GAVIC419966759",
    "tech_change_status": "Eligible to Order",
    "program_type": "On-Demand N2P SDU/MDU Simple",
    "target_eligibility_quarter": "NA"
   }
  },
  {
   "type": "Feature",
   "geometry": {
    "type": "Point",
    "coordinates": [
     145.38619766,
     -36.4643892
    ]
   },
   "properties": {
    "name": "4 DEVINE ROAD KIALLA WEST 3631",
    "locID": "LOC000025281118",
    "tech": "FTTN",
    "upgrade": "FTTP",
    "gnaf_pid": "GAVIC420040827",
    "tech_change_status": "Eligible to Order",
    "program_type": "On-Demand N2P SDU/MDU Simple",
    "target_eligibility_quarter": "NA"
   }
  },
  {
   "type": "Feature",
   "geometry": {
    "type": "Point",
    "coordinates": [
     145.38435025,
     -36.4630111
    ]
   },
   "properties": {
    "name": "13 BENNETTS ROAD KIALLA WEST 3631",
    "locID": "LOC000067649810",
    "tech": "FTTP",
    "upgrade": "NULL_NA",
    "gnaf_pid": "GAVIC420044312",
    "program_type": "On-Demand N2P SDU/MDU Simple",
    "target_eligibility_quarter": "NA"
   }
  },
  {
   "type": "Feature",
   "geometry": {
    "type": "Point",
    "coordinates": [
     145.3807763,
     -36.46300052
    ]
   },
   "properties": {
    "name": "33 BENNETTS ROAD KIALLA WEST 3631",
    "locID": "LOC000071752066",
    "tech": "FTTN",
    "upgrade": "FTTP",
    "gnaf_pid": "GAVIC420044314",
    "tech_change_status": "Eligible to Order",
    "program_type": "On-Demand N2P SDU/MDU Simple",
    "target_eligibility_quarter": "NA"
   }
  },
  {
   "type": "Feature",
   "geometry": {
    "type": "Point",
    "coordinates": [
     145.3972312,
     -36.45714224
    ]
   },
   "properties": {
    "name": "170 MITCHELL ROAD KIALLA WEST 3631",
    "locID": "LOC000048570391",
    "tech": "WIRELESS",
    "upgrade": "NULL_NA",
    "gnaf_pid": "GAVIC420057717",
    "tech_change_status": "Not Planned",
    "program_type": "Fixed Wireless and Satellite Upgrade Program",
    "target_eligibility_quarter": "Jun 2025"
   }
  },
  {
   "type": "Feature",
   "geometry": {
    "type": "Point",
    "coordinates": [
     145.40788971,
     -36.46625705
    ]
   },
   "properties": {
    "name": "970 ARCHER ROAD KIALLA WEST 3631",
    "locID": "LOC000083955769",
    "tech": "WIRELESS",
    "upgrade": "NULL_NA",
    "gnaf_pid": "GAVIC420057719",
    "tech_change_status": "Not Planned",
    "program_type": "Fixed Wireless and Satellite Upgrade Program",
    "target_eligibility_quarter": "Jun 2025"
   }
  },
  {
   "type": "Feature",
   "geometry": {
    "type": "Point",
    "coordinates": [
     145.40789745,
     -36.46315626
    ]
   },
   "properties": {
    "name": "930 ARCHER ROAD KIALLA WEST 3631",
    "locID": "LOC000076931804",
    "tech": "WIRELESS",
    "upgrade": "NULL_NA",
    "gnaf_pid": "GAVIC420057721",
    "tech_change_status": "Not Planned",
    "program_type": "Fixed Wireless and Satellite Upgrade Program",
    "target_eligibility_quarter": "Jun 2025"
   }
  },
  {
   "type": "Feature",
   "geometry": {
    "type": "Point",
    "coordinates": [
     145.40789825,
     -36.4609388
    ]
   },
   "properties": {
    "name": "910 ARCHER ROAD KIALLA WEST 3631",
    "locID": "LOC000089677695",
    "tech": "WIRELESS",
    "upgrade": "NULL_NA",
    "gnaf_pid": "GAVIC420057722",
    "tech_change_status": "Not Planned",
    "program_type": "Fixed Wireless and Satellite Upgrade Program",
    "target_eligibility_quarter": "Jun 2025"
   }
  },
  {
   "type": "Feature",
   "geometry": {
    "type": "Point",
    "coordinates": [
     145.4078878,
     -36.46042184
    ]
   },
   "properties": {
    "name": "900 ARCHER ROAD KIALLA WEST 3631",
    "locID": "LOC000096764166",
    "tech": "WIRELESS",
    "upgrade": "NULL_NA",
    "gnaf_pid": "GAVIC420057724",
    "tech_change_status": "Not Planned",
    "program_type": "Fixed Wireless and Satellite Upgrade Program",
    "target_eligibility_quarter": "Jun 2025"
   }
  },
  {
   "type": "Feature",
   "geometry": {
    "type": "Point",
    "coordinates": [
     145.4078957,
     -36.45888354
    ]
   },
   "properties": {
    "name": "870 ARCHER ROAD KIALLA WEST 3631",
    "locID": "LOC000082531771",
    "tech": "WIRELESS",
    "upgrade": "NULL_NA",
    "gnaf_pid": "GAVIC420057726",
    "tech_change_status": "Not Planned",
    "program_type": "Fixed Wireless and Satellite Upgrade Program",
    "target_eligibility_quarter": "Jun 2025"
   }
  },
  {
   "type": "Feature",
   "geometry": {
    "type": "Point",
    "coordinates": [
     145.38663653,
     -36.4657888
    ]
   },
   "properties": {
    "name": "7 DEVINE ROAD KIALLA WEST 3631",
    "locID": "LOC000102069894",
    "tech": "FTTN",
    "upgrade": "FTTP",
    "gnaf_pid": "GAVIC420059578",
    "tech_change_status": "Eligible to Order",
    "program_type": "On-Demand N2P SDU/MDU Simple",
    "target_eligibility_quarter": "NA"
   }
  },
  {
   "type": "Feature",
   "geometry": {
    "type": "Point",
    "coordinates": [
     145.38625933,
     -36.46690305
    ]
   },
   "properties": {
    "name": "18 DEVINE ROAD KIALLA WEST 3631",
    "locID": "LOC000058032533",
    "tech": "FTTP",
    "upgrade": "NULL_NA",
    "gnaf_pid": "GAVIC420059579",
    "tech_change_status": "Previous Tech Disconnected",
    "program_type": "On-Demand N2P SDU/MDU Simple",
    "target_eligibility_quarter": "NA"
   }
  },
  {
   "type": "Feature",
   "geometry": {
    "type": "Point",
    "coordinates": [
     145.38759083,
     -36.46776891
    ]
   },
   "properties": {
    "name": "15 DEVINE ROAD KIALLA WEST 3631",
    "locID": "LOC000039131234",
    "tech": "FTTN",
    "upgrade": "FTTP",
    "gnaf_pid": "GAVIC420059582",
    "tech_change_status": "Eligible to Order",
    "program_type": "On-Demand N2P SDU/MDU Simple",
    "target_eligibility_quarter": "NA"
   }
  },
  {
   "type": "Feature",
   "geometry": {
    "type": "Point",
    "coordinates": [
     145.37980028,
     -36.45712604
    ]
   },
   "properties": {
    "name": "10 MITCHELL ROAD KIALLA WEST 3631",
    "locID": "LOC000090814884",
    "tech": "FTTN",
    "upgrade": "FTTP_NA",
    "gnaf_pid": "GAVIC420060021",
    "tech_change_status": "Committed",
    "program_type": "On-Demand N2P SDU/MDU Simple",
    "target_eligibility_quarter": "Dec 2025"
   }
  },
  {
   "type": "Feature",
   "geometry": {
    "type": "Point",
    "coordinates": [
     145.38537979,
     -36.45712056
    ]
   },
   "properties": {
    "name": "60 MITCHELL ROAD KIALLA WEST 3631",
    "locID": "LOC000106303722",
    "tech": "FTTN",
    "upgrade": "FTTP",
    "gnaf_pid": "GAVIC420060022",
    "tech_change_status": "Eligible to Order",
    "program_type": "On-Demand N2P SDU/MDU Simple",
    "target_eligibility_quarter": "NA"
   }
  },
  {
   "type": "Feature",
   "geometry": {
    "type": "Point",
    "coordinates": [
     145.38923499,
     -36.47085618
    ]
   },
   "properties": {
    "name": "7320 GOULBURN VALLEY HIGHWAY KIALLA WEST 3631",
    "locID": "LOC000056448613",
    "tech": "WIRELESS",
    "upgrade": "NULL_NA",
    "gnaf_pid": "GAVIC420061305",
    "tech_change_status": "Not Planned",
    "program_type": "Fixed Wireless and Satellite Upgrade Program",
    "target_eligibility_quarter": "Jun 2025"
   }
  },
  {
   "type": "Feature",
   "geometry": {
    "type": "Point",
    "coordinates": [
     145.37271028,
     -36.49889113
    ]
   },
   "properties": {
    "name": "140 UNION ROAD WEST KIALLA WEST 3631",
    "locID": "LOC000014754008",
    "tech": "WIRELESS",
    "upgrade": "NULL_NA",
    "gnaf_pid": "GAVIC420063233",
    "tech_change_status": "Not Planned",
    "program_type": "Fixed Wireless and Satellite Upgrade Program",
    "target_eligibility_quarter": "Jun 2025"
   }
  },
  {
   "type": "Feature",
   "geometry": {
    "type": "Point",
    "coordinates": [
     145.4084668,
     -36.4827607
    ]
   },
   "properties": {
    "name": "180 ARCHER ROAD SOUTH KIALLA WEST 3631",
    "locID": "LOC000067764855",
    "tech": "WIRELESS",
    "upgrade": "NULL_NA",
    "gnaf_pid": "GAVIC420083387",
    "tech_change_status": "Not Planned",
    "program_type": "Fixed Wireless and Satellite Upgrade Program",
    "target_eligibility_quarter": "Jun 2025"
   }
  },
  {
   "type": "Feature",
   "geometry": {
    "type": "Point",
    "coordinates": [
     145.38590498,
     -36.4758861
    ]
   },
   "properties": {
    "name": "7 MOIRA DRIVE KIALLA WEST 3631",
    "locID": "LOC000048739516",
    "tech": "WIRELESS",
    "upgrade": "NULL_NA",
    "gnaf_pid": "GAVIC420083389",
    "tech_change_status": "Not Planned",
    "program_type": "Fixed Wireless and Satellite Upgrade Program",
    "target_eligibility_quarter": "Jun 2025"
   }
  },
  {
   "type": "Feature",
   "geometry": {
    "type": "Point",
    "coordinates": [
     145.38924379,
     -36.48173636
    ]
   },
   "properties": {
    "name": "7210 GOULBURN VALLEY HIGHWAY KIALLA WEST 3631",
    "locID": "LOC000010252747",
    "tech": "WIRELESS",
    "upgrade": "NULL_NA",
    "gnaf_pid": "GAVIC420083391",
    "tech_change_status": "Not Planned",
    "program_type": "Fixed Wireless and Satellite Upgrade Program",
    "target_eligibility_quarter": "Jun 2025"
   }
  },
  {
   "type": "Feature",
   "geometry": {
    "type": "Point",
    "coordinates": [
     145.38923481,
     -36.48432331
    ]
   },
   "properties": {
    "name": "7170 GOULBURN VALLEY HIGHWAY KIALLA WEST 3631",
    "locID": "LOC000096397819",
    "tech": "WIRELESS",
    "upgrade": "NULL_NA",
    "gnaf_pid": "GAVIC420083392",
    "tech_change_status": "Not Planned",
    "program_type": "Fixed Wireless and Satellite Upgrade Program",
    "target_eligibility_quarter": "Jun 2025"
   }
  },
  {
   "type": "Feature",
   "geometry": {
    "type": "Point",
    "coordinates": [
     145.38923563,
     -36.46912702
    ]
   },
   "properties": {
    "name": "7350 GOULBURN VALLEY HIGHWAY KIALLA WEST 3631",
    "locID": "LOC000002969028",
    "tech": "FTTN",
    "upgrade": "NULL_NA",
    "gnaf_pid": "GAVIC420365898",
    "tech_change_status": "Not Planned"
   }
  },
  {
   "type": "Feature",
   "geometry": {
    "type": "Point",
    "coordinates": [
     145.38838483,
     -36.47363908
    ]
   },
   "properties": {
    "name": "7295 GOULBURN VALLEY HIGHWAY KIALLA WEST 3631",
    "locID": "LOC000040390629",
    "tech": "WIRELESS",
    "upgrade": "NULL_NA",
    "gnaf_pid": "GAVIC420365899",
    "tech_change_status": "Not Planned",
    "program_type": "Fixed Wireless and Satellite Upgrade Program",
    "target_eligibility_quarter": "Jun 2025"
   }
  },
  {
   "type": "Feature",
   "geometry": {
    "type": "Point",
    "coordinates": [
     145.38821583,
     -36.46672295
    ]
   },
   "properties": {
    "name": "11 SERVICE ROAD KIALLA WEST 3631",
    "locID": "LOC000096467868",
    "tech": "FTTN",
    "upgrade": "FTTP",
    "gnaf_pid": "GAVIC420366417",
    "tech_change_status": "Eligible to Order",
    "program_type": "On-Demand N2P SDU/MDU Simple",
    "target_eligibility_quarter": "NA"
   }
  },
  {
   "type": "Feature",
   "geometry": {
    "type": "Point",
    "coordinates": [
     145.38924193,
     -36.47037074
    ]
   },
   "properties": {
    "name": "7330 GOULBURN VALLEY HIGHWAY KIALLA WEST 3631",
    "locID": "LOC000089543511",
    "tech": "FTTC",
    "upgrade": "FTTP_SA",
    "gnaf_pid": "GAVIC420366419",
    "tech_change_status": "Eligible to Order"
   }
  },
  {
   "type": "Feature",
   "geometry": {
    "type": "Point",
    "coordinates": [
     145.4078604,
     -36.4665992
    ]
   },
   "properties": {
    "name": "980 ARCHER ROAD KIALLA WEST 3631",
    "locID": "LOC000072944747",
    "tech": "WIRELESS",
    "upgrade": "NULL_NA",
    "gnaf_pid": "GAVIC420366420",
    "tech_change_status": "Not Planned",
    "program_type": "Fixed Wireless and Satellite Upgrade Program",
    "target_eligibility_quarter": "Jun 2025"
   }
  },
  {
   "type": "Feature",
   "geometry": {
    "type": "Point",
    "coordinates": [
     145.38662243,
     -36.46520158
    ]
   },
   "properties": {
    "name": "5 DEVINE ROAD KIALLA WEST 3631",
    "locID": "LOC000066606578",
    "tech": "FTTN",
    "upgrade": "FTTP",
    "gnaf_pid": "GAVIC420366423",
    "tech_change_status": "Eligible to Order",
    "program_type": "On-Demand N2P SDU/MDU Simple",
    "target_eligibility_quarter": "NA"
   }
  },
  {
   "type": "Feature",
   "geometry": {
    "type": "Point",
    "coordinates": [
     145.38660939,
     -36.46465805
    ]
   },
   "properties": {
    "name": "3 DEVINE ROAD KIALLA WEST 3631",
    "locID": "LOC000025281118",
    "tech": "FTTN",
    "upgrade": "FTTP",
    "gnaf_pid": "GAVIC420366424",
    "tech_change_status": "Eligible to Order",
    "program_type": "On-Demand N2P SDU/MDU Simple",
    "target_eligibility_quarter": "NA"
   }
  },
  {
   "type": "Feature",
   "geometry": {
    "type": "Point",
    "coordinates": [
     145.38671745,
     -36.46300705
    ]
   },
   "properties": {
    "name": "3 BENNETTS ROAD KIALLA WEST 3631",
    "locID": "LOC000067199574",
    "tech": "FTTN",
    "upgrade": "FTTP",
    "gnaf_pid": "GAVIC420366425",
    "tech_change_status": "Eligible to Order",
    "program_type": "On-Demand N2P SDU/MDU Simple",
    "target_eligibility_quarter": "NA"
   }
  },
  {
   "type": "Feature",
   "geometry": {
    "type": "Point",
    "coordinates": [
     145.3920473,
     -36.49893625
    ]
   },
   "properties": {
    "name": "41 UNION ROAD WEST KIALLA WEST 3631",
    "locID": "LOC000096413871",
    "tech": "WIRELESS",
    "upgrade": "NULL_NA",
    "gnaf_pid": "GAVIC420368714",
    "tech_change_status": "Not Planned",
    "program_type": "Fixed Wireless and Satellite Upgrade Program",
    "target_eligibility_quarter": "Jun 2025"
   }
  },
  {
   "type": "Feature",
   "geometry": {
    "type": "Point",
    "coordinates": [
     145.40788614,
     -36.4658874
    ]
   },
   "properties": {
    "name": "966 ARCHER ROAD KIALLA WEST 3631",
    "locID": "LOC000098437211",
    "tech": "WIRELESS",
    "upgrade": "NULL_NA",
    "gnaf_pid": "GAVIC420372975",
    "tech_change_status": "Not Planned",
    "program_type": "Fixed Wireless and Satellite Upgrade Program",
    "target_eligibility_quarter": "Jun 2025"
   }
  },
  {
   "type": "Feature",
   "geometry": {
    "type": "Point",
    "coordinates": [
     145.40591195,
     -36.4571263
    ]
   },
   "properties": {
    "name": "244 MITCHELL ROAD KIALLA WEST 3631",
    "locID": "LOC000007871994",
    "tech": "WIRELESS",
    "upgrade": "NULL_NA",
    "gnaf_pid": "GAVIC420372983",
    "tech_change_status": "Not Planned",
    "program_type": "Fixed Wireless and Satellite Upgrade Program",
    "target_eligibility_quarter": "Jun 2025"
   }
  },
  {
   "type": "Feature",
   "geometry": {
    "type": "Point",
    "coordinates": [
     145.3862066,
     -36.46475354
    ]
   },
   "properties": {
    "name": "6 DEVINE ROAD KIALLA WEST 3631",
    "locID": "LOC000100832126",
    "tech": "FTTN",
    "upgrade": "FTTP",
    "gnaf_pid": "GAVIC420374897",
    "tech_change_status": "Eligible to Order",
    "program_type": "On-Demand N2P SDU/MDU Simple",
    "target_eligibility_quarter": "NA"
   }
  },
  {
   "type": "Feature",
   "geometry": {
    "type": "Point",
    "coordinates": [
     145.38618875,
     -36.46402578
    ]
   },
   "properties": {
    "name": "2 DEVINE ROAD KIALLA WEST 3631",
    "locID": "LOC000023555658",
    "tech": "FTTP",
    "upgrade": "NULL_NA",
    "gnaf_pid": "GAVIC420374898",
    "tech_change_status": "Previous Tech Disconnected",
    "program_type": "On-Demand N2P SDU/MDU Simple",
    "target_eligibility_quarter": "NA"
   }
  },
  {
   "type": "Feature",
   "geometry": {
    "type": "Point",
    "coordinates": [
     145.38924133,
     -36.46140041
    ]
   },
   "properties": {
    "name": "7430 GOULBURN VALLEY HIGHWAY KIALLA WEST 3631",
    "locID": "LOC000084824594",
    "tech": "FTTP",
    "upgrade": "FTTP_NA",
    "gnaf_pid": "GAVIC420374899",
    "tech_change_status": "Previous Tech Disconnected",
    "program_type": "On-Demand N2P SDU/MDU Simple",
    "target_eligibility_quarter": "NA"
   }
  },
  {
   "type": "Feature",
   "geometry": {
    "type": "Point",
    "coordinates": [
     145.38821504,
     -36.45869133
    ]
   },
   "properties": {
    "name": "7455 GOULBURN VALLEY HIGHWAY KIALLA WEST 3631",
    "locID": "LOC000058383686",
    "tech": "FTTN",
    "upgrade": "FTTP_SA",
    "gnaf_pid": "GAVIC420381168",
    "tech_change_status": "Eligible to Order",
    "program_type": "On-Demand N2P SDU/MDU Simple",
    "target_eligibility_quarter": "NA"
   }
  },
  {
   "type": "Feature",
   "geometry": {
    "type": "Point",
    "coordinates": [
     145.38712756,
     -36.46300644
    ]
   },
   "properties": {
    "name": "1 BENNETTS ROAD KIALLA WEST 3631",
    "locID": "LOC000019461020",
    "tech": "FTTP",
    "upgrade": "NULL_NA",
    "gnaf_pid": "GAVIC420384787",
    "tech_change_status": "Previous Tech Disconnected",
    "program_type": "On-Demand N2P SDU/MDU Simple",
    "target_eligibility_quarter": "NA"
   }
  },
  {
   "type": "Feature",
   "geometry": {
    "type": "Point",
    "coordinates": [
     145.38318136,
     -36.45712685
    ]
   },
   "properties": {
    "name": "30 MITCHELL ROAD KIALLA WEST 3631",
    "locID": "LOC000125189729",
    "tech": "FTTP",
    "upgrade": "FTTP_NA",
    "gnaf_pid": "GAVIC420649846",
    "tech_change_status": "Previous Tech Disconnected",
    "program_type": "On-Demand N2P SDU/MDU Simple",
    "target_eligibility_quarter": "NA"
   }
  },
  {
   "type": "Feature",
   "geometry": {
    "type": "Point",
    "coordinates": [
     145.40368025,
     -36.4571235
    ]
   },
   "properties": {
    "name": "224 MITCHELL ROAD KIALLA WEST 3631",
    "locID": "LOC000046628980",
    "tech": "WIRELESS",
    "upgrade": "NULL_NA",
    "gnaf_pid": "GAVIC420654990",
    "tech_change_status": "Not Planned",
    "program_type": "Fixed Wireless and Satellite Upgrade Program",
    "target_eligibility_quarter": "NA"
   }
  },
  {
   "type": "Feature",
   "geometry": {
    "type": "Point",
    "coordinates": [
     145.38924498,
     -36.46391541
    ]
   },
   "properties": {
    "name": "7404 GOULBURN VALLEY HIGHWAY KIALLA WEST 3631",
    "locID": "LOC000002798169",
    "tech": "FTTN",
    "upgrade": "FTTP",
    "gnaf_pid": "GAVIC420670097",
    "tech_change_status": "Eligible to Order",
    "program_type": "On-Demand N2P SDU/MDU Simple",
    "target_eligibility_quarter": "NA"
   }
  },
  {
   "type": "Feature",
   "geometry": {
    "type": "Point",
    "coordinates": [
     145.38837465,
     -36.49296529
    ]
   },
   "properties": {
    "name": "7085 GOULBURN VALLEY HIGHWAY KIALLA WEST 3631",
    "locID": "LOC000081676765",
    "tech": "WIRELESS",
    "upgrade": "NULL_NA",
    "gnaf_pid": "GAVIC420670863",
    "tech_change_status": "Not Planned",
    "program_type": "Fixed Wireless and Satellite Upgrade Program",
    "target_eligibility_quarter": "NA"
   }
  },
  {
   "type": "Feature",
   "geometry": {
    "type": "Point",
    "coordinates": [
     145.38822131,
     -36.46753428
    ]
   },
   "properties": {
    "name": "13 SERVICE ROAD KIALLA WEST 3631",
    "locID": "LOC000034939426",
    "tech": "FTTN",
    "upgrade": "FTTP",
    "gnaf_pid": "GAVIC420679067",
    "tech_change_status": "Eligible to Order",
    "program_type": "On-Demand N2P SDU/MDU Simple",
    "target_eligibility_quarter": "NA"
   }
  },
  {
   "type": "Feature",
   "geometry": {
    "type": "Point",
    "coordinates": [
     145.3873429,
     -36.4680939
    ]
   },
   "properties": {
    "name": "22 DEVINE ROAD KIALLA WEST 3631",
    "locID": "LOC000103509165",
    "tech": "FTTP",
    "upgrade": "FTTP_NA",
    "gnaf_pid": "GAVIC420679070",
    "tech_change_status": "Previous Tech Disconnected",
    "program_type": "On-Demand N2P SDU/MDU Simple",
    "target_eligibility_quarter": "NA"
   }
  },
  {
   "type": "Feature",
   "geometry": {
    "type": "Point",
    "coordinates": [
     145.386242,
     -36.46619719
    ]
   },
   "properties": {
    "name": "14 DEVINE ROAD KIALLA WEST 3631",
    "locID": "LOC000086701820",
    "tech": "FTTN",
    "upgrade": "FTTP",
    "gnaf_pid": "GAVIC420679074",
    "tech_change_status": "Eligible to Order",
    "program_type": "On-Demand N2P SDU/MDU Simple",
    "target_eligibility_quarter": "NA"
   }
  },
  {
   "type": "Feature",
   "geometry": {
    "type": "Point",
    "coordinates": [
     145.38659628,
     -36.46411196
    ]
   },
   "properties": {
    "name": "1 DEVINE ROAD KIALLA WEST 3631",
    "locID": "LOC000045706277",
    "tech": "FTTN",
    "upgrade": "FTTP",
    "gnaf_pid": "GAVIC420679076",
    "tech_change_status": "Eligible to Order",
    "program_type": "On-Demand N2P SDU/MDU Simple",
    "target_eligibility_quarter": "NA"
   }
  },
  {
   "type": "Feature",
   "geometry": {
    "type": "Point",
    "coordinates": [
     145.38168165,
     -36.46301418
    ]
   },
   "properties": {
    "name": "29 BENNETTS ROAD KIALLA WEST 3631",
    "locID": "LOC000077010747",
    "tech": "FTTN",
    "upgrade": "FTTP",
    "gnaf_pid": "GAVIC420682809",
    "tech_change_status": "Eligible to Order",
    "program_type": "On-Demand N2P SDU/MDU Simple",
    "target_eligibility_quarter": "NA"
   }
  },
  {
   "type": "Feature",
   "geometry": {
    "type": "Point",
    "coordinates": [
     145.3883451,
     -36.4627105
    ]
   },
   "properties": {
    "name": "7425 GOULBURN VALLEY HIGHWAY KIALLA WEST 3631",
    "locID": "LOC000092717467",
    "tech": "FTTN",
    "upgrade": "FTTP_SA",
    "gnaf_pid": "GAVIC420682810",
    "tech_change_status": "Eligible to Order",
    "program_type": "On-Demand N2P SDU/MDU Simple",
    "target_eligibility_quarter": "NA"
   }
  },
  {
   "type": "Feature",
   "geometry": {
    "type": "Point",
    "coordinates": [
     145.3876115,
     -36.4571237
    ]
   },
   "properties": {
    "name": "80 MITCHELL ROAD KIALLA WEST 3631",
    "locID": "LOC000037795390",
    "tech": "FTTN",
    "upgrade": "FTTP_SA",
    "gnaf_pid": "GAVIC420683509",
    "tech_change_status": "Eligible to Order",
    "program_type": "On-Demand N2P SDU/MDU Simple",
    "target_eligibility_quarter": "NA"
   }
  },
  {
   "type": "Feature",
   "geometry": {
    "type": "Point",
    "coordinates": [
     145.38923761,
     -36.4965736
    ]
   },
   "properties": {
    "name": "7040 GOULBURN VALLEY HIGHWAY KIALLA WEST 3631",
    "locID": "LOC000069884449",
    "tech": "WIRELESS",
    "upgrade": "NULL_NA",
    "gnaf_pid": "GAVIC420685192",
    "tech_change_status": "Not Planned",
    "program_type": "Fixed Wireless and Satellite Upgrade Program",
    "target_eligibility_quarter": "NA"
   }
  },
  {
   "type": "Feature",
   "geometry": {
    "type": "Point",
    "coordinates": [
     145.3882157,
     -36.46457756
    ]
   },
   "properties": {
    "name": "5 SERVICE ROAD KIALLA WEST 3631",
    "locID": "LOC000031765107",
    "tech": "FTTP",
    "upgrade": "FTTP_NA",
    "gnaf_pid": "GAVIC420686335",
    "tech_change_status": "Previous Tech Disconnected",
    "program_type": "On-Demand N2P SDU/MDU Simple",
    "target_eligibility_quarter": "NA"
   }
  },
  {
   "type": "Feature",
   "geometry": {
    "type": "Point",
    "coordinates": [
     145.38821956,
     -36.46492918
    ]
   },
   "properties": {
    "name": "6 SERVICE ROAD KIALLA WEST 3631",
    "locID": "LOC000033040575",
    "tech": "FTTP",
    "upgrade": "FTTP_NA",
    "gnaf_pid": "GAVIC420686336",
    "tech_change_status": "Previous Tech Disconnected",
    "program_type": "On-Demand N2P SDU/MDU Simple",
    "target_eligibility_quarter": "NA"
   }
  },
  {
   "type": "Feature",
   "geometry": {
    "type": "Point",
    "coordinates": [
     145.38622439,
     -36.46547871
    ]
   },
   "properties": {
    "name": "10 DEVINE ROAD KIALLA WEST 3631",
    "locID": "LOC000042654289",
    "tech": "FTTN",
    "upgrade": "FTTP",
    "gnaf_pid": "GAVIC420686339",
    "tech_change_status": "Eligible to Order",
    "program_type": "On-Demand N2P SDU/MDU Simple",
    "target_eligibility_quarter": "NA"
   }
  },
  {
   "type": "Feature",
   "geometry": {
    "type": "Point",
    "coordinates": [
     145.40788635,
     -36.4647877
    ]
   },
   "properties": {
    "name": "950 ARCHER ROAD KIALLA WEST 3631",
    "locID": "LOC000070188209",
    "tech": "WIRELESS",
    "upgrade": "NULL_NA",
    "gnaf_pid": "GAVIC420686345",
    "tech_change_status": "Not Planned",
    "program_type": "Fixed Wireless and Satellite Upgrade Program",
    "target_eligibility_quarter": "Jun 2025"
   }
  },
  {
   "type": "Feature",
   "geometry": {
    "type": "Point",
    "coordinates": [
     145.40788758,
     -36.46418376
    ]
   },
   "properties": {
    "name": "940 ARCHER ROAD KIALLA WEST 3631",
    "locID": "LOC000101635794",
    "tech": "WIRELESS",
    "upgrade": "NULL_NA",
    "gnaf_pid": "GAVIC420686346",
    "tech_change_status": "Not Planned",
    "program_type": "Fixed Wireless and Satellite Upgrade Program",
    "target_eligibility_quarter": "Jun 2025"
   }
  },
  {
   "type": "Feature",
   "geometry": {
    "type": "Point",
    "coordinates": [
     145.3867721,
     -36.46777098
    ]
   },
   "properties": {
    "name": "13 DEVINE ROAD KIALLA WEST 3631",
    "locID": "LOC000014782628",
    "tech": "FTTP",
    "upgrade": "FTTP_NA",
    "gnaf_pid": "GAVIC420688767",
    "tech_change_status": "Previous Tech Disconnected",
    "program_type": "On-Demand N2P SDU/MDU Simple",
    "target_eligibility_quarter": "NA"
   }
  },
  {
   "type": "Feature",
   "geometry": {
    "type": "Point",
    "coordinates": [
     145.38838649,
     -36.46871736
    ]
   },
   "properties": {
    "name": "7355 GOULBURN VALLEY HIGHWAY KIALLA WEST 3631",
    "locID": "LOC000100263719",
    "tech": "FTTC",
    "upgrade": "FTTP_SA",
    "gnaf_pid": "GAVIC420691534",
    "tech_change_status": "Eligible to Order"
   }
  },
  {
   "type": "Feature",
   "geometry": {
    "type": "Point",
    "coordinates": [
     145.38924279,
     -36.49093981
    ]
   },
   "properties": {
    "name": "7120 GOULBURN VALLEY HIGHWAY KIALLA WEST 3631",
    "locID": "LOC000070194773",
    "tech": "SATELLITE",
    "upgrade": "WIRELESS",
    "gnaf_pid": "GAVIC420764670",
    "tech_change_status": "Eligible to Order",
    "program_type": "Fixed Wireless and Satellite Upgrade Program",
    "target_eligibility_quarter": "Jun 2025"
   }
  },
  {
   "type": "Feature",
   "geometry": {
    "type": "Point",
    "coordinates": [
     145.38923724,
     -36.4632122
    ]
   },
   "properties": {
    "name": "7412 GOULBURN VALLEY HIGHWAY KIALLA WEST 3631",
    "locID": "LOC000056060984",
    "tech": "FTTN",
    "upgrade": "FTTP_SA",
    "gnaf_pid": "GAVIC420868335",
    "tech_change_status": "Eligible to Order",
    "program_type": "On-Demand N2P SDU/MDU Simple",
    "target_eligibility_quarter": "NA"
   }
  },
  {
   "type": "Feature",
   "geometry": {
    "type": "Point",
    "coordinates": [
     145.38923683,
     -36.48691941
    ]
   },
   "properties": {
    "name": "7144 GOULBURN VALLEY HIGHWAY KIALLA WEST 3631",
    "locID": "LOC000092368737",
    "tech": "WIRELESS",
    "upgrade": "NULL_NA",
    "gnaf_pid": "GAVIC420871220",
    "tech_change_status": "Not Planned",
    "program_type": "Fixed Wireless and Satellite Upgrade Program",
    "target_eligibility_quarter": "Jun 2025"
   }
  },
  {
   "type": "Feature",
   "geometry": {
    "type": "Point",
    "coordinates": [
     145.38837963,
     -36.48372516
    ]
   },
   "properties": {
    "name": "7185 GOULBURN VALLEY HIGHWAY KIALLA WEST 3631",
    "locID": "LOC000072036713",
    "tech": "WIRELESS",
    "upgrade": "NULL_NA",
    "gnaf_pid": "GAVIC420871221",
    "tech_change_status": "Not Planned",
    "program_type": "Fixed Wireless and Satellite Upgrade Program",
    "target_eligibility_quarter": "Jun 2025"
   }
  },
  {
   "type": "Feature",
   "geometry": {
    "type": "Point",
    "coordinates": [
     145.38924375,
     -36.46505116
    ]
   },
   "properties": {
    "name": "7390 GOULBURN VALLEY HIGHWAY KIALLA WEST 3631",
    "locID": "LOC000022076857",
    "tech": "FTTC",
    "upgrade": "FTTP_SA",
    "gnaf_pid": "GAVIC420889899",
    "tech_change_status": "Eligible to Order"
   }
  },
  {
   "type": "Feature",
   "geometry": {
    "type": "Point",
    "coordinates": [
     145.38923545,
     -36.46437501
    ]
   },
   "properties": {
    "name": "7400 GOULBURN VALLEY HIGHWAY KIALLA WEST 3631",
    "locID": "LOC000093061906",
    "tech": "FTTP",
    "upgrade": "FTTP_NA",
    "gnaf_pid": "GAVIC420957672",
    "tech_change_status": "Previous Tech Disconnected",
    "program_type": "On-Demand N2P SDU/MDU Simple",
    "target_eligibility_quarter": "NA"
   }
  },
  {
   "type": "Feature",
   "geometry": {
    "type": "Point",
    "coordinates": [
     145.3882154,
     -36.46566828
    ]
   },
   "properties": {
    "name": "8 SERVICE ROAD KIALLA WEST 3631",
    "locID": "LOC000093804582",
    "tech": "FTTN",
    "upgrade": "FTTP",
    "gnaf_pid": "GAVIC420967964",
    "tech_change_status": "Eligible to Order",
    "program_type": "On-Demand N2P SDU/MDU Simple",
    "target_eligibility_quarter": "NA"
   }
  },
  {
   "type": "Feature",
   "geometry": {
    "type": "Point",
    "coordinates": [
     145.38747463,
     -36.47554679
    ]
   },
   "properties": {
    "name": "2 MOIRA DRIVE KIALLA WEST 3631",
    "locID": "LOC000090035720",
    "tech": "WIRELESS",
    "upgrade": "NULL_NA",
    "gnaf_pid": "GAVIC420970328",
    "tech_change_status": "Not Planned",
    "program_type": "Fixed Wireless and Satellite Upgrade Program",
    "target_eligibility_quarter": "Jun 2025"
   }
  },
  {
   "type": "Feature",
   "geometry": {
    "type": "Point",
    "coordinates": [
     145.38690538,
     -36.47554808
    ]
   },
   "properties": {
    "name": "4 MOIRA DRIVE KIALLA WEST 3631",
    "locID": "LOC000080338575",
    "tech": "WIRELESS",
    "upgrade": "NULL_NA",
    "gnaf_pid": "GAVIC420970330",
    "tech_change_status": "Not Planned",
    "program_type": "Fixed Wireless and Satellite Upgrade Program",
    "target_eligibility_quarter": "Jun 2025"
   }
  },
  {
   "type": "Feature",
   "geometry": {
    "type": "Point",
    "coordinates": [
     145.38837795,
     -36.48042663
    ]
   },
   "properties": {
    "name": "7215 GOULBURN VALLEY HIGHWAY KIALLA WEST 3631",
    "locID": "LOC000105831630",
    "tech": "WIRELESS",
    "upgrade": "NULL_NA",
    "gnaf_pid": "GAVIC420970331",
    "tech_change_status": "Not Planned",
    "program_type": "Fixed Wireless and Satellite Upgrade Program",
    "target_eligibility_quarter": "Jun 2025"
   }
  },
  {
   "type": "Feature",
   "geometry": {
    "type": "Point",
    "coordinates": [
     145.38923671,
     -36.47561565
    ]
   },
   "properties": {
    "name": "7270 GOULBURN VALLEY HIGHWAY KIALLA WEST 3631",
    "locID": "LOC000100406252",
    "tech": "WIRELESS",
    "upgrade": "NULL_NA",
    "gnaf_pid": "GAVIC420970332",
    "tech_change_status": "Not Planned",
    "program_type": "Fixed Wireless and Satellite Upgrade Program",
    "target_eligibility_quarter": "Jun 2025"
   }
  },
  {
   "type": "Feature",
   "geometry": {
    "type": "Point",
    "coordinates": [
     145.38924326,
     -36.48553133
    ]
   },
   "properties": {
    "name": "7160 GOULBURN VALLEY HIGHWAY KIALLA WEST 3631",
    "locID": "LOC000032927179",
    "tech": "WIRELESS",
    "upgrade": "NULL_NA",
    "gnaf_pid": "GAVIC420970334",
    "tech_change_status": "Not Planned",
    "program_type": "Fixed Wireless and Satellite Upgrade Program",
    "target_eligibility_quarter": "Jun 2025"
   }
  },
  {
   "type": "Feature",
   "geometry": {
    "type": "Point",
    "coordinates": [
     145.37651695,
     -36.49891599
    ]
   },
   "properties": {
    "name": "106 UNION ROAD WEST KIALLA WEST 3631",
    "locID": "LOC000080859414",
    "tech": "WIRELESS",
    "upgrade": "NULL_NA",
    "gnaf_pid": "GAVIC420970337",
    "tech_change_status": "Not Planned",
    "program_type": "Fixed Wireless and Satellite Upgrade Program",
    "target_eligibility_quarter": "Jun 2025"
   }
  },
  {
   "type": "Feature",
   "geometry": {
    "type": "Point",
    "coordinates": [
     145.38923799,
     -36.47986135
    ]
   },
   "properties": {
    "name": "7230 GOULBURN VALLEY HIGHWAY KIALLA WEST 3631",
    "locID": "LOC000058022252",
    "tech": "WIRELESS",
    "upgrade": "NULL_NA",
    "gnaf_pid": "GAVIC420985558",
    "tech_change_status": "Not Planned",
    "program_type": "Fixed Wireless and Satellite Upgrade Program",
    "target_eligibility_quarter": "Jun 2025"
   }
  },
  {
   "type": "Feature",
   "geometry": {
    "type": "Point",
    "coordinates": [
     145.38790615,
     -36.46809371
    ]
   },
   "properties": {
    "name": "24 DEVINE ROAD KIALLA WEST 3631",
    "locID": "LOC000027051378",
    "tech": "FTTN",
    "upgrade": "FTTP",
    "gnaf_pid": "GAVIC420987472",
    "tech_change_status": "New Tech Connected",
    "program_type": "On-Demand N2P SDU/MDU Simple",
    "target_eligibility_quarter": "NA"
   }
  },
  {
   "type": "Feature",
   "geometry": {
    "type": "Point",
    "coordinates": [
     145.38609695,
     -36.46300824
    ]
   },
   "properties": {
    "name": "5 BENNETTS ROAD KIALLA WEST 3631",
    "locID": "LOC000040991389",
    "tech": "FTTN",
    "upgrade": "FTTP",
    "gnaf_pid": "GAVIC420987475",
    "tech_change_status": "New Tech Connected",
    "program_type": "On-Demand N2P SDU/MDU Simple",
    "target_eligibility_quarter": "NA"
   }
  },
  {
   "type": "Feature",
   "geometry": {
    "type": "Point",
    "coordinates": [
     145.38923318,
     -36.48601795
    ]
   },
   "properties": {
    "name": "7150 GOULBURN VALLEY HIGHWAY KIALLA WEST 3631",
    "locID": "LOC000067035096",
    "tech": "WIRELESS",
    "upgrade": "NULL_NA",
    "gnaf_pid": "GAVIC421269936",
    "tech_change_status": "Not Planned",
    "program_type": "Fixed Wireless and Satellite Upgrade Program",
    "target_eligibility_quarter": "Jun 2025"
   }
  },
  {
   "type": "Feature",
   "geometry": {
    "type": "Point",
    "coordinates": [
     145.388216,
     -36.46348685
    ]
   },
   "properties": {
    "name": "2 SERVICE ROAD KIALLA WEST 3631",
    "locID": "LOC000056051031",
    "tech": "FTTN",
    "upgrade": "FTTP_SA",
    "gnaf_pid": "GAVIC421284140",
    "tech_change_status": "Eligible to Order",
    "program_type": "On-Demand N2P SDU/MDU Simple",
    "target_eligibility_quarter": "NA"
   }
  },
  {
   "type": "Feature",
   "geometry": {
    "type": "Point",
    "coordinates": [
     145.3882122,
     -36.46420794
    ]
   },
   "properties": {
    "name": "4 SERVICE ROAD KIALLA WEST 3631",
    "locID": "LOC000005318518",
    "tech": "FTTN",
    "upgrade": "FTTP",
    "gnaf_pid": "GAVIC421284141",
    "tech_change_status": "Eligible to Order",
    "program_type": "On-Demand N2P SDU/MDU Simple",
    "target_eligibility_quarter": "NA"
   }
  },
  {
   "type": "Feature",
   "geometry": {
    "type": "Point",
    "coordinates": [
     145.3862155,
     -36.46511695
    ]
   },
   "properties": {
    "name": "8 DEVINE ROAD KIALLA WEST 3631",
    "locID": "LOC000047764642",
    "tech": "FTTN",
    "upgrade": "FTTP",
    "gnaf_pid": "GAVIC421284184",
    "tech_change_status": "Eligible to Order",
    "program_type": "On-Demand N2P SDU/MDU Simple",
    "target_eligibility_quarter": "NA"
   }
  },
  {
   "type": "Feature",
   "geometry": {
    "type": "Point",
    "coordinates": [
     145.39356482,
     -36.45712622
    ]
   },
   "properties": {
    "name": "130 MITCHELL ROAD KIALLA WEST 3631",
    "locID": "LOC000125229138",
    "tech": "WIRELESS",
    "upgrade": "NULL_NA",
    "gnaf_pid": "GAVIC421284186",
    "tech_change_status": "Not Planned",
    "program_type": "Fixed Wireless and Satellite Upgrade Program",
    "target_eligibility_quarter": "Jun 2025"
   }
  },
  {
   "type": "Feature",
   "geometry": {
    "type": "Point",
    "coordinates": [
     145.40323381,
     -36.45712655
    ]
   },
   "properties": {
    "name": "220 MITCHELL ROAD KIALLA WEST 3631",
    "locID": "LOC000082615682",
    "tech": "WIRELESS",
    "upgrade": "NULL_NA",
    "gnaf_pid": "GAVIC421284187",
    "tech_change_status": "Not Planned",
    "program_type": "Fixed Wireless and Satellite Upgrade Program",
    "target_eligibility_quarter": "Jun 2025"
   }
  },
  {
   "type": "Feature",
   "geometry": {
    "type": "Point",
    "coordinates": [
     145.40211789,
     -36.45712964
    ]
   },
   "properties": {
    "name": "210 MITCHELL ROAD KIALLA WEST 3631",
    "locID": "LOC000125247014",
    "tech": "WIRELESS",
    "upgrade": "NULL_NA",
    "gnaf_pid": "GAVIC421284188",
    "tech_change_status": "Not Planned",
    "program_type": "Fixed Wireless and Satellite Upgrade Program",
    "target_eligibility_quarter": "NA"
   }
  },
  {
   "type": "Feature",
   "geometry": {
    "type": "Point",
    "coordinates": [
     145.40789814,
     -36.46148865
    ]
   },
   "properties": {
    "name": "920 ARCHER ROAD KIALLA WEST 3631",
    "locID": "LOC000089616742",
    "tech": "WIRELESS",
    "upgrade": "NULL_NA",
    "gnaf_pid": "GAVIC421284192",
    "tech_change_status": "Not Planned",
    "program_type": "Fixed Wireless and Satellite Upgrade Program",
    "target_eligibility_quarter": "Jun 2025"
   }
  },
  {
   "type": "Feature",
   "geometry": {
    "type": "Point",
    "coordinates": [
     145.38577444,
     -36.46300876
    ]
   },
   "properties": {
    "name": "7 BENNETTS ROAD KIALLA WEST 3631",
    "locID": "LOC000008854645",
    "tech": "FTTN",
    "upgrade": "FTTP_SA",
    "gnaf_pid": "GAVIC421286727",
    "tech_change_status": "Eligible to Order",
    "program_type": "On-Demand N2P SDU/MDU Simple",
    "target_eligibility_quarter": "NA"
   }
  },
  {
   "type": "Feature",
   "geometry": {
    "type": "Point",
    "coordinates": [
     145.38354976,
     -36.46301241
    ]
   },
   "properties": {
    "name": "15 BENNETTS ROAD KIALLA WEST 3631",
    "locID": "LOC000005194835",
    "tech": "FTTP",
    "upgrade": "FTTP_NA",
    "gnaf_pid": "GAVIC421286730",
    "tech_change_status": "Previous Tech Disconnected",
    "program_type": "On-Demand N2P SDU/MDU Simple",
    "target_eligibility_quarter": "NA"
   }
  },
  {
   "type": "Feature",
   "geometry": {
    "type": "Point",
    "coordinates": [
     145.38650773,
     -36.47588525
    ]
   },
   "properties": {
    "name": "5 MOIRA DRIVE KIALLA WEST 3631",
    "locID": "LOC000060985528",
    "tech": "WIRELESS",
    "upgrade": "NULL_NA",
    "gnaf_pid": "GAVIC421289931",
    "tech_change_status": "Not Planned",
    "program_type": "Fixed Wireless and Satellite Upgrade Program",
    "target_eligibility_quarter": "Jun 2025"
   }
  },
  {
   "type": "Feature",
   "geometry": {
    "type": "Point",
    "coordinates": [
     145.38924368,
     -36.48281806
    ]
   },
   "properties": {
    "name": "7200 GOULBURN VALLEY HIGHWAY KIALLA WEST 3631",
    "locID": "LOC000087122761",
    "tech": "WIRELESS",
    "upgrade": "NULL_NA",
    "gnaf_pid": "GAVIC421289933",
    "tech_change_status": "Not Planned",
    "program_type": "Fixed Wireless and Satellite Upgrade Program",
    "target_eligibility_quarter": "Jun 2025"
   }
  },
  {
   "type": "Feature",
   "geometry": {
    "type": "Point",
    "coordinates": [
     145.38923549,
     -36.49344566
    ]
   },
   "properties": {
    "name": "7070 GOULBURN VALLEY HIGHWAY KIALLA WEST 3631",
    "locID": "LOC000025123124",
    "tech": "WIRELESS",
    "upgrade": "NULL_NA",
    "gnaf_pid": "GAVIC421357487",
    "tech_change_status": "Not Planned",
    "program_type": "Fixed Wireless and Satellite Upgrade Program",
    "target_eligibility_quarter": "Jun 2025"
   }
  },
  {
   "type": "Feature",
   "geometry": {
    "type": "Point",
    "coordinates": [
     145.38666696,
     -36.46705638
    ]
   },
   "properties": {
    "name": "11 DEVINE ROAD KIALLA WEST 3631",
    "locID": "LOC000049065155",
    "tech": "FTTP",
    "upgrade": "NULL_NA",
    "gnaf_pid": "GAVIC421552043",
    "program_type": "On-Demand N2P SDU/MDU Simple",
    "target_eligibility_quarter": "NA"
   }
  },
  {
   "type": "Feature",
   "geometry": {
    "type": "Point",
    "coordinates": [
     145.38625041,
     -36.46653975
    ]
   },
   "properties": {
    "name": "16 DEVINE ROAD KIALLA WEST 3631",
    "locID": "LOC000045370078",
    "tech": "FTTP",
    "upgrade": "FTTP_NA",
    "gnaf_pid": "GAVIC421552045",
    "tech_change_status": "Previous Tech Disconnected",
    "program_type": "On-Demand N2P SDU/MDU Simple",
    "target_eligibility_quarter": "NA"
   }
  },
  {
   "type": "Feature",
   "geometry": {
    "type": "Point",
    "coordinates": [
     145.38821176,
     -36.46638035
    ]
   },
   "properties": {
    "name": "10 SERVICE ROAD KIALLA WEST 3631",
    "locID": "LOC000108007283",
    "tech": "FTTN",
    "upgrade": "FTTP",
    "gnaf_pid": "GAVIC421552047",
    "tech_change_status": "Eligible to Order",
    "program_type": "On-Demand N2P SDU/MDU Simple",
    "target_eligibility_quarter": "NA"
   }
  },
  {
   "type": "Feature",
   "geometry": {
    "type": "Point",
    "coordinates": [
     145.4045729,
     -36.45712643
    ]
   },
   "properties": {
    "name": "232 MITCHELL ROAD KIALLA WEST 3631",
    "locID": "LOC000074121502",
    "tech": "WIRELESS",
    "upgrade": "NULL_NA",
    "gnaf_pid": "GAVIC421559776",
    "tech_change_status": "Not Planned",
    "program_type": "Fixed Wireless and Satellite Upgrade Program",
    "target_eligibility_quarter": "Jun 2025"
   }
  },
  {
   "type": "Feature",
   "geometry": {
    "type": "Point",
    "coordinates": [
     145.3883873,
     -36.45791843
    ]
   },
   "properties": {
    "name": "7465 GOULBURN VALLEY HIGHWAY KIALLA WEST 3631",
    "locID": "LOC000023596906",
    "tech": "FTTN",
    "upgrade": "FTTP_SA",
    "gnaf_pid": "GAVIC421574504",
    "tech_change_status": "Eligible to Order",
    "program_type": "On-Demand N2P SDU/MDU Simple",
    "target_eligibility_quarter": "NA"
   }
  },
  {
   "type": "Feature",
   "geometry": {
    "type": "Point",
    "coordinates": [
     145.3865258,
     -36.47555198
    ]
   },
   "properties": {
    "name": "6 MOIRA DRIVE KIALLA WEST 3631",
    "locID": "LOC000098123914",
    "tech": "WIRELESS",
    "upgrade": "NULL_NA",
    "gnaf_pid": "GAVIC421586084",
    "tech_change_status": "Not Planned",
    "program_type": "Fixed Wireless and Satellite Upgrade Program",
    "target_eligibility_quarter": "Jun 2025"
   }
  },
  {
   "type": "Feature",
   "geometry": {
    "type": "Point",
    "coordinates": [
     145.3877913,
     -36.47588458
    ]
   },
   "properties": {
    "name": "1 MOIRA DRIVE KIALLA WEST 3631",
    "locID": "LOC000059065916",
    "tech": "WIRELESS",
    "upgrade": "NULL_NA",
    "gnaf_pid": "GAVIC421586086",
    "tech_change_status": "Not Planned",
    "program_type": "Fixed Wireless and Satellite Upgrade Program",
    "target_eligibility_quarter": "Jun 2025"
   }
  },
  {
   "type": "Feature",
   "geometry": {
    "type": "Point",
    "coordinates": [
     145.39932593,
     -36.498954
    ]
   },
   "properties": {
    "name": "95 UNION ROAD KIALLA WEST 3631",
    "locID": "LOC000031070454",
    "tech": "WIRELESS",
    "upgrade": "NULL_NA",
    "gnaf_pid": "GAVIC421586088",
    "tech_change_status": "Not Planned",
    "program_type": "Fixed Wireless and Satellite Upgrade Program",
    "target_eligibility_quarter": "Jun 2025"
   }
  },
  {
   "type": "Feature",
   "geometry": {
    "type": "Point",
    "coordinates": [
     145.38821894,
     -36.4671106
    ]
   },
   "properties": {
    "name": "12 SERVICE ROAD KIALLA WEST 3631",
    "locID": "LOC000083595083",
    "tech": "FTTN",
    "upgrade": "FTTP",
    "gnaf_pid": "GAVIC421595503",
    "tech_change_status": "Eligible to Order",
    "program_type": "On-Demand N2P SDU/MDU Simple",
    "target_eligibility_quarter": "NA"
   }
  },
  {
   "type": "Feature",
   "geometry": {
    "type": "Point",
    "coordinates": [
     145.3862333,
     -36.4658419
    ]
   },
   "properties": {
    "name": "12 DEVINE ROAD KIALLA WEST 3631",
    "locID": "LOC000018563276",
    "tech": "FTTN",
    "upgrade": "FTTP",
    "gnaf_pid": "GAVIC421595505",
    "tech_change_status": "Eligible to Order",
    "program_type": "On-Demand N2P SDU/MDU Simple",
    "target_eligibility_quarter": "NA"
   }
  },
  {
   "type": "Feature",
   "geometry": {
    "type": "Point",
    "coordinates": [
     145.38487823,
     -36.46301025
    ]
   },
   "properties": {
    "name": "11 BENNETTS ROAD KIALLA WEST 3631",
    "locID": "LOC000027733315",
    "tech": "FTTN",
    "upgrade": "FTTP",
    "gnaf_pid": "GAVIC421595509",
    "tech_change_status": "Eligible to Order",
    "program_type": "On-Demand N2P SDU/MDU Simple",
    "target_eligibility_quarter": "NA"
   }
  },
  {
   "type": "Feature",
   "geometry": {
    "type": "Point",
    "coordinates": [
     145.38315753,
     -36.4630128
    ]
   },
   "properties": {
    "name": "17 BENNETTS ROAD KIALLA WEST 3631",
    "locID": "LOC000050341994",
    "tech": "FTTN",
    "upgrade": "FTTP",
    "gnaf_pid": "GAVIC421595513",
    "tech_change_status": "Eligible to Order",
    "program_type": "On-Demand N2P SDU/MDU Simple",
    "target_eligibility_quarter": "NA"
   }
  },
  {
   "type": "Feature",
   "geometry": {
    "type": "Point",
    "coordinates": [
     145.3882119,
     -36.46529865
    ]
   },
   "properties": {
    "name": "7 SERVICE ROAD KIALLA WEST 3631",
    "locID": "LOC000093886935",
    "tech": "FTTP",
    "upgrade": "FTTP_NA",
    "gnaf_pid": "GAVIC421600957",
    "tech_change_status": "Previous Tech Disconnected",
    "program_type": "On-Demand N2P SDU/MDU Simple",
    "target_eligibility_quarter": "NA"
   }
  },
  {
   "type": "Feature",
   "geometry": {
    "type": "Point",
    "coordinates": [
     145.38924401,
     -36.46611486
    ]
   },
   "properties": {
    "name": "7370 GOULBURN VALLEY HIGHWAY KIALLA WEST 3631",
    "locID": "LOC000092585145",
    "tech": "FTTN",
    "upgrade": "FTTP",
    "gnaf_pid": "GAVIC421775888",
    "tech_change_status": "Eligible to Order"
   }
  },
  {
   "type": "Feature",
   "geometry": {
    "type": "Point",
    "coordinates": [
     145.40520988,
     -36.49895171
    ]
   },
   "properties": {
    "name": "145 UNION ROAD KIALLA WEST 3631",
    "locID": "LOC000030024936",
    "tech": "WIRELESS",
    "upgrade": "NULL_NA",
    "gnaf_pid": "GAVIC421851945",
    "tech_change_status": "Not Planned",
    "program_type": "Fixed Wireless and Satellite Upgrade Program",
    "target_eligibility_quarter": "Jun 2025"
   }
  },
  {
   "type": "Feature",
   "geometry": {
    "type": "Point",
    "coordinates": [
     145.38282098,
     -36.46301311
    ]
   },
   "properties": {
    "name": "19 BENNETTS ROAD KIALLA WEST 3631",
    "locID": "LOC000003885601",
    "tech": "FTTN",
    "upgrade": "FTTP",
    "gnaf_pid": "GAVIC421856170",
    "tech_change_status": "Eligible to Order",
    "program_type": "On-Demand N2P SDU/MDU Simple",
    "target_eligibility_quarter": "NA"
   }
  },
  {
   "type": "Feature",
   "geometry": {
    "type": "Point",
    "coordinates": [
     145.38134338,
     -36.4630145
    ]
   },
   "properties": {
    "name": "31 BENNETTS ROAD KIALLA WEST 3631",
    "locID": "LOC000106305803",
    "tech": "FTTN",
    "upgrade": "FTTP",
    "gnaf_pid": "GAVIC421856171",
    "tech_change_status": "Eligible to Order",
    "program_type": "On-Demand N2P SDU/MDU Simple",
    "target_eligibility_quarter": "NA"
   }
  },
  {
   "type": "Feature",
   "geometry": {
    "type": "Point",
    "coordinates": [
     145.38665174,
     -36.46642188
    ]
   },
   "properties": {
    "name": "9 DEVINE ROAD KIALLA WEST 3631",
    "locID": "LOC000042306328",
    "tech": "FTTN",
    "upgrade": "FTTP",
    "gnaf_pid": "GAVIC421856706",
    "tech_change_status": "Eligible to Order",
    "program_type": "On-Demand N2P SDU/MDU Simple",
    "target_eligibility_quarter": "NA"
   }
  },
  {
   "type": "Feature",
   "geometry": {
    "type": "Point",
    "coordinates": [
     145.38821869,
     -36.46604691
    ]
   },
   "properties": {
    "name": "9 SERVICE ROAD KIALLA WEST 3631",
    "locID": "LOC000031982333",
    "tech": "FTTN",
    "upgrade": "FTTP",
    "gnaf_pid": "GAVIC421856709",
    "tech_change_status": "Eligible to Order",
    "program_type": "On-Demand N2P SDU/MDU Simple",
    "target_eligibility_quarter": "NA"
   }
  },
  {
   "type": "Feature",
   "geometry": {
    "type": "Point",
    "coordinates": [
     145.40131329,
     -36.49895364
    ]
   },
   "properties": {
    "name": "115 UNION ROAD KIALLA WEST 3631",
    "locID": "LOC000066181208",
    "tech": "WIRELESS",
    "upgrade": "NULL_NA",
    "gnaf_pid": "GAVIC421933508",
    "tech_change_status": "Not Planned",
    "program_type": "Fixed Wireless and Satellite Upgrade Program",
    "target_eligibility_quarter": "Jun 2025"
   }
  },
  {
   "type": "Feature",
   "geometry": {
    "type": "Point",
    "coordinates": [
     145.38923825,
     -36.47877063
    ]
   },
   "properties": {
    "name": "7240 GOULBURN VALLEY HIGHWAY KIALLA WEST 3631",
    "locID": "LOC000079282638",
    "tech": "WIRELESS",
    "upgrade": "NULL_NA",
    "gnaf_pid": "GAVIC421937183",
    "tech_change_status": "Not Planned",
    "program_type": "Fixed Wireless and Satellite Upgrade Program",
    "target_eligibility_quarter": "Jun 2025"
   }
  },
  {
   "type": "Feature",
   "geometry": {
    "type": "Point",
    "coordinates": [
     145.4050193,
     -36.4571234
    ]
   },
   "properties": {
    "name": "234 MITCHELL ROAD KIALLA WEST 3631",
    "locID": "LOC000085396838",
    "tech": "WIRELESS",
    "upgrade": "NULL_NA",
    "gnaf_pid": "GAVIC421940499",
    "tech_change_status": "Not Planned",
    "program_type": "Fixed Wireless and Satellite Upgrade Program",
    "target_eligibility_quarter": "Jun 2025"
   }
  },
  {
   "type": "Feature",
   "geometry": {
    "type": "Point",
    "coordinates": [
     145.40828898,
     -36.48871669
    ]
   },
   "properties": {
    "name": "110 ARCHER ROAD SOUTH KIALLA WEST 3631",
    "locID": "LOC000020460966",
    "tech": "WIRELESS",
    "upgrade": "NULL_NA",
    "gnaf_pid": "GAVIC422077027",
    "tech_change_status": "Not Planned",
    "program_type": "Fixed Wireless and Satellite Upgrade Program",
    "target_eligibility_quarter": "Jun 2025"
   }
  },
  {
   "type": "Feature",
   "geometry": {
    "type": "Point",
    "coordinates": [
     145.40829524,
     -36.49549545
    ]
   },
   "properties": {
    "name": "40 ARCHER ROAD SOUTH KIALLA WEST 3631",
    "locID": "LOC000075984930",
    "tech": "WIRELESS",
    "upgrade": "NULL_NA",
    "gnaf_pid": "GAVIC422077028",
    "tech_change_status": "Not Planned",
    "program_type": "Fixed Wireless and Satellite Upgrade Program",
    "target_eligibility_quarter": "Jun 2025"
   }
  },
  {
   "type": "Feature",
   "geometry": {
    "type": "Point",
    "coordinates": [
     145.40789629,
     -36.45771415
    ]
   },
   "properties": {
    "name": "860 ARCHER ROAD KIALLA WEST 3631",
    "locID": "LOC000031997526",
    "tech": "WIRELESS",
    "upgrade": "NULL_NA",
    "gnaf_pid": "GAVIC422123883",
    "tech_change_status": "Not Planned",
    "program_type": "Fixed Wireless and Satellite Upgrade Program",
    "target_eligibility_quarter": "Jun 2025"
   }
  },
  {
   "type": "Feature",
   "geometry": {
    "type": "Point",
    "coordinates": [
     145.40789505,
     -36.45932104
    ]
   },
   "properties": {
    "name": "880 ARCHER ROAD KIALLA WEST 3631",
    "locID": "LOC000125242769",
    "tech": "WIRELESS",
    "upgrade": "NULL_NA",
    "gnaf_pid": "GAVIC422123884",
    "tech_change_status": "Not Planned",
    "program_type": "Fixed Wireless and Satellite Upgrade Program",
    "target_eligibility_quarter": "Jun 2025"
   }
  },
  {
   "type": "Feature",
   "geometry": {
    "type": "Point",
    "coordinates": [
     145.40792255,
     -36.45999742
    ]
   },
   "properties": {
    "name": "890 ARCHER ROAD KIALLA WEST 3631",
    "locID": "LOC000001947495",
    "tech": "WIRELESS",
    "upgrade": "NULL_NA",
    "gnaf_pid": "GAVIC422123885",
    "tech_change_status": "Not Planned",
    "program_type": "Fixed Wireless and Satellite Upgrade Program",
    "target_eligibility_quarter": "Jun 2025"
   }
  },
  {
   "type": "Feature",
   "geometry": {
    "type": "Point",
    "coordinates": [
     145.3871774,
     -36.47588529
    ]
   },
   "properties": {
    "name": "3 MOIRA DRIVE KIALLA WEST 3631",
    "locID": "LOC000066810274",
    "tech": "SATELLITE",
    "upgrade": "WIRELESS",
    "gnaf_pid": "GAVIC422172429",
    "tech_change_status": "Eligible to Order",
    "program_type": "Fixed Wireless and Satellite Upgrade Program",
    "target_eligibility_quarter": "Jun 2025"
   }
  },
  {
   "type": "Feature",
   "geometry": {
    "type": "Point",
    "coordinates": [
     145.3836831,
     -36.46496723
    ]
   },
   "properties": {
    "name": "10 TUCKETT LANE KIALLA WEST 3631",
    "locID": "LOC000048782137",
    "tech": "FTTN",
    "upgrade": "FTTP",
    "gnaf_pid": "GAVIC422329958",
    "tech_change_status": "Eligible to Order",
    "program_type": "On-Demand N2P SDU/MDU Simple",
    "target_eligibility_quarter": "NA"
   }
  },
  {
   "type": "Feature",
   "geometry": {
    "type": "Point",
    "coordinates": [
     145.38408541,
     -36.46584495
    ]
   },
   "properties": {
    "name": "11 TUCKETT LANE KIALLA WEST 3631",
    "locID": "LOC000023496783",
    "tech": "FTTN",
    "upgrade": "FTTP",
    "gnaf_pid": "GAVIC422329959",
    "tech_change_status": "Eligible to Order",
    "program_type": "On-Demand N2P SDU/MDU Simple",
    "target_eligibility_quarter": "NA"
   }
  },
  {
   "type": "Feature",
   "geometry": {
    "type": "Point",
    "coordinates": [
     145.3836835,
     -36.46531656
    ]
   },
   "properties": {
    "name": "12 TUCKETT LANE KIALLA WEST 3631",
    "locID": "LOC000002840530",
    "tech": "FTTC",
    "upgrade": "FTTP_SA",
    "gnaf_pid": "GAVIC422329960",
    "tech_change_status": "Eligible to Order"
   }
  },
  {
   "type": "Feature",
   "geometry": {
    "type": "Point",
    "coordinates": [
     145.38456265,
     -36.46609785
    ]
   },
   "properties": {
    "name": "13 TUCKETT LANE KIALLA WEST 3631",
    "locID": "LOC000094279979",
    "tech": "FTTC",
    "upgrade": "FTTP_SA",
    "gnaf_pid": "GAVIC422329961",
    "tech_change_status": "Eligible to Order"
   }
  },
  {
   "type": "Feature",
   "geometry": {
    "type": "Point",
    "coordinates": [
     145.38368391,
     -36.4656659
    ]
   },
   "properties": {
    "name": "14 TUCKETT LANE KIALLA WEST 3631",
    "locID": "LOC000045255533",
    "tech": "FTTN",
    "upgrade": "FTTP",
    "gnaf_pid": "GAVIC422329962",
    "tech_change_status": "Eligible to Order",
    "program_type": "On-Demand N2P SDU/MDU Simple",
    "target_eligibility_quarter": "NA"
   }
  },
  {
   "type": "Feature",
   "geometry": {
    "type": "Point",
    "coordinates": [
     145.38368433,
     -36.46601605
    ]
   },
   "properties": {
    "name": "16 TUCKETT LANE KIALLA WEST 3631",
    "locID": "LOC000063734754",
    "tech": "FTTN",
    "upgrade": "FTTP",
    "gnaf_pid": "GAVIC422329963",
    "tech_change_status": "Eligible to Order",
    "program_type": "On-Demand N2P SDU/MDU Simple",
    "target_eligibility_quarter": "NA"
   }
  },
  {
   "type": "Feature",
   "geometry": {
    "type": "Point",
    "coordinates": [
     145.38408763,
     -36.46402698
    ]
   },
   "properties": {
    "name": "1 TUCKETT LANE KIALLA WEST 3631",
    "locID": "LOC000008469309",
    "tech": "FTTP",
    "upgrade": "NULL_NA",
    "gnaf_pid": "GAVIC422329964"
   }
  },
  {
   "type": "Feature",
   "geometry": {
    "type": "Point",
    "coordinates": [
     145.38368146,
     -36.46356934
    ]
   },
   "properties": {
    "name": "2 TUCKETT LANE KIALLA WEST 3631",
    "locID": "LOC000071837370",
    "tech": "FTTN",
    "upgrade": "FTTP",
    "gnaf_pid": "GAVIC422329965",
    "tech_change_status": "Eligible to Order",
    "program_type": "On-Demand N2P SDU/MDU Simple",
    "target_eligibility_quarter": "NA"
   }
  },
  {
   "type": "Feature",
   "geometry": {
    "type": "Point",
    "coordinates": [
     145.38408719,
     -36.4643896
    ]
   },
   "properties": {
    "name": "3 TUCKETT LANE KIALLA WEST 3631",
    "locID": "LOC000066141666",
    "tech": "FTTP",
    "upgrade": "NULL_NA",
    "gnaf_pid": "GAVIC422329966",
    "program_type": "On-Demand N2P SDU/MDU Simple",
    "target_eligibility_quarter": "NA"
   }
  },
  {
   "type": "Feature",
   "geometry": {
    "type": "Point",
    "coordinates": [
     145.38368188,
     -36.4639192
    ]
   },
   "properties": {
    "name": "4 TUCKETT LANE KIALLA WEST 3631",
    "locID": "LOC000014307942",
    "tech": "FTTN",
    "upgrade": "FTTP",
    "gnaf_pid": "GAVIC422329967",
    "tech_change_status": "Eligible to Order",
    "program_type": "On-Demand N2P SDU/MDU Simple",
    "target_eligibility_quarter": "NA"
   }
  },
  {
   "type": "Feature",
   "geometry": {
    "type": "Point",
    "coordinates": [
     145.38408674,
     -36.46475533
    ]
   },
   "properties": {
    "name": "5 TUCKETT LANE KIALLA WEST 3631",
    "locID": "LOC000087718804",
    "tech": "FTTN",
    "upgrade": "FTTP",
    "gnaf_pid": "GAVIC422329968",
    "tech_change_status": "Eligible to Order",
    "program_type": "On-Demand N2P SDU/MDU Simple",
    "target_eligibility_quarter": "NA"
   }
  },
  {
   "type": "Feature",
   "geometry": {
    "type": "Point",
    "coordinates": [
     145.38368228,
     -36.46426855
    ]
   },
   "properties": {
    "name": "6 TUCKETT LANE KIALLA WEST 3631",
    "locID": "LOC000053311335",
    "tech": "FTTP",
    "upgrade": "NULL_NA",
    "gnaf_pid": "GAVIC422329969"
   }
  },
  {
   "type": "Feature",
   "geometry": {
    "type": "Point",
    "coordinates": [
     145.3840863,
     -36.46511714
    ]
   },
   "properties": {
    "name": "7 TUCKETT LANE KIALLA WEST 3631",
    "locID": "LOC000048872216",
    "tech": "FTTC",
    "upgrade": "NULL_NA",
    "gnaf_pid": "GAVIC422329970",
    "tech_change_status": "Previous Tech Disconnected"
   }
  },
  {
   "type": "Feature",
   "geometry": {
    "type": "Point",
    "coordinates": [
     145.38368269,
     -36.46461789
    ]
   },
   "properties": {
    "name": "8 TUCKETT LANE KIALLA WEST 3631",
    "locID": "LOC000006933741",
    "tech": "FTTC",
    "upgrade": "FTTP_SA",
    "gnaf_pid": "GAVIC422329971",
    "tech_change_status": "Eligible to Order"
   }
  },
  {
   "type": "Feature",
   "geometry": {
    "type": "Point",
    "coordinates": [
     145.38408585,
     -36.46547975
    ]
   },
   "properties": {
    "name": "9 TUCKETT LANE KIALLA WEST 3631",
    "locID": "LOC000083355228",
    "tech": "FTTN",
    "upgrade": "NULL_NA",
    "gnaf_pid": "GAVIC422329972",
    "tech_change_status": "Not Planned"
   }
  },
  {
   "type": "Feature",
   "geometry": {
    "type": "Point",
    "coordinates": [
     145.38826278,
     -36.46183503
    ]
   },
   "properties": {
    "name": "7433 GOULBURN VALLEY HIGHWAY KIALLA WEST 3631",
    "locID": "LOC000114949887",
    "tech": "FTTN",
    "upgrade": "FTTP_SA",
    "gnaf_pid": "GAVIC423827862",
    "tech_change_status": "Eligible to Order",
    "program_type": "On-Demand N2P SDU/MDU Simple",
    "target_eligibility_quarter": "NA"
   }
  },
  {
   "type": "Feature",
   "geometry": {
    "type": "Point",
    "coordinates": [
     145.38821593,
     -36.46313785
    ]
   },
   "properties": {
    "name": "1 SERVICE ROAD KIALLA WEST 3631",
    "locID": "LOC000039963579",
    "tech": "FTTN",
    "upgrade": "FTTP_SA",
    "gnaf_pid": "GAVIC423836713",
    "tech_change_status": "Eligible to Order",
    "program_type": "On-Demand N2P SDU/MDU Simple",
    "target_eligibility_quarter": "NA"
   }
  },
  {
   "type": "Feature",
   "geometry": {
    "type": "Point",
    "coordinates": [
     145.38838297,
     -36.48365755
    ]
   },
   "properties": {
    "name": "7187 GOULBURN VALLEY HIGHWAY KIALLA WEST 3631",
    "locID": "LOC000095290854",
    "tech": "WIRELESS",
    "upgrade": "NULL_NA",
    "gnaf_pid": "GAVIC423852948",
    "tech_change_status": "Not Planned",
    "program_type": "Fixed Wireless and Satellite Upgrade Program",
    "target_eligibility_quarter": "Jun 2025"
   }
  },
  {
   "type": "Feature",
   "geometry": {
    "type": "Point",
    "coordinates": [
     145.3892165,
     -36.46845482
    ]
   },
   "properties": {
    "name": "7358 GOULBURN VALLEY HIGHWAY KIALLA WEST 3631",
    "locID": "LOC000079310945",
    "tech": "FTTP",
    "upgrade": "FTTP_NA",
    "gnaf_pid": "GAVIC424044416",
    "tech_change_status": "Previous Tech Disconnected",
    "program_type": "On-Demand N2P SDU/MDU Simple",
    "target_eligibility_quarter": "NA"
   }
  },
  {
   "type": "Feature",
   "geometry": {
    "type": "Point",
    "coordinates": [
     145.3862755,
     -36.46756231
    ]
   },
   "properties": {
    "name": "18A DEVINE ROAD KIALLA WEST 3631",
    "locID": "LOC000058032533",
    "tech": "FTTP",
    "upgrade": "NULL_NA",
    "gnaf_pid": "GAVIC424615486",
    "tech_change_status": "Previous Tech Disconnected",
    "program_type": "On-Demand N2P SDU/MDU Simple",
    "target_eligibility_quarter": "NA"
   }
  },
  {
   "type": "Feature",
   "geometry": {
    "type": "Point",
    "coordinates": [
     145.38165045,
     -36.46396859
    ]
   },
   "properties": {
    "name": "10 OAKLAND ROAD KIALLA WEST 3631",
    "locID": "LOC000125215847",
    "tech": "FTTN",
    "upgrade": "FTTP",
    "gnaf_pid": "GAVIC424676285",
    "tech_change_status": "Eligible to Order",
    "program_type": "On-Demand N2P SDU/MDU Simple",
    "target_eligibility_quarter": "NA"
   }
  },
  {
   "type": "Feature",
   "geometry": {
    "type": "Point",
    "coordinates": [
     145.38175854,
     -36.4635891
    ]
   },
   "properties": {
    "name": "11 OAKLAND ROAD KIALLA WEST 3631",
    "locID": "LOC000125220037",
    "tech": "FTTN",
    "upgrade": "FTTP",
    "gnaf_pid": "GAVIC424676286",
    "tech_change_status": "Eligible to Order",
    "program_type": "On-Demand N2P SDU/MDU Simple",
    "target_eligibility_quarter": "NA"
   }
  },
  {
   "type": "Feature",
   "geometry": {
    "type": "Point",
    "coordinates": [
     145.38234334,
     -36.46301355
    ]
   },
   "properties": {
    "name": "1 OAKLAND ROAD KIALLA WEST 3631",
    "locID": "LOC000125220037",
    "tech": "FTTN",
    "upgrade": "FTTP",
    "gnaf_pid": "GAVIC424676287",
    "tech_change_status": "Eligible to Order",
    "program_type": "On-Demand N2P SDU/MDU Simple",
    "target_eligibility_quarter": "NA"
   }
  },
  {
   "type": "Feature",
   "geometry": {
    "type": "Point",
    "coordinates": [
     145.38185264,
     -36.46475874
    ]
   },
   "properties": {
    "name": "3 OAKLAND ROAD KIALLA WEST 3631",
    "locID": "LOC000125220160",
    "tech": "FTTN",
    "upgrade": "FTTP",
    "gnaf_pid": "GAVIC424676289",
    "tech_change_status": "Eligible to Order",
    "program_type": "On-Demand N2P SDU/MDU Simple",
    "target_eligibility_quarter": "NA"
   }
  },
  {
   "type": "Feature",
   "geometry": {
    "type": "Point",
    "coordinates": [
     145.38184774,
     -36.4652565
    ]
   },
   "properties": {
    "name": "4 OAKLAND ROAD KIALLA WEST 3631",
    "locID": "LOC000125202937",
    "tech": "FTTP",
    "upgrade": "FTTP_NA",
    "gnaf_pid": "GAVIC424676290",
    "tech_change_status": "Previous Tech Disconnected",
    "program_type": "On-Demand N2P SDU/MDU Simple",
    "target_eligibility_quarter": "NA"
   }
  },
  {
   "type": "Feature",
   "geometry": {
    "type": "Point",
    "coordinates": [
     145.38198531,
     -36.46562306
    ]
   },
   "properties": {
    "name": "5 OAKLAND ROAD KIALLA WEST 3631",
    "locID": "LOC000125207486",
    "tech": "FTTN",
    "upgrade": "FTTP",
    "gnaf_pid": "GAVIC424676291",
    "tech_change_status": "Eligible to Order",
    "program_type": "On-Demand N2P SDU/MDU Simple",
    "target_eligibility_quarter": "NA"
   }
  },
  {
   "type": "Feature",
   "geometry": {
    "type": "Point",
    "coordinates": [
     145.38171058,
     -36.46577208
    ]
   },
   "properties": {
    "name": "6 OAKLAND ROAD KIALLA WEST 3631",
    "locID": "LOC000125220160",
    "tech": "FTTN",
    "upgrade": "FTTP",
    "gnaf_pid": "GAVIC424676292",
    "tech_change_status": "Eligible to Order",
    "program_type": "On-Demand N2P SDU/MDU Simple",
    "target_eligibility_quarter": "NA"
   }
  },
  {
   "type": "Feature",
   "geometry": {
    "type": "Point",
    "coordinates": [
     145.38150451,
     -36.46537985
    ]
   },
   "properties": {
    "name": "7 OAKLAND ROAD KIALLA WEST 3631",
    "locID": "LOC000125224861",
    "tech": "FTTP",
    "upgrade": "FTTP_NA",
    "gnaf_pid": "GAVIC424676293",
    "tech_change_status": "Previous Tech Disconnected",
    "program_type": "On-Demand N2P SDU/MDU Simple",
    "target_eligibility_quarter": "NA"
   }
  },
  {
   "type": "Feature",
   "geometry": {
    "type": "Point",
    "coordinates": [
     145.38150304,
     -36.4649166
    ]
   },
   "properties": {
    "name": "8 OAKLAND ROAD KIALLA WEST 3631",
    "locID": "LOC000125238400",
    "tech": "FTTP",
    "upgrade": "FTTP_NA",
    "gnaf_pid": "GAVIC424676294",
    "tech_change_status": "Previous Tech Disconnected",
    "program_type": "On-Demand N2P SDU/MDU Simple",
    "target_eligibility_quarter": "NA"
   }
  },
  {
   "type": "Feature",
   "geometry": {
    "type": "Point",
    "coordinates": [
     145.3815039,
     -36.46442656
    ]
   },
   "properties": {
    "name": "9 OAKLAND ROAD KIALLA WEST 3631",
    "locID": "LOC000125242898",
    "tech": "FTTN",
    "upgrade": "FTTP",
    "gnaf_pid": "GAVIC424676295",
    "tech_change_status": "Eligible to Order",
    "program_type": "On-Demand N2P SDU/MDU Simple",
    "target_eligibility_quarter": "NA"
   }
  },
  {
   "type": "Feature",
   "geometry": {
    "type": "Point",
    "coordinates": [
     145.38041089,
     -36.46301537
    ]
   },
   "properties": {
    "name": "35 BENNETTS ROAD KIALLA WEST 3631",
    "locID": "LOC000125194512",
    "tech": "FTTP",
    "upgrade": "FTTP_NA",
    "gnaf_pid": "GAVIC424907047",
    "tech_change_status": "Previous Tech Disconnected",
    "program_type": "On-Demand N2P SDU/MDU Simple",
    "target_eligibility_quarter": "NA"
   }
  },
  {
   "type": "Feature",
   "geometry": {
    "type": "Point",
    "coordinates": [
     145.38923387,
     -36.47068349
    ]
   },
   "properties": {
    "name": "7320A GOULBURN VALLEY HIGHWAY KIALLA WEST 3631",
    "locID": "LOC000140839736",
    "tech": "WIRELESS",
    "upgrade": "NULL_NA",
    "gnaf_pid": "GAVIC425400875",
    "tech_change_status": "Not Planned",
    "program_type": "Fixed Wireless and Satellite Upgrade Program",
    "target_eligibility_quarter": "Jun 2025"
   }
  },
  {
   "type": "Feature",
   "geometry": {
    "type": "Point",
    "coordinates": [
     145.39372861,
     -36.45712594
    ]
   },
   "properties": {
    "name": "132 MITCHELL ROAD KIALLA WEST 3631",
    "locID": "LOC000141060735",
    "tech": "WIRELESS",
    "upgrade": "NULL_NA",
    "gnaf_pid": "GAVIC425627565",
    "tech_change_status": "Not Planned",
    "program_type": "Fixed Wireless and Satellite Upgrade Program",
    "target_eligibility_quarter": "Jun 2025"
   }
  },
  {
   "type": "Feature",
   "geometry": {
    "type": "Point",
    "coordinates": [
     145.38717495,
     -36.46269974
    ]
   },
   "properties": {
    "name": "10 BENNETTS ROAD KIALLA WEST 3631",
    "locID": "LOC000188112573",
    "tech": "FTTN",
    "upgrade": "FTTP_SA",
    "gnaf_pid": "GAVIC425730097",
    "tech_change_status": "Eligible to Order",
    "program_type": "On-Demand N2P SDU/MDU Simple",
    "target_eligibility_quarter": "NA"
   }
  },
  {
   "type": "Feature",
   "geometry": {
    "type": "Point",
    "coordinates": [
     145.39220695,
     -36.45713587
    ]
   },
   "properties": {
    "name": "128 MITCHELL ROAD KIALLA WEST 3631",
    "locID": "LOC100086286742",
    "tech": "WIRELESS",
    "upgrade": "NULL_NA",
    "gnaf_pid": "GAVIC719098712",
    "tech_change_status": "Not Planned",
    "program_type": "Fixed Wireless and Satellite Upgrade Program",
    "target_eligibility_quarter": "Jun 2025"
   }
  },
  {
   "type": "Feature",
   "geometry": {
    "type": "Point",
    "coordinates": [
     145.38923146,
     -36.47080022
    ]
   },
   "properties": {
    "name": "7320C GOULBURN VALLEY HIGHWAY KIALLA WEST 3631",
    "locID": "LOC000181827357",
    "tech": "WIRELESS",
    "upgrade": "NULL_NA",
    "gnaf_pid": "GAVIC720124288",
    "tech_change_status": "Not Planned",
    "program_type": "Fixed Wireless and Satellite Upgrade Program",
    "target_eligibility_quarter": "Jun 2025"
   }
  },
  {
   "type": "Feature",
   "geometry": {
    "type": "Point",
    "coordinates": [
     145.3892328,
     -36.47073521
    ]
   },
   "properties": {
    "name": "7320B GOULBURN VALLEY HIGHWAY KIALLA WEST 3631",
    "locID": "LOC000056448613",
    "tech": "WIRELESS",
    "upgrade": "NULL_NA",
    "gnaf_pid": "GAVIC720139729",
    "tech_change_status": "Not Planned",
    "program_type": "Fixed Wireless and Satellite Upgrade Program",
    "target_eligibility_quarter": "Jun 2025"
   }
  },
  {
   "type": "Feature",
   "geometry": {
    "type": "Point",
    "coordinates": [
     145.39183729,
     -36.4571288
    ]
   },
   "properties": {
    "name": "108 MITCHELL ROAD KIALLA WEST 3631",
    "locID": "LOC100087017386",
    "tech": "WIRELESS",
    "upgrade": "NULL_NA",
    "gnaf_pid": "GAVIC720657830",
    "tech_change_status": "Not Planned",
    "program_type": "Fixed Wireless and Satellite Upgrade Program",
    "target_eligibility_quarter": "Jun 2025"
   }
  }
 ]
}