{
 "type": "FeatureCollection",
 "generated": "2024-11-16T03:41:45.469670",
 "suburb": "MAINTONGOON",
 "features": [
  {
   "type": "Feature",
   "geometry": {
    "type": "Point",
    "coordinates": [
     145.8488983,
     -37.11569621
    ]
   },
   "properties": {
    "name": "222 SONNBERG DRIVE MAINTONGOON 3714",
    "locID": "LOC000007733405",
    "tech": "NULL",
    "upgrade": "NULL_NA",
    "gnaf_pid": "GAVIC419639001",
    "tech_change_status": "Not Planned"
   }
  },
  {
   "type": "Feature",
   "geometry": {
    "type": "Point",
    "coordinates": [
     145.81497824,
     -37.11906664
    ]
   },
   "properties": {
    "name": "1850 MAINTONGOON ROAD MAINTONGOON 3714",
    "locID": "LOC000085408749",
    "tech": "NULL",
    "upgrade": "NULL_NA",
    "gnaf_pid": "GAVIC419639139",
    "tech_change_status": "Not Planned"
   }
  },
  {
   "type": "Feature",
   "geometry": {
    "type": "Point",
    "coordinates": [
     145.7630673,
     -37.13767234
    ]
   },
   "properties": {
    "name": "810 MAINTONGOON ROAD MAINTONGOON 3714",
    "locID": "LOC000062444023",
    "tech": "SATELLITE",
    "upgrade": "NULL_NA",
    "gnaf_pid": "GAVIC419649628",
    "tech_change_status": "Not Planned"
   }
  },
  {
   "type": "Feature",
   "geometry": {
    "type": "Point",
    "coordinates": [
     145.73500819,
     -37.13377975
    ]
   },
   "properties": {
    "name": "255 JOHNSONS CREEK ROAD MAINTONGOON 3714",
    "locID": "LOC000104810869",
    "tech": "WIRELESS",
    "upgrade": "NULL_NA",
    "gnaf_pid": "GAVIC419653625",
    "tech_change_status": "Not Planned",
    "program_type": "Fixed Wireless and Satellite Upgrade Program",
    "target_eligibility_quarter": "Dec 2024"
   }
  },
  {
   "type": "Feature",
   "geometry": {
    "type": "Point",
    "coordinates": [
     145.81689037,
     -37.10825055
    ]
   },
   "properties": {
    "name": "2019 MAINTONGOON ROAD MAINTONGOON 3714",
    "locID": "LOC100078866734",
    "tech": "NULL",
    "upgrade": "NULL_NA",
    "gnaf_pid": "GAVIC419670405",
    "tech_change_status": "Not Planned"
   }
  },
  {
   "type": "Feature",
   "geometry": {
    "type": "Point",
    "coordinates": [
     145.8223375,
     -37.10539403
    ]
   },
   "properties": {
    "name": "2052 MAINTONGOON ROAD MAINTONGOON 3714",
    "locID": "LOC000058429626",
    "tech": "WIRELESS",
    "upgrade": "NULL_NA",
    "gnaf_pid": "GAVIC419773394",
    "tech_change_status": "Not Planned",
    "program_type": "Fixed Wireless and Satellite Upgrade Program",
    "target_eligibility_quarter": "Dec 2024"
   }
  },
  {
   "type": "Feature",
   "geometry": {
    "type": "Point",
    "coordinates": [
     145.84079524,
     -37.11342691
    ]
   },
   "properties": {
    "name": "176 SONNBERG DRIVE MAINTONGOON 3714",
    "locID": "LOC000021975763",
    "tech": "SATELLITE",
    "upgrade": "NULL_NA",
    "gnaf_pid": "GAVIC419939625",
    "tech_change_status": "Not Planned"
   }
  },
  {
   "type": "Feature",
   "geometry": {
    "type": "Point",
    "coordinates": [
     145.80797013,
     -37.13458106
    ]
   },
   "properties": {
    "name": "1610 MAINTONGOON ROAD MAINTONGOON 3714",
    "locID": "LOC100078866799",
    "tech": "NULL",
    "upgrade": "NULL_NA",
    "gnaf_pid": "GAVIC419943011",
    "tech_change_status": "Not Planned"
   }
  },
  {
   "type": "Feature",
   "geometry": {
    "type": "Point",
    "coordinates": [
     145.81676073,
     -37.12169841
    ]
   },
   "properties": {
    "name": "1814 MAINTONGOON ROAD MAINTONGOON 3714",
    "locID": "LOC000058469570",
    "tech": "WIRELESS",
    "upgrade": "NULL_NA",
    "gnaf_pid": "GAVIC419946880",
    "tech_change_status": "Not Planned"
   }
  },
  {
   "type": "Feature",
   "geometry": {
    "type": "Point",
    "coordinates": [
     145.76662624,
     -37.13461769
    ]
   },
   "properties": {
    "name": "860 MAINTONGOON ROAD MAINTONGOON 3714",
    "locID": "LOC000083348964",
    "tech": "NULL",
    "upgrade": "NULL_NA",
    "gnaf_pid": "GAVIC419946893",
    "tech_change_status": "Not Planned"
   }
  },
  {
   "type": "Feature",
   "geometry": {
    "type": "Point",
    "coordinates": [
     145.75851199,
     -37.14015755
    ]
   },
   "properties": {
    "name": "763 MAINTONGOON ROAD MAINTONGOON 3714",
    "locID": "LOC000100354871",
    "tech": "WIRELESS",
    "upgrade": "NULL_NA",
    "gnaf_pid": "GAVIC420026149",
    "tech_change_status": "Not Planned"
   }
  },
  {
   "type": "Feature",
   "geometry": {
    "type": "Point",
    "coordinates": [
     145.80214143,
     -37.10510155
    ]
   },
   "properties": {
    "name": "23 CLARRIES TRACK MAINTONGOON 3714",
    "locID": "LOC100078661344",
    "tech": "NULL",
    "upgrade": "NULL_NA",
    "gnaf_pid": "GAVIC420252104",
    "tech_change_status": "Not Planned"
   }
  },
  {
   "type": "Feature",
   "geometry": {
    "type": "Point",
    "coordinates": [
     145.75108278,
     -37.14347763
    ]
   },
   "properties": {
    "name": "688 MAINTONGOON ROAD MAINTONGOON 3714",
    "locID": "LOC000077091543",
    "tech": "SATELLITE",
    "upgrade": "NULL_NA",
    "gnaf_pid": "GAVIC420253154",
    "tech_change_status": "Not Planned"
   }
  },
  {
   "type": "Feature",
   "geometry": {
    "type": "Point",
    "coordinates": [
     145.77143028,
     -37.12875468
    ]
   },
   "properties": {
    "name": "939 MAINTONGOON ROAD MAINTONGOON 3714",
    "locID": "LOC000020516039",
    "tech": "NULL",
    "upgrade": "NULL_NA",
    "gnaf_pid": "GAVIC420255480",
    "tech_change_status": "Not Planned"
   }
  },
  {
   "type": "Feature",
   "geometry": {
    "type": "Point",
    "coordinates": [
     145.76069613,
     -37.13878329
    ]
   },
   "properties": {
    "name": "791 MAINTONGOON ROAD MAINTONGOON 3714",
    "locID": "LOC000081325607",
    "tech": "SATELLITE",
    "upgrade": "FW_NA",
    "gnaf_pid": "GAVIC420255481",
    "tech_change_status": "Build Finalised"
   }
  },
  {
   "type": "Feature",
   "geometry": {
    "type": "Point",
    "coordinates": [
     145.8229832,
     -37.12838545
    ]
   },
   "properties": {
    "name": "1748 MAINTONGOON ROAD MAINTONGOON 3714",
    "locID": "LOC000010281664",
    "tech": "NULL",
    "upgrade": "NULL_NA",
    "gnaf_pid": "GAVIC420259997",
    "tech_change_status": "Not Planned"
   }
  },
  {
   "type": "Feature",
   "geometry": {
    "type": "Point",
    "coordinates": [
     145.81774381,
     -37.1098732
    ]
   },
   "properties": {
    "name": "1966 MAINTONGOON ROAD MAINTONGOON 3714",
    "locID": "LOC000094648235",
    "tech": "SATELLITE",
    "upgrade": "NULL_NA",
    "gnaf_pid": "GAVIC420386266",
    "tech_change_status": "Not Planned"
   }
  },
  {
   "type": "Feature",
   "geometry": {
    "type": "Point",
    "coordinates": [
     145.81572993,
     -37.11633398
    ]
   },
   "properties": {
    "name": "1900 MAINTONGOON ROAD MAINTONGOON 3714",
    "locID": "LOC000048797538",
    "tech": "WIRELESS",
    "upgrade": "NULL_NA",
    "gnaf_pid": "GAVIC420534231",
    "tech_change_status": "Not Planned"
   }
  },
  {
   "type": "Feature",
   "geometry": {
    "type": "Point",
    "coordinates": [
     145.80020325,
     -37.10597431
    ]
   },
   "properties": {
    "name": "39 CLARRIES TRACK MAINTONGOON 3714",
    "locID": "LOC000049077842",
    "tech": "NULL",
    "upgrade": "NULL_NA",
    "gnaf_pid": "GAVIC420543468",
    "tech_change_status": "Not Planned"
   }
  },
  {
   "type": "Feature",
   "geometry": {
    "type": "Point",
    "coordinates": [
     145.81579829,
     -37.11194498
    ]
   },
   "properties": {
    "name": "1956 MAINTONGOON ROAD MAINTONGOON 3714",
    "locID": "LOC100078661363",
    "tech": "NULL",
    "upgrade": "NULL_NA",
    "gnaf_pid": "GAVIC420543470",
    "tech_change_status": "Not Planned"
   }
  },
  {
   "type": "Feature",
   "geometry": {
    "type": "Point",
    "coordinates": [
     145.81572979,
     -37.11634299
    ]
   },
   "properties": {
    "name": "1920 MAINTONGOON ROAD MAINTONGOON 3714",
    "locID": "LOC000045469531",
    "tech": "NULL",
    "upgrade": "NULL_NA",
    "gnaf_pid": "GAVIC420545126",
    "tech_change_status": "Not Planned"
   }
  },
  {
   "type": "Feature",
   "geometry": {
    "type": "Point",
    "coordinates": [
     145.73038666,
     -37.1392336
    ]
   },
   "properties": {
    "name": "197 JOHNSONS CREEK ROAD MAINTONGOON 3714",
    "locID": "LOC000042320090",
    "tech": "WIRELESS",
    "upgrade": "NULL_NA",
    "gnaf_pid": "GAVIC420555579",
    "tech_change_status": "Not Planned",
    "program_type": "Fixed Wireless and Satellite Upgrade Program",
    "target_eligibility_quarter": "Dec 2024"
   }
  },
  {
   "type": "Feature",
   "geometry": {
    "type": "Point",
    "coordinates": [
     145.7800606,
     -37.12479668
    ]
   },
   "properties": {
    "name": "1039 MAINTONGOON ROAD MAINTONGOON 3714",
    "locID": "LOC000107015212",
    "tech": "SATELLITE",
    "upgrade": "NULL_NA",
    "gnaf_pid": "GAVIC420560116",
    "tech_change_status": "Not Planned"
   }
  },
  {
   "type": "Feature",
   "geometry": {
    "type": "Point",
    "coordinates": [
     145.76837775,
     -37.13025533
    ]
   },
   "properties": {
    "name": "909 MAINTONGOON ROAD MAINTONGOON 3714",
    "locID": "LOC000033660298",
    "tech": "SATELLITE",
    "upgrade": "NULL_NA",
    "gnaf_pid": "GAVIC420560117",
    "tech_change_status": "Not Planned"
   }
  },
  {
   "type": "Feature",
   "geometry": {
    "type": "Point",
    "coordinates": [
     145.81282001,
     -37.12969024
    ]
   },
   "properties": {
    "name": "1742 MAINTONGOON ROAD MAINTONGOON 3714",
    "locID": "LOC000104317826",
    "tech": "WIRELESS",
    "upgrade": "NULL_NA",
    "gnaf_pid": "GAVIC420560118",
    "tech_change_status": "Not Planned",
    "program_type": "Fixed Wireless and Satellite Upgrade Program",
    "target_eligibility_quarter": "Dec 2024"
   }
  },
  {
   "type": "Feature",
   "geometry": {
    "type": "Point",
    "coordinates": [
     145.73940019,
     -37.13233929
    ]
   },
   "properties": {
    "name": "291 JOHNSONS CREEK ROAD MAINTONGOON 3714",
    "locID": "LOC000080312568",
    "tech": "NULL",
    "upgrade": "NULL_NA",
    "gnaf_pid": "GAVIC420628698",
    "tech_change_status": "Not Planned"
   }
  },
  {
   "type": "Feature",
   "geometry": {
    "type": "Point",
    "coordinates": [
     145.83120003,
     -37.13137819
    ]
   },
   "properties": {
    "name": "1750 MAINTONGOON ROAD MAINTONGOON 3714",
    "locID": "LOC000050215039",
    "tech": "NULL",
    "upgrade": "NULL_NA",
    "gnaf_pid": "GAVIC420836581",
    "tech_change_status": "Not Planned"
   }
  },
  {
   "type": "Feature",
   "geometry": {
    "type": "Point",
    "coordinates": [
     145.76257885,
     -37.13793765
    ]
   },
   "properties": {
    "name": "726 MAINTONGOON ROAD MAINTONGOON 3714",
    "locID": "LOC000070127901",
    "tech": "SATELLITE",
    "upgrade": "NULL_NA",
    "gnaf_pid": "GAVIC420853838",
    "tech_change_status": "Not Planned"
   }
  },
  {
   "type": "Feature",
   "geometry": {
    "type": "Point",
    "coordinates": [
     145.7492192,
     -37.14382753
    ]
   },
   "properties": {
    "name": "671 MAINTONGOON ROAD MAINTONGOON 3714",
    "locID": "LOC000014226311",
    "tech": "SATELLITE",
    "upgrade": "NULL_NA",
    "gnaf_pid": "GAVIC420856535",
    "tech_change_status": "Not Planned"
   }
  },
  {
   "type": "Feature",
   "geometry": {
    "type": "Point",
    "coordinates": [
     145.80679026,
     -37.13658825
    ]
   },
   "properties": {
    "name": "1810 SKYLINE ROAD MAINTONGOON 3714",
    "locID": "LOC000093089879",
    "tech": "NULL",
    "upgrade": "NULL_NA",
    "gnaf_pid": "GAVIC420861000",
    "tech_change_status": "Not Planned"
   }
  },
  {
   "type": "Feature",
   "geometry": {
    "type": "Point",
    "coordinates": [
     145.73549965,
     -37.14956783
    ]
   },
   "properties": {
    "name": "530 MAINTONGOON ROAD MAINTONGOON 3714",
    "locID": "LOC000060612147",
    "tech": "SATELLITE",
    "upgrade": "NULL_NA",
    "gnaf_pid": "GAVIC420864930",
    "tech_change_status": "Not Planned"
   }
  },
  {
   "type": "Feature",
   "geometry": {
    "type": "Point",
    "coordinates": [
     145.80853512,
     -37.15000496
    ]
   },
   "properties": {
    "name": "1665 SKYLINE ROAD MAINTONGOON 3714",
    "locID": "LOC000102535749",
    "tech": "WIRELESS",
    "upgrade": "NULL_NA",
    "gnaf_pid": "GAVIC420927213",
    "tech_change_status": "Not Planned"
   }
  },
  {
   "type": "Feature",
   "geometry": {
    "type": "Point",
    "coordinates": [
     145.8160762,
     -37.12662209
    ]
   },
   "properties": {
    "name": "1754 MAINTONGOON ROAD MAINTONGOON 3714",
    "locID": "LOC000066911328",
    "tech": "WIRELESS",
    "upgrade": "NULL_NA",
    "gnaf_pid": "GAVIC421136502",
    "tech_change_status": "Not Planned",
    "program_type": "Fixed Wireless and Satellite Upgrade Program",
    "target_eligibility_quarter": "Dec 2024"
   }
  },
  {
   "type": "Feature",
   "geometry": {
    "type": "Point",
    "coordinates": [
     145.81696666,
     -37.12437755
    ]
   },
   "properties": {
    "name": "1786 MAINTONGOON ROAD MAINTONGOON 3714",
    "locID": "LOC000067594730",
    "tech": "SATELLITE",
    "upgrade": "NULL_NA",
    "gnaf_pid": "GAVIC421136503",
    "tech_change_status": "Not Planned"
   }
  },
  {
   "type": "Feature",
   "geometry": {
    "type": "Point",
    "coordinates": [
     145.80376005,
     -37.10379289
    ]
   },
   "properties": {
    "name": "8 CLARRIES TRACK MAINTONGOON 3714",
    "locID": "LOC000050665850",
    "tech": "SATELLITE",
    "upgrade": "NULL_NA",
    "gnaf_pid": "GAVIC421141937",
    "tech_change_status": "Not Planned"
   }
  },
  {
   "type": "Feature",
   "geometry": {
    "type": "Point",
    "coordinates": [
     145.7441517,
     -37.14523415
    ]
   },
   "properties": {
    "name": "623 MAINTONGOON ROAD MAINTONGOON 3714",
    "locID": "LOC000003918052",
    "tech": "NULL",
    "upgrade": "NULL_NA",
    "gnaf_pid": "GAVIC421157281",
    "tech_change_status": "Not Planned"
   }
  },
  {
   "type": "Feature",
   "geometry": {
    "type": "Point",
    "coordinates": [
     145.75095108,
     -37.14532403
    ]
   },
   "properties": {
    "name": "21 NEWMANS ROAD MAINTONGOON 3714",
    "locID": "LOC000058370775",
    "tech": "SATELLITE",
    "upgrade": "FW_NA",
    "gnaf_pid": "GAVIC421160535",
    "tech_change_status": "Build Finalised"
   }
  },
  {
   "type": "Feature",
   "geometry": {
    "type": "Point",
    "coordinates": [
     145.8368606,
     -37.11017948
    ]
   },
   "properties": {
    "name": "160 SONNBERG DRIVE MAINTONGOON 3714",
    "locID": "LOC000007672375",
    "tech": "NULL",
    "upgrade": "NULL_NA",
    "gnaf_pid": "GAVIC421431565",
    "tech_change_status": "Not Planned"
   }
  },
  {
   "type": "Feature",
   "geometry": {
    "type": "Point",
    "coordinates": [
     145.73446203,
     -37.13525997
    ]
   },
   "properties": {
    "name": "250 JOHNSONS CREEK ROAD MAINTONGOON 3714",
    "locID": "LOC000056048072",
    "tech": "WIRELESS",
    "upgrade": "NULL_NA",
    "gnaf_pid": "GAVIC421436672",
    "tech_change_status": "Not Planned",
    "program_type": "Fixed Wireless and Satellite Upgrade Program",
    "target_eligibility_quarter": "Dec 2024"
   }
  },
  {
   "type": "Feature",
   "geometry": {
    "type": "Point",
    "coordinates": [
     145.72409866,
     -37.15726941
    ]
   },
   "properties": {
    "name": "399 MAINTONGOON ROAD MAINTONGOON 3714",
    "locID": "LOC000045590851",
    "tech": "WIRELESS",
    "upgrade": "NULL_NA",
    "gnaf_pid": "GAVIC421450262",
    "tech_change_status": "Not Planned",
    "program_type": "Fixed Wireless and Satellite Upgrade Program",
    "target_eligibility_quarter": "Dec 2024"
   }
  },
  {
   "type": "Feature",
   "geometry": {
    "type": "Point",
    "coordinates": [
     145.8155257,
     -37.1171612
    ]
   },
   "properties": {
    "name": "1874 MAINTONGOON ROAD MAINTONGOON 3714",
    "locID": "LOC000100947412",
    "tech": "SATELLITE",
    "upgrade": "NULL_NA",
    "gnaf_pid": "GAVIC421450847",
    "tech_change_status": "Not Planned"
   }
  },
  {
   "type": "Feature",
   "geometry": {
    "type": "Point",
    "coordinates": [
     145.76821185,
     -37.13146143
    ]
   },
   "properties": {
    "name": "894 MAINTONGOON ROAD MAINTONGOON 3714",
    "locID": "LOC000100015332",
    "tech": "NULL",
    "upgrade": "NULL_NA",
    "gnaf_pid": "GAVIC421455581",
    "tech_change_status": "Not Planned"
   }
  },
  {
   "type": "Feature",
   "geometry": {
    "type": "Point",
    "coordinates": [
     145.80587735,
     -37.13665118
    ]
   },
   "properties": {
    "name": "1799 SKYLINE ROAD MAINTONGOON 3714",
    "locID": "LOC000003604640",
    "tech": "NULL",
    "upgrade": "NULL_NA",
    "gnaf_pid": "GAVIC421455583",
    "tech_change_status": "Not Planned"
   }
  },
  {
   "type": "Feature",
   "geometry": {
    "type": "Point",
    "coordinates": [
     145.80699228,
     -37.1402138
    ]
   },
   "properties": {
    "name": "1770 SKYLINE ROAD MAINTONGOON 3714",
    "locID": "LOC000082063991",
    "tech": "SATELLITE",
    "upgrade": "NULL_NA",
    "gnaf_pid": "GAVIC421479857",
    "tech_change_status": "Not Planned"
   }
  },
  {
   "type": "Feature",
   "geometry": {
    "type": "Point",
    "coordinates": [
     145.80799546,
     -37.13440105
    ]
   },
   "properties": {
    "name": "1612 MAINTONGOON ROAD MAINTONGOON 3714",
    "locID": "LOC100078147157",
    "tech": "NULL",
    "upgrade": "NULL_NA",
    "gnaf_pid": "GAVIC421737832",
    "tech_change_status": "Not Planned"
   }
  },
  {
   "type": "Feature",
   "geometry": {
    "type": "Point",
    "coordinates": [
     145.8088315,
     -37.13277798
    ]
   },
   "properties": {
    "name": "1626 MAINTONGOON ROAD MAINTONGOON 3714",
    "locID": "LOC000029304035",
    "tech": "NULL",
    "upgrade": "NULL_NA",
    "gnaf_pid": "GAVIC421737833",
    "tech_change_status": "Not Planned"
   }
  },
  {
   "type": "Feature",
   "geometry": {
    "type": "Point",
    "coordinates": [
     145.83134036,
     -37.13103705
    ]
   },
   "properties": {
    "name": "1752 MAINTONGOON ROAD MAINTONGOON 3714",
    "locID": "LOC000054832028",
    "tech": "NULL",
    "upgrade": "NULL_NA",
    "gnaf_pid": "GAVIC421737834",
    "tech_change_status": "Not Planned"
   }
  },
  {
   "type": "Feature",
   "geometry": {
    "type": "Point",
    "coordinates": [
     145.79715405,
     -37.10735858
    ]
   },
   "properties": {
    "name": "49 CLARRIES TRACK MAINTONGOON 3714",
    "locID": "LOC000051371929",
    "tech": "NULL",
    "upgrade": "NULL_NA",
    "gnaf_pid": "GAVIC421740371",
    "tech_change_status": "Not Planned"
   }
  },
  {
   "type": "Feature",
   "geometry": {
    "type": "Point",
    "coordinates": [
     145.73775398,
     -37.14807758
    ]
   },
   "properties": {
    "name": "555 MAINTONGOON ROAD MAINTONGOON 3714",
    "locID": "LOC000095303994",
    "tech": "NULL",
    "upgrade": "NULL_NA",
    "gnaf_pid": "GAVIC421766660",
    "tech_change_status": "Not Planned"
   }
  },
  {
   "type": "Feature",
   "geometry": {
    "type": "Point",
    "coordinates": [
     145.81344595,
     -37.1076219
    ]
   },
   "properties": {
    "name": "49 MAINTONGOON PARK ROAD MAINTONGOON 3714",
    "locID": "LOC000040878926",
    "tech": "NULL",
    "upgrade": "NULL_NA",
    "gnaf_pid": "GAVIC423376238",
    "tech_change_status": "Not Planned"
   }
  },
  {
   "type": "Feature",
   "geometry": {
    "type": "Point",
    "coordinates": [
     145.72536715,
     -37.1361141
    ]
   },
   "properties": {
    "name": "51 STEVENSONS LANE MAINTONGOON 3714",
    "locID": "LOC000005207775",
    "tech": "SATELLITE",
    "upgrade": "NULL_NA",
    "gnaf_pid": "GAVIC423759089",
    "tech_change_status": "Not Planned"
   }
  },
  {
   "type": "Feature",
   "geometry": {
    "type": "Point",
    "coordinates": [
     145.80607738,
     -37.1439813
    ]
   },
   "properties": {
    "name": "1725 SKYLINE ROAD MAINTONGOON 3714",
    "locID": "LOC000125080412",
    "tech": "NULL",
    "upgrade": "NULL_NA",
    "gnaf_pid": "GAVIC423976695",
    "tech_change_status": "Not Planned"
   }
  },
  {
   "type": "Feature",
   "geometry": {
    "type": "Point",
    "coordinates": [
     145.8322719,
     -37.10639057
    ]
   },
   "properties": {
    "name": "62 SONNBERG DRIVE MAINTONGOON 3714",
    "locID": "LOC000047600186",
    "tech": "WIRELESS",
    "upgrade": "NULL_NA",
    "gnaf_pid": "GAVIC423976784",
    "tech_change_status": "Not Planned"
   }
  },
  {
   "type": "Feature",
   "geometry": {
    "type": "Point",
    "coordinates": [
     145.7417458,
     -37.14584837
    ]
   },
   "properties": {
    "name": "601 MAINTONGOON ROAD MAINTONGOON 3714",
    "locID": "LOC000096961304",
    "tech": "NULL",
    "upgrade": "NULL_NA",
    "gnaf_pid": "GAVIC424071685",
    "tech_change_status": "Not Planned"
   }
  },
  {
   "type": "Feature",
   "geometry": {
    "type": "Point",
    "coordinates": [
     145.81886525,
     -37.10773181
    ]
   },
   "properties": {
    "name": "2020 MAINTONGOON ROAD MAINTONGOON 3714",
    "locID": "LOC000125102284",
    "tech": "NULL",
    "upgrade": "NULL_NA",
    "gnaf_pid": "GAVIC424584867",
    "tech_change_status": "Not Planned"
   }
  },
  {
   "type": "Feature",
   "geometry": {
    "type": "Point",
    "coordinates": [
     145.80896299,
     -37.14880562
    ]
   },
   "properties": {
    "name": "1685 SKYLINE ROAD MAINTONGOON 3714",
    "locID": "LOC000150271977",
    "tech": "NULL",
    "upgrade": "NULL_NA",
    "gnaf_pid": "GAVIC425470655",
    "tech_change_status": "Not Planned"
   }
  },
  {
   "type": "Feature",
   "geometry": {
    "type": "Point",
    "coordinates": [
     145.7183865,
     -37.16142613
    ]
   },
   "properties": {
    "name": "310 MAINTONGOON ROAD MAINTONGOON 3714",
    "locID": "LOC000021840200",
    "tech": "WIRELESS",
    "upgrade": "NULL_NA",
    "gnaf_pid": "GAVIC721414943",
    "tech_change_status": "Not Planned",
    "program_type": "Fixed Wireless and Satellite Upgrade Program",
    "target_eligibility_quarter": "Dec 2024"
   }
  }
 ]
}