{
 "type": "FeatureCollection",
 "generated": "2024-11-16T05:41:13.064731",
 "suburb": "MIA MIA",
 "features": [
  {
   "type": "Feature",
   "geometry": {
    "type": "Point",
    "coordinates": [
     144.56841863,
     -36.94237073
    ]
   },
   "properties": {
    "name": "1431 MIA MIA-DERRINAL ROAD MIA MIA 3444",
    "locID": "LOC000036759606",
    "tech": "WIRELESS",
    "upgrade": "NULL_NA",
    "gnaf_pid": "GAVIC411819750",
    "tech_change_status": "Not Planned"
   }
  },
  {
   "type": "Feature",
   "geometry": {
    "type": "Point",
    "coordinates": [
     144.55961204,
     -37.02472485
    ]
   },
   "properties": {
    "name": "150 STONE JUG LANE MIA MIA 3444",
    "locID": "LOC000077174425",
    "tech": "WIRELESS",
    "upgrade": "NULL_NA",
    "gnaf_pid": "GAVIC414348778",
    "tech_change_status": "Not Planned",
    "program_type": "Fixed Wireless and Satellite Upgrade Program",
    "target_eligibility_quarter": "NA"
   }
  },
  {
   "type": "Feature",
   "geometry": {
    "type": "Point",
    "coordinates": [
     144.57544141,
     -36.99879706
    ]
   },
   "properties": {
    "name": "45 WESTBLADE ROAD MIA MIA 3444",
    "locID": "LOC000033614627",
    "tech": "SATELLITE",
    "upgrade": "NULL_NA",
    "gnaf_pid": "GAVIC419664867",
    "tech_change_status": "Not Planned"
   }
  },
  {
   "type": "Feature",
   "geometry": {
    "type": "Point",
    "coordinates": [
     144.56196093,
     -36.99582533
    ]
   },
   "properties": {
    "name": "141 DANIELS LANE MIA MIA 3444",
    "locID": "LOC000107133014",
    "tech": "WIRELESS",
    "upgrade": "NULL_NA",
    "gnaf_pid": "GAVIC419669549",
    "tech_change_status": "Not Planned",
    "program_type": "Fixed Wireless and Satellite Upgrade Program",
    "target_eligibility_quarter": "NA"
   }
  },
  {
   "type": "Feature",
   "geometry": {
    "type": "Point",
    "coordinates": [
     144.57214501,
     -37.00177121
    ]
   },
   "properties": {
    "name": "21 CUVIER STREET MIA MIA 3444",
    "locID": "LOC000001928048",
    "tech": "WIRELESS",
    "upgrade": "NULL_NA",
    "gnaf_pid": "GAVIC419678329",
    "tech_change_status": "Previous Tech Disconnected",
    "program_type": "Fixed Wireless and Satellite Upgrade Program",
    "target_eligibility_quarter": "NA"
   }
  },
  {
   "type": "Feature",
   "geometry": {
    "type": "Point",
    "coordinates": [
     144.60471615,
     -36.9470575
    ]
   },
   "properties": {
    "name": "363 MEADOW VALLEY ROAD MIA MIA 3444",
    "locID": "LOC000104217023",
    "tech": "WIRELESS",
    "upgrade": "NULL_NA",
    "gnaf_pid": "GAVIC419730291",
    "tech_change_status": "Not Planned",
    "program_type": "Fixed Wireless and Satellite Upgrade Program",
    "target_eligibility_quarter": "NA"
   }
  },
  {
   "type": "Feature",
   "geometry": {
    "type": "Point",
    "coordinates": [
     144.68522481,
     -36.98417868
    ]
   },
   "properties": {
    "name": "174 WATKINS LANE MIA MIA 3444",
    "locID": "LOC000100430975",
    "tech": "WIRELESS",
    "upgrade": "NULL_NA",
    "gnaf_pid": "GAVIC419737859",
    "tech_change_status": "Not Planned",
    "program_type": "Fixed Wireless and Satellite Upgrade Program",
    "target_eligibility_quarter": "NA"
   }
  },
  {
   "type": "Feature",
   "geometry": {
    "type": "Point",
    "coordinates": [
     144.67822687,
     -36.96431126
    ]
   },
   "properties": {
    "name": "569 SPRING FLAT ROAD MIA MIA 3444",
    "locID": "LOC000080940095",
    "tech": "WIRELESS",
    "upgrade": "NULL_NA",
    "gnaf_pid": "GAVIC419746990",
    "tech_change_status": "Not Planned",
    "program_type": "Fixed Wireless and Satellite Upgrade Program",
    "target_eligibility_quarter": "NA"
   }
  },
  {
   "type": "Feature",
   "geometry": {
    "type": "Point",
    "coordinates": [
     144.5680251,
     -37.0097244
    ]
   },
   "properties": {
    "name": "71 BLACKSMITHS LANE MIA MIA 3444",
    "locID": "LOC000080969349",
    "tech": "WIRELESS",
    "upgrade": "NULL_NA",
    "gnaf_pid": "GAVIC419748041",
    "tech_change_status": "Not Planned",
    "program_type": "Fixed Wireless and Satellite Upgrade Program",
    "target_eligibility_quarter": "NA"
   }
  },
  {
   "type": "Feature",
   "geometry": {
    "type": "Point",
    "coordinates": [
     144.56658765,
     -37.00969493
    ]
   },
   "properties": {
    "name": "59 BLACKSMITHS LANE MIA MIA 3444",
    "locID": "LOC000043503423",
    "tech": "WIRELESS",
    "upgrade": "NULL_NA",
    "gnaf_pid": "GAVIC419748880",
    "tech_change_status": "Not Planned",
    "program_type": "Fixed Wireless and Satellite Upgrade Program",
    "target_eligibility_quarter": "NA"
   }
  },
  {
   "type": "Feature",
   "geometry": {
    "type": "Point",
    "coordinates": [
     144.66849578,
     -36.95506912
    ]
   },
   "properties": {
    "name": "711 SPRING FLAT ROAD MIA MIA 3444",
    "locID": "LOC000066111973",
    "tech": "WIRELESS",
    "upgrade": "NULL_NA",
    "gnaf_pid": "GAVIC419958655",
    "tech_change_status": "Not Planned",
    "program_type": "Fixed Wireless and Satellite Upgrade Program",
    "target_eligibility_quarter": "NA"
   }
  },
  {
   "type": "Feature",
   "geometry": {
    "type": "Point",
    "coordinates": [
     144.68070609,
     -37.00934029
    ]
   },
   "properties": {
    "name": "130 BRANDING YARD LANE MIA MIA 3444",
    "locID": "LOC000036713507",
    "tech": "WIRELESS",
    "upgrade": "NULL_NA",
    "gnaf_pid": "GAVIC419959607",
    "tech_change_status": "Not Planned",
    "program_type": "Fixed Wireless and Satellite Upgrade Program",
    "target_eligibility_quarter": "NA"
   }
  },
  {
   "type": "Feature",
   "geometry": {
    "type": "Point",
    "coordinates": [
     144.56874177,
     -37.0046804
    ]
   },
   "properties": {
    "name": "10 MATHESON ROAD MIA MIA 3444",
    "locID": "LOC000082198152",
    "tech": "SATELLITE",
    "upgrade": "WIRELESS",
    "gnaf_pid": "GAVIC419964154",
    "tech_change_status": "Eligible to Order",
    "program_type": "Fixed Wireless and Satellite Upgrade Program",
    "target_eligibility_quarter": "NA"
   }
  },
  {
   "type": "Feature",
   "geometry": {
    "type": "Point",
    "coordinates": [
     144.60566793,
     -36.94388891
    ]
   },
   "properties": {
    "name": "361 MEADOW VALLEY ROAD MIA MIA 3444",
    "locID": "LOC000026925495",
    "tech": "WIRELESS",
    "upgrade": "NULL_NA",
    "gnaf_pid": "GAVIC419965946",
    "tech_change_status": "Not Planned",
    "program_type": "Fixed Wireless and Satellite Upgrade Program",
    "target_eligibility_quarter": "NA"
   }
  },
  {
   "type": "Feature",
   "geometry": {
    "type": "Point",
    "coordinates": [
     144.59802237,
     -37.01702758
    ]
   },
   "properties": {
    "name": "3500 BURKE AND WILLS TRACK MIA MIA 3444",
    "locID": "LOC000056225426",
    "tech": "WIRELESS",
    "upgrade": "NULL_NA",
    "gnaf_pid": "GAVIC419980628",
    "tech_change_status": "Not Planned",
    "program_type": "Fixed Wireless and Satellite Upgrade Program",
    "target_eligibility_quarter": "NA"
   }
  },
  {
   "type": "Feature",
   "geometry": {
    "type": "Point",
    "coordinates": [
     144.5673729,
     -37.00973806
    ]
   },
   "properties": {
    "name": "63 BLACKSMITHS LANE MIA MIA 3444",
    "locID": "LOC000142414831",
    "tech": "WIRELESS",
    "upgrade": "NULL_NA",
    "gnaf_pid": "GAVIC420036881",
    "tech_change_status": "Not Planned",
    "program_type": "Fixed Wireless and Satellite Upgrade Program",
    "target_eligibility_quarter": "NA"
   }
  },
  {
   "type": "Feature",
   "geometry": {
    "type": "Point",
    "coordinates": [
     144.56964789,
     -37.00393576
    ]
   },
   "properties": {
    "name": "20 VALLEY ROAD MIA MIA 3444",
    "locID": "LOC000034328632",
    "tech": "WIRELESS",
    "upgrade": "NULL_NA",
    "gnaf_pid": "GAVIC420037476",
    "tech_change_status": "Not Planned",
    "program_type": "Fixed Wireless and Satellite Upgrade Program",
    "target_eligibility_quarter": "NA"
   }
  },
  {
   "type": "Feature",
   "geometry": {
    "type": "Point",
    "coordinates": [
     144.56837726,
     -37.00960545
    ]
   },
   "properties": {
    "name": "73 BLACKSMITHS LANE MIA MIA 3444",
    "locID": "LOC000079400702",
    "tech": "WIRELESS",
    "upgrade": "NULL_NA",
    "gnaf_pid": "GAVIC420041950",
    "tech_change_status": "Not Planned",
    "program_type": "Fixed Wireless and Satellite Upgrade Program",
    "target_eligibility_quarter": "NA"
   }
  },
  {
   "type": "Feature",
   "geometry": {
    "type": "Point",
    "coordinates": [
     144.60458437,
     -37.01678709
    ]
   },
   "properties": {
    "name": "75 TUOHY LANE MIA MIA 3444",
    "locID": "LOC000073320401",
    "tech": "WIRELESS",
    "upgrade": "NULL_NA",
    "gnaf_pid": "GAVIC420041951",
    "tech_change_status": "Not Planned",
    "program_type": "Fixed Wireless and Satellite Upgrade Program",
    "target_eligibility_quarter": "NA"
   }
  },
  {
   "type": "Feature",
   "geometry": {
    "type": "Point",
    "coordinates": [
     144.60958964,
     -37.0167686
    ]
   },
   "properties": {
    "name": "115 TUOHY LANE MIA MIA 3444",
    "locID": "LOC100078146046",
    "tech": "WIRELESS",
    "upgrade": "NULL_NA",
    "gnaf_pid": "GAVIC420041952",
    "tech_change_status": "Not Planned",
    "program_type": "Fixed Wireless and Satellite Upgrade Program",
    "target_eligibility_quarter": "NA"
   }
  },
  {
   "type": "Feature",
   "geometry": {
    "type": "Point",
    "coordinates": [
     144.56953255,
     -37.00014826
    ]
   },
   "properties": {
    "name": "16 DANIELS LANE MIA MIA 3444",
    "locID": "LOC000091443228",
    "tech": "SATELLITE",
    "upgrade": "WIRELESS",
    "gnaf_pid": "GAVIC420252045",
    "tech_change_status": "Eligible to Order",
    "program_type": "Fixed Wireless and Satellite Upgrade Program",
    "target_eligibility_quarter": "NA"
   }
  },
  {
   "type": "Feature",
   "geometry": {
    "type": "Point",
    "coordinates": [
     144.57232788,
     -37.00071516
    ]
   },
   "properties": {
    "name": "4 CUVIER STREET MIA MIA 3444",
    "locID": "LOC000072002200",
    "tech": "SATELLITE",
    "upgrade": "WIRELESS",
    "gnaf_pid": "GAVIC420252050",
    "tech_change_status": "Eligible to Order",
    "program_type": "Fixed Wireless and Satellite Upgrade Program",
    "target_eligibility_quarter": "NA"
   }
  },
  {
   "type": "Feature",
   "geometry": {
    "type": "Point",
    "coordinates": [
     144.56841863,
     -36.94237073
    ]
   },
   "properties": {
    "name": "1423 MIA MIA-DERRINAL ROAD MIA MIA 3444",
    "locID": "LOC000052347777",
    "tech": "WIRELESS",
    "upgrade": "NULL_NA",
    "gnaf_pid": "GAVIC420252083",
    "tech_change_status": "Not Planned",
    "program_type": "Fixed Wireless and Satellite Upgrade Program",
    "target_eligibility_quarter": "NA"
   }
  },
  {
   "type": "Feature",
   "geometry": {
    "type": "Point",
    "coordinates": [
     144.57931866,
     -37.0037099
    ]
   },
   "properties": {
    "name": "100 MIA MIA-LANCEFIELD ROAD MIA MIA 3444",
    "locID": "LOC000015937529",
    "tech": "WIRELESS",
    "upgrade": "NULL_NA",
    "gnaf_pid": "GAVIC420258071",
    "tech_change_status": "Not Planned",
    "program_type": "Fixed Wireless and Satellite Upgrade Program",
    "target_eligibility_quarter": "NA"
   }
  },
  {
   "type": "Feature",
   "geometry": {
    "type": "Point",
    "coordinates": [
     144.56053667,
     -36.96422235
    ]
   },
   "properties": {
    "name": "1704 MIA MIA-DERRINAL ROAD MIA MIA 3444",
    "locID": "LOC000108876409",
    "tech": "WIRELESS",
    "upgrade": "NULL_NA",
    "gnaf_pid": "GAVIC420268147",
    "tech_change_status": "Not Planned",
    "program_type": "Fixed Wireless and Satellite Upgrade Program",
    "target_eligibility_quarter": "NA"
   }
  },
  {
   "type": "Feature",
   "geometry": {
    "type": "Point",
    "coordinates": [
     144.67260144,
     -36.9586101
    ]
   },
   "properties": {
    "name": "655 SPRING FLAT ROAD MIA MIA 3444",
    "locID": "LOC000070096929",
    "tech": "WIRELESS",
    "upgrade": "NULL_NA",
    "gnaf_pid": "GAVIC420271212",
    "tech_change_status": "Not Planned",
    "program_type": "Fixed Wireless and Satellite Upgrade Program",
    "target_eligibility_quarter": "NA"
   }
  },
  {
   "type": "Feature",
   "geometry": {
    "type": "Point",
    "coordinates": [
     144.66290938,
     -36.95070795
    ]
   },
   "properties": {
    "name": "791 SPRING FLAT ROAD MIA MIA 3444",
    "locID": "LOC000071591539",
    "tech": "WIRELESS",
    "upgrade": "NULL_NA",
    "gnaf_pid": "GAVIC420312736",
    "tech_change_status": "Not Planned",
    "program_type": "Fixed Wireless and Satellite Upgrade Program",
    "target_eligibility_quarter": "NA"
   }
  },
  {
   "type": "Feature",
   "geometry": {
    "type": "Point",
    "coordinates": [
     144.60372238,
     -37.01678304
    ]
   },
   "properties": {
    "name": "65 TUOHY LANE MIA MIA 3444",
    "locID": "LOC000012990240",
    "tech": "WIRELESS",
    "upgrade": "NULL_NA",
    "gnaf_pid": "GAVIC420358588",
    "tech_change_status": "Not Planned",
    "program_type": "Fixed Wireless and Satellite Upgrade Program",
    "target_eligibility_quarter": "NA"
   }
  },
  {
   "type": "Feature",
   "geometry": {
    "type": "Point",
    "coordinates": [
     144.5706789,
     -37.00967061
    ]
   },
   "properties": {
    "name": "87 VALLEY ROAD MIA MIA 3444",
    "locID": "LOC000067973149",
    "tech": "WIRELESS",
    "upgrade": "NULL_NA",
    "gnaf_pid": "GAVIC420568034",
    "tech_change_status": "Not Planned",
    "program_type": "Fixed Wireless and Satellite Upgrade Program",
    "target_eligibility_quarter": "NA"
   }
  },
  {
   "type": "Feature",
   "geometry": {
    "type": "Point",
    "coordinates": [
     144.56056622,
     -36.95311095
    ]
   },
   "properties": {
    "name": "1578 MIA MIA-DERRINAL ROAD MIA MIA 3444",
    "locID": "LOC000048647725",
    "tech": "NULL",
    "upgrade": "NULL_NA",
    "gnaf_pid": "GAVIC420570925",
    "tech_change_status": "Not Planned"
   }
  },
  {
   "type": "Feature",
   "geometry": {
    "type": "Point",
    "coordinates": [
     144.60969055,
     -36.952439
    ]
   },
   "properties": {
    "name": "257 MEADOW VALLEY ROAD MIA MIA 3444",
    "locID": "LOC000022694664",
    "tech": "SATELLITE",
    "upgrade": "NULL_NA",
    "gnaf_pid": "GAVIC420575101",
    "tech_change_status": "Not Planned"
   }
  },
  {
   "type": "Feature",
   "geometry": {
    "type": "Point",
    "coordinates": [
     144.57162175,
     -37.00005806
    ]
   },
   "properties": {
    "name": "3 MIA MIA-LANCEFIELD ROAD MIA MIA 3444",
    "locID": "LOC000048079746",
    "tech": "SATELLITE",
    "upgrade": "WIRELESS",
    "gnaf_pid": "GAVIC420592597",
    "tech_change_status": "Eligible to Order",
    "program_type": "Fixed Wireless and Satellite Upgrade Program",
    "target_eligibility_quarter": "NA"
   }
  },
  {
   "type": "Feature",
   "geometry": {
    "type": "Point",
    "coordinates": [
     144.56017092,
     -37.01867655
    ]
   },
   "properties": {
    "name": "90 STONE JUG LANE MIA MIA 3444",
    "locID": "LOC000069432182",
    "tech": "WIRELESS",
    "upgrade": "NULL_NA",
    "gnaf_pid": "GAVIC420641769",
    "tech_change_status": "Not Planned",
    "program_type": "Fixed Wireless and Satellite Upgrade Program",
    "target_eligibility_quarter": "NA"
   }
  },
  {
   "type": "Feature",
   "geometry": {
    "type": "Point",
    "coordinates": [
     144.56016806,
     -37.02030478
    ]
   },
   "properties": {
    "name": "110 STONE JUG LANE MIA MIA 3444",
    "locID": "LOC000062468976",
    "tech": "WIRELESS",
    "upgrade": "NULL_NA",
    "gnaf_pid": "GAVIC420641770",
    "tech_change_status": "Not Planned",
    "program_type": "Fixed Wireless and Satellite Upgrade Program",
    "target_eligibility_quarter": "NA"
   }
  },
  {
   "type": "Feature",
   "geometry": {
    "type": "Point",
    "coordinates": [
     144.56253009,
     -37.00971976
    ]
   },
   "properties": {
    "name": "21 BLACKSMITHS LANE MIA MIA 3444",
    "locID": "LOC000023922831",
    "tech": "WIRELESS",
    "upgrade": "NULL_NA",
    "gnaf_pid": "GAVIC420646845",
    "tech_change_status": "Not Planned",
    "program_type": "Fixed Wireless and Satellite Upgrade Program",
    "target_eligibility_quarter": "NA"
   }
  },
  {
   "type": "Feature",
   "geometry": {
    "type": "Point",
    "coordinates": [
     144.608633,
     -37.00379069
    ]
   },
   "properties": {
    "name": "187 MCDONALDS LANE MIA MIA 3444",
    "locID": "LOC000083357528",
    "tech": "WIRELESS",
    "upgrade": "NULL_NA",
    "gnaf_pid": "GAVIC420862378",
    "tech_change_status": "Not Planned",
    "program_type": "Fixed Wireless and Satellite Upgrade Program",
    "target_eligibility_quarter": "NA"
   }
  },
  {
   "type": "Feature",
   "geometry": {
    "type": "Point",
    "coordinates": [
     144.57066175,
     -37.0084446
    ]
   },
   "properties": {
    "name": "79 VALLEY ROAD MIA MIA 3444",
    "locID": "LOC000025084137",
    "tech": "WIRELESS",
    "upgrade": "NULL_NA",
    "gnaf_pid": "GAVIC420885913",
    "tech_change_status": "Not Planned",
    "program_type": "Fixed Wireless and Satellite Upgrade Program",
    "target_eligibility_quarter": "NA"
   }
  },
  {
   "type": "Feature",
   "geometry": {
    "type": "Point",
    "coordinates": [
     144.57398841,
     -37.02021125
    ]
   },
   "properties": {
    "name": "200 VALLEY ROAD MIA MIA 3444",
    "locID": "LOC000034328632",
    "tech": "WIRELESS",
    "upgrade": "NULL_NA",
    "gnaf_pid": "GAVIC420885915",
    "tech_change_status": "Not Planned",
    "program_type": "Fixed Wireless and Satellite Upgrade Program",
    "target_eligibility_quarter": "NA"
   }
  },
  {
   "type": "Feature",
   "geometry": {
    "type": "Point",
    "coordinates": [
     144.5960294,
     -37.01828003
    ]
   },
   "properties": {
    "name": "3465 BURKE AND WILLS TRACK MIA MIA 3444",
    "locID": "LOC000053845789",
    "tech": "WIRELESS",
    "upgrade": "NULL_NA",
    "gnaf_pid": "GAVIC420886814",
    "tech_change_status": "Not Planned",
    "program_type": "Fixed Wireless and Satellite Upgrade Program",
    "target_eligibility_quarter": "NA"
   }
  },
  {
   "type": "Feature",
   "geometry": {
    "type": "Point",
    "coordinates": [
     144.60368671,
     -37.0304306
    ]
   },
   "properties": {
    "name": "3340 BURKE AND WILLS TRACK MIA MIA 3444",
    "locID": "LOC000059420886",
    "tech": "SATELLITE",
    "upgrade": "WIRELESS",
    "gnaf_pid": "GAVIC420886816",
    "tech_change_status": "Eligible to Order",
    "program_type": "Fixed Wireless and Satellite Upgrade Program",
    "target_eligibility_quarter": "NA"
   }
  },
  {
   "type": "Feature",
   "geometry": {
    "type": "Point",
    "coordinates": [
     144.60642558,
     -37.00412802
    ]
   },
   "properties": {
    "name": "180 MCDONALDS LANE MIA MIA 3444",
    "locID": "LOC000073968600",
    "tech": "WIRELESS",
    "upgrade": "NULL_NA",
    "gnaf_pid": "GAVIC420888747",
    "tech_change_status": "Not Planned",
    "program_type": "Fixed Wireless and Satellite Upgrade Program",
    "target_eligibility_quarter": "NA"
   }
  },
  {
   "type": "Feature",
   "geometry": {
    "type": "Point",
    "coordinates": [
     144.56940615,
     -37.0097617
    ]
   },
   "properties": {
    "name": "81 BLACKSMITHS LANE MIA MIA 3444",
    "locID": "LOC000084667034",
    "tech": "WIRELESS",
    "upgrade": "NULL_NA",
    "gnaf_pid": "GAVIC420943278",
    "tech_change_status": "Not Planned",
    "program_type": "Fixed Wireless and Satellite Upgrade Program",
    "target_eligibility_quarter": "NA"
   }
  },
  {
   "type": "Feature",
   "geometry": {
    "type": "Point",
    "coordinates": [
     144.5546346,
     -36.99564963
    ]
   },
   "properties": {
    "name": "209 DANIELS LANE MIA MIA 3444",
    "locID": "LOC000033062575",
    "tech": "SATELLITE",
    "upgrade": "WIRELESS",
    "gnaf_pid": "GAVIC421154065",
    "tech_change_status": "Eligible to Order",
    "program_type": "Fixed Wireless and Satellite Upgrade Program",
    "target_eligibility_quarter": "NA"
   }
  },
  {
   "type": "Feature",
   "geometry": {
    "type": "Point",
    "coordinates": [
     144.63897253,
     -37.0030796
    ]
   },
   "properties": {
    "name": "480 MCDONALDS LANE MIA MIA 3444",
    "locID": "LOC000067522647",
    "tech": "WIRELESS",
    "upgrade": "NULL_NA",
    "gnaf_pid": "GAVIC421166047",
    "tech_change_status": "Not Planned",
    "program_type": "Fixed Wireless and Satellite Upgrade Program",
    "target_eligibility_quarter": "NA"
   }
  },
  {
   "type": "Feature",
   "geometry": {
    "type": "Point",
    "coordinates": [
     144.56832252,
     -36.94793678
    ]
   },
   "properties": {
    "name": "1487 MIA MIA-DERRINAL ROAD MIA MIA 3444",
    "locID": "LOC000083001220",
    "tech": "WIRELESS",
    "upgrade": "NULL_NA",
    "gnaf_pid": "GAVIC421187595",
    "tech_change_status": "Not Planned",
    "program_type": "Fixed Wireless and Satellite Upgrade Program",
    "target_eligibility_quarter": "NA"
   }
  },
  {
   "type": "Feature",
   "geometry": {
    "type": "Point",
    "coordinates": [
     144.5601715,
     -37.01592439
    ]
   },
   "properties": {
    "name": "60 STONE JUG LANE MIA MIA 3444",
    "locID": "LOC000076122522",
    "tech": "WIRELESS",
    "upgrade": "NULL_NA",
    "gnaf_pid": "GAVIC421238700",
    "tech_change_status": "Not Planned",
    "program_type": "Fixed Wireless and Satellite Upgrade Program",
    "target_eligibility_quarter": "NA"
   }
  },
  {
   "type": "Feature",
   "geometry": {
    "type": "Point",
    "coordinates": [
     144.61757691,
     -37.0169469
    ]
   },
   "properties": {
    "name": "180 TUOHY LANE MIA MIA 3444",
    "locID": "LOC000017701101",
    "tech": "WIRELESS",
    "upgrade": "NULL_NA",
    "gnaf_pid": "GAVIC421269298",
    "tech_change_status": "Not Planned",
    "program_type": "Fixed Wireless and Satellite Upgrade Program",
    "target_eligibility_quarter": "NA"
   }
  },
  {
   "type": "Feature",
   "geometry": {
    "type": "Point",
    "coordinates": [
     144.56967481,
     -37.00979425
    ]
   },
   "properties": {
    "name": "83 BLACKSMITHS LANE MIA MIA 3444",
    "locID": "LOC000009380287",
    "tech": "WIRELESS",
    "upgrade": "NULL_NA",
    "gnaf_pid": "GAVIC421272001",
    "tech_change_status": "Not Planned",
    "program_type": "Fixed Wireless and Satellite Upgrade Program",
    "target_eligibility_quarter": "NA"
   }
  },
  {
   "type": "Feature",
   "geometry": {
    "type": "Point",
    "coordinates": [
     144.56031692,
     -37.0328812
    ]
   },
   "properties": {
    "name": "255 STONE JUG LANE MIA MIA 3444",
    "locID": "LOC000035344203",
    "tech": "WIRELESS",
    "upgrade": "NULL_NA",
    "gnaf_pid": "GAVIC421528499",
    "tech_change_status": "Not Planned",
    "program_type": "Fixed Wireless and Satellite Upgrade Program",
    "target_eligibility_quarter": "NA"
   }
  },
  {
   "type": "Feature",
   "geometry": {
    "type": "Point",
    "coordinates": [
     144.57088883,
     -37.0076652
    ]
   },
   "properties": {
    "name": "61 VALLEY ROAD MIA MIA 3444",
    "locID": "LOC000095349307",
    "tech": "WIRELESS",
    "upgrade": "NULL_NA",
    "gnaf_pid": "GAVIC421528500",
    "tech_change_status": "Not Planned",
    "program_type": "Fixed Wireless and Satellite Upgrade Program",
    "target_eligibility_quarter": "NA"
   }
  },
  {
   "type": "Feature",
   "geometry": {
    "type": "Point",
    "coordinates": [
     144.56459616,
     -37.0097712
    ]
   },
   "properties": {
    "name": "39 BLACKSMITHS LANE MIA MIA 3444",
    "locID": "LOC000104542142",
    "tech": "WIRELESS",
    "upgrade": "NULL_NA",
    "gnaf_pid": "GAVIC421555354",
    "tech_change_status": "Not Planned",
    "program_type": "Fixed Wireless and Satellite Upgrade Program",
    "target_eligibility_quarter": "NA"
   }
  },
  {
   "type": "Feature",
   "geometry": {
    "type": "Point",
    "coordinates": [
     144.59642685,
     -37.01279961
    ]
   },
   "properties": {
    "name": "3550 BURKE AND WILLS TRACK MIA MIA 3444",
    "locID": "LOC000066529226",
    "tech": "WIRELESS",
    "upgrade": "NULL_NA",
    "gnaf_pid": "GAVIC421558986",
    "tech_change_status": "Not Planned",
    "program_type": "Fixed Wireless and Satellite Upgrade Program",
    "target_eligibility_quarter": "NA"
   }
  },
  {
   "type": "Feature",
   "geometry": {
    "type": "Point",
    "coordinates": [
     144.67362699,
     -36.96010717
    ]
   },
   "properties": {
    "name": "639 SPRING FLAT ROAD MIA MIA 3444",
    "locID": "LOC000091689508",
    "tech": "WIRELESS",
    "upgrade": "NULL_NA",
    "gnaf_pid": "GAVIC421562483",
    "tech_change_status": "Not Planned",
    "program_type": "Fixed Wireless and Satellite Upgrade Program",
    "target_eligibility_quarter": "NA"
   }
  },
  {
   "type": "Feature",
   "geometry": {
    "type": "Point",
    "coordinates": [
     144.5692043,
     -37.00974858
    ]
   },
   "properties": {
    "name": "79 BLACKSMITHS LANE MIA MIA 3444",
    "locID": "LOC000017584198",
    "tech": "WIRELESS",
    "upgrade": "NULL_NA",
    "gnaf_pid": "GAVIC421569750",
    "tech_change_status": "Not Planned",
    "program_type": "Fixed Wireless and Satellite Upgrade Program",
    "target_eligibility_quarter": "NA"
   }
  },
  {
   "type": "Feature",
   "geometry": {
    "type": "Point",
    "coordinates": [
     144.56017135,
     -37.01706218
    ]
   },
   "properties": {
    "name": "80 STONE JUG LANE MIA MIA 3444",
    "locID": "LOC000085277145",
    "tech": "WIRELESS",
    "upgrade": "NULL_NA",
    "gnaf_pid": "GAVIC421583337",
    "tech_change_status": "Not Planned",
    "program_type": "Fixed Wireless and Satellite Upgrade Program",
    "target_eligibility_quarter": "NA"
   }
  },
  {
   "type": "Feature",
   "geometry": {
    "type": "Point",
    "coordinates": [
     144.56308636,
     -36.99958544
    ]
   },
   "properties": {
    "name": "81 DANIELS LANE MIA MIA 3444",
    "locID": "LOC000039009597",
    "tech": "SATELLITE",
    "upgrade": "WIRELESS",
    "gnaf_pid": "GAVIC421797516",
    "tech_change_status": "Eligible to Order",
    "program_type": "Fixed Wireless and Satellite Upgrade Program",
    "target_eligibility_quarter": "NA"
   }
  },
  {
   "type": "Feature",
   "geometry": {
    "type": "Point",
    "coordinates": [
     144.57045496,
     -37.00399735
    ]
   },
   "properties": {
    "name": "17 VALLEY ROAD MIA MIA 3444",
    "locID": "LOC000079733967",
    "tech": "SATELLITE",
    "upgrade": "NULL_NA",
    "gnaf_pid": "GAVIC421797521",
    "tech_change_status": "Not Planned"
   }
  },
  {
   "type": "Feature",
   "geometry": {
    "type": "Point",
    "coordinates": [
     144.68693919,
     -36.98611066
    ]
   },
   "properties": {
    "name": "204 WATKINS LANE MIA MIA 3444",
    "locID": "LOC000079299525",
    "tech": "WIRELESS",
    "upgrade": "NULL_NA",
    "gnaf_pid": "GAVIC421874164",
    "tech_change_status": "Not Planned",
    "program_type": "Fixed Wireless and Satellite Upgrade Program",
    "target_eligibility_quarter": "NA"
   }
  },
  {
   "type": "Feature",
   "geometry": {
    "type": "Point",
    "coordinates": [
     144.56215746,
     -37.00977519
    ]
   },
   "properties": {
    "name": "17 BLACKSMITHS LANE MIA MIA 3444",
    "locID": "LOC000030229475",
    "tech": "WIRELESS",
    "upgrade": "NULL_NA",
    "gnaf_pid": "GAVIC421881332",
    "tech_change_status": "Not Planned",
    "program_type": "Fixed Wireless and Satellite Upgrade Program",
    "target_eligibility_quarter": "NA"
   }
  },
  {
   "type": "Feature",
   "geometry": {
    "type": "Point",
    "coordinates": [
     144.56012896,
     -37.01293249
    ]
   },
   "properties": {
    "name": "10 STONE JUG LANE MIA MIA 3444",
    "locID": "LOC000094278009",
    "tech": "WIRELESS",
    "upgrade": "NULL_NA",
    "gnaf_pid": "GAVIC421882338",
    "tech_change_status": "Not Planned",
    "program_type": "Fixed Wireless and Satellite Upgrade Program",
    "target_eligibility_quarter": "NA"
   }
  },
  {
   "type": "Feature",
   "geometry": {
    "type": "Point",
    "coordinates": [
     144.6164483,
     -36.95371316
    ]
   },
   "properties": {
    "name": "50 BACK MEADOW VALLEY ROAD MIA MIA 3444",
    "locID": "LOC000101576258",
    "tech": "WIRELESS",
    "upgrade": "NULL_NA",
    "gnaf_pid": "GAVIC422125009",
    "tech_change_status": "Not Planned",
    "program_type": "Fixed Wireless and Satellite Upgrade Program",
    "target_eligibility_quarter": "NA"
   }
  },
  {
   "type": "Feature",
   "geometry": {
    "type": "Point",
    "coordinates": [
     144.57131885,
     -37.00050928
    ]
   },
   "properties": {
    "name": "2 MIA MIA-LANCEFIELD ROAD MIA MIA 3444",
    "locID": "LOC000054382440",
    "tech": "WIRELESS",
    "upgrade": "NULL_NA",
    "gnaf_pid": "GAVIC422171071",
    "tech_change_status": "Not Planned",
    "program_type": "Fixed Wireless and Satellite Upgrade Program",
    "target_eligibility_quarter": "NA"
   }
  },
  {
   "type": "Feature",
   "geometry": {
    "type": "Point",
    "coordinates": [
     144.56057026,
     -37.0045876
    ]
   },
   "properties": {
    "name": "60 JOYCE LANE MIA MIA 3444",
    "locID": "LOC000062313126",
    "tech": "WIRELESS",
    "upgrade": "NULL_NA",
    "gnaf_pid": "GAVIC422300919",
    "tech_change_status": "Not Planned",
    "program_type": "Fixed Wireless and Satellite Upgrade Program",
    "target_eligibility_quarter": "NA"
   }
  },
  {
   "type": "Feature",
   "geometry": {
    "type": "Point",
    "coordinates": [
     144.68833475,
     -36.98862534
    ]
   },
   "properties": {
    "name": "242 WATKINS LANE MIA MIA 3444",
    "locID": "LOC000071962862",
    "tech": "WIRELESS",
    "upgrade": "NULL_NA",
    "gnaf_pid": "GAVIC422332472",
    "tech_change_status": "Not Planned",
    "program_type": "Fixed Wireless and Satellite Upgrade Program",
    "target_eligibility_quarter": "NA"
   }
  },
  {
   "type": "Feature",
   "geometry": {
    "type": "Point",
    "coordinates": [
     144.63138153,
     -36.93836167
    ]
   },
   "properties": {
    "name": "295 ADAIRS LANE MIA MIA 3444",
    "locID": "LOC000066494294",
    "tech": "WIRELESS",
    "upgrade": "NULL_NA",
    "gnaf_pid": "GAVIC422375862",
    "tech_change_status": "Not Planned",
    "program_type": "Fixed Wireless and Satellite Upgrade Program",
    "target_eligibility_quarter": "NA"
   }
  },
  {
   "type": "Feature",
   "geometry": {
    "type": "Point",
    "coordinates": [
     144.56886813,
     -37.00980194
    ]
   },
   "properties": {
    "name": "77 BLACKSMITHS LANE MIA MIA 3444",
    "locID": "LOC000081062966",
    "tech": "WIRELESS",
    "upgrade": "NULL_NA",
    "gnaf_pid": "GAVIC423059766",
    "tech_change_status": "Not Planned",
    "program_type": "Fixed Wireless and Satellite Upgrade Program",
    "target_eligibility_quarter": "NA"
   }
  },
  {
   "type": "Feature",
   "geometry": {
    "type": "Point",
    "coordinates": [
     144.58055754,
     -37.04731403
    ]
   },
   "properties": {
    "name": "510 VALLEY ROAD MIA MIA 3444",
    "locID": "LOC000038806340",
    "tech": "WIRELESS",
    "upgrade": "NULL_NA",
    "gnaf_pid": "GAVIC423125469",
    "tech_change_status": "Not Planned",
    "program_type": "Fixed Wireless and Satellite Upgrade Program",
    "target_eligibility_quarter": "NA"
   }
  },
  {
   "type": "Feature",
   "geometry": {
    "type": "Point",
    "coordinates": [
     144.57669914,
     -37.02747246
    ]
   },
   "properties": {
    "name": "285 VALLEY ROAD MIA MIA 3444",
    "locID": "LOC000103907269",
    "tech": "WIRELESS",
    "upgrade": "NULL_NA",
    "gnaf_pid": "GAVIC423125508",
    "tech_change_status": "Not Planned",
    "program_type": "Fixed Wireless and Satellite Upgrade Program",
    "target_eligibility_quarter": "NA"
   }
  },
  {
   "type": "Feature",
   "geometry": {
    "type": "Point",
    "coordinates": [
     144.56059126,
     -37.00272449
    ]
   },
   "properties": {
    "name": "80 JOYCE LANE MIA MIA 3444",
    "locID": "LOC000062243831",
    "tech": "SATELLITE",
    "upgrade": "WIRELESS",
    "gnaf_pid": "GAVIC423145166",
    "tech_change_status": "Eligible to Order",
    "program_type": "Fixed Wireless and Satellite Upgrade Program",
    "target_eligibility_quarter": "NA"
   }
  },
  {
   "type": "Feature",
   "geometry": {
    "type": "Point",
    "coordinates": [
     144.655113,
     -36.946912
    ]
   },
   "properties": {
    "name": "37 ADAIRS LANE MIA MIA 3444",
    "locID": "LOC000056558476",
    "tech": "WIRELESS",
    "upgrade": "NULL_NA",
    "gnaf_pid": "GAVIC423203636",
    "tech_change_status": "Not Planned",
    "program_type": "Fixed Wireless and Satellite Upgrade Program",
    "target_eligibility_quarter": "NA"
   }
  },
  {
   "type": "Feature",
   "geometry": {
    "type": "Point",
    "coordinates": [
     144.62750044,
     -36.93376883
    ]
   },
   "properties": {
    "name": "396 ADAIRS LANE MIA MIA 3444",
    "locID": "LOC000071154464",
    "tech": "WIRELESS",
    "upgrade": "NULL_NA",
    "gnaf_pid": "GAVIC423203637",
    "tech_change_status": "Not Planned",
    "program_type": "Fixed Wireless and Satellite Upgrade Program",
    "target_eligibility_quarter": "NA"
   }
  },
  {
   "type": "Feature",
   "geometry": {
    "type": "Point",
    "coordinates": [
     144.64456466,
     -37.02177814
    ]
   },
   "properties": {
    "name": "1110 HEATHCOTE-SPRING PLAINS ROAD MIA MIA 3444",
    "locID": "LOC000032849087",
    "tech": "WIRELESS",
    "upgrade": "NULL_NA",
    "gnaf_pid": "GAVIC423218439",
    "tech_change_status": "Not Planned",
    "program_type": "Fixed Wireless and Satellite Upgrade Program",
    "target_eligibility_quarter": "NA"
   }
  },
  {
   "type": "Feature",
   "geometry": {
    "type": "Point",
    "coordinates": [
     144.65025758,
     -36.99238576
    ]
   },
   "properties": {
    "name": "344 HEATHCOTE-SPRING PLAINS ROAD MIA MIA 3444",
    "locID": "LOC000008440700",
    "tech": "WIRELESS",
    "upgrade": "NULL_NA",
    "gnaf_pid": "GAVIC423218440",
    "tech_change_status": "Not Planned",
    "program_type": "Fixed Wireless and Satellite Upgrade Program",
    "target_eligibility_quarter": "NA"
   }
  },
  {
   "type": "Feature",
   "geometry": {
    "type": "Point",
    "coordinates": [
     144.64155883,
     -36.99938036
    ]
   },
   "properties": {
    "name": "508 HEATHCOTE-SPRING PLAINS ROAD MIA MIA 3444",
    "locID": "LOC000021967999",
    "tech": "WIRELESS",
    "upgrade": "NULL_NA",
    "gnaf_pid": "GAVIC423218441",
    "tech_change_status": "Not Planned",
    "program_type": "Fixed Wireless and Satellite Upgrade Program",
    "target_eligibility_quarter": "NA"
   }
  },
  {
   "type": "Feature",
   "geometry": {
    "type": "Point",
    "coordinates": [
     144.69189971,
     -36.99296669
    ]
   },
   "properties": {
    "name": "210 HEATHCOTE-EAST BAYNTON ROAD MIA MIA 3444",
    "locID": "LOC000142398404",
    "tech": "SATELLITE",
    "upgrade": "WIRELESS",
    "gnaf_pid": "GAVIC423375457",
    "tech_change_status": "Eligible to Order",
    "program_type": "Fixed Wireless and Satellite Upgrade Program",
    "target_eligibility_quarter": "NA"
   }
  },
  {
   "type": "Feature",
   "geometry": {
    "type": "Point",
    "coordinates": [
     144.68815638,
     -36.99560449
    ]
   },
   "properties": {
    "name": "228 HEATHCOTE-EAST BAYNTON ROAD MIA MIA 3444",
    "locID": "LOC000042427603",
    "tech": "WIRELESS",
    "upgrade": "NULL_NA",
    "gnaf_pid": "GAVIC423375458",
    "tech_change_status": "Not Planned",
    "program_type": "Fixed Wireless and Satellite Upgrade Program",
    "target_eligibility_quarter": "NA"
   }
  },
  {
   "type": "Feature",
   "geometry": {
    "type": "Point",
    "coordinates": [
     144.6886329,
     -36.99700436
    ]
   },
   "properties": {
    "name": "270 HEATHCOTE-EAST BAYNTON ROAD MIA MIA 3444",
    "locID": "LOC000096475973",
    "tech": "WIRELESS",
    "upgrade": "NULL_NA",
    "gnaf_pid": "GAVIC423375459",
    "tech_change_status": "Not Planned",
    "program_type": "Fixed Wireless and Satellite Upgrade Program",
    "target_eligibility_quarter": "NA"
   }
  },
  {
   "type": "Feature",
   "geometry": {
    "type": "Point",
    "coordinates": [
     144.68997015,
     -36.99914448
    ]
   },
   "properties": {
    "name": "302 HEATHCOTE-EAST BAYNTON ROAD MIA MIA 3444",
    "locID": "LOC000033707827",
    "tech": "NULL",
    "upgrade": "NULL_NA",
    "gnaf_pid": "GAVIC423375460",
    "tech_change_status": "Not Planned"
   }
  },
  {
   "type": "Feature",
   "geometry": {
    "type": "Point",
    "coordinates": [
     144.68506642,
     -37.02215221
    ]
   },
   "properties": {
    "name": "600 HEATHCOTE-EAST BAYNTON ROAD MIA MIA 3444",
    "locID": "LOC000102545280",
    "tech": "WIRELESS",
    "upgrade": "NULL_NA",
    "gnaf_pid": "GAVIC423375462",
    "tech_change_status": "Not Planned",
    "program_type": "Fixed Wireless and Satellite Upgrade Program",
    "target_eligibility_quarter": "NA"
   }
  },
  {
   "type": "Feature",
   "geometry": {
    "type": "Point",
    "coordinates": [
     144.64450505,
     -37.02694905
    ]
   },
   "properties": {
    "name": "1040 HEATHCOTE-SPRING PLAINS ROAD MIA MIA 3444",
    "locID": "LOC000002909975",
    "tech": "WIRELESS",
    "upgrade": "NULL_NA",
    "gnaf_pid": "GAVIC423544866",
    "tech_change_status": "Not Planned",
    "program_type": "Fixed Wireless and Satellite Upgrade Program",
    "target_eligibility_quarter": "NA"
   }
  },
  {
   "type": "Feature",
   "geometry": {
    "type": "Point",
    "coordinates": [
     144.59078349,
     -37.0082159
    ]
   },
   "properties": {
    "name": "3635 BURKE AND WILLS TRACK MIA MIA 3444",
    "locID": "LOC000023410634",
    "tech": "WIRELESS",
    "upgrade": "NULL_NA",
    "gnaf_pid": "GAVIC423658891",
    "tech_change_status": "Not Planned",
    "program_type": "Fixed Wireless and Satellite Upgrade Program",
    "target_eligibility_quarter": "NA"
   }
  },
  {
   "type": "Feature",
   "geometry": {
    "type": "Point",
    "coordinates": [
     144.67855371,
     -36.96444157
    ]
   },
   "properties": {
    "name": "567 SPRING FLAT ROAD MIA MIA 3444",
    "locID": "LOC000028754643",
    "tech": "WIRELESS",
    "upgrade": "NULL_NA",
    "gnaf_pid": "GAVIC423837603",
    "tech_change_status": "Not Planned",
    "program_type": "Fixed Wireless and Satellite Upgrade Program",
    "target_eligibility_quarter": "NA"
   }
  },
  {
   "type": "Feature",
   "geometry": {
    "type": "Point",
    "coordinates": [
     144.66521054,
     -36.95273305
    ]
   },
   "properties": {
    "name": "753 SPRING FLAT ROAD MIA MIA 3444",
    "locID": "LOC000105832724",
    "tech": "WIRELESS",
    "upgrade": "NULL_NA",
    "gnaf_pid": "GAVIC423837604",
    "tech_change_status": "Not Planned",
    "program_type": "Fixed Wireless and Satellite Upgrade Program",
    "target_eligibility_quarter": "NA"
   }
  },
  {
   "type": "Feature",
   "geometry": {
    "type": "Point",
    "coordinates": [
     144.5553439,
     -36.99563102
    ]
   },
   "properties": {
    "name": "203 DANIELS LANE MIA MIA 3444",
    "locID": "LOC000017880885",
    "tech": "WIRELESS",
    "upgrade": "NULL_NA",
    "gnaf_pid": "GAVIC423966693",
    "tech_change_status": "Not Planned",
    "program_type": "Fixed Wireless and Satellite Upgrade Program",
    "target_eligibility_quarter": "NA"
   }
  },
  {
   "type": "Feature",
   "geometry": {
    "type": "Point",
    "coordinates": [
     144.56794341,
     -37.00257016
    ]
   },
   "properties": {
    "name": "25 KEPLER STREET MIA MIA 3444",
    "locID": "LOC000104484926",
    "tech": "WIRELESS",
    "upgrade": "NULL_NA",
    "gnaf_pid": "GAVIC423970264",
    "tech_change_status": "Not Planned",
    "program_type": "Fixed Wireless and Satellite Upgrade Program",
    "target_eligibility_quarter": "NA"
   }
  },
  {
   "type": "Feature",
   "geometry": {
    "type": "Point",
    "coordinates": [
     144.66564452,
     -36.96832344
    ]
   },
   "properties": {
    "name": "2 WILD DUCK ROAD MIA MIA 3444",
    "locID": "LOC000057094568",
    "tech": "WIRELESS",
    "upgrade": "NULL_NA",
    "gnaf_pid": "GAVIC424038025",
    "tech_change_status": "Not Planned",
    "program_type": "Fixed Wireless and Satellite Upgrade Program",
    "target_eligibility_quarter": "NA"
   }
  },
  {
   "type": "Feature",
   "geometry": {
    "type": "Point",
    "coordinates": [
     144.5957305,
     -37.04664439
    ]
   },
   "properties": {
    "name": "88 COOMBE LANE MIA MIA 3444",
    "locID": "LOC000100714289",
    "tech": "WIRELESS",
    "upgrade": "NULL_NA",
    "gnaf_pid": "GAVIC424262165",
    "tech_change_status": "Not Planned",
    "program_type": "Fixed Wireless and Satellite Upgrade Program",
    "target_eligibility_quarter": "NA"
   }
  },
  {
   "type": "Feature",
   "geometry": {
    "type": "Point",
    "coordinates": [
     144.59638949,
     -37.04740135
    ]
   },
   "properties": {
    "name": "89 COOMBE LANE MIA MIA 3444",
    "locID": "LOC000124818279",
    "tech": "WIRELESS",
    "upgrade": "NULL_NA",
    "gnaf_pid": "GAVIC424262166",
    "tech_change_status": "Not Planned",
    "program_type": "Fixed Wireless and Satellite Upgrade Program",
    "target_eligibility_quarter": "NA"
   }
  },
  {
   "type": "Feature",
   "geometry": {
    "type": "Point",
    "coordinates": [
     144.60139541,
     -36.9800598
    ]
   },
   "properties": {
    "name": "1283 HEATHCOTE-REDESDALE ROAD MIA MIA 3444",
    "locID": "LOC000002881461",
    "tech": "WIRELESS",
    "upgrade": "NULL_NA",
    "gnaf_pid": "GAVIC424357790",
    "tech_change_status": "Not Planned",
    "program_type": "Fixed Wireless and Satellite Upgrade Program",
    "target_eligibility_quarter": "NA"
   }
  },
  {
   "type": "Feature",
   "geometry": {
    "type": "Point",
    "coordinates": [
     144.59478733,
     -36.98655042
    ]
   },
   "properties": {
    "name": "1375 HEATHCOTE-REDESDALE ROAD MIA MIA 3444",
    "locID": "LOC100072028958",
    "tech": "WIRELESS",
    "upgrade": "NULL_NA",
    "gnaf_pid": "GAVIC424357791",
    "tech_change_status": "Not Planned",
    "program_type": "Fixed Wireless and Satellite Upgrade Program",
    "target_eligibility_quarter": "NA"
   }
  },
  {
   "type": "Feature",
   "geometry": {
    "type": "Point",
    "coordinates": [
     144.57948483,
     -36.99214483
    ]
   },
   "properties": {
    "name": "1528 HEATHCOTE-REDESDALE ROAD MIA MIA 3444",
    "locID": "LOC000085322268",
    "tech": "SATELLITE",
    "upgrade": "WIRELESS",
    "gnaf_pid": "GAVIC424357792",
    "tech_change_status": "Eligible to Order",
    "program_type": "Fixed Wireless and Satellite Upgrade Program",
    "target_eligibility_quarter": "NA"
   }
  },
  {
   "type": "Feature",
   "geometry": {
    "type": "Point",
    "coordinates": [
     144.57156226,
     -36.99888545
    ]
   },
   "properties": {
    "name": "1637 HEATHCOTE-REDESDALE ROAD MIA MIA 3444",
    "locID": "LOC000033480294",
    "tech": "SATELLITE",
    "upgrade": "WIRELESS",
    "gnaf_pid": "GAVIC424357793",
    "tech_change_status": "Eligible to Order",
    "program_type": "Fixed Wireless and Satellite Upgrade Program",
    "target_eligibility_quarter": "NA"
   }
  },
  {
   "type": "Feature",
   "geometry": {
    "type": "Point",
    "coordinates": [
     144.57031859,
     -37.0014983
    ]
   },
   "properties": {
    "name": "1670 HEATHCOTE-REDESDALE ROAD MIA MIA 3444",
    "locID": "LOC000090985800",
    "tech": "WIRELESS",
    "upgrade": "NULL_NA",
    "gnaf_pid": "GAVIC424357794",
    "tech_change_status": "Not Planned",
    "program_type": "Fixed Wireless and Satellite Upgrade Program",
    "target_eligibility_quarter": "NA"
   }
  },
  {
   "type": "Feature",
   "geometry": {
    "type": "Point",
    "coordinates": [
     144.56507351,
     -37.00645233
    ]
   },
   "properties": {
    "name": "1740 HEATHCOTE-REDESDALE ROAD MIA MIA 3444",
    "locID": "LOC000107220120",
    "tech": "WIRELESS",
    "upgrade": "NULL_NA",
    "gnaf_pid": "GAVIC424357795",
    "tech_change_status": "Not Planned",
    "program_type": "Fixed Wireless and Satellite Upgrade Program",
    "target_eligibility_quarter": "NA"
   }
  },
  {
   "type": "Feature",
   "geometry": {
    "type": "Point",
    "coordinates": [
     144.56578413,
     -37.00663719
    ]
   },
   "properties": {
    "name": "1743 HEATHCOTE-REDESDALE ROAD MIA MIA 3444",
    "locID": "LOC000098159007",
    "tech": "WIRELESS",
    "upgrade": "NULL_NA",
    "gnaf_pid": "GAVIC424357796",
    "tech_change_status": "Not Planned",
    "program_type": "Fixed Wireless and Satellite Upgrade Program",
    "target_eligibility_quarter": "NA"
   }
  },
  {
   "type": "Feature",
   "geometry": {
    "type": "Point",
    "coordinates": [
     144.5651058,
     -37.00697911
    ]
   },
   "properties": {
    "name": "1745 HEATHCOTE-REDESDALE ROAD MIA MIA 3444",
    "locID": "LOC000100710865",
    "tech": "WIRELESS",
    "upgrade": "NULL_NA",
    "gnaf_pid": "GAVIC424357797",
    "tech_change_status": "Not Planned",
    "program_type": "Fixed Wireless and Satellite Upgrade Program",
    "target_eligibility_quarter": "NA"
   }
  },
  {
   "type": "Feature",
   "geometry": {
    "type": "Point",
    "coordinates": [
     144.56504053,
     -37.00647494
    ]
   },
   "properties": {
    "name": "1746 HEATHCOTE-REDESDALE ROAD MIA MIA 3444",
    "locID": "LOC000026153215",
    "tech": "WIRELESS",
    "upgrade": "NULL_NA",
    "gnaf_pid": "GAVIC424357798",
    "tech_change_status": "Not Planned",
    "program_type": "Fixed Wireless and Satellite Upgrade Program",
    "target_eligibility_quarter": "NA"
   }
  },
  {
   "type": "Feature",
   "geometry": {
    "type": "Point",
    "coordinates": [
     144.56433625,
     -37.007367
    ]
   },
   "properties": {
    "name": "1749 HEATHCOTE-REDESDALE ROAD MIA MIA 3444",
    "locID": "LOC000067074713",
    "tech": "WIRELESS",
    "upgrade": "NULL_NA",
    "gnaf_pid": "GAVIC424357799",
    "tech_change_status": "Not Planned",
    "program_type": "Fixed Wireless and Satellite Upgrade Program",
    "target_eligibility_quarter": "NA"
   }
  },
  {
   "type": "Feature",
   "geometry": {
    "type": "Point",
    "coordinates": [
     144.56362856,
     -37.00783495
    ]
   },
   "properties": {
    "name": "1763 HEATHCOTE-REDESDALE ROAD MIA MIA 3444",
    "locID": "LOC000056997683",
    "tech": "WIRELESS",
    "upgrade": "NULL_NA",
    "gnaf_pid": "GAVIC424357800",
    "tech_change_status": "Not Planned",
    "program_type": "Fixed Wireless and Satellite Upgrade Program",
    "target_eligibility_quarter": "NA"
   }
  },
  {
   "type": "Feature",
   "geometry": {
    "type": "Point",
    "coordinates": [
     144.5629566,
     -37.00832733
    ]
   },
   "properties": {
    "name": "1771 HEATHCOTE-REDESDALE ROAD MIA MIA 3444",
    "locID": "LOC000079985755",
    "tech": "WIRELESS",
    "upgrade": "NULL_NA",
    "gnaf_pid": "GAVIC424357801",
    "tech_change_status": "Not Planned",
    "program_type": "Fixed Wireless and Satellite Upgrade Program",
    "target_eligibility_quarter": "NA"
   }
  },
  {
   "type": "Feature",
   "geometry": {
    "type": "Point",
    "coordinates": [
     144.56262808,
     -37.00856804
    ]
   },
   "properties": {
    "name": "1779 HEATHCOTE-REDESDALE ROAD MIA MIA 3444",
    "locID": "LOC000066684634",
    "tech": "WIRELESS",
    "upgrade": "NULL_NA",
    "gnaf_pid": "GAVIC424357802",
    "tech_change_status": "Not Planned",
    "program_type": "Fixed Wireless and Satellite Upgrade Program",
    "target_eligibility_quarter": "NA"
   }
  },
  {
   "type": "Feature",
   "geometry": {
    "type": "Point",
    "coordinates": [
     144.56178109,
     -37.00918863
    ]
   },
   "properties": {
    "name": "1787 HEATHCOTE-REDESDALE ROAD MIA MIA 3444",
    "locID": "LOC000024313210",
    "tech": "WIRELESS",
    "upgrade": "NULL_NA",
    "gnaf_pid": "GAVIC424357803",
    "tech_change_status": "Not Planned",
    "program_type": "Fixed Wireless and Satellite Upgrade Program",
    "target_eligibility_quarter": "NA"
   }
  },
  {
   "type": "Feature",
   "geometry": {
    "type": "Point",
    "coordinates": [
     144.56187247,
     -37.00859938
    ]
   },
   "properties": {
    "name": "1788 HEATHCOTE-REDESDALE ROAD MIA MIA 3444",
    "locID": "LOC000094276361",
    "tech": "WIRELESS",
    "upgrade": "NULL_NA",
    "gnaf_pid": "GAVIC424357804",
    "tech_change_status": "Not Planned",
    "program_type": "Fixed Wireless and Satellite Upgrade Program",
    "target_eligibility_quarter": "NA"
   }
  },
  {
   "type": "Feature",
   "geometry": {
    "type": "Point",
    "coordinates": [
     144.56110413,
     -37.00968463
    ]
   },
   "properties": {
    "name": "1791 HEATHCOTE-REDESDALE ROAD MIA MIA 3444",
    "locID": "LOC000046244064",
    "tech": "WIRELESS",
    "upgrade": "NULL_NA",
    "gnaf_pid": "GAVIC424357805",
    "tech_change_status": "Not Planned",
    "program_type": "Fixed Wireless and Satellite Upgrade Program",
    "target_eligibility_quarter": "NA"
   }
  },
  {
   "type": "Feature",
   "geometry": {
    "type": "Point",
    "coordinates": [
     144.65541701,
     -36.95128976
    ]
   },
   "properties": {
    "name": "610 HEATHCOTE-REDESDALE ROAD MIA MIA 3444",
    "locID": "LOC100055386680",
    "tech": "WIRELESS",
    "upgrade": "NULL_NA",
    "gnaf_pid": "GAVIC424357807",
    "tech_change_status": "Not Planned",
    "program_type": "Fixed Wireless and Satellite Upgrade Program",
    "target_eligibility_quarter": "NA"
   }
  },
  {
   "type": "Feature",
   "geometry": {
    "type": "Point",
    "coordinates": [
     144.6534494,
     -36.95288993
    ]
   },
   "properties": {
    "name": "700 HEATHCOTE-REDESDALE ROAD MIA MIA 3444",
    "locID": "LOC000091323221",
    "tech": "WIRELESS",
    "upgrade": "NULL_NA",
    "gnaf_pid": "GAVIC424357809",
    "tech_change_status": "Not Planned",
    "program_type": "Fixed Wireless and Satellite Upgrade Program",
    "target_eligibility_quarter": "NA"
   }
  },
  {
   "type": "Feature",
   "geometry": {
    "type": "Point",
    "coordinates": [
     144.5692624,
     -37.00180758
    ]
   },
   "properties": {
    "name": "LOT 5 KEPLER STREET MIA MIA 3444",
    "locID": "LOC000172418010",
    "tech": "SATELLITE",
    "upgrade": "NULL_NA",
    "gnaf_pid": "GAVIC424469931",
    "tech_change_status": "Not Planned"
   }
  },
  {
   "type": "Feature",
   "geometry": {
    "type": "Point",
    "coordinates": [
     144.66446185,
     -36.99816775
    ]
   },
   "properties": {
    "name": "359 WILD DUCK ROAD MIA MIA 3444",
    "locID": "LOC000114214109",
    "tech": "WIRELESS",
    "upgrade": "NULL_NA",
    "gnaf_pid": "GAVIC424509348",
    "tech_change_status": "Not Planned",
    "program_type": "Fixed Wireless and Satellite Upgrade Program",
    "target_eligibility_quarter": "NA"
   }
  },
  {
   "type": "Feature",
   "geometry": {
    "type": "Point",
    "coordinates": [
     144.63037748,
     -36.9379437
    ]
   },
   "properties": {
    "name": "299 ADAIRS LANE MIA MIA 3444",
    "locID": "LOC000124931729",
    "tech": "WIRELESS",
    "upgrade": "NULL_NA",
    "gnaf_pid": "GAVIC424575956",
    "tech_change_status": "Not Planned",
    "program_type": "Fixed Wireless and Satellite Upgrade Program",
    "target_eligibility_quarter": "NA"
   }
  },
  {
   "type": "Feature",
   "geometry": {
    "type": "Point",
    "coordinates": [
     144.54900964,
     -37.01888265
    ]
   },
   "properties": {
    "name": "55 KNIGHT ROAD MIA MIA 3444",
    "locID": "LOC000105897665",
    "tech": "WIRELESS",
    "upgrade": "NULL_NA",
    "gnaf_pid": "GAVIC424583884",
    "tech_change_status": "Not Planned",
    "program_type": "Fixed Wireless and Satellite Upgrade Program",
    "target_eligibility_quarter": "NA"
   }
  },
  {
   "type": "Feature",
   "geometry": {
    "type": "Point",
    "coordinates": [
     144.62320761,
     -36.92901657
    ]
   },
   "properties": {
    "name": "425 ADAIRS LANE MIA MIA 3444",
    "locID": "LOC000114779699",
    "tech": "WIRELESS",
    "upgrade": "NULL_NA",
    "gnaf_pid": "GAVIC424666862",
    "tech_change_status": "Not Planned",
    "program_type": "Fixed Wireless and Satellite Upgrade Program",
    "target_eligibility_quarter": "NA"
   }
  },
  {
   "type": "Feature",
   "geometry": {
    "type": "Point",
    "coordinates": [
     144.64709375,
     -36.99260641
    ]
   },
   "properties": {
    "name": "376 HEATHCOTE-SPRING PLAINS ROAD MIA MIA 3444",
    "locID": "LOC000115804311",
    "tech": "WIRELESS",
    "upgrade": "NULL_NA",
    "gnaf_pid": "GAVIC424716739",
    "tech_change_status": "Not Planned",
    "program_type": "Fixed Wireless and Satellite Upgrade Program",
    "target_eligibility_quarter": "NA"
   }
  },
  {
   "type": "Feature",
   "geometry": {
    "type": "Point",
    "coordinates": [
     144.63808265,
     -37.00605395
    ]
   },
   "properties": {
    "name": "35 BABBIDGES LANE MIA MIA 3444",
    "locID": "LOC000124814491",
    "tech": "WIRELESS",
    "upgrade": "NULL_NA",
    "gnaf_pid": "GAVIC424778720",
    "tech_change_status": "Not Planned",
    "program_type": "Fixed Wireless and Satellite Upgrade Program",
    "target_eligibility_quarter": "NA"
   }
  },
  {
   "type": "Feature",
   "geometry": {
    "type": "Point",
    "coordinates": [
     144.65032037,
     -36.99322354
    ]
   },
   "properties": {
    "name": "355 HEATHCOTE-SPRING PLAINS ROAD MIA MIA 3444",
    "locID": "LOC000142998432",
    "tech": "WIRELESS",
    "upgrade": "NULL_NA",
    "gnaf_pid": "GAVIC424783548",
    "tech_change_status": "Eligible to Order",
    "program_type": "Fixed Wireless and Satellite Upgrade Program",
    "target_eligibility_quarter": "NA"
   }
  },
  {
   "type": "Feature",
   "geometry": {
    "type": "Point",
    "coordinates": [
     144.59936099,
     -36.98140192
    ]
   },
   "properties": {
    "name": "1925 HEATHCOTE-REDESDALE ROAD MIA MIA 3444",
    "locID": "LOC000115804191",
    "tech": "WIRELESS",
    "upgrade": "NULL_NA",
    "gnaf_pid": "GAVIC424894711",
    "tech_change_status": "Not Planned",
    "program_type": "Fixed Wireless and Satellite Upgrade Program",
    "target_eligibility_quarter": "NA"
   }
  },
  {
   "type": "Feature",
   "geometry": {
    "type": "Point",
    "coordinates": [
     144.54679327,
     -37.0185107
    ]
   },
   "properties": {
    "name": "74 KNIGHT ROAD MIA MIA 3444",
    "locID": "LOC000124818192",
    "tech": "WIRELESS",
    "upgrade": "NULL_NA",
    "gnaf_pid": "GAVIC424913044",
    "tech_change_status": "Not Planned",
    "program_type": "Fixed Wireless and Satellite Upgrade Program",
    "target_eligibility_quarter": "NA"
   }
  },
  {
   "type": "Feature",
   "geometry": {
    "type": "Point",
    "coordinates": [
     144.65284419,
     -36.98060945
    ]
   },
   "properties": {
    "name": "41 RAHEEN LANE MIA MIA 3444",
    "locID": "LOC000124945618",
    "tech": "WIRELESS",
    "upgrade": "NULL_NA",
    "gnaf_pid": "GAVIC425026573",
    "tech_change_status": "Not Planned",
    "program_type": "Fixed Wireless and Satellite Upgrade Program",
    "target_eligibility_quarter": "NA"
   }
  },
  {
   "type": "Feature",
   "geometry": {
    "type": "Point",
    "coordinates": [
     144.59936012,
     -36.98173667
    ]
   },
   "properties": {
    "name": "1307 HEATHCOTE-REDESDALE ROAD MIA MIA 3444",
    "locID": "LOC000138715261",
    "tech": "WIRELESS",
    "upgrade": "NULL_NA",
    "gnaf_pid": "GAVIC425084198",
    "tech_change_status": "Not Planned",
    "program_type": "Fixed Wireless and Satellite Upgrade Program",
    "target_eligibility_quarter": "NA"
   }
  },
  {
   "type": "Feature",
   "geometry": {
    "type": "Point",
    "coordinates": [
     144.59068815,
     -36.98849131
    ]
   },
   "properties": {
    "name": "1415 HEATHCOTE-REDESDALE ROAD MIA MIA 3444",
    "locID": "LOC000146779223",
    "tech": "WIRELESS",
    "upgrade": "NULL_NA",
    "gnaf_pid": "GAVIC425084199",
    "tech_change_status": "Not Planned",
    "program_type": "Fixed Wireless and Satellite Upgrade Program",
    "target_eligibility_quarter": "NA"
   }
  },
  {
   "type": "Feature",
   "geometry": {
    "type": "Point",
    "coordinates": [
     144.54456955,
     -37.01856041
    ]
   },
   "properties": {
    "name": "90 KNIGHT ROAD MIA MIA 3444",
    "locID": "LOC000139242172",
    "tech": "WIRELESS",
    "upgrade": "NULL_NA",
    "gnaf_pid": "GAVIC425101025",
    "tech_change_status": "Not Planned",
    "program_type": "Fixed Wireless and Satellite Upgrade Program",
    "target_eligibility_quarter": "NA"
   }
  },
  {
   "type": "Feature",
   "geometry": {
    "type": "Point",
    "coordinates": [
     144.64193453,
     -37.00467961
    ]
   },
   "properties": {
    "name": "567 HEATHCOTE-SPRING PLAINS ROAD MIA MIA 3444",
    "locID": "LOC000167347584",
    "tech": "WIRELESS",
    "upgrade": "NULL_NA",
    "gnaf_pid": "GAVIC425465490",
    "tech_change_status": "Not Planned",
    "program_type": "Fixed Wireless and Satellite Upgrade Program",
    "target_eligibility_quarter": "NA"
   }
  },
  {
   "type": "Feature",
   "geometry": {
    "type": "Point",
    "coordinates": [
     144.57021711,
     -37.0047824
    ]
   },
   "properties": {
    "name": "29 VALLEY ROAD MIA MIA 3444",
    "locID": "LOC000146068932",
    "tech": "SATELLITE",
    "upgrade": "WIRELESS",
    "gnaf_pid": "GAVIC425744122",
    "tech_change_status": "Eligible to Order",
    "program_type": "Fixed Wireless and Satellite Upgrade Program",
    "target_eligibility_quarter": "NA"
   }
  },
  {
   "type": "Feature",
   "geometry": {
    "type": "Point",
    "coordinates": [
     144.56967431,
     -37.00206763
    ]
   },
   "properties": {
    "name": "5 KEPLER STREET MIA MIA 3444",
    "locID": "LOC000172418010",
    "tech": "SATELLITE",
    "upgrade": "NULL_NA",
    "gnaf_pid": "GAVIC719204825",
    "tech_change_status": "Not Planned"
   }
  },
  {
   "type": "Feature",
   "geometry": {
    "type": "Point",
    "coordinates": [
     144.57383781,
     -36.99763776
    ]
   },
   "properties": {
    "name": "22 WESTBLADE ROAD MIA MIA 3444",
    "locID": "LOC100072029194",
    "tech": "WIRELESS",
    "upgrade": "NULL_NA",
    "gnaf_pid": "GAVIC719322146",
    "tech_change_status": "Not Planned",
    "program_type": "Fixed Wireless and Satellite Upgrade Program",
    "target_eligibility_quarter": "NA"
   }
  },
  {
   "type": "Feature",
   "geometry": {
    "type": "Point",
    "coordinates": [
     144.56613466,
     -37.00348207
    ]
   },
   "properties": {
    "name": "15 KEPLER STREET MIA MIA 3444",
    "locID": "LOC100072029253",
    "tech": "WIRELESS",
    "upgrade": "NULL_NA",
    "gnaf_pid": "GAVIC719506716",
    "tech_change_status": "Not Planned",
    "program_type": "Fixed Wireless and Satellite Upgrade Program",
    "target_eligibility_quarter": "NA"
   }
  },
  {
   "type": "Feature",
   "geometry": {
    "type": "Point",
    "coordinates": [
     144.60874551,
     -36.96793012
    ]
   },
   "properties": {
    "name": "86 MEADOW VALLEY ROAD MIA MIA 3444",
    "locID": "LOC000185649179",
    "tech": "SATELLITE",
    "upgrade": "WIRELESS",
    "gnaf_pid": "GAVIC720356730",
    "tech_change_status": "Eligible to Order",
    "program_type": "Fixed Wireless and Satellite Upgrade Program",
    "target_eligibility_quarter": "NA"
   }
  },
  {
   "type": "Feature",
   "geometry": {
    "type": "Point",
    "coordinates": [
     144.68414136,
     -36.98355691
    ]
   },
   "properties": {
    "name": "168 WATKINS LANE MIA MIA 3444",
    "locID": "LOC000184965172",
    "tech": "WIRELESS",
    "upgrade": "NULL_NA",
    "gnaf_pid": "GAVIC720449604",
    "tech_change_status": "Not Planned",
    "program_type": "Fixed Wireless and Satellite Upgrade Program",
    "target_eligibility_quarter": "NA"
   }
  },
  {
   "type": "Feature",
   "geometry": {
    "type": "Point",
    "coordinates": [
     144.62634732,
     -36.93250132
    ]
   },
   "properties": {
    "name": "365 ADAIRS LANE MIA MIA 3444",
    "locID": "LOC100081676866",
    "tech": "WIRELESS",
    "upgrade": "NULL_NA",
    "gnaf_pid": "GAVIC720822487",
    "tech_change_status": "Not Planned",
    "program_type": "Fixed Wireless and Satellite Upgrade Program",
    "target_eligibility_quarter": "NA"
   }
  },
  {
   "type": "Feature",
   "geometry": {
    "type": "Point",
    "coordinates": [
     144.56312276,
     -37.00807051
    ]
   },
   "properties": {
    "name": "1767-1769 HEATHCOTE-REDESDALE ROAD MIA MIA 3444",
    "locID": "LOC100081706389",
    "tech": "WIRELESS",
    "upgrade": "NULL_NA",
    "gnaf_pid": "GAVIC720840803",
    "tech_change_status": "Not Planned",
    "program_type": "Fixed Wireless and Satellite Upgrade Program",
    "target_eligibility_quarter": "NA"
   }
  },
  {
   "type": "Feature",
   "geometry": {
    "type": "Point",
    "coordinates": [
     144.61676449,
     -37.00393439
    ]
   },
   "properties": {
    "name": "169 MCDONALDS LANE MIA MIA 3444",
    "locID": "LOC100079546393",
    "tech": "WIRELESS",
    "upgrade": "NULL_NA",
    "gnaf_pid": "GAVIC720943252",
    "tech_change_status": "Not Planned",
    "program_type": "Fixed Wireless and Satellite Upgrade Program",
    "target_eligibility_quarter": "NA"
   }
  }
 ]
}