{
 "type": "FeatureCollection",
 "generated": "2025-01-23T22:09:35.349118",
 "suburb": "MIGA LAKE",
 "features": [
  {
   "type": "Feature",
   "geometry": {
    "type": "Point",
    "coordinates": [
     141.63228054,
     -36.93967006
    ]
   },
   "properties": {
    "name": "7227 NHILL-HARROW ROAD MIGA LAKE 3409",
    "locID": "LOC000100844515",
    "tech": "NULL",
    "upgrade": "NULL_NA",
    "gnaf_pid": "GAVIC419669510",
    "tech_change_status": "Not Planned"
   }
  },
  {
   "type": "Feature",
   "geometry": {
    "type": "Point",
    "coordinates": [
     141.65014609,
     -36.86565135
    ]
   },
   "properties": {
    "name": "6373 NHILL-HARROW ROAD MIGA LAKE 3409",
    "locID": "LOC000124588299",
    "tech": "NULL",
    "upgrade": "NULL_NA",
    "gnaf_pid": "GAVIC419986987",
    "tech_change_status": "Not Planned"
   }
  },
  {
   "type": "Feature",
   "geometry": {
    "type": "Point",
    "coordinates": [
     141.63803215,
     -36.83217574
    ]
   },
   "properties": {
    "name": "6063 NHILL-HARROW ROAD MIGA LAKE 3409",
    "locID": "LOC000124588281",
    "tech": "NULL",
    "upgrade": "NULL_NA",
    "gnaf_pid": "GAVIC420265786",
    "tech_change_status": "Not Planned"
   }
  },
  {
   "type": "Feature",
   "geometry": {
    "type": "Point",
    "coordinates": [
     141.64457096,
     -36.85737537
    ]
   },
   "properties": {
    "name": "6269 NHILL-HARROW ROAD MIGA LAKE 3409",
    "locID": "LOC000106406045",
    "tech": "NULL",
    "upgrade": "NULL_NA",
    "gnaf_pid": "GAVIC420580377",
    "tech_change_status": "Not Planned"
   }
  },
  {
   "type": "Feature",
   "geometry": {
    "type": "Point",
    "coordinates": [
     141.63747756,
     -36.92214689
    ]
   },
   "properties": {
    "name": "7024 NHILL-HARROW ROAD MIGA LAKE 3409",
    "locID": "LOC000007618728",
    "tech": "NULL",
    "upgrade": "NULL_NA",
    "gnaf_pid": "GAVIC420689289",
    "tech_change_status": "Not Planned"
   }
  },
  {
   "type": "Feature",
   "geometry": {
    "type": "Point",
    "coordinates": [
     141.63972178,
     -36.91514166
    ]
   },
   "properties": {
    "name": "6946 NHILL-HARROW ROAD MIGA LAKE 3409",
    "locID": "LOC000015189045",
    "tech": "NULL",
    "upgrade": "NULL_NA",
    "gnaf_pid": "GAVIC420689290",
    "tech_change_status": "Not Planned"
   }
  },
  {
   "type": "Feature",
   "geometry": {
    "type": "Point",
    "coordinates": [
     141.64067788,
     -36.9321081
    ]
   },
   "properties": {
    "name": "48 SCHULTZ ROAD MIGA LAKE 3409",
    "locID": "LOC000019338550",
    "tech": "NULL",
    "upgrade": "NULL_NA",
    "gnaf_pid": "GAVIC420893444",
    "tech_change_status": "Not Planned"
   }
  },
  {
   "type": "Feature",
   "geometry": {
    "type": "Point",
    "coordinates": [
     141.59693084,
     -36.88514136
    ]
   },
   "properties": {
    "name": "6009 WIMMERA HIGHWAY MIGA LAKE 3409",
    "locID": "LOC000024812137",
    "tech": "NULL",
    "upgrade": "NULL_NA",
    "gnaf_pid": "GAVIC421585500",
    "tech_change_status": "Not Planned"
   }
  },
  {
   "type": "Feature",
   "geometry": {
    "type": "Point",
    "coordinates": [
     141.62837501,
     -36.94871098
    ]
   },
   "properties": {
    "name": "7332 NHILL-HARROW ROAD MIGA LAKE 3409",
    "locID": "LOC000021156345",
    "tech": "NULL",
    "upgrade": "NULL_NA",
    "gnaf_pid": "GAVIC421585501",
    "tech_change_status": "Not Planned"
   }
  },
  {
   "type": "Feature",
   "geometry": {
    "type": "Point",
    "coordinates": [
     141.59313425,
     -36.88516201
    ]
   },
   "properties": {
    "name": "6042 WIMMERA HIGHWAY MIGA LAKE 3409",
    "locID": "LOC000025058900",
    "tech": "SATELLITE",
    "upgrade": "NULL_NA",
    "gnaf_pid": "GAVIC421823019",
    "tech_change_status": "Not Planned"
   }
  },
  {
   "type": "Feature",
   "geometry": {
    "type": "Point",
    "coordinates": [
     141.63455219,
     -36.93149607
    ]
   },
   "properties": {
    "name": "7132 NHILL-HARROW ROAD MIGA LAKE 3409",
    "locID": "LOC000036111617",
    "tech": "NULL",
    "upgrade": "NULL_NA",
    "gnaf_pid": "GAVIC421878926",
    "tech_change_status": "Not Planned"
   }
  },
  {
   "type": "Feature",
   "geometry": {
    "type": "Point",
    "coordinates": [
     141.63001563,
     -36.94349086
    ]
   },
   "properties": {
    "name": "7272 NHILL-HARROW ROAD MIGA LAKE 3409",
    "locID": "LOC000081485020",
    "tech": "SATELLITE",
    "upgrade": "NULL_NA",
    "gnaf_pid": "GAVIC421878927",
    "tech_change_status": "Not Planned"
   }
  },
  {
   "type": "Feature",
   "geometry": {
    "type": "Point",
    "coordinates": [
     141.6507171,
     -36.87799178
    ]
   },
   "properties": {
    "name": "5515 WIMMERA HIGHWAY MIGA LAKE 3409",
    "locID": "LOC000011941837",
    "tech": "NULL",
    "upgrade": "NULL_NA",
    "gnaf_pid": "GAVIC422121003",
    "tech_change_status": "Not Planned"
   }
  },
  {
   "type": "Feature",
   "geometry": {
    "type": "Point",
    "coordinates": [
     141.64142389,
     -36.81860639
    ]
   },
   "properties": {
    "name": "5810 NHILL-HARROW ROAD MIGA LAKE 3409",
    "locID": "LOC000068113419",
    "tech": "NULL",
    "upgrade": "NULL_NA",
    "gnaf_pid": "GAVIC424274170",
    "tech_change_status": "Not Planned"
   }
  }
 ]
}