{
 "type": "FeatureCollection",
 "generated": "2025-01-23T22:28:15.523600",
 "suburb": "MIRRANATWA",
 "features": [
  {
   "type": "Feature",
   "geometry": {
    "type": "Point",
    "coordinates": [
     142.3682804,
     -37.40780018
    ]
   },
   "properties": {
    "name": "115 JENSENS ROAD MIRRANATWA 3294",
    "locID": "LOC000106183328",
    "tech": "SATELLITE",
    "upgrade": "NULL_NA",
    "gnaf_pid": "GAVIC420678324",
    "tech_change_status": "Not Planned"
   }
  },
  {
   "type": "Feature",
   "geometry": {
    "type": "Point",
    "coordinates": [
     142.36112111,
     -37.40667185
    ]
   },
   "properties": {
    "name": "177 JENSENS ROAD MIRRANATWA 3294",
    "locID": "LOC000037953887",
    "tech": "NULL",
    "upgrade": "NULL_NA",
    "gnaf_pid": "GAVIC421944109",
    "tech_change_status": "Not Planned"
   }
  },
  {
   "type": "Feature",
   "geometry": {
    "type": "Point",
    "coordinates": [
     142.38965411,
     -37.39170579
    ]
   },
   "properties": {
    "name": "137 H ADDINSALLS ROAD MIRRANATWA 3294",
    "locID": "LOC000004411437",
    "tech": "SATELLITE",
    "upgrade": "NULL_NA",
    "gnaf_pid": "GAVIC422295740",
    "tech_change_status": "Not Planned"
   }
  },
  {
   "type": "Feature",
   "geometry": {
    "type": "Point",
    "coordinates": [
     142.3892536,
     -37.39622243
    ]
   },
   "properties": {
    "name": "86 H ADDINSALLS ROAD MIRRANATWA 3294",
    "locID": "LOC000079327480",
    "tech": "NULL",
    "upgrade": "NULL_NA",
    "gnaf_pid": "GAVIC422295741",
    "tech_change_status": "Not Planned"
   }
  },
  {
   "type": "Feature",
   "geometry": {
    "type": "Point",
    "coordinates": [
     142.42338148,
     -37.38246759
    ]
   },
   "properties": {
    "name": "17 LONGREACH LANE MIRRANATWA 3294",
    "locID": "LOC000029263406",
    "tech": "SATELLITE",
    "upgrade": "NULL_NA",
    "gnaf_pid": "GAVIC422305192",
    "tech_change_status": "Not Planned"
   }
  },
  {
   "type": "Feature",
   "geometry": {
    "type": "Point",
    "coordinates": [
     142.39584263,
     -37.40551853
    ]
   },
   "properties": {
    "name": "149 MIRRANATWA SCHOOL ROAD MIRRANATWA 3294",
    "locID": "LOC000042647044",
    "tech": "SATELLITE",
    "upgrade": "NULL_NA",
    "gnaf_pid": "GAVIC422310180",
    "tech_change_status": "Not Planned"
   }
  },
  {
   "type": "Feature",
   "geometry": {
    "type": "Point",
    "coordinates": [
     142.39553714,
     -37.4054951
    ]
   },
   "properties": {
    "name": "151 MIRRANATWA SCHOOL ROAD MIRRANATWA 3294",
    "locID": "LOC000070091950",
    "tech": "NULL",
    "upgrade": "NULL_NA",
    "gnaf_pid": "GAVIC422310181",
    "tech_change_status": "Not Planned"
   }
  },
  {
   "type": "Feature",
   "geometry": {
    "type": "Point",
    "coordinates": [
     142.38372605,
     -37.40402965
    ]
   },
   "properties": {
    "name": "257 MIRRANATWA SCHOOL ROAD MIRRANATWA 3294",
    "locID": "LOC000082186687",
    "tech": "SATELLITE",
    "upgrade": "NULL_NA",
    "gnaf_pid": "GAVIC422310182",
    "tech_change_status": "Not Planned"
   }
  },
  {
   "type": "Feature",
   "geometry": {
    "type": "Point",
    "coordinates": [
     142.41316013,
     -37.40752849
    ]
   },
   "properties": {
    "name": "198 MIRRANATWA ROAD MIRRANATWA 3294",
    "locID": "LOC000124645945",
    "tech": "NULL",
    "upgrade": "NULL_NA",
    "gnaf_pid": "GAVIC422310183",
    "tech_change_status": "Not Planned"
   }
  },
  {
   "type": "Feature",
   "geometry": {
    "type": "Point",
    "coordinates": [
     142.41244678,
     -37.40657769
    ]
   },
   "properties": {
    "name": "209 MIRRANATWA ROAD MIRRANATWA 3294",
    "locID": "LOC000027051711",
    "tech": "NULL",
    "upgrade": "NULL_NA",
    "gnaf_pid": "GAVIC422310184",
    "tech_change_status": "Not Planned"
   }
  },
  {
   "type": "Feature",
   "geometry": {
    "type": "Point",
    "coordinates": [
     142.41887079,
     -37.39733445
    ]
   },
   "properties": {
    "name": "335 MIRRANATWA ROAD MIRRANATWA 3294",
    "locID": "LOC000124659665",
    "tech": "NULL",
    "upgrade": "NULL_NA",
    "gnaf_pid": "GAVIC422310187",
    "tech_change_status": "Not Planned"
   }
  },
  {
   "type": "Feature",
   "geometry": {
    "type": "Point",
    "coordinates": [
     142.4199833,
     -37.39632569
    ]
   },
   "properties": {
    "name": "342 MIRRANATWA ROAD MIRRANATWA 3294",
    "locID": "LOC000082973915",
    "tech": "NULL",
    "upgrade": "NULL_NA",
    "gnaf_pid": "GAVIC422310188",
    "tech_change_status": "Not Planned"
   }
  },
  {
   "type": "Feature",
   "geometry": {
    "type": "Point",
    "coordinates": [
     142.41920926,
     -37.38043573
    ]
   },
   "properties": {
    "name": "519 MIRRANATWA ROAD MIRRANATWA 3294",
    "locID": "LOC000124669135",
    "tech": "SATELLITE",
    "upgrade": "NULL_NA",
    "gnaf_pid": "GAVIC422310189",
    "tech_change_status": "Not Planned"
   }
  },
  {
   "type": "Feature",
   "geometry": {
    "type": "Point",
    "coordinates": [
     142.37781846,
     -37.40111881
    ]
   },
   "properties": {
    "name": "21 RED HILL ROAD MIRRANATWA 3294",
    "locID": "LOC000103981161",
    "tech": "SATELLITE",
    "upgrade": "NULL_NA",
    "gnaf_pid": "GAVIC422319039",
    "tech_change_status": "Not Planned"
   }
  },
  {
   "type": "Feature",
   "geometry": {
    "type": "Point",
    "coordinates": [
     142.3849978,
     -37.43076586
    ]
   },
   "properties": {
    "name": "2677 VICTORIA VALLEY ROAD MIRRANATWA 3294",
    "locID": "LOC000124655174",
    "tech": "SATELLITE",
    "upgrade": "NULL_NA",
    "gnaf_pid": "GAVIC422330884",
    "tech_change_status": "Not Planned"
   }
  },
  {
   "type": "Feature",
   "geometry": {
    "type": "Point",
    "coordinates": [
     142.39314865,
     -37.4291321
    ]
   },
   "properties": {
    "name": "2746 VICTORIA VALLEY ROAD MIRRANATWA 3294",
    "locID": "LOC000016890622",
    "tech": "SATELLITE",
    "upgrade": "NULL_NA",
    "gnaf_pid": "GAVIC422330885",
    "tech_change_status": "Not Planned"
   }
  },
  {
   "type": "Feature",
   "geometry": {
    "type": "Point",
    "coordinates": [
     142.41232528,
     -37.40492073
    ]
   },
   "properties": {
    "name": "225 MIRRANATWA ROAD MIRRANATWA 3294",
    "locID": "LOC000082587314",
    "tech": "SATELLITE",
    "upgrade": "NULL_NA",
    "gnaf_pid": "GAVIC423560901",
    "tech_change_status": "Not Planned"
   }
  },
  {
   "type": "Feature",
   "geometry": {
    "type": "Point",
    "coordinates": [
     142.36151865,
     -37.41678008
    ]
   },
   "properties": {
    "name": "109 MCPHERSON LANE MIRRANATWA 3294",
    "locID": "LOC000124632089",
    "tech": "SATELLITE",
    "upgrade": "NULL_NA",
    "gnaf_pid": "GAVIC423888448",
    "tech_change_status": "Not Planned"
   }
  },
  {
   "type": "Feature",
   "geometry": {
    "type": "Point",
    "coordinates": [
     142.3494433,
     -37.39760651
    ]
   },
   "properties": {
    "name": "38 BURNT CREEK ROAD MIRRANATWA 3294",
    "locID": "LOC000107910422",
    "tech": "NULL",
    "upgrade": "NULL_NA",
    "gnaf_pid": "GAVIC423986454",
    "tech_change_status": "Not Planned"
   }
  },
  {
   "type": "Feature",
   "geometry": {
    "type": "Point",
    "coordinates": [
     142.44378399,
     -37.42162943
    ]
   },
   "properties": {
    "name": "25 HENHAM TRACK MIRRANATWA 3294",
    "locID": "LOC000114184700",
    "tech": "NULL",
    "upgrade": "NULL_NA",
    "gnaf_pid": "GAVIC424752465",
    "tech_change_status": "Not Planned"
   }
  },
  {
   "type": "Feature",
   "geometry": {
    "type": "Point",
    "coordinates": [
     142.38214094,
     -37.41439876
    ]
   },
   "properties": {
    "name": "203 BACK ROAD MIRRANATWA 3294",
    "locID": "LOC000124650393",
    "tech": "NULL",
    "upgrade": "NULL_NA",
    "gnaf_pid": "GAVIC424962756",
    "tech_change_status": "Not Planned"
   }
  },
  {
   "type": "Feature",
   "geometry": {
    "type": "Point",
    "coordinates": [
     142.39880814,
     -37.40583488
    ]
   },
   "properties": {
    "name": "121 MIRRANATWA SCHOOL ROAD MIRRANATWA 3294",
    "locID": "LOC000124636745",
    "tech": "NULL",
    "upgrade": "NULL_NA",
    "gnaf_pid": "GAVIC424969431",
    "tech_change_status": "Not Planned"
   }
  }
 ]
}