{
 "type": "FeatureCollection",
 "generated": "2026-04-20T07:22:31.818459",
 "suburb": "MOOLORT",
 "features": [
  {
   "type": "Feature",
   "geometry": {
    "type": "Point",
    "coordinates": [
     143.90484829,
     -37.10450232
    ]
   },
   "properties": {
    "name": "1107 RODBOROUGH ROAD MOOLORT 3465",
    "locID": "LOC000029398651",
    "tech": "WIRELESS",
    "upgrade": "NULL_NA",
    "gnaf_pid": "GAVIC414350322",
    "tech_change_status": "Not Planned",
    "program_type": "Fixed Wireless and Satellite Upgrade Program",
    "target_eligibility_quarter": "NA"
   }
  },
  {
   "type": "Feature",
   "geometry": {
    "type": "Point",
    "coordinates": [
     143.91945844,
     -37.07473925
    ]
   },
   "properties": {
    "name": "2828 PYRENEES HIGHWAY MOOLORT 3465",
    "locID": "LOC000100841184",
    "tech": "SATELLITE",
    "upgrade": "NULL_NA",
    "gnaf_pid": "GAVIC419671598",
    "tech_change_status": "Not Planned"
   }
  },
  {
   "type": "Feature",
   "geometry": {
    "type": "Point",
    "coordinates": [
     143.95923634,
     -37.02860446
    ]
   },
   "properties": {
    "name": "764 JOYCES CREEK-BARINGHUP ROAD MOOLORT 3465",
    "locID": "LOC000004437402",
    "tech": "WIRELESS",
    "upgrade": "NULL_NA",
    "gnaf_pid": "GAVIC419728465",
    "tech_change_status": "Not Planned",
    "program_type": "Fixed Wireless and Satellite Upgrade Program",
    "target_eligibility_quarter": "NA"
   }
  },
  {
   "type": "Feature",
   "geometry": {
    "type": "Point",
    "coordinates": [
     143.95874627,
     -37.0852207
    ]
   },
   "properties": {
    "name": "2489 PYRENEES HIGHWAY MOOLORT 3465",
    "locID": "LOC000068352015",
    "tech": "WIRELESS",
    "upgrade": "NULL_NA",
    "gnaf_pid": "GAVIC419736038",
    "tech_change_status": "Not Planned",
    "program_type": "Fixed Wireless and Satellite Upgrade Program",
    "target_eligibility_quarter": "NA"
   }
  },
  {
   "type": "Feature",
   "geometry": {
    "type": "Point",
    "coordinates": [
     143.93286785,
     -37.07984263
    ]
   },
   "properties": {
    "name": "2734 PYRENEES HIGHWAY MOOLORT 3465",
    "locID": "LOC000102753264",
    "tech": "SATELLITE",
    "upgrade": "NULL_NA",
    "gnaf_pid": "GAVIC419989159",
    "tech_change_status": "Not Planned"
   }
  },
  {
   "type": "Feature",
   "geometry": {
    "type": "Point",
    "coordinates": [
     143.96103041,
     -37.03246102
    ]
   },
   "properties": {
    "name": "717 JOYCES CREEK-BARINGHUP ROAD MOOLORT 3465",
    "locID": "LOC000071637409",
    "tech": "WIRELESS",
    "upgrade": "NULL_NA",
    "gnaf_pid": "GAVIC419989162",
    "tech_change_status": "Not Planned",
    "program_type": "Fixed Wireless and Satellite Upgrade Program",
    "target_eligibility_quarter": "NA"
   }
  },
  {
   "type": "Feature",
   "geometry": {
    "type": "Point",
    "coordinates": [
     143.89352125,
     -37.0869855
    ]
   },
   "properties": {
    "name": "218 COTSWOLD ROAD MOOLORT 3465",
    "locID": "LOC000098866393",
    "tech": "SATELLITE",
    "upgrade": "NULL_NA",
    "gnaf_pid": "GAVIC420026618",
    "tech_change_status": "Not Planned"
   }
  },
  {
   "type": "Feature",
   "geometry": {
    "type": "Point",
    "coordinates": [
     143.94551518,
     -37.11132804
    ]
   },
   "properties": {
    "name": "39 CLARKES ROAD MOOLORT 3465",
    "locID": "LOC000042370754",
    "tech": "NULL",
    "upgrade": "NULL_NA",
    "gnaf_pid": "GAVIC420028733",
    "tech_change_status": "Not Planned"
   }
  },
  {
   "type": "Feature",
   "geometry": {
    "type": "Point",
    "coordinates": [
     143.9489721,
     -37.0855819
    ]
   },
   "properties": {
    "name": "2575 PYRENEES HIGHWAY MOOLORT 3465",
    "locID": "LOC000003889201",
    "tech": "WIRELESS",
    "upgrade": "NULL_NA",
    "gnaf_pid": "GAVIC420073462",
    "tech_change_status": "Not Planned",
    "program_type": "Fixed Wireless and Satellite Upgrade Program",
    "target_eligibility_quarter": "NA"
   }
  },
  {
   "type": "Feature",
   "geometry": {
    "type": "Point",
    "coordinates": [
     143.925516,
     -37.10476397
    ]
   },
   "properties": {
    "name": "1290 RODBOROUGH ROAD MOOLORT 3465",
    "locID": "LOC000069760552",
    "tech": "WIRELESS",
    "upgrade": "NULL_NA",
    "gnaf_pid": "GAVIC420252468",
    "tech_change_status": "Not Planned",
    "program_type": "Fixed Wireless and Satellite Upgrade Program",
    "target_eligibility_quarter": "NA"
   }
  },
  {
   "type": "Feature",
   "geometry": {
    "type": "Point",
    "coordinates": [
     143.9270975,
     -37.02480024
    ]
   },
   "properties": {
    "name": "252 BOUNDARY ROAD MOOLORT 3465",
    "locID": "LOC000026869601",
    "tech": "WIRELESS",
    "upgrade": "NULL_NA",
    "gnaf_pid": "GAVIC420252483",
    "tech_change_status": "Not Planned",
    "program_type": "Fixed Wireless and Satellite Upgrade Program",
    "target_eligibility_quarter": "NA"
   }
  },
  {
   "type": "Feature",
   "geometry": {
    "type": "Point",
    "coordinates": [
     143.89691695,
     -37.10454974
    ]
   },
   "properties": {
    "name": "1037 RODBOROUGH ROAD MOOLORT 3465",
    "locID": "LOC000063657656",
    "tech": "WIRELESS",
    "upgrade": "NULL_NA",
    "gnaf_pid": "GAVIC420351118",
    "tech_change_status": "Not Planned",
    "program_type": "Fixed Wireless and Satellite Upgrade Program",
    "target_eligibility_quarter": "NA"
   }
  },
  {
   "type": "Feature",
   "geometry": {
    "type": "Point",
    "coordinates": [
     143.94451125,
     -37.0845362
    ]
   },
   "properties": {
    "name": "2613 PYRENEES HIGHWAY MOOLORT 3465",
    "locID": "LOC000094950544",
    "tech": "SATELLITE",
    "upgrade": "NULL_NA",
    "gnaf_pid": "GAVIC420973919",
    "tech_change_status": "Not Planned"
   }
  },
  {
   "type": "Feature",
   "geometry": {
    "type": "Point",
    "coordinates": [
     143.93804998,
     -37.0160446
    ]
   },
   "properties": {
    "name": "400 MOOLORT ROAD MOOLORT 3465",
    "locID": "LOC000012787110",
    "tech": "WIRELESS",
    "upgrade": "NULL_NA",
    "gnaf_pid": "GAVIC421154077",
    "tech_change_status": "Not Planned",
    "program_type": "Fixed Wireless and Satellite Upgrade Program",
    "target_eligibility_quarter": "NA"
   }
  },
  {
   "type": "Feature",
   "geometry": {
    "type": "Point",
    "coordinates": [
     143.94871408,
     -37.0844407
    ]
   },
   "properties": {
    "name": "2580 PYRENEES HIGHWAY MOOLORT 3465",
    "locID": "LOC000096433080",
    "tech": "SATELLITE",
    "upgrade": "NULL_NA",
    "gnaf_pid": "GAVIC421162140",
    "tech_change_status": "Not Planned"
   }
  },
  {
   "type": "Feature",
   "geometry": {
    "type": "Point",
    "coordinates": [
     143.9397904,
     -37.08264326
    ]
   },
   "properties": {
    "name": "2667 PYRENEES HIGHWAY MOOLORT 3465",
    "locID": "LOC000081459633",
    "tech": "SATELLITE",
    "upgrade": "NULL_NA",
    "gnaf_pid": "GAVIC421170941",
    "tech_change_status": "Not Planned"
   }
  },
  {
   "type": "Feature",
   "geometry": {
    "type": "Point",
    "coordinates": [
     143.94656851,
     -37.10744514
    ]
   },
   "properties": {
    "name": "1480 RODBOROUGH ROAD MOOLORT 3465",
    "locID": "LOC000049873105",
    "tech": "WIRELESS",
    "upgrade": "NULL_NA",
    "gnaf_pid": "GAVIC421236864",
    "tech_change_status": "Not Planned",
    "program_type": "Fixed Wireless and Satellite Upgrade Program",
    "target_eligibility_quarter": "NA"
   }
  },
  {
   "type": "Feature",
   "geometry": {
    "type": "Point",
    "coordinates": [
     143.86870003,
     -37.05937534
    ]
   },
   "properties": {
    "name": "3347 PYRENEES HIGHWAY MOOLORT 3465",
    "locID": "LOC000029351072",
    "tech": "WIRELESS",
    "upgrade": "NULL_NA",
    "gnaf_pid": "GAVIC421500328",
    "tech_change_status": "Not Planned",
    "program_type": "Fixed Wireless and Satellite Upgrade Program",
    "target_eligibility_quarter": "NA"
   }
  },
  {
   "type": "Feature",
   "geometry": {
    "type": "Point",
    "coordinates": [
     143.90533604,
     -37.06921101
    ]
   },
   "properties": {
    "name": "2998 PYRENEES HIGHWAY MOOLORT 3465",
    "locID": "LOC000027154256",
    "tech": "WIRELESS",
    "upgrade": "NULL_NA",
    "gnaf_pid": "GAVIC421529549",
    "tech_change_status": "Not Planned",
    "program_type": "Fixed Wireless and Satellite Upgrade Program",
    "target_eligibility_quarter": "NA"
   }
  },
  {
   "type": "Feature",
   "geometry": {
    "type": "Point",
    "coordinates": [
     143.91241015,
     -37.05975215
    ]
   },
   "properties": {
    "name": "130 BUFTONS LANE MOOLORT 3465",
    "locID": "LOC000057802089",
    "tech": "WIRELESS",
    "upgrade": "NULL_NA",
    "gnaf_pid": "GAVIC421829092",
    "tech_change_status": "Not Planned",
    "program_type": "Fixed Wireless and Satellite Upgrade Program",
    "target_eligibility_quarter": "NA"
   }
  },
  {
   "type": "Feature",
   "geometry": {
    "type": "Point",
    "coordinates": [
     143.92578011,
     -37.0519564
    ]
   },
   "properties": {
    "name": "103 KEYSTONE MINE ROAD MOOLORT 3465",
    "locID": "LOC000019355874",
    "tech": "WIRELESS",
    "upgrade": "NULL_NA",
    "gnaf_pid": "GAVIC421897476",
    "tech_change_status": "Not Planned",
    "program_type": "Fixed Wireless and Satellite Upgrade Program",
    "target_eligibility_quarter": "NA"
   }
  },
  {
   "type": "Feature",
   "geometry": {
    "type": "Point",
    "coordinates": [
     143.89138565,
     -37.10366841
    ]
   },
   "properties": {
    "name": "991 RODBOROUGH ROAD MOOLORT 3465",
    "locID": "LOC000071970783",
    "tech": "WIRELESS",
    "upgrade": "NULL_NA",
    "gnaf_pid": "GAVIC421933569",
    "tech_change_status": "Not Planned",
    "program_type": "Fixed Wireless and Satellite Upgrade Program",
    "target_eligibility_quarter": "NA"
   }
  },
  {
   "type": "Feature",
   "geometry": {
    "type": "Point",
    "coordinates": [
     143.9420699,
     -36.99257595
    ]
   },
   "properties": {
    "name": "705 BARINGHUP ROAD MOOLORT 3465",
    "locID": "LOC000101645704",
    "tech": "WIRELESS",
    "upgrade": "NULL_NA",
    "gnaf_pid": "GAVIC423746337",
    "tech_change_status": "Not Planned",
    "program_type": "Fixed Wireless and Satellite Upgrade Program",
    "target_eligibility_quarter": "NA"
   }
  },
  {
   "type": "Feature",
   "geometry": {
    "type": "Point",
    "coordinates": [
     143.94756553,
     -37.0057112
    ]
   },
   "properties": {
    "name": "249 MOOLORT ROAD MOOLORT 3465",
    "locID": "LOC000013863785",
    "tech": "WIRELESS",
    "upgrade": "NULL_NA",
    "gnaf_pid": "GAVIC423755283",
    "tech_change_status": "Not Planned",
    "program_type": "Fixed Wireless and Satellite Upgrade Program",
    "target_eligibility_quarter": "NA"
   }
  },
  {
   "type": "Feature",
   "geometry": {
    "type": "Point",
    "coordinates": [
     143.92206594,
     -37.05222888
    ]
   },
   "properties": {
    "name": "60 KEYSTONE MINE ROAD MOOLORT 3465",
    "locID": "LOC000124793281",
    "tech": "WIRELESS",
    "upgrade": "NULL_NA",
    "gnaf_pid": "GAVIC424448782",
    "tech_change_status": "Not Planned",
    "program_type": "Fixed Wireless and Satellite Upgrade Program",
    "target_eligibility_quarter": "NA"
   }
  },
  {
   "type": "Feature",
   "geometry": {
    "type": "Point",
    "coordinates": [
     143.93544853,
     -37.08116275
    ]
   },
   "properties": {
    "name": "2703 PYRENEES HIGHWAY MOOLORT 3465",
    "locID": "LOC000124816805",
    "tech": "SATELLITE",
    "upgrade": "NULL_NA",
    "gnaf_pid": "GAVIC424628549",
    "tech_change_status": "Not Planned"
   }
  },
  {
   "type": "Feature",
   "geometry": {
    "type": "Point",
    "coordinates": [
     143.95533048,
     -37.10603257
    ]
   },
   "properties": {
    "name": "1562 RODBOROUGH ROAD MOOLORT 3465",
    "locID": "LOC100072030407",
    "tech": "WIRELESS",
    "upgrade": "NULL_NA",
    "gnaf_pid": "GAVIC718988259",
    "tech_change_status": "Not Planned",
    "program_type": "Fixed Wireless and Satellite Upgrade Program",
    "target_eligibility_quarter": "NA"
   }
  },
  {
   "type": "Feature",
   "geometry": {
    "type": "Point",
    "coordinates": [
     143.948117,
     -37.1069539
    ]
   },
   "properties": {
    "name": "1498 RODBOROUGH ROAD MOOLORT 3465",
    "locID": "LOC100072030430",
    "tech": "SATELLITE",
    "upgrade": "NULL_NA",
    "gnaf_pid": "GAVIC719002879",
    "tech_change_status": "Not Planned"
   }
  },
  {
   "type": "Feature",
   "geometry": {
    "type": "Point",
    "coordinates": [
     143.94796049,
     -37.10697318
    ]
   },
   "properties": {
    "name": "1496 RODBOROUGH ROAD MOOLORT 3465",
    "locID": "LOC000186783085",
    "tech": "SATELLITE",
    "upgrade": "NULL_NA",
    "gnaf_pid": "GAVIC719012145",
    "tech_change_status": "Not Planned"
   }
  },
  {
   "type": "Feature",
   "geometry": {
    "type": "Point",
    "coordinates": [
     143.95515056,
     -37.10602292
    ]
   },
   "properties": {
    "name": "1560 RODBOROUGH ROAD MOOLORT 3465",
    "locID": "LOC100072030392",
    "tech": "WIRELESS",
    "upgrade": "NULL_NA",
    "gnaf_pid": "GAVIC719018989",
    "tech_change_status": "Not Planned",
    "program_type": "Fixed Wireless and Satellite Upgrade Program",
    "target_eligibility_quarter": "NA"
   }
  }
 ]
}