{
 "type": "FeatureCollection",
 "generated": "2026-05-03T04:33:10.745346",
 "suburb": "MOORABOOL",
 "features": [
  {
   "type": "Feature",
   "geometry": {
    "type": "Point",
    "coordinates": [
     144.27815051,
     -38.06872325
    ]
   },
   "properties": {
    "name": "160 VIADUCT ROAD MOORABOOL 3213",
    "locID": "LOC000047727756",
    "tech": "WIRELESS",
    "upgrade": "NULL_NA",
    "gnaf_pid": "GAVIC419824977",
    "tech_change_status": "Not Planned",
    "program_type": "Fixed Wireless and Satellite Upgrade Program",
    "target_eligibility_quarter": "NA"
   }
  },
  {
   "type": "Feature",
   "geometry": {
    "type": "Point",
    "coordinates": [
     144.308626,
     -38.04320793
    ]
   },
   "properties": {
    "name": "875 ANAKIE ROAD MOORABOOL 3213",
    "locID": "LOC000036135339",
    "tech": "WIRELESS",
    "upgrade": "NULL_NA",
    "gnaf_pid": "GAVIC420114719",
    "tech_change_status": "Not Planned",
    "program_type": "Fixed Wireless and Satellite Upgrade Program",
    "target_eligibility_quarter": "NA"
   }
  },
  {
   "type": "Feature",
   "geometry": {
    "type": "Point",
    "coordinates": [
     144.29399113,
     -38.03024634
    ]
   },
   "properties": {
    "name": "1075 ANAKIE ROAD MOORABOOL 3213",
    "locID": "LOC000082165057",
    "tech": "WIRELESS",
    "upgrade": "NULL_NA",
    "gnaf_pid": "GAVIC420428323",
    "tech_change_status": "Not Planned",
    "program_type": "Fixed Wireless and Satellite Upgrade Program",
    "target_eligibility_quarter": "NA"
   }
  },
  {
   "type": "Feature",
   "geometry": {
    "type": "Point",
    "coordinates": [
     144.2645212,
     -38.0448269
    ]
   },
   "properties": {
    "name": "360 STEIGLITZ ROAD MOORABOOL 3213",
    "locID": "LOC000066863170",
    "tech": "WIRELESS",
    "upgrade": "NULL_NA",
    "gnaf_pid": "GAVIC420677183",
    "tech_change_status": "Not Planned",
    "program_type": "Fixed Wireless and Satellite Upgrade Program",
    "target_eligibility_quarter": "NA"
   }
  },
  {
   "type": "Feature",
   "geometry": {
    "type": "Point",
    "coordinates": [
     144.30478464,
     -38.03967912
    ]
   },
   "properties": {
    "name": "925 ANAKIE ROAD MOORABOOL 3213",
    "locID": "LOC000031096083",
    "tech": "WIRELESS",
    "upgrade": "NULL_NA",
    "gnaf_pid": "GAVIC420742243",
    "tech_change_status": "Not Planned",
    "program_type": "Fixed Wireless and Satellite Upgrade Program",
    "target_eligibility_quarter": "NA"
   }
  },
  {
   "type": "Feature",
   "geometry": {
    "type": "Point",
    "coordinates": [
     144.27522698,
     -38.0543434
    ]
   },
   "properties": {
    "name": "225 STEIGLITZ ROAD MOORABOOL 3213",
    "locID": "LOC000091962347",
    "tech": "WIRELESS",
    "upgrade": "NULL_NA",
    "gnaf_pid": "GAVIC420856349",
    "tech_change_status": "Not Planned",
    "program_type": "Fixed Wireless and Satellite Upgrade Program",
    "target_eligibility_quarter": "NA"
   }
  },
  {
   "type": "Feature",
   "geometry": {
    "type": "Point",
    "coordinates": [
     144.30742492,
     -38.08180419
    ]
   },
   "properties": {
    "name": "35 EVANS ROAD MOORABOOL 3213",
    "locID": "LOC000092952355",
    "tech": "WIRELESS",
    "upgrade": "NULL_NA",
    "gnaf_pid": "GAVIC421167524",
    "tech_change_status": "Not Planned",
    "program_type": "Fixed Wireless and Satellite Upgrade Program",
    "target_eligibility_quarter": "NA"
   }
  },
  {
   "type": "Feature",
   "geometry": {
    "type": "Point",
    "coordinates": [
     144.28619899,
     -38.06583601
    ]
   },
   "properties": {
    "name": "10-50 VIADUCT ROAD MOORABOOL 3213",
    "locID": "LOC000038482635",
    "tech": "WIRELESS",
    "upgrade": "NULL_NA",
    "gnaf_pid": "GAVIC421249089",
    "tech_change_status": "Not Planned",
    "program_type": "Fixed Wireless and Satellite Upgrade Program",
    "target_eligibility_quarter": "NA"
   }
  },
  {
   "type": "Feature",
   "geometry": {
    "type": "Point",
    "coordinates": [
     144.30575335,
     -38.04058815
    ]
   },
   "properties": {
    "name": "905 ANAKIE ROAD MOORABOOL 3213",
    "locID": "LOC000053945301",
    "tech": "WIRELESS",
    "upgrade": "NULL_NA",
    "gnaf_pid": "GAVIC421914039",
    "tech_change_status": "Not Planned",
    "program_type": "Fixed Wireless and Satellite Upgrade Program",
    "target_eligibility_quarter": "NA"
   }
  },
  {
   "type": "Feature",
   "geometry": {
    "type": "Point",
    "coordinates": [
     144.30968406,
     -38.04455413
    ]
   },
   "properties": {
    "name": "855 ANAKIE ROAD MOORABOOL 3213",
    "locID": "LOC000091092024",
    "tech": "WIRELESS",
    "upgrade": "NULL_NA",
    "gnaf_pid": "GAVIC421949382",
    "tech_change_status": "Not Planned",
    "program_type": "Fixed Wireless and Satellite Upgrade Program",
    "target_eligibility_quarter": "NA"
   }
  },
  {
   "type": "Feature",
   "geometry": {
    "type": "Point",
    "coordinates": [
     144.30859649,
     -38.07498403
    ]
   },
   "properties": {
    "name": "85 EVANS ROAD MOORABOOL 3213",
    "locID": "LOC000040183001",
    "tech": "WIRELESS",
    "upgrade": "NULL_NA",
    "gnaf_pid": "GAVIC421952139",
    "tech_change_status": "Not Planned",
    "program_type": "Fixed Wireless and Satellite Upgrade Program",
    "target_eligibility_quarter": "NA"
   }
  },
  {
   "type": "Feature",
   "geometry": {
    "type": "Point",
    "coordinates": [
     144.31211689,
     -38.04758
    ]
   },
   "properties": {
    "name": "805 ANAKIE ROAD MOORABOOL 3213",
    "locID": "LOC000026101003",
    "tech": "WIRELESS",
    "upgrade": "NULL_NA",
    "gnaf_pid": "GAVIC422000322",
    "tech_change_status": "Not Planned",
    "program_type": "Fixed Wireless and Satellite Upgrade Program",
    "target_eligibility_quarter": "NA"
   }
  },
  {
   "type": "Feature",
   "geometry": {
    "type": "Point",
    "coordinates": [
     144.28581052,
     -38.06593173
    ]
   },
   "properties": {
    "name": "60 VIADUCT ROAD MOORABOOL 3213",
    "locID": "LOC000002695731",
    "tech": "WIRELESS",
    "upgrade": "NULL_NA",
    "gnaf_pid": "GAVIC423932659",
    "tech_change_status": "Not Planned",
    "program_type": "Fixed Wireless and Satellite Upgrade Program",
    "target_eligibility_quarter": "NA"
   }
  },
  {
   "type": "Feature",
   "geometry": {
    "type": "Point",
    "coordinates": [
     144.29329987,
     -38.06677612
    ]
   },
   "properties": {
    "name": "265-325 LOVELY BANKS ROAD MOORABOOL 3213",
    "locID": "LOC000038532146",
    "tech": "WIRELESS",
    "upgrade": "NULL_NA",
    "gnaf_pid": "GAVIC423945952",
    "tech_change_status": "Not Planned",
    "program_type": "Fixed Wireless and Satellite Upgrade Program",
    "target_eligibility_quarter": "NA"
   }
  },
  {
   "type": "Feature",
   "geometry": {
    "type": "Point",
    "coordinates": [
     144.29306443,
     -38.06647302
    ]
   },
   "properties": {
    "name": "270-330 LOVELY BANKS ROAD MOORABOOL 3213",
    "locID": "LOC000071328997",
    "tech": "WIRELESS",
    "upgrade": "NULL_NA",
    "gnaf_pid": "GAVIC423945953",
    "tech_change_status": "Not Planned",
    "program_type": "Fixed Wireless and Satellite Upgrade Program",
    "target_eligibility_quarter": "NA"
   }
  },
  {
   "type": "Feature",
   "geometry": {
    "type": "Point",
    "coordinates": [
     144.30749271,
     -38.04211748
    ]
   },
   "properties": {
    "name": "885 ANAKIE ROAD MOORABOOL 3213",
    "locID": "LOC000124203434",
    "tech": "WIRELESS",
    "upgrade": "NULL_NA",
    "gnaf_pid": "GAVIC424349126",
    "tech_change_status": "Not Planned",
    "program_type": "Fixed Wireless and Satellite Upgrade Program",
    "target_eligibility_quarter": "NA"
   }
  },
  {
   "type": "Feature",
   "geometry": {
    "type": "Point",
    "coordinates": [
     144.27417854,
     -38.01994311
    ]
   },
   "properties": {
    "name": "380 ROBBS ROAD MOORABOOL 3213",
    "locID": "LOC000081520574",
    "tech": "WIRELESS",
    "upgrade": "NULL_NA",
    "gnaf_pid": "GAVIC424365720",
    "tech_change_status": "Not Planned",
    "program_type": "Fixed Wireless and Satellite Upgrade Program",
    "target_eligibility_quarter": "NA"
   }
  },
  {
   "type": "Feature",
   "geometry": {
    "type": "Point",
    "coordinates": [
     144.25499957,
     -38.0180223
    ]
   },
   "properties": {
    "name": "525-615 ROBBS ROAD MOORABOOL 3213",
    "locID": "LOC000124186023",
    "tech": "WIRELESS",
    "upgrade": "NULL_NA",
    "gnaf_pid": "GAVIC424365722",
    "tech_change_status": "Not Planned",
    "program_type": "Fixed Wireless and Satellite Upgrade Program",
    "target_eligibility_quarter": "NA"
   }
  },
  {
   "type": "Feature",
   "geometry": {
    "type": "Point",
    "coordinates": [
     144.27804438,
     -38.05785662
    ]
   },
   "properties": {
    "name": "105-155 STEIGLITZ ROAD MOORABOOL 3213",
    "locID": "LOC000124216583",
    "tech": "WIRELESS",
    "upgrade": "NULL_NA",
    "gnaf_pid": "GAVIC424367745",
    "tech_change_status": "Not Planned",
    "program_type": "Fixed Wireless and Satellite Upgrade Program",
    "target_eligibility_quarter": "NA"
   }
  },
  {
   "type": "Feature",
   "geometry": {
    "type": "Point",
    "coordinates": [
     144.27522698,
     -38.0543434
    ]
   },
   "properties": {
    "name": "165-255 STEIGLITZ ROAD MOORABOOL 3213",
    "locID": "LOC000124225455",
    "tech": "WIRELESS",
    "upgrade": "NULL_NA",
    "gnaf_pid": "GAVIC424367746",
    "tech_change_status": "Not Planned",
    "program_type": "Fixed Wireless and Satellite Upgrade Program",
    "target_eligibility_quarter": "NA"
   }
  },
  {
   "type": "Feature",
   "geometry": {
    "type": "Point",
    "coordinates": [
     144.25983038,
     -38.00473118
    ]
   },
   "properties": {
    "name": "335 SUTHERLANDS CREEK ROAD MOORABOOL 3213",
    "locID": "LOC000124176804",
    "tech": "WIRELESS",
    "upgrade": "NULL_NA",
    "gnaf_pid": "GAVIC424368024",
    "tech_change_status": "Not Planned",
    "program_type": "Fixed Wireless and Satellite Upgrade Program",
    "target_eligibility_quarter": "NA"
   }
  },
  {
   "type": "Feature",
   "geometry": {
    "type": "Point",
    "coordinates": [
     144.29306443,
     -38.06647302
    ]
   },
   "properties": {
    "name": "270 LOVELY BANKS ROAD MOORABOOL 3213",
    "locID": "LOC000071328997",
    "tech": "WIRELESS",
    "upgrade": "NULL_NA",
    "gnaf_pid": "GAVIC424510832",
    "tech_change_status": "Not Planned",
    "program_type": "Fixed Wireless and Satellite Upgrade Program",
    "target_eligibility_quarter": "NA"
   }
  },
  {
   "type": "Feature",
   "geometry": {
    "type": "Point",
    "coordinates": [
     144.29306443,
     -38.06647302
    ]
   },
   "properties": {
    "name": "330 LOVELY BANKS ROAD MOORABOOL 3213",
    "locID": "LOC000071328997",
    "tech": "WIRELESS",
    "upgrade": "NULL_NA",
    "gnaf_pid": "GAVIC424510833",
    "tech_change_status": "Not Planned",
    "program_type": "Fixed Wireless and Satellite Upgrade Program",
    "target_eligibility_quarter": "NA"
   }
  },
  {
   "type": "Feature",
   "geometry": {
    "type": "Point",
    "coordinates": [
     144.29066634,
     -38.0666409
    ]
   },
   "properties": {
    "name": "5-15 VIADUCT ROAD MOORABOOL 3213",
    "locID": "LOC000114926262",
    "tech": "WIRELESS",
    "upgrade": "NULL_NA",
    "gnaf_pid": "GAVIC424681276",
    "tech_change_status": "Not Planned",
    "program_type": "Fixed Wireless and Satellite Upgrade Program",
    "target_eligibility_quarter": "NA"
   }
  },
  {
   "type": "Feature",
   "geometry": {
    "type": "Point",
    "coordinates": [
     144.29207425,
     -38.03824534
    ]
   },
   "properties": {
    "name": "680 BALLAN ROAD MOORABOOL 3213",
    "locID": "LOC000033609164",
    "tech": "WIRELESS",
    "upgrade": "NULL_NA",
    "gnaf_pid": "GAVIC718987253",
    "tech_change_status": "Not Planned",
    "program_type": "Fixed Wireless and Satellite Upgrade Program",
    "target_eligibility_quarter": "NA"
   }
  },
  {
   "type": "Feature",
   "geometry": {
    "type": "Point",
    "coordinates": [
     144.29235812,
     -38.06492198
    ]
   },
   "properties": {
    "name": "390-400 BALLAN ROAD MOORABOOL 3213",
    "locID": "LOC000048419002",
    "tech": "WIRELESS",
    "upgrade": "NULL_NA",
    "gnaf_pid": "GAVIC718990076",
    "tech_change_status": "Not Planned",
    "program_type": "Fixed Wireless and Satellite Upgrade Program",
    "target_eligibility_quarter": "NA"
   }
  },
  {
   "type": "Feature",
   "geometry": {
    "type": "Point",
    "coordinates": [
     144.3049754,
     -38.08093782
    ]
   },
   "properties": {
    "name": "200 BALLAN ROAD MOORABOOL 3213",
    "locID": "LOC000086438821",
    "tech": "WIRELESS",
    "upgrade": "NULL_NA",
    "gnaf_pid": "GAVIC718991152",
    "tech_change_status": "Not Planned",
    "program_type": "Fixed Wireless and Satellite Upgrade Program",
    "target_eligibility_quarter": "NA"
   }
  },
  {
   "type": "Feature",
   "geometry": {
    "type": "Point",
    "coordinates": [
     144.29669267,
     -38.0722081
    ]
   },
   "properties": {
    "name": "283-373 BALLAN ROAD MOORABOOL 3213",
    "locID": "LOC000185501422",
    "tech": "WIRELESS",
    "upgrade": "NULL_NA",
    "gnaf_pid": "GAVIC718991565",
    "tech_change_status": "Not Planned",
    "program_type": "Fixed Wireless and Satellite Upgrade Program",
    "target_eligibility_quarter": "NA"
   }
  },
  {
   "type": "Feature",
   "geometry": {
    "type": "Point",
    "coordinates": [
     144.29930981,
     -38.07518613
    ]
   },
   "properties": {
    "name": "275 BALLAN ROAD MOORABOOL 3213",
    "locID": "LOC100078153807",
    "tech": "WIRELESS",
    "upgrade": "NULL_NA",
    "gnaf_pid": "GAVIC718993379",
    "tech_change_status": "Not Planned",
    "program_type": "Fixed Wireless and Satellite Upgrade Program",
    "target_eligibility_quarter": "NA"
   }
  },
  {
   "type": "Feature",
   "geometry": {
    "type": "Point",
    "coordinates": [
     144.29982739,
     -38.07578705
    ]
   },
   "properties": {
    "name": "265 BALLAN ROAD MOORABOOL 3213",
    "locID": "LOC000027735471",
    "tech": "WIRELESS",
    "upgrade": "NULL_NA",
    "gnaf_pid": "GAVIC718998493",
    "tech_change_status": "Not Planned",
    "program_type": "Fixed Wireless and Satellite Upgrade Program",
    "target_eligibility_quarter": "NA"
   }
  },
  {
   "type": "Feature",
   "geometry": {
    "type": "Point",
    "coordinates": [
     144.29344619,
     -38.057866
    ]
   },
   "properties": {
    "name": "475 BALLAN ROAD MOORABOOL 3213",
    "locID": "LOC000102162848",
    "tech": "WIRELESS",
    "upgrade": "NULL_NA",
    "gnaf_pid": "GAVIC719000591",
    "tech_change_status": "Not Planned",
    "program_type": "Fixed Wireless and Satellite Upgrade Program",
    "target_eligibility_quarter": "NA"
   }
  },
  {
   "type": "Feature",
   "geometry": {
    "type": "Point",
    "coordinates": [
     144.294391,
     -38.05514434
    ]
   },
   "properties": {
    "name": "510 BALLAN ROAD MOORABOOL 3213",
    "locID": "LOC000090171382",
    "tech": "WIRELESS",
    "upgrade": "NULL_NA",
    "gnaf_pid": "GAVIC719002787",
    "tech_change_status": "Not Planned",
    "program_type": "Fixed Wireless and Satellite Upgrade Program",
    "target_eligibility_quarter": "NA"
   }
  },
  {
   "type": "Feature",
   "geometry": {
    "type": "Point",
    "coordinates": [
     144.29416369,
     -38.05608006
    ]
   },
   "properties": {
    "name": "500 BALLAN ROAD MOORABOOL 3213",
    "locID": "LOC000083631514",
    "tech": "WIRELESS",
    "upgrade": "NULL_NA",
    "gnaf_pid": "GAVIC719003824",
    "tech_change_status": "Not Planned",
    "program_type": "Fixed Wireless and Satellite Upgrade Program",
    "target_eligibility_quarter": "NA"
   }
  },
  {
   "type": "Feature",
   "geometry": {
    "type": "Point",
    "coordinates": [
     144.29315555,
     -38.04335368
    ]
   },
   "properties": {
    "name": "620 BALLAN ROAD MOORABOOL 3213",
    "locID": "LOC000108922255",
    "tech": "WIRELESS",
    "upgrade": "NULL_NA",
    "gnaf_pid": "GAVIC719005609",
    "tech_change_status": "Not Planned",
    "program_type": "Fixed Wireless and Satellite Upgrade Program",
    "target_eligibility_quarter": "NA"
   }
  },
  {
   "type": "Feature",
   "geometry": {
    "type": "Point",
    "coordinates": [
     144.29372261,
     -38.06840747
    ]
   },
   "properties": {
    "name": "350 BALLAN ROAD MOORABOOL 3213",
    "locID": "LOC000057868981",
    "tech": "WIRELESS",
    "upgrade": "NULL_NA",
    "gnaf_pid": "GAVIC719005867",
    "tech_change_status": "Not Planned",
    "program_type": "Fixed Wireless and Satellite Upgrade Program",
    "target_eligibility_quarter": "NA"
   }
  },
  {
   "type": "Feature",
   "geometry": {
    "type": "Point",
    "coordinates": [
     144.29542792,
     -38.07026468
    ]
   },
   "properties": {
    "name": "300 BALLAN ROAD MOORABOOL 3213",
    "locID": "LOC000073355491",
    "tech": "WIRELESS",
    "upgrade": "NULL_NA",
    "gnaf_pid": "GAVIC719009202",
    "tech_change_status": "Not Planned",
    "program_type": "Fixed Wireless and Satellite Upgrade Program",
    "target_eligibility_quarter": "NA"
   }
  },
  {
   "type": "Feature",
   "geometry": {
    "type": "Point",
    "coordinates": [
     144.29368987,
     -38.04588594
    ]
   },
   "properties": {
    "name": "600 BALLAN ROAD MOORABOOL 3213",
    "locID": "LOC000026220069",
    "tech": "WIRELESS",
    "upgrade": "NULL_NA",
    "gnaf_pid": "GAVIC719011737",
    "tech_change_status": "Not Planned",
    "program_type": "Fixed Wireless and Satellite Upgrade Program",
    "target_eligibility_quarter": "NA"
   }
  },
  {
   "type": "Feature",
   "geometry": {
    "type": "Point",
    "coordinates": [
     144.2937559,
     -38.05824143
    ]
   },
   "properties": {
    "name": "440-480 BALLAN ROAD MOORABOOL 3213",
    "locID": "LOC000065755436",
    "tech": "WIRELESS",
    "upgrade": "NULL_NA",
    "gnaf_pid": "GAVIC719012962",
    "tech_change_status": "Not Planned",
    "program_type": "Fixed Wireless and Satellite Upgrade Program",
    "target_eligibility_quarter": "NA"
   }
  },
  {
   "type": "Feature",
   "geometry": {
    "type": "Point",
    "coordinates": [
     144.29191474,
     -38.06532528
    ]
   },
   "properties": {
    "name": "385 BALLAN ROAD MOORABOOL 3213",
    "locID": "LOC000003676117",
    "tech": "WIRELESS",
    "upgrade": "NULL_NA",
    "gnaf_pid": "GAVIC719017495",
    "tech_change_status": "Not Planned",
    "program_type": "Fixed Wireless and Satellite Upgrade Program",
    "target_eligibility_quarter": "NA"
   }
  },
  {
   "type": "Feature",
   "geometry": {
    "type": "Point",
    "coordinates": [
     144.28982614,
     -38.02957605
    ]
   },
   "properties": {
    "name": "755 BALLAN ROAD MOORABOOL 3213",
    "locID": "LOC000049011043",
    "tech": "WIRELESS",
    "upgrade": "NULL_NA",
    "gnaf_pid": "GAVIC719018148",
    "tech_change_status": "Eligible to Order",
    "program_type": "Fixed Wireless and Satellite Upgrade Program",
    "target_eligibility_quarter": "NA"
   }
  },
  {
   "type": "Feature",
   "geometry": {
    "type": "Point",
    "coordinates": [
     144.29669267,
     -38.0722081
    ]
   },
   "properties": {
    "name": "315 BALLAN ROAD MOORABOOL 3213",
    "locID": "LOC000028581694",
    "tech": "WIRELESS",
    "upgrade": "NULL_NA",
    "gnaf_pid": "GAVIC719042973",
    "tech_change_status": "Not Planned",
    "program_type": "Fixed Wireless and Satellite Upgrade Program",
    "target_eligibility_quarter": "NA"
   }
  },
  {
   "type": "Feature",
   "geometry": {
    "type": "Point",
    "coordinates": [
     144.31032997,
     -38.06471192
    ]
   },
   "properties": {
    "name": "157-219 EVANS ROAD MOORABOOL 3213",
    "locID": "LOC100056386072",
    "tech": "WIRELESS",
    "upgrade": "NULL_NA",
    "gnaf_pid": "GAVIC719223527",
    "tech_change_status": "Not Planned",
    "program_type": "Fixed Wireless and Satellite Upgrade Program",
    "target_eligibility_quarter": "NA"
   }
  },
  {
   "type": "Feature",
   "geometry": {
    "type": "Point",
    "coordinates": [
     144.30749271,
     -38.04211748
    ]
   },
   "properties": {
    "name": "895 ANAKIE ROAD MOORABOOL 3213",
    "locID": "LOC100087686742",
    "tech": "WIRELESS",
    "upgrade": "NULL_NA",
    "gnaf_pid": "GAVIC719326498",
    "tech_change_status": "Not Planned",
    "program_type": "Fixed Wireless and Satellite Upgrade Program",
    "target_eligibility_quarter": "NA"
   }
  }
 ]
}