{
 "type": "FeatureCollection",
 "generated": "2026-05-21T01:30:45.503689",
 "suburb": "MOUNT HOOGHLY",
 "features": [
  {
   "type": "Feature",
   "geometry": {
    "type": "Point",
    "coordinates": [
     143.66272048,
     -36.90541509
    ]
   },
   "properties": {
    "name": "800 DUNOLLY-AVOCA ROAD MOUNT HOOGHLY 3472",
    "locID": "LOC000048279153",
    "tech": "NULL",
    "upgrade": "NULL_NA",
    "gnaf_pid": "GAVIC420000728",
    "tech_change_status": "Not Planned"
   }
  },
  {
   "type": "Feature",
   "geometry": {
    "type": "Point",
    "coordinates": [
     143.66589405,
     -36.90090343
    ]
   },
   "properties": {
    "name": "1504 SCENT FARM ROAD MOUNT HOOGHLY 3472",
    "locID": "LOC000002006665",
    "tech": "NULL",
    "upgrade": "NULL_NA",
    "gnaf_pid": "GAVIC420247883",
    "tech_change_status": "Not Planned"
   }
  },
  {
   "type": "Feature",
   "geometry": {
    "type": "Point",
    "coordinates": [
     143.69554418,
     -36.91665838
    ]
   },
   "properties": {
    "name": "546 BET BET-MT HOOGHLY ROAD MOUNT HOOGHLY 3472",
    "locID": "LOC000080683687",
    "tech": "WIRELESS",
    "upgrade": "NULL_NA",
    "gnaf_pid": "GAVIC420877611",
    "tech_change_status": "Not Planned",
    "program_type": "Fixed Wireless and Satellite Upgrade Program",
    "target_eligibility_quarter": "NA"
   }
  },
  {
   "type": "Feature",
   "geometry": {
    "type": "Point",
    "coordinates": [
     143.65695231,
     -36.91097185
    ]
   },
   "properties": {
    "name": "881 DUNOLLY-AVOCA ROAD MOUNT HOOGHLY 3472",
    "locID": "LOC000090346682",
    "tech": "WIRELESS",
    "upgrade": "NULL_NA",
    "gnaf_pid": "GAVIC421179590",
    "tech_change_status": "Not Planned",
    "program_type": "Fixed Wireless and Satellite Upgrade Program",
    "target_eligibility_quarter": "NA"
   }
  },
  {
   "type": "Feature",
   "geometry": {
    "type": "Point",
    "coordinates": [
     143.63023217,
     -36.89385803
    ]
   },
   "properties": {
    "name": "366 STEVENS LANE MOUNT HOOGHLY 3472",
    "locID": "LOC000003718946",
    "tech": "WIRELESS",
    "upgrade": "NULL_NA",
    "gnaf_pid": "GAVIC421475733",
    "tech_change_status": "Not Planned",
    "program_type": "Fixed Wireless and Satellite Upgrade Program",
    "target_eligibility_quarter": "NA"
   }
  },
  {
   "type": "Feature",
   "geometry": {
    "type": "Point",
    "coordinates": [
     143.6398243,
     -36.9229432
    ]
   },
   "properties": {
    "name": "1088 DUNOLLY-AVOCA ROAD MOUNT HOOGHLY 3472",
    "locID": "LOC000025163940",
    "tech": "WIRELESS",
    "upgrade": "NULL_NA",
    "gnaf_pid": "GAVIC421546488",
    "tech_change_status": "Not Planned",
    "program_type": "Fixed Wireless and Satellite Upgrade Program",
    "target_eligibility_quarter": "NA"
   }
  },
  {
   "type": "Feature",
   "geometry": {
    "type": "Point",
    "coordinates": [
     143.69175195,
     -36.91820254
    ]
   },
   "properties": {
    "name": "582 BET BET-MT HOOGHLY ROAD MOUNT HOOGHLY 3472",
    "locID": "LOC000046125460",
    "tech": "WIRELESS",
    "upgrade": "NULL_NA",
    "gnaf_pid": "GAVIC423110217",
    "tech_change_status": "Not Planned",
    "program_type": "Fixed Wireless and Satellite Upgrade Program",
    "target_eligibility_quarter": "NA"
   }
  },
  {
   "type": "Feature",
   "geometry": {
    "type": "Point",
    "coordinates": [
     143.69106952,
     -36.92823621
    ]
   },
   "properties": {
    "name": "510 BET BET-MT HOOGHLY ROAD MOUNT HOOGHLY 3472",
    "locID": "LOC000146673547",
    "tech": "WIRELESS",
    "upgrade": "NULL_NA",
    "gnaf_pid": "GAVIC425362247",
    "tech_change_status": "Not Planned",
    "program_type": "Fixed Wireless and Satellite Upgrade Program",
    "target_eligibility_quarter": "NA"
   }
  },
  {
   "type": "Feature",
   "geometry": {
    "type": "Point",
    "coordinates": [
     143.69106574,
     -36.92823832
    ]
   },
   "properties": {
    "name": "510 MOUNT HOOGHLY-TIMOR ROAD MOUNT HOOGHLY 3472",
    "locID": "LOC000146673547",
    "tech": "WIRELESS",
    "upgrade": "NULL_NA",
    "gnaf_pid": "GAVIC425486558",
    "tech_change_status": "Not Planned",
    "program_type": "Fixed Wireless and Satellite Upgrade Program",
    "target_eligibility_quarter": "NA"
   }
  }
 ]
}