{
 "type": "FeatureCollection",
 "generated": "2026-04-20T07:58:51.101124",
 "suburb": "MOUNT BRUNO",
 "features": [
  {
   "type": "Feature",
   "geometry": {
    "type": "Point",
    "coordinates": [
     146.13779955,
     -36.33058026
    ]
   },
   "properties": {
    "name": "466 JONES ROAD MOUNT BRUNO 3675",
    "locID": "LOC000031143525",
    "tech": "WIRELESS",
    "upgrade": "NULL_NA",
    "gnaf_pid": "GAVIC422159476",
    "tech_change_status": "Not Planned",
    "program_type": "Fixed Wireless and Satellite Upgrade Program",
    "target_eligibility_quarter": "NA"
   }
  },
  {
   "type": "Feature",
   "geometry": {
    "type": "Point",
    "coordinates": [
     146.14510381,
     -36.33033874
    ]
   },
   "properties": {
    "name": "528 JONES ROAD MOUNT BRUNO 3675",
    "locID": "LOC000083149203",
    "tech": "NULL",
    "upgrade": "NULL_NA",
    "gnaf_pid": "GAVIC422159477",
    "tech_change_status": "Not Planned"
   }
  },
  {
   "type": "Feature",
   "geometry": {
    "type": "Point",
    "coordinates": [
     146.16541341,
     -36.33175696
    ]
   },
   "properties": {
    "name": "124 GRIFFITHS TRACK MOUNT BRUNO 3675",
    "locID": "LOC000078018856",
    "tech": "NULL",
    "upgrade": "NULL_NA",
    "gnaf_pid": "GAVIC423142814",
    "tech_change_status": "Not Planned"
   }
  },
  {
   "type": "Feature",
   "geometry": {
    "type": "Point",
    "coordinates": [
     146.16638374,
     -36.33148272
    ]
   },
   "properties": {
    "name": "131 GRIFFITHS TRACK MOUNT BRUNO 3675",
    "locID": "LOC000040432524",
    "tech": "SATELLITE",
    "upgrade": "NULL_NA",
    "gnaf_pid": "GAVIC423142815",
    "tech_change_status": "Not Planned"
   }
  },
  {
   "type": "Feature",
   "geometry": {
    "type": "Point",
    "coordinates": [
     146.16756526,
     -36.33192058
    ]
   },
   "properties": {
    "name": "142 GRIFFITHS TRACK MOUNT BRUNO 3675",
    "locID": "LOC000048474056",
    "tech": "NULL",
    "upgrade": "NULL_NA",
    "gnaf_pid": "GAVIC423142816",
    "tech_change_status": "Not Planned"
   }
  },
  {
   "type": "Feature",
   "geometry": {
    "type": "Point",
    "coordinates": [
     146.17398483,
     -36.33054238
    ]
   },
   "properties": {
    "name": "206 GRIFFITHS TRACK MOUNT BRUNO 3675",
    "locID": "LOC000047763741",
    "tech": "SATELLITE",
    "upgrade": "NULL_NA",
    "gnaf_pid": "GAVIC423142817",
    "tech_change_status": "Not Planned"
   }
  },
  {
   "type": "Feature",
   "geometry": {
    "type": "Point",
    "coordinates": [
     146.1769385,
     -36.32795148
    ]
   },
   "properties": {
    "name": "246 GRIFFITHS TRACK MOUNT BRUNO 3675",
    "locID": "LOC000104249496",
    "tech": "SATELLITE",
    "upgrade": "NULL_NA",
    "gnaf_pid": "GAVIC423142818",
    "tech_change_status": "Not Planned"
   }
  },
  {
   "type": "Feature",
   "geometry": {
    "type": "Point",
    "coordinates": [
     146.17965504,
     -36.32602103
    ]
   },
   "properties": {
    "name": "282 GRIFFITHS TRACK MOUNT BRUNO 3675",
    "locID": "LOC000039175909",
    "tech": "SATELLITE",
    "upgrade": "NULL_NA",
    "gnaf_pid": "GAVIC423142819",
    "tech_change_status": "Not Planned"
   }
  },
  {
   "type": "Feature",
   "geometry": {
    "type": "Point",
    "coordinates": [
     146.1441294,
     -36.32536989
    ]
   },
   "properties": {
    "name": "82 PRINSEN LANE MOUNT BRUNO 3675",
    "locID": "LOC000085139959",
    "tech": "SATELLITE",
    "upgrade": "NULL_NA",
    "gnaf_pid": "GAVIC423164723",
    "tech_change_status": "Not Planned"
   }
  },
  {
   "type": "Feature",
   "geometry": {
    "type": "Point",
    "coordinates": [
     146.15781748,
     -36.3185164
    ]
   },
   "properties": {
    "name": "63 MT BRUNO ROAD MOUNT BRUNO 3675",
    "locID": "LOC000008442950",
    "tech": "NULL",
    "upgrade": "NULL_NA",
    "gnaf_pid": "GAVIC423164966",
    "tech_change_status": "Not Planned"
   }
  },
  {
   "type": "Feature",
   "geometry": {
    "type": "Point",
    "coordinates": [
     146.13176369,
     -36.30555007
    ]
   },
   "properties": {
    "name": "1926 GLENROWAN-BOWEYA ROAD MOUNT BRUNO 3675",
    "locID": "LOC000018185094",
    "tech": "NULL",
    "upgrade": "NULL_NA",
    "gnaf_pid": "GAVIC423165018",
    "tech_change_status": "Not Planned"
   }
  },
  {
   "type": "Feature",
   "geometry": {
    "type": "Point",
    "coordinates": [
     146.15774244,
     -36.31813156
    ]
   },
   "properties": {
    "name": "65 MT BRUNO ROAD MOUNT BRUNO 3675",
    "locID": "LOC000098235509",
    "tech": "SATELLITE",
    "upgrade": "NULL_NA",
    "gnaf_pid": "GAVIC423165040",
    "tech_change_status": "Not Planned"
   }
  },
  {
   "type": "Feature",
   "geometry": {
    "type": "Point",
    "coordinates": [
     146.15520398,
     -36.31478231
    ]
   },
   "properties": {
    "name": "107 MT BRUNO ROAD MOUNT BRUNO 3675",
    "locID": "LOC000142844225",
    "tech": "SATELLITE",
    "upgrade": "NULL_NA",
    "gnaf_pid": "GAVIC423165082",
    "tech_change_status": "Not Planned"
   }
  },
  {
   "type": "Feature",
   "geometry": {
    "type": "Point",
    "coordinates": [
     146.16108445,
     -36.32172763
    ]
   },
   "properties": {
    "name": "16 MT BRUNO ROAD MOUNT BRUNO 3675",
    "locID": "LOC000042394847",
    "tech": "SATELLITE",
    "upgrade": "NULL_NA",
    "gnaf_pid": "GAVIC423165102",
    "tech_change_status": "Not Planned"
   }
  },
  {
   "type": "Feature",
   "geometry": {
    "type": "Point",
    "coordinates": [
     146.15980369,
     -36.32245285
    ]
   },
   "properties": {
    "name": "3 MT BRUNO ROAD MOUNT BRUNO 3675",
    "locID": "LOC000026158492",
    "tech": "SATELLITE",
    "upgrade": "NULL_NA",
    "gnaf_pid": "GAVIC423165111",
    "tech_change_status": "Not Planned"
   }
  },
  {
   "type": "Feature",
   "geometry": {
    "type": "Point",
    "coordinates": [
     146.14873164,
     -36.32936941
    ]
   },
   "properties": {
    "name": "562 JONES ROAD MOUNT BRUNO 3675",
    "locID": "LOC000063654448",
    "tech": "NULL",
    "upgrade": "NULL_NA",
    "gnaf_pid": "GAVIC423165126",
    "tech_change_status": "Not Planned"
   }
  },
  {
   "type": "Feature",
   "geometry": {
    "type": "Point",
    "coordinates": [
     146.15509945,
     -36.31231281
    ]
   },
   "properties": {
    "name": "148 MT BRUNO ROAD MOUNT BRUNO 3675",
    "locID": "LOC000142401775",
    "tech": "SATELLITE",
    "upgrade": "NULL_NA",
    "gnaf_pid": "GAVIC423165134",
    "tech_change_status": "Not Planned"
   }
  },
  {
   "type": "Feature",
   "geometry": {
    "type": "Point",
    "coordinates": [
     146.14980001,
     -36.30418319
    ]
   },
   "properties": {
    "name": "1777 DEVENISH-WANGARATTA ROAD MOUNT BRUNO 3675",
    "locID": "LOC000079076919",
    "tech": "NULL",
    "upgrade": "NULL_NA",
    "gnaf_pid": "GAVIC423165197",
    "tech_change_status": "Not Planned"
   }
  },
  {
   "type": "Feature",
   "geometry": {
    "type": "Point",
    "coordinates": [
     146.15555433,
     -36.31557953
    ]
   },
   "properties": {
    "name": "99 MT BRUNO ROAD MOUNT BRUNO 3675",
    "locID": "LOC000142437962",
    "tech": "SATELLITE",
    "upgrade": "NULL_NA",
    "gnaf_pid": "GAVIC423165213",
    "tech_change_status": "Not Planned"
   }
  },
  {
   "type": "Feature",
   "geometry": {
    "type": "Point",
    "coordinates": [
     146.14295349,
     -36.30965705
    ]
   },
   "properties": {
    "name": "1692 DEVENISH-WANGARATTA ROAD MOUNT BRUNO 3675",
    "locID": "LOC000079320917",
    "tech": "SATELLITE",
    "upgrade": "NULL_NA",
    "gnaf_pid": "GAVIC423165336",
    "tech_change_status": "Not Planned"
   }
  },
  {
   "type": "Feature",
   "geometry": {
    "type": "Point",
    "coordinates": [
     146.15432052,
     -36.31306053
    ]
   },
   "properties": {
    "name": "129 MT BRUNO ROAD MOUNT BRUNO 3675",
    "locID": "LOC000058118465",
    "tech": "SATELLITE",
    "upgrade": "NULL_NA",
    "gnaf_pid": "GAVIC423165342",
    "tech_change_status": "Not Planned"
   }
  },
  {
   "type": "Feature",
   "geometry": {
    "type": "Point",
    "coordinates": [
     146.15491696,
     -36.31417962
    ]
   },
   "properties": {
    "name": "115 MT BRUNO ROAD MOUNT BRUNO 3675",
    "locID": "LOC000042516543",
    "tech": "SATELLITE",
    "upgrade": "NULL_NA",
    "gnaf_pid": "GAVIC423165369",
    "tech_change_status": "Not Planned"
   }
  },
  {
   "type": "Feature",
   "geometry": {
    "type": "Point",
    "coordinates": [
     146.15399431,
     -36.32513491
    ]
   },
   "properties": {
    "name": "629 JONES ROAD MOUNT BRUNO 3675",
    "locID": "LOC000084737725",
    "tech": "SATELLITE",
    "upgrade": "NULL_NA",
    "gnaf_pid": "GAVIC423166000",
    "tech_change_status": "Not Planned"
   }
  },
  {
   "type": "Feature",
   "geometry": {
    "type": "Point",
    "coordinates": [
     146.14999056,
     -36.30466178
    ]
   },
   "properties": {
    "name": "1776 DEVENISH-WANGARATTA ROAD MOUNT BRUNO 3675",
    "locID": "LOC000009409175",
    "tech": "SATELLITE",
    "upgrade": "NULL_NA",
    "gnaf_pid": "GAVIC423166015",
    "tech_change_status": "Not Planned"
   }
  },
  {
   "type": "Feature",
   "geometry": {
    "type": "Point",
    "coordinates": [
     146.1311754,
     -36.32887999
    ]
   },
   "properties": {
    "name": "1661 GLENROWAN-BOWEYA ROAD MOUNT BRUNO 3675",
    "locID": "LOC000004470343",
    "tech": "SATELLITE",
    "upgrade": "WIRELESS",
    "gnaf_pid": "GAVIC423166214",
    "tech_change_status": "Eligible to Order",
    "program_type": "Fixed Wireless and Satellite Upgrade Program",
    "target_eligibility_quarter": "NA"
   }
  },
  {
   "type": "Feature",
   "geometry": {
    "type": "Point",
    "coordinates": [
     146.14511495,
     -36.33033882
    ]
   },
   "properties": {
    "name": "530 JONES ROAD MOUNT BRUNO 3675",
    "locID": "LOC000125077532",
    "tech": "NULL",
    "upgrade": "NULL_NA",
    "gnaf_pid": "GAVIC423707206",
    "tech_change_status": "Not Planned"
   }
  },
  {
   "type": "Feature",
   "geometry": {
    "type": "Point",
    "coordinates": [
     146.13740304,
     -36.31333999
    ]
   },
   "properties": {
    "name": "1628 DEVENISH-WANGARATTA ROAD MOUNT BRUNO 3675",
    "locID": "LOC000125068570",
    "tech": "SATELLITE",
    "upgrade": "NULL_NA",
    "gnaf_pid": "GAVIC424975023",
    "tech_change_status": "Not Planned"
   }
  }
 ]
}