{
 "type": "FeatureCollection",
 "generated": "2024-10-11T16:55:07.067694",
 "suburb": "MOUNT BEST",
 "features": [
  {
   "type": "Feature",
   "geometry": {
    "type": "Point",
    "coordinates": [
     146.30669823,
     -38.59772397
    ]
   },
   "properties": {
    "name": "555 TOORA-GUNYAH ROAD MOUNT BEST 3960",
    "locID": "LOC000042444689",
    "tech": "WIRELESS",
    "upgrade": "NULL_NA",
    "gnaf_pid": "GAVIC411920733",
    "tech_change_status": "Not Planned",
    "program_type": "Fixed Wireless and Satellite Upgrade Program",
    "target_eligibility_quarter": "NA"
   }
  },
  {
   "type": "Feature",
   "geometry": {
    "type": "Point",
    "coordinates": [
     146.29883502,
     -38.58088806
    ]
   },
   "properties": {
    "name": "60 HUMPHREYS ROAD MOUNT BEST 3960",
    "locID": "LOC000093014536",
    "tech": "WIRELESS",
    "upgrade": "NULL_NA",
    "gnaf_pid": "GAVIC411920736",
    "tech_change_status": "Not Planned",
    "program_type": "Fixed Wireless and Satellite Upgrade Program",
    "target_eligibility_quarter": "NA"
   }
  },
  {
   "type": "Feature",
   "geometry": {
    "type": "Point",
    "coordinates": [
     146.30931737,
     -38.58204983
    ]
   },
   "properties": {
    "name": "855 TOORA-GUNYAH ROAD MOUNT BEST 3960",
    "locID": "LOC000143075389",
    "tech": "SATELLITE",
    "upgrade": "NULL_NA",
    "gnaf_pid": "GAVIC411944929",
    "tech_change_status": "Not Planned"
   }
  },
  {
   "type": "Feature",
   "geometry": {
    "type": "Point",
    "coordinates": [
     146.30223529,
     -38.59255169
    ]
   },
   "properties": {
    "name": "110 WINTLES ROAD MOUNT BEST 3960",
    "locID": "LOC000080165815",
    "tech": "SATELLITE",
    "upgrade": "NULL_NA",
    "gnaf_pid": "GAVIC411944930",
    "tech_change_status": "Not Planned"
   }
  },
  {
   "type": "Feature",
   "geometry": {
    "type": "Point",
    "coordinates": [
     146.3006714,
     -38.59041556
    ]
   },
   "properties": {
    "name": "130 WINTLES ROAD MOUNT BEST 3960",
    "locID": "LOC000015574836",
    "tech": "WIRELESS",
    "upgrade": "NULL_NA",
    "gnaf_pid": "GAVIC411944934",
    "tech_change_status": "Not Planned"
   }
  },
  {
   "type": "Feature",
   "geometry": {
    "type": "Point",
    "coordinates": [
     146.30288977,
     -38.57806495
    ]
   },
   "properties": {
    "name": "945 TOORA-GUNYAH ROAD MOUNT BEST 3960",
    "locID": "LOC000006910531",
    "tech": "NULL",
    "upgrade": "NULL_NA",
    "gnaf_pid": "GAVIC411944935",
    "tech_change_status": "Not Planned"
   }
  },
  {
   "type": "Feature",
   "geometry": {
    "type": "Point",
    "coordinates": [
     146.29688687,
     -38.5981791
    ]
   },
   "properties": {
    "name": "49 SANDLES ROAD MOUNT BEST 3960",
    "locID": "LOC000075058449",
    "tech": "WIRELESS",
    "upgrade": "NULL_NA",
    "gnaf_pid": "GAVIC414833582",
    "tech_change_status": "Not Planned",
    "program_type": "Fixed Wireless and Satellite Upgrade Program",
    "target_eligibility_quarter": "NA"
   }
  },
  {
   "type": "Feature",
   "geometry": {
    "type": "Point",
    "coordinates": [
     146.31247689,
     -38.58783603
    ]
   },
   "properties": {
    "name": "690 TOORA-GUNYAH ROAD MOUNT BEST 3960",
    "locID": "LOC000083658366",
    "tech": "SATELLITE",
    "upgrade": "NULL_NA",
    "gnaf_pid": "GAVIC414833586",
    "tech_change_status": "Not Planned"
   }
  },
  {
   "type": "Feature",
   "geometry": {
    "type": "Point",
    "coordinates": [
     146.30035491,
     -38.59936241
    ]
   },
   "properties": {
    "name": "20 WINTLES ROAD MOUNT BEST 3960",
    "locID": "LOC000081263501",
    "tech": "WIRELESS",
    "upgrade": "NULL_NA",
    "gnaf_pid": "GAVIC414833590",
    "tech_change_status": "Not Planned",
    "program_type": "Fixed Wireless and Satellite Upgrade Program",
    "target_eligibility_quarter": "NA"
   }
  },
  {
   "type": "Feature",
   "geometry": {
    "type": "Point",
    "coordinates": [
     146.31563161,
     -38.59538841
    ]
   },
   "properties": {
    "name": "25 BLUNDENS ROAD MOUNT BEST 3960",
    "locID": "LOC000094032904",
    "tech": "NULL",
    "upgrade": "NULL_NA",
    "gnaf_pid": "GAVIC414851746",
    "tech_change_status": "Not Planned"
   }
  },
  {
   "type": "Feature",
   "geometry": {
    "type": "Point",
    "coordinates": [
     146.3009098,
     -38.57885478
    ]
   },
   "properties": {
    "name": "35 HUMPHREYS ROAD MOUNT BEST 3960",
    "locID": "LOC000028827132",
    "tech": "WIRELESS",
    "upgrade": "NULL_NA",
    "gnaf_pid": "GAVIC420878519",
    "tech_change_status": "Not Planned",
    "program_type": "Fixed Wireless and Satellite Upgrade Program",
    "target_eligibility_quarter": "NA"
   }
  },
  {
   "type": "Feature",
   "geometry": {
    "type": "Point",
    "coordinates": [
     146.29968017,
     -38.59916445
    ]
   },
   "properties": {
    "name": "25 WINTLES ROAD MOUNT BEST 3960",
    "locID": "LOC000027077095",
    "tech": "WIRELESS",
    "upgrade": "NULL_NA",
    "gnaf_pid": "GAVIC421803634",
    "tech_change_status": "Not Planned",
    "program_type": "Fixed Wireless and Satellite Upgrade Program",
    "target_eligibility_quarter": "NA"
   }
  },
  {
   "type": "Feature",
   "geometry": {
    "type": "Point",
    "coordinates": [
     146.30668571,
     -38.59783203
    ]
   },
   "properties": {
    "name": "545 TOORA-GUNYAH ROAD MOUNT BEST 3960",
    "locID": "LOC000028898857",
    "tech": "WIRELESS",
    "upgrade": "NULL_NA",
    "gnaf_pid": "GAVIC422001088",
    "tech_change_status": "Not Planned",
    "program_type": "Fixed Wireless and Satellite Upgrade Program",
    "target_eligibility_quarter": "NA"
   }
  },
  {
   "type": "Feature",
   "geometry": {
    "type": "Point",
    "coordinates": [
     146.29673751,
     -38.59818722
    ]
   },
   "properties": {
    "name": "50 SANDLES ROAD MOUNT BEST 3960",
    "locID": "LOC000063638216",
    "tech": "SATELLITE",
    "upgrade": "NULL_NA",
    "gnaf_pid": "GAVIC422188228",
    "tech_change_status": "Not Planned"
   }
  },
  {
   "type": "Feature",
   "geometry": {
    "type": "Point",
    "coordinates": [
     146.31198508,
     -38.58763487
    ]
   },
   "properties": {
    "name": "695 TOORA-GUNYAH ROAD MOUNT BEST 3960",
    "locID": "LOC000142399021",
    "tech": "SATELLITE",
    "upgrade": "NULL_NA",
    "gnaf_pid": "GAVIC422197326",
    "tech_change_status": "Not Planned"
   }
  },
  {
   "type": "Feature",
   "geometry": {
    "type": "Point",
    "coordinates": [
     146.30260526,
     -38.57804481
    ]
   },
   "properties": {
    "name": "1 HUMPHREYS ROAD MOUNT BEST 3960",
    "locID": "LOC000100685412",
    "tech": "NULL",
    "upgrade": "NULL_NA",
    "gnaf_pid": "GAVIC423144599",
    "tech_change_status": "Not Planned"
   }
  },
  {
   "type": "Feature",
   "geometry": {
    "type": "Point",
    "coordinates": [
     146.27468309,
     -38.57823559
    ]
   },
   "properties": {
    "name": "270 OLD BOOLARRA-FOSTER ROAD MOUNT BEST 3960",
    "locID": "LOC000081608921",
    "tech": "NULL",
    "upgrade": "NULL_NA",
    "gnaf_pid": "GAVIC423479085",
    "tech_change_status": "Not Planned"
   }
  },
  {
   "type": "Feature",
   "geometry": {
    "type": "Point",
    "coordinates": [
     146.31052249,
     -38.60009865
    ]
   },
   "properties": {
    "name": "485 TOORA-GUNYAH ROAD MOUNT BEST 3960",
    "locID": "LOC000073686212",
    "tech": "SATELLITE",
    "upgrade": "NULL_NA",
    "gnaf_pid": "GAVIC423977902",
    "tech_change_status": "Not Planned"
   }
  },
  {
   "type": "Feature",
   "geometry": {
    "type": "Point",
    "coordinates": [
     146.30933401,
     -38.58199149
    ]
   },
   "properties": {
    "name": "845 TOORA-GUNYAH ROAD MOUNT BEST 3960",
    "locID": "LOC000102540576",
    "tech": "SATELLITE",
    "upgrade": "NULL_NA",
    "gnaf_pid": "GAVIC423977903",
    "tech_change_status": "Not Planned"
   }
  },
  {
   "type": "Feature",
   "geometry": {
    "type": "Point",
    "coordinates": [
     146.30801117,
     -38.59732621
    ]
   },
   "properties": {
    "name": "10 MOUNT BEST TIN MINE ROAD MOUNT BEST 3960",
    "locID": "LOC000089081014",
    "tech": "WIRELESS",
    "upgrade": "NULL_NA",
    "gnaf_pid": "GAVIC423990600",
    "tech_change_status": "Not Planned",
    "program_type": "Fixed Wireless and Satellite Upgrade Program",
    "target_eligibility_quarter": "NA"
   }
  },
  {
   "type": "Feature",
   "geometry": {
    "type": "Point",
    "coordinates": [
     146.30847695,
     -38.59785165
    ]
   },
   "properties": {
    "name": "20 MOUNT BEST TIN MINE ROAD MOUNT BEST 3960",
    "locID": "LOC000102263795",
    "tech": "WIRELESS",
    "upgrade": "NULL_NA",
    "gnaf_pid": "GAVIC423990603",
    "tech_change_status": "Not Planned",
    "program_type": "Fixed Wireless and Satellite Upgrade Program",
    "target_eligibility_quarter": "NA"
   }
  },
  {
   "type": "Feature",
   "geometry": {
    "type": "Point",
    "coordinates": [
     146.30816391,
     -38.59696664
    ]
   },
   "properties": {
    "name": "5 MOUNT BEST TIN MINE ROAD MOUNT BEST 3960",
    "locID": "LOC000017745281",
    "tech": "WIRELESS",
    "upgrade": "NULL_NA",
    "gnaf_pid": "GAVIC423990608",
    "tech_change_status": "Not Planned",
    "program_type": "Fixed Wireless and Satellite Upgrade Program",
    "target_eligibility_quarter": "NA"
   }
  },
  {
   "type": "Feature",
   "geometry": {
    "type": "Point",
    "coordinates": [
     146.30783256,
     -38.59713398
    ]
   },
   "properties": {
    "name": "3 MOUNT BEST TIN MINE ROAD MOUNT BEST 3960",
    "locID": "LOC000045748678",
    "tech": "SATELLITE",
    "upgrade": "NULL_NA",
    "gnaf_pid": "GAVIC424041005",
    "tech_change_status": "Not Planned"
   }
  },
  {
   "type": "Feature",
   "geometry": {
    "type": "Point",
    "coordinates": [
     146.28950792,
     -38.60815568
    ]
   },
   "properties": {
    "name": "660 FOSTER-MT BEST ROAD MOUNT BEST 3960",
    "locID": "LOC000114519136",
    "tech": "WIRELESS",
    "upgrade": "NULL_NA",
    "gnaf_pid": "GAVIC424671361",
    "tech_change_status": "Not Planned",
    "program_type": "Fixed Wireless and Satellite Upgrade Program",
    "target_eligibility_quarter": "NA"
   }
  },
  {
   "type": "Feature",
   "geometry": {
    "type": "Point",
    "coordinates": [
     146.29175643,
     -38.6072501
    ]
   },
   "properties": {
    "name": "680 FOSTER-MT BEST ROAD MOUNT BEST 3960",
    "locID": "LOC000113336590",
    "tech": "WIRELESS",
    "upgrade": "NULL_NA",
    "gnaf_pid": "GAVIC424671362",
    "tech_change_status": "Not Planned",
    "program_type": "Fixed Wireless and Satellite Upgrade Program",
    "target_eligibility_quarter": "NA"
   }
  },
  {
   "type": "Feature",
   "geometry": {
    "type": "Point",
    "coordinates": [
     146.29230785,
     -38.60723541
    ]
   },
   "properties": {
    "name": "720 FOSTER-MT BEST ROAD MOUNT BEST 3960",
    "locID": "LOC000114624828",
    "tech": "WIRELESS",
    "upgrade": "NULL_NA",
    "gnaf_pid": "GAVIC424671363",
    "tech_change_status": "Not Planned",
    "program_type": "Fixed Wireless and Satellite Upgrade Program",
    "target_eligibility_quarter": "NA"
   }
  },
  {
   "type": "Feature",
   "geometry": {
    "type": "Point",
    "coordinates": [
     146.29225831,
     -38.60643306
    ]
   },
   "properties": {
    "name": "735 FOSTER-MT BEST ROAD MOUNT BEST 3960",
    "locID": "LOC000113007575",
    "tech": "WIRELESS",
    "upgrade": "NULL_NA",
    "gnaf_pid": "GAVIC424671364",
    "tech_change_status": "Not Planned",
    "program_type": "Fixed Wireless and Satellite Upgrade Program",
    "target_eligibility_quarter": "NA"
   }
  },
  {
   "type": "Feature",
   "geometry": {
    "type": "Point",
    "coordinates": [
     146.29667865,
     -38.5995116
    ]
   },
   "properties": {
    "name": "830 FOSTER-MT BEST ROAD MOUNT BEST 3960",
    "locID": "LOC000112804610",
    "tech": "WIRELESS",
    "upgrade": "NULL_NA",
    "gnaf_pid": "GAVIC424671366",
    "tech_change_status": "Not Planned"
   }
  },
  {
   "type": "Feature",
   "geometry": {
    "type": "Point",
    "coordinates": [
     146.30033671,
     -38.60123677
    ]
   },
   "properties": {
    "name": "910 FOSTER-MT BEST ROAD MOUNT BEST 3960",
    "locID": "LOC000114621845",
    "tech": "WIRELESS",
    "upgrade": "NULL_NA",
    "gnaf_pid": "GAVIC424671368",
    "tech_change_status": "Not Planned",
    "program_type": "Fixed Wireless and Satellite Upgrade Program",
    "target_eligibility_quarter": "NA"
   }
  },
  {
   "type": "Feature",
   "geometry": {
    "type": "Point",
    "coordinates": [
     146.30349921,
     -38.60229206
    ]
   },
   "properties": {
    "name": "914 FOSTER-MT BEST ROAD MOUNT BEST 3960",
    "locID": "LOC000114143067",
    "tech": "WIRELESS",
    "upgrade": "NULL_NA",
    "gnaf_pid": "GAVIC424671370",
    "tech_change_status": "Not Planned",
    "program_type": "Fixed Wireless and Satellite Upgrade Program",
    "target_eligibility_quarter": "NA"
   }
  },
  {
   "type": "Feature",
   "geometry": {
    "type": "Point",
    "coordinates": [
     146.29994959,
     -38.59971145
    ]
   },
   "properties": {
    "name": "19 WINTLES ROAD MOUNT BEST 3960",
    "locID": "LOC000112882454",
    "tech": "WIRELESS",
    "upgrade": "NULL_NA",
    "gnaf_pid": "GAVIC425790881",
    "tech_change_status": "Not Planned",
    "program_type": "Fixed Wireless and Satellite Upgrade Program",
    "target_eligibility_quarter": "NA"
   }
  },
  {
   "type": "Feature",
   "geometry": {
    "type": "Point",
    "coordinates": [
     146.30303913,
     -38.60204593
    ]
   },
   "properties": {
    "name": "30 STAGECOACH TRACK MOUNT BEST 3960",
    "locID": "LOC000113328800",
    "tech": "WIRELESS",
    "upgrade": "NULL_NA",
    "gnaf_pid": "GAVIC720124961",
    "tech_change_status": "Not Planned",
    "program_type": "Fixed Wireless and Satellite Upgrade Program",
    "target_eligibility_quarter": "NA"
   }
  },
  {
   "type": "Feature",
   "geometry": {
    "type": "Point",
    "coordinates": [
     146.3005382,
     -38.60061911
    ]
   },
   "properties": {
    "name": "2 WINTLES ROAD MOUNT BEST 3960",
    "locID": "LOC000081263501",
    "tech": "WIRELESS",
    "upgrade": "NULL_NA",
    "gnaf_pid": "GAVIC721088973",
    "tech_change_status": "Not Planned",
    "program_type": "Fixed Wireless and Satellite Upgrade Program",
    "target_eligibility_quarter": "NA"
   }
  }
 ]
}