{
 "type": "FeatureCollection",
 "generated": "2025-02-20T14:33:02.564505",
 "suburb": "NILMA",
 "features": [
  {
   "type": "Feature",
   "geometry": {
    "type": "Point",
    "coordinates": [
     145.97129135,
     -38.16848825
    ]
   },
   "properties": {
    "name": "36 FRASER STREET NILMA 3821",
    "locID": "LOC000054366674",
    "tech": "FTTN",
    "upgrade": "FTTP_SA",
    "gnaf_pid": "GAVIC411996690",
    "tech_change_status": "Eligible to Order",
    "program_type": "On-Demand N2P SDU/MDU Simple",
    "target_eligibility_quarter": "NA"
   }
  },
  {
   "type": "Feature",
   "geometry": {
    "type": "Point",
    "coordinates": [
     145.9662752,
     -38.17247373
    ]
   },
   "properties": {
    "name": "12 CHAPEL STREET NILMA 3821",
    "locID": "LOC000079884146",
    "tech": "FTTN",
    "upgrade": "FTTP_SA",
    "gnaf_pid": "GAVIC411996695",
    "tech_change_status": "Eligible to Order",
    "program_type": "On-Demand N2P SDU/MDU Simple",
    "target_eligibility_quarter": "NA"
   }
  },
  {
   "type": "Feature",
   "geometry": {
    "type": "Point",
    "coordinates": [
     145.96472276,
     -38.172157
    ]
   },
   "properties": {
    "name": "13 DALTON STREET NILMA 3821",
    "locID": "LOC000016029491",
    "tech": "FTTN",
    "upgrade": "FTTP_SA",
    "gnaf_pid": "GAVIC411996697",
    "tech_change_status": "Eligible to Order",
    "program_type": "On-Demand N2P SDU/MDU Simple",
    "target_eligibility_quarter": "NA"
   }
  },
  {
   "type": "Feature",
   "geometry": {
    "type": "Point",
    "coordinates": [
     145.96874564,
     -38.16984193
    ]
   },
   "properties": {
    "name": "3 BLOOMFIELD ROAD NILMA 3821",
    "locID": "LOC000109806459",
    "tech": "FTTN",
    "upgrade": "FTTP_SA",
    "gnaf_pid": "GAVIC412000651",
    "tech_change_status": "Eligible to Order",
    "program_type": "On-Demand N2P SDU/MDU Simple",
    "target_eligibility_quarter": "NA"
   }
  },
  {
   "type": "Feature",
   "geometry": {
    "type": "Point",
    "coordinates": [
     145.9652165,
     -38.17038984
    ]
   },
   "properties": {
    "name": "19 MCCOLL STREET NILMA 3821",
    "locID": "LOC000025988090",
    "tech": "FTTN",
    "upgrade": "FTTP_SA",
    "gnaf_pid": "GAVIC412000657",
    "tech_change_status": "Eligible to Order",
    "program_type": "On-Demand N2P SDU/MDU Simple",
    "target_eligibility_quarter": "NA"
   }
  },
  {
   "type": "Feature",
   "geometry": {
    "type": "Point",
    "coordinates": [
     145.97141615,
     -38.16772811
    ]
   },
   "properties": {
    "name": "41 BLOOMFIELD ROAD NILMA 3821",
    "locID": "LOC000026876007",
    "tech": "FTTN",
    "upgrade": "FTTP_SA",
    "gnaf_pid": "GAVIC412010263",
    "tech_change_status": "Eligible to Order",
    "program_type": "On-Demand N2P SDU/MDU Simple",
    "target_eligibility_quarter": "NA"
   }
  },
  {
   "type": "Feature",
   "geometry": {
    "type": "Point",
    "coordinates": [
     145.98086658,
     -38.15800516
    ]
   },
   "properties": {
    "name": "179 BLOOMFIELD ROAD NILMA 3821",
    "locID": "LOC000026780199",
    "tech": "WIRELESS",
    "upgrade": "NULL_NA",
    "gnaf_pid": "GAVIC412031278",
    "tech_change_status": "Not Planned",
    "program_type": "Fixed Wireless and Satellite Upgrade Program",
    "target_eligibility_quarter": "NA"
   }
  },
  {
   "type": "Feature",
   "geometry": {
    "type": "Point",
    "coordinates": [
     145.96759965,
     -38.17932043
    ]
   },
   "properties": {
    "name": "80 NILMA-BONA VISTA ROAD NILMA 3821",
    "locID": "LOC000063520088",
    "tech": "FTTN",
    "upgrade": "FTTP_SA",
    "gnaf_pid": "GAVIC412031280",
    "tech_change_status": "Eligible to Order",
    "program_type": "On-Demand N2P SDU/MDU Simple",
    "target_eligibility_quarter": "NA"
   }
  },
  {
   "type": "Feature",
   "geometry": {
    "type": "Point",
    "coordinates": [
     145.97640087,
     -38.16383094
    ]
   },
   "properties": {
    "name": "10 BLOOMFIELD ROAD NILMA 3821",
    "locID": "LOC000081374271",
    "tech": "WIRELESS",
    "upgrade": "NULL_NA",
    "gnaf_pid": "GAVIC414697296",
    "tech_change_status": "Not Planned",
    "program_type": "Fixed Wireless and Satellite Upgrade Program",
    "target_eligibility_quarter": "NA"
   }
  },
  {
   "type": "Feature",
   "geometry": {
    "type": "Point",
    "coordinates": [
     145.97640087,
     -38.16383094
    ]
   },
   "properties": {
    "name": "40 BLOOMFIELD ROAD NILMA 3821",
    "locID": "LOC000105643843",
    "tech": "WIRELESS",
    "upgrade": "NULL_NA",
    "gnaf_pid": "GAVIC414697297",
    "tech_change_status": "Not Planned",
    "program_type": "Fixed Wireless and Satellite Upgrade Program",
    "target_eligibility_quarter": "NA"
   }
  },
  {
   "type": "Feature",
   "geometry": {
    "type": "Point",
    "coordinates": [
     145.97640087,
     -38.16383094
    ]
   },
   "properties": {
    "name": "36 BLOOMFIELD ROAD NILMA 3821",
    "locID": "LOC000012734785",
    "tech": "WIRELESS",
    "upgrade": "NULL_NA",
    "gnaf_pid": "GAVIC414697304",
    "tech_change_status": "Not Planned",
    "program_type": "Fixed Wireless and Satellite Upgrade Program",
    "target_eligibility_quarter": "NA"
   }
  },
  {
   "type": "Feature",
   "geometry": {
    "type": "Point",
    "coordinates": [
     145.96684038,
     -38.17207742
    ]
   },
   "properties": {
    "name": "3 CHAPEL STREET NILMA 3821",
    "locID": "LOC000084857384",
    "tech": "FTTN",
    "upgrade": "FTTP_SA",
    "gnaf_pid": "GAVIC414697306",
    "tech_change_status": "Eligible to Order",
    "program_type": "On-Demand N2P SDU/MDU Simple",
    "target_eligibility_quarter": "NA"
   }
  },
  {
   "type": "Feature",
   "geometry": {
    "type": "Point",
    "coordinates": [
     145.96571088,
     -38.17064453
    ]
   },
   "properties": {
    "name": "15 MCCOLL STREET NILMA 3821",
    "locID": "LOC000101997136",
    "tech": "FTTN",
    "upgrade": "FTTP_SA",
    "gnaf_pid": "GAVIC419662083",
    "tech_change_status": "Eligible to Order",
    "program_type": "On-Demand N2P SDU/MDU Simple",
    "target_eligibility_quarter": "NA"
   }
  },
  {
   "type": "Feature",
   "geometry": {
    "type": "Point",
    "coordinates": [
     145.97190829,
     -38.16889486
    ]
   },
   "properties": {
    "name": "5 ELLIOT STREET NILMA 3821",
    "locID": "LOC000008471880",
    "tech": "FTTP",
    "upgrade": "FTTP_NA",
    "gnaf_pid": "GAVIC419682673",
    "tech_change_status": "Previous Tech Disconnected",
    "program_type": "On-Demand N2P SDU/MDU Simple",
    "target_eligibility_quarter": "NA"
   }
  },
  {
   "type": "Feature",
   "geometry": {
    "type": "Point",
    "coordinates": [
     145.96643231,
     -38.17200415
    ]
   },
   "properties": {
    "name": "1 PAYNTER STREET NILMA 3821",
    "locID": "LOC000046763869",
    "tech": "FTTN",
    "upgrade": "FTTP_SA",
    "gnaf_pid": "GAVIC419698884",
    "tech_change_status": "Eligible to Order",
    "program_type": "On-Demand N2P SDU/MDU Simple",
    "target_eligibility_quarter": "NA"
   }
  },
  {
   "type": "Feature",
   "geometry": {
    "type": "Point",
    "coordinates": [
     145.96515618,
     -38.17035804
    ]
   },
   "properties": {
    "name": "UNIT 2, 19 MCCOLL STREET NILMA 3821",
    "locID": "LOC000025988090",
    "tech": "FTTN",
    "upgrade": "FTTP_SA",
    "gnaf_pid": "GAVIC419742363",
    "tech_change_status": "Eligible to Order",
    "program_type": "On-Demand N2P SDU/MDU Simple",
    "target_eligibility_quarter": "NA"
   }
  },
  {
   "type": "Feature",
   "geometry": {
    "type": "Point",
    "coordinates": [
     145.97322181,
     -38.17706726
    ]
   },
   "properties": {
    "name": "12 CHITALWOOD COURT NILMA 3821",
    "locID": "LOC000125373417",
    "tech": "FTTN",
    "upgrade": "FTTP_SA",
    "gnaf_pid": "GAVIC419758093",
    "tech_change_status": "Eligible to Order",
    "program_type": "On-Demand N2P SDU/MDU Simple",
    "target_eligibility_quarter": "NA"
   }
  },
  {
   "type": "Feature",
   "geometry": {
    "type": "Point",
    "coordinates": [
     145.9714594,
     -38.1770462
    ]
   },
   "properties": {
    "name": "18 CHITALWOOD COURT NILMA 3821",
    "locID": "LOC000013026921",
    "tech": "FTTP",
    "upgrade": "FTTP_NA",
    "gnaf_pid": "GAVIC419758094",
    "tech_change_status": "Previous Tech Disconnected",
    "program_type": "On-Demand N2P SDU/MDU Simple",
    "target_eligibility_quarter": "NA"
   }
  },
  {
   "type": "Feature",
   "geometry": {
    "type": "Point",
    "coordinates": [
     145.96596669,
     -38.17171728
    ]
   },
   "properties": {
    "name": "9 PAYNTER STREET NILMA 3821",
    "locID": "LOC000042410445",
    "tech": "FTTN",
    "upgrade": "FTTP_SA",
    "gnaf_pid": "GAVIC419957536",
    "tech_change_status": "Eligible to Order",
    "program_type": "On-Demand N2P SDU/MDU Simple",
    "target_eligibility_quarter": "NA"
   }
  },
  {
   "type": "Feature",
   "geometry": {
    "type": "Point",
    "coordinates": [
     145.96480731,
     -38.170169
    ]
   },
   "properties": {
    "name": "23 MCCOLL STREET NILMA 3821",
    "locID": "LOC000083889877",
    "tech": "FTTP",
    "upgrade": "NULL_NA",
    "gnaf_pid": "GAVIC419957537",
    "program_type": "On-Demand N2P SDU/MDU Simple",
    "target_eligibility_quarter": "NA"
   }
  },
  {
   "type": "Feature",
   "geometry": {
    "type": "Point",
    "coordinates": [
     145.96679853,
     -38.17122333
    ]
   },
   "properties": {
    "name": "5 MCCOLL STREET NILMA 3821",
    "locID": "LOC000096358283",
    "tech": "FTTN",
    "upgrade": "FTTP_SA",
    "gnaf_pid": "GAVIC420013539",
    "tech_change_status": "Eligible to Order",
    "program_type": "On-Demand N2P SDU/MDU Simple",
    "target_eligibility_quarter": "NA"
   }
  },
  {
   "type": "Feature",
   "geometry": {
    "type": "Point",
    "coordinates": [
     145.96480659,
     -38.17086939
    ]
   },
   "properties": {
    "name": "20 PAYNTER STREET NILMA 3821",
    "locID": "LOC000038684622",
    "tech": "FTTN",
    "upgrade": "FTTP_SA",
    "gnaf_pid": "GAVIC420254818",
    "tech_change_status": "Eligible to Order",
    "program_type": "On-Demand N2P SDU/MDU Simple",
    "target_eligibility_quarter": "NA"
   }
  },
  {
   "type": "Feature",
   "geometry": {
    "type": "Point",
    "coordinates": [
     145.96752493,
     -38.17159794
    ]
   },
   "properties": {
    "name": "1 CHAPEL STREET NILMA 3821",
    "locID": "LOC000084857384",
    "tech": "FTTN",
    "upgrade": "FTTP_SA",
    "gnaf_pid": "GAVIC420254819",
    "tech_change_status": "Eligible to Order",
    "program_type": "On-Demand N2P SDU/MDU Simple",
    "target_eligibility_quarter": "NA"
   }
  },
  {
   "type": "Feature",
   "geometry": {
    "type": "Point",
    "coordinates": [
     145.97240578,
     -38.1687708
    ]
   },
   "properties": {
    "name": "10 DRUMMOND STREET NILMA 3821",
    "locID": "LOC000006095602",
    "tech": "FTTP",
    "upgrade": "NULL_NA",
    "gnaf_pid": "GAVIC420290528",
    "program_type": "On-Demand N2P SDU/MDU Simple",
    "target_eligibility_quarter": "NA"
   }
  },
  {
   "type": "Feature",
   "geometry": {
    "type": "Point",
    "coordinates": [
     145.97340333,
     -38.17601475
    ]
   },
   "properties": {
    "name": "7 CHITALWOOD COURT NILMA 3821",
    "locID": "LOC000070075019",
    "tech": "FTTN",
    "upgrade": "FTTP",
    "gnaf_pid": "GAVIC420294892",
    "tech_change_status": "Eligible to Order",
    "program_type": "On-Demand N2P SDU/MDU Simple",
    "target_eligibility_quarter": "NA"
   }
  },
  {
   "type": "Feature",
   "geometry": {
    "type": "Point",
    "coordinates": [
     145.97262625,
     -38.16849622
    ]
   },
   "properties": {
    "name": "11 DRUMMOND STREET NILMA 3821",
    "locID": "LOC000100969846",
    "tech": "FTTN",
    "upgrade": "FTTP_SA",
    "gnaf_pid": "GAVIC420299503",
    "tech_change_status": "Eligible to Order",
    "program_type": "On-Demand N2P SDU/MDU Simple",
    "target_eligibility_quarter": "NA"
   }
  },
  {
   "type": "Feature",
   "geometry": {
    "type": "Point",
    "coordinates": [
     145.96625827,
     -38.17163122
    ]
   },
   "properties": {
    "name": "6 CHAPEL STREET NILMA 3821",
    "locID": "LOC000074172756",
    "tech": "FTTN",
    "upgrade": "FTTP_SA",
    "gnaf_pid": "GAVIC420311002",
    "tech_change_status": "Eligible to Order",
    "program_type": "On-Demand N2P SDU/MDU Simple",
    "target_eligibility_quarter": "NA"
   }
  },
  {
   "type": "Feature",
   "geometry": {
    "type": "Point",
    "coordinates": [
     145.96499588,
     -38.17191369
    ]
   },
   "properties": {
    "name": "14 DALTON STREET NILMA 3821",
    "locID": "LOC000091794456",
    "tech": "FTTP",
    "upgrade": "NULL_NA",
    "gnaf_pid": "GAVIC420311003",
    "program_type": "On-Demand N2P SDU/MDU Simple",
    "target_eligibility_quarter": "NA"
   }
  },
  {
   "type": "Feature",
   "geometry": {
    "type": "Point",
    "coordinates": [
     145.96662236,
     -38.17113063
    ]
   },
   "properties": {
    "name": "7 MCCOLL STREET NILMA 3821",
    "locID": "LOC000035393118",
    "tech": "FTTN",
    "upgrade": "FTTP_SA",
    "gnaf_pid": "GAVIC420311004",
    "tech_change_status": "Eligible to Order",
    "program_type": "On-Demand N2P SDU/MDU Simple",
    "target_eligibility_quarter": "NA"
   }
  },
  {
   "type": "Feature",
   "geometry": {
    "type": "Point",
    "coordinates": [
     145.96463981,
     -38.17110844
    ]
   },
   "properties": {
    "name": "19 PAYNTER STREET NILMA 3821",
    "locID": "LOC000051878942",
    "tech": "FTTN",
    "upgrade": "FTTP_SA",
    "gnaf_pid": "GAVIC420330535",
    "tech_change_status": "Eligible to Order",
    "program_type": "On-Demand N2P SDU/MDU Simple",
    "target_eligibility_quarter": "NA"
   }
  },
  {
   "type": "Feature",
   "geometry": {
    "type": "Point",
    "coordinates": [
     145.96527478,
     -38.17042056
    ]
   },
   "properties": {
    "name": "UNIT 1, 19 MCCOLL STREET NILMA 3821",
    "locID": "LOC000025988090",
    "tech": "FTTN",
    "upgrade": "FTTP_SA",
    "gnaf_pid": "GAVIC420358681",
    "tech_change_status": "Eligible to Order",
    "program_type": "On-Demand N2P SDU/MDU Simple",
    "target_eligibility_quarter": "NA"
   }
  },
  {
   "type": "Feature",
   "geometry": {
    "type": "Point",
    "coordinates": [
     145.97238845,
     -38.1771546
    ]
   },
   "properties": {
    "name": "14 CHITALWOOD COURT NILMA 3821",
    "locID": "LOC000085262035",
    "tech": "FTTN",
    "upgrade": "FTTP",
    "gnaf_pid": "GAVIC420364625",
    "tech_change_status": "Eligible to Order",
    "program_type": "On-Demand N2P SDU/MDU Simple",
    "target_eligibility_quarter": "NA"
   }
  },
  {
   "type": "Feature",
   "geometry": {
    "type": "Point",
    "coordinates": [
     145.96906385,
     -38.16958267
    ]
   },
   "properties": {
    "name": "7 BLOOMFIELD ROAD NILMA 3821",
    "locID": "LOC000059960616",
    "tech": "FTTN",
    "upgrade": "FTTP_SA",
    "gnaf_pid": "GAVIC420422628",
    "tech_change_status": "Eligible to Order",
    "program_type": "On-Demand N2P SDU/MDU Simple",
    "target_eligibility_quarter": "NA"
   }
  },
  {
   "type": "Feature",
   "geometry": {
    "type": "Point",
    "coordinates": [
     145.97161322,
     -38.16915022
    ]
   },
   "properties": {
    "name": "7 ELLIOT STREET NILMA 3821",
    "locID": "LOC000088441734",
    "tech": "FTTN",
    "upgrade": "FTTP",
    "gnaf_pid": "GAVIC420589636",
    "tech_change_status": "Eligible to Order",
    "program_type": "On-Demand N2P SDU/MDU Simple",
    "target_eligibility_quarter": "NA"
   }
  },
  {
   "type": "Feature",
   "geometry": {
    "type": "Point",
    "coordinates": [
     145.97003135,
     -38.16952549
    ]
   },
   "properties": {
    "name": "20 FRASER STREET NILMA 3821",
    "locID": "LOC000075496572",
    "tech": "FTTP",
    "upgrade": "FTTP_NA",
    "gnaf_pid": "GAVIC420590520",
    "tech_change_status": "Previous Tech Disconnected",
    "program_type": "On-Demand N2P SDU/MDU Simple",
    "target_eligibility_quarter": "NA"
   }
  },
  {
   "type": "Feature",
   "geometry": {
    "type": "Point",
    "coordinates": [
     145.96854705,
     -38.17219411
    ]
   },
   "properties": {
    "name": "9 POLLOCK STREET NILMA 3821",
    "locID": "LOC000053565701",
    "tech": "FTTN",
    "upgrade": "FTTP_SA",
    "gnaf_pid": "GAVIC420593545",
    "tech_change_status": "Eligible to Order",
    "program_type": "On-Demand N2P SDU/MDU Simple",
    "target_eligibility_quarter": "NA"
   }
  },
  {
   "type": "Feature",
   "geometry": {
    "type": "Point",
    "coordinates": [
     145.97202245,
     -38.16804163
    ]
   },
   "properties": {
    "name": "5 DRUMMOND STREET NILMA 3821",
    "locID": "LOC000062353251",
    "tech": "FTTN",
    "upgrade": "FTTP_SA",
    "gnaf_pid": "GAVIC420594924",
    "tech_change_status": "Eligible to Order",
    "program_type": "On-Demand N2P SDU/MDU Simple",
    "target_eligibility_quarter": "NA"
   }
  },
  {
   "type": "Feature",
   "geometry": {
    "type": "Point",
    "coordinates": [
     145.9710406,
     -38.16869468
    ]
   },
   "properties": {
    "name": "32 FRASER STREET NILMA 3821",
    "locID": "LOC000054200258",
    "tech": "FTTP",
    "upgrade": "NULL_NA",
    "gnaf_pid": "GAVIC420605596",
    "program_type": "On-Demand N2P SDU/MDU Simple",
    "target_eligibility_quarter": "NA"
   }
  },
  {
   "type": "Feature",
   "geometry": {
    "type": "Point",
    "coordinates": [
     145.96916203,
     -38.17023703
    ]
   },
   "properties": {
    "name": "8 FRASER STREET NILMA 3821",
    "locID": "LOC000021908596",
    "tech": "FTTN",
    "upgrade": "FTTP_SA",
    "gnaf_pid": "GAVIC420605597",
    "tech_change_status": "Eligible to Order",
    "program_type": "On-Demand N2P SDU/MDU Simple",
    "target_eligibility_quarter": "NA"
   }
  },
  {
   "type": "Feature",
   "geometry": {
    "type": "Point",
    "coordinates": [
     145.96523575,
     -38.17204061
    ]
   },
   "properties": {
    "name": "12 DALTON STREET NILMA 3821",
    "locID": "LOC000093279290",
    "tech": "FTTN",
    "upgrade": "FTTP_SA",
    "gnaf_pid": "GAVIC420612510",
    "tech_change_status": "Eligible to Order",
    "program_type": "On-Demand N2P SDU/MDU Simple",
    "target_eligibility_quarter": "NA"
   }
  },
  {
   "type": "Feature",
   "geometry": {
    "type": "Point",
    "coordinates": [
     145.96918694,
     -38.17252955
    ]
   },
   "properties": {
    "name": "13 POLLOCK STREET NILMA 3821",
    "locID": "LOC000061492097",
    "tech": "FTTN",
    "upgrade": "FTTP_SA",
    "gnaf_pid": "GAVIC420624203",
    "tech_change_status": "Eligible to Order",
    "program_type": "On-Demand N2P SDU/MDU Simple",
    "target_eligibility_quarter": "NA"
   }
  },
  {
   "type": "Feature",
   "geometry": {
    "type": "Point",
    "coordinates": [
     145.97013898,
     -38.17018828
    ]
   },
   "properties": {
    "name": "14 FRASER STREET NILMA 3821",
    "locID": "LOC000001960592",
    "tech": "FTTP",
    "upgrade": "FTTP_NA",
    "gnaf_pid": "GAVIC420640866",
    "tech_change_status": "Previous Tech Disconnected",
    "program_type": "On-Demand N2P SDU/MDU Simple",
    "target_eligibility_quarter": "NA"
   }
  },
  {
   "type": "Feature",
   "geometry": {
    "type": "Point",
    "coordinates": [
     145.97086273,
     -38.17460966
    ]
   },
   "properties": {
    "name": "1 CHITALWOOD COURT NILMA 3821",
    "locID": "LOC000009394453",
    "tech": "FTTN",
    "upgrade": "FTTP_SA",
    "gnaf_pid": "GAVIC420723256",
    "tech_change_status": "Eligible to Order",
    "program_type": "On-Demand N2P SDU/MDU Simple",
    "target_eligibility_quarter": "NA"
   }
  },
  {
   "type": "Feature",
   "geometry": {
    "type": "Point",
    "coordinates": [
     145.97188319,
     -38.17497631
    ]
   },
   "properties": {
    "name": "3 CHITALWOOD COURT NILMA 3821",
    "locID": "LOC000016899955",
    "tech": "FTTN",
    "upgrade": "FTTP_SA",
    "gnaf_pid": "GAVIC420746217",
    "tech_change_status": "Eligible to Order",
    "program_type": "On-Demand N2P SDU/MDU Simple",
    "target_eligibility_quarter": "NA"
   }
  },
  {
   "type": "Feature",
   "geometry": {
    "type": "Point",
    "coordinates": [
     145.9694698,
     -38.1726815
    ]
   },
   "properties": {
    "name": "15 POLLOCK STREET NILMA 3821",
    "locID": "LOC000018561884",
    "tech": "FTTN",
    "upgrade": "FTTP_SA",
    "gnaf_pid": "GAVIC420757412",
    "tech_change_status": "Eligible to Order",
    "program_type": "On-Demand N2P SDU/MDU Simple",
    "target_eligibility_quarter": "NA"
   }
  },
  {
   "type": "Feature",
   "geometry": {
    "type": "Point",
    "coordinates": [
     145.96591369,
     -38.17075678
    ]
   },
   "properties": {
    "name": "13 MCCOLL STREET NILMA 3821",
    "locID": "LOC000083631960",
    "tech": "FTTN",
    "upgrade": "FTTP_SA",
    "gnaf_pid": "GAVIC420869591",
    "tech_change_status": "Eligible to Order",
    "program_type": "On-Demand N2P SDU/MDU Simple",
    "target_eligibility_quarter": "NA"
   }
  },
  {
   "type": "Feature",
   "geometry": {
    "type": "Point",
    "coordinates": [
     145.96891881,
     -38.16970129
    ]
   },
   "properties": {
    "name": "5 BLOOMFIELD ROAD NILMA 3821",
    "locID": "LOC000073011984",
    "tech": "FTTN",
    "upgrade": "FTTP_SA",
    "gnaf_pid": "GAVIC420871544",
    "tech_change_status": "Eligible to Order",
    "program_type": "On-Demand N2P SDU/MDU Simple",
    "target_eligibility_quarter": "NA"
   }
  },
  {
   "type": "Feature",
   "geometry": {
    "type": "Point",
    "coordinates": [
     145.97319249,
     -38.17629654
    ]
   },
   "properties": {
    "name": "10 CHITALWOOD COURT NILMA 3821",
    "locID": "LOC000084495517",
    "tech": "FTTN",
    "upgrade": "FTTP_SA",
    "gnaf_pid": "GAVIC420894254",
    "tech_change_status": "Eligible to Order",
    "program_type": "On-Demand N2P SDU/MDU Simple",
    "target_eligibility_quarter": "NA"
   }
  },
  {
   "type": "Feature",
   "geometry": {
    "type": "Point",
    "coordinates": [
     145.96715762,
     -38.17141196
    ]
   },
   "properties": {
    "name": "1 MCCOLL STREET NILMA 3821",
    "locID": "LOC000025880598",
    "tech": "FTTN",
    "upgrade": "FTTP_SA",
    "gnaf_pid": "GAVIC420900735",
    "tech_change_status": "Eligible to Order",
    "program_type": "On-Demand N2P SDU/MDU Simple",
    "target_eligibility_quarter": "NA"
   }
  },
  {
   "type": "Feature",
   "geometry": {
    "type": "Point",
    "coordinates": [
     145.972169,
     -38.175609
    ]
   },
   "properties": {
    "name": "6 CHITALWOOD COURT NILMA 3821",
    "locID": "LOC000090899202",
    "tech": "FTTN",
    "upgrade": "FTTP_SA",
    "gnaf_pid": "GAVIC421042585",
    "tech_change_status": "Eligible to Order",
    "program_type": "On-Demand N2P SDU/MDU Simple",
    "target_eligibility_quarter": "NA"
   }
  },
  {
   "type": "Feature",
   "geometry": {
    "type": "Point",
    "coordinates": [
     145.971868,
     -38.175363
    ]
   },
   "properties": {
    "name": "4 CHITALWOOD COURT NILMA 3821",
    "locID": "LOC000082128173",
    "tech": "FTTN",
    "upgrade": "FTTP_SA",
    "gnaf_pid": "GAVIC421042769",
    "tech_change_status": "Eligible to Order",
    "program_type": "On-Demand N2P SDU/MDU Simple",
    "target_eligibility_quarter": "NA"
   }
  },
  {
   "type": "Feature",
   "geometry": {
    "type": "Point",
    "coordinates": [
     145.96928101,
     -38.16940543
    ]
   },
   "properties": {
    "name": "9 BLOOMFIELD ROAD NILMA 3821",
    "locID": "LOC000073832105",
    "tech": "FTTN",
    "upgrade": "FTTP_SA",
    "gnaf_pid": "GAVIC421045288",
    "tech_change_status": "Eligible to Order",
    "program_type": "On-Demand N2P SDU/MDU Simple",
    "target_eligibility_quarter": "NA"
   }
  },
  {
   "type": "Feature",
   "geometry": {
    "type": "Point",
    "coordinates": [
     145.96710613,
     -38.17237299
    ]
   },
   "properties": {
    "name": "1 SELETTO STREET NILMA 3821",
    "locID": "LOC000005129445",
    "tech": "FTTP",
    "upgrade": "FTTP_NA",
    "gnaf_pid": "GAVIC421166422",
    "tech_change_status": "Previous Tech Disconnected",
    "program_type": "On-Demand N2P SDU/MDU Simple",
    "target_eligibility_quarter": "NA"
   }
  },
  {
   "type": "Feature",
   "geometry": {
    "type": "Point",
    "coordinates": [
     145.96804858,
     -38.17286829
    ]
   },
   "properties": {
    "name": "5 SELETTO STREET NILMA 3821",
    "locID": "LOC000041410111",
    "tech": "FTTN",
    "upgrade": "FTTP",
    "gnaf_pid": "GAVIC421166424",
    "tech_change_status": "Eligible to Order",
    "program_type": "On-Demand N2P SDU/MDU Simple",
    "target_eligibility_quarter": "NA"
   }
  },
  {
   "type": "Feature",
   "geometry": {
    "type": "Point",
    "coordinates": [
     145.96747833,
     -38.17197773
    ]
   },
   "properties": {
    "name": "2 POLLOCK STREET NILMA 3821",
    "locID": "LOC000065639640",
    "tech": "FTTN",
    "upgrade": "FTTP_SA",
    "gnaf_pid": "GAVIC421166425",
    "tech_change_status": "Eligible to Order",
    "program_type": "On-Demand N2P SDU/MDU Simple",
    "target_eligibility_quarter": "NA"
   }
  },
  {
   "type": "Feature",
   "geometry": {
    "type": "Point",
    "coordinates": [
     145.97158558,
     -38.16824595
    ]
   },
   "properties": {
    "name": "40 FRASER STREET NILMA 3821",
    "locID": "LOC000079048418",
    "tech": "FTTN",
    "upgrade": "FTTP_SA",
    "gnaf_pid": "GAVIC421194445",
    "tech_change_status": "Eligible to Order",
    "program_type": "On-Demand N2P SDU/MDU Simple",
    "target_eligibility_quarter": "NA"
   }
  },
  {
   "type": "Feature",
   "geometry": {
    "type": "Point",
    "coordinates": [
     145.96851057,
     -38.17003498
    ]
   },
   "properties": {
    "name": "1 BLOOMFIELD ROAD NILMA 3821",
    "locID": "LOC000030149955",
    "tech": "FTTN",
    "upgrade": "FTTP_SA",
    "gnaf_pid": "GAVIC421196640",
    "tech_change_status": "Eligible to Order",
    "program_type": "On-Demand N2P SDU/MDU Simple",
    "target_eligibility_quarter": "NA"
   }
  },
  {
   "type": "Feature",
   "geometry": {
    "type": "Point",
    "coordinates": [
     145.97255544,
     -38.17593275
    ]
   },
   "properties": {
    "name": "8 CHITALWOOD COURT NILMA 3821",
    "locID": "LOC000056390017",
    "tech": "FTTN",
    "upgrade": "FTTP_SA",
    "gnaf_pid": "GAVIC421209761",
    "tech_change_status": "Eligible to Order",
    "program_type": "On-Demand N2P SDU/MDU Simple",
    "target_eligibility_quarter": "NA"
   }
  },
  {
   "type": "Feature",
   "geometry": {
    "type": "Point",
    "coordinates": [
     145.96688739,
     -38.17174962
    ]
   },
   "properties": {
    "name": "4 CHAPEL STREET NILMA 3821",
    "locID": "LOC000029252465",
    "tech": "FTTN",
    "upgrade": "FTTP_SA",
    "gnaf_pid": "GAVIC421210529",
    "tech_change_status": "Eligible to Order",
    "program_type": "On-Demand N2P SDU/MDU Simple",
    "target_eligibility_quarter": "NA"
   }
  },
  {
   "type": "Feature",
   "geometry": {
    "type": "Point",
    "coordinates": [
     145.96801424,
     -38.1719127
    ]
   },
   "properties": {
    "name": "3 POLLOCK STREET NILMA 3821",
    "locID": "LOC000191418909",
    "tech": "FTTN",
    "upgrade": "FTTP_SA",
    "gnaf_pid": "GAVIC421254851",
    "tech_change_status": "Eligible to Order",
    "program_type": "On-Demand N2P SDU/MDU Simple",
    "target_eligibility_quarter": "NA"
   }
  },
  {
   "type": "Feature",
   "geometry": {
    "type": "Point",
    "coordinates": [
     145.97181693,
     -38.17708791
    ]
   },
   "properties": {
    "name": "16 CHITALWOOD COURT NILMA 3821",
    "locID": "LOC000007129110",
    "tech": "FTTP",
    "upgrade": "NULL_NA",
    "gnaf_pid": "GAVIC421271898",
    "program_type": "On-Demand N2P SDU/MDU Simple",
    "target_eligibility_quarter": "NA"
   }
  },
  {
   "type": "Feature",
   "geometry": {
    "type": "Point",
    "coordinates": [
     145.97089868,
     -38.17709131
    ]
   },
   "properties": {
    "name": "22 CHITALWOOD COURT NILMA 3821",
    "locID": "LOC000082192481",
    "tech": "FTTN",
    "upgrade": "FTTP_SA",
    "gnaf_pid": "GAVIC421271899",
    "tech_change_status": "Eligible to Order",
    "program_type": "On-Demand N2P SDU/MDU Simple",
    "target_eligibility_quarter": "NA"
   }
  },
  {
   "type": "Feature",
   "geometry": {
    "type": "Point",
    "coordinates": [
     145.97331991,
     -38.16946425
    ]
   },
   "properties": {
    "name": "16 DRUMMOND STREET NILMA 3821",
    "locID": "LOC000008587527",
    "tech": "FTTN",
    "upgrade": "FTTP_SA",
    "gnaf_pid": "GAVIC421273567",
    "tech_change_status": "Eligible to Order",
    "program_type": "On-Demand N2P SDU/MDU Simple",
    "target_eligibility_quarter": "NA"
   }
  },
  {
   "type": "Feature",
   "geometry": {
    "type": "Point",
    "coordinates": [
     145.96896446,
     -38.17039907
    ]
   },
   "properties": {
    "name": "6 FRASER STREET NILMA 3821",
    "locID": "LOC000007623825",
    "tech": "FTTP",
    "upgrade": "FTTP_NA",
    "gnaf_pid": "GAVIC421329424",
    "tech_change_status": "Previous Tech Disconnected",
    "program_type": "On-Demand N2P SDU/MDU Simple",
    "target_eligibility_quarter": "NA"
   }
  },
  {
   "type": "Feature",
   "geometry": {
    "type": "Point",
    "coordinates": [
     145.97124253,
     -38.17502516
    ]
   },
   "properties": {
    "name": "2 CHITALWOOD COURT NILMA 3821",
    "locID": "LOC000107792735",
    "tech": "FTTN",
    "upgrade": "FTTP_SA",
    "gnaf_pid": "GAVIC421330399",
    "tech_change_status": "Eligible to Order",
    "program_type": "On-Demand N2P SDU/MDU Simple",
    "target_eligibility_quarter": "NA"
   }
  },
  {
   "type": "Feature",
   "geometry": {
    "type": "Point",
    "coordinates": [
     145.972721,
     -38.175598
    ]
   },
   "properties": {
    "name": "5 CHITALWOOD COURT NILMA 3821",
    "locID": "LOC000104109218",
    "tech": "FTTP",
    "upgrade": "FTTP_NA",
    "gnaf_pid": "GAVIC421347092",
    "tech_change_status": "Previous Tech Disconnected",
    "program_type": "On-Demand N2P SDU/MDU Simple",
    "target_eligibility_quarter": "NA"
   }
  },
  {
   "type": "Feature",
   "geometry": {
    "type": "Point",
    "coordinates": [
     145.96500894,
     -38.17027525
    ]
   },
   "properties": {
    "name": "21 MCCOLL STREET NILMA 3821",
    "locID": "LOC000101750873",
    "tech": "FTTN",
    "upgrade": "FTTP_SA",
    "gnaf_pid": "GAVIC421472623",
    "tech_change_status": "Eligible to Order",
    "program_type": "On-Demand N2P SDU/MDU Simple",
    "target_eligibility_quarter": "NA"
   }
  },
  {
   "type": "Feature",
   "geometry": {
    "type": "Point",
    "coordinates": [
     145.9737384,
     -38.1763494
    ]
   },
   "properties": {
    "name": "9 CHITALWOOD COURT NILMA 3821",
    "locID": "LOC000054969752",
    "tech": "FTTN",
    "upgrade": "FTTP",
    "gnaf_pid": "GAVIC421482998",
    "tech_change_status": "New Tech Connected",
    "program_type": "On-Demand N2P SDU/MDU Simple",
    "target_eligibility_quarter": "NA"
   }
  },
  {
   "type": "Feature",
   "geometry": {
    "type": "Point",
    "coordinates": [
     145.96645395,
     -38.17227869
    ]
   },
   "properties": {
    "name": "10 CHAPEL STREET NILMA 3821",
    "locID": "LOC000006952494",
    "tech": "FTTN",
    "upgrade": "FTTP_SA",
    "gnaf_pid": "GAVIC421483009",
    "tech_change_status": "Eligible to Order",
    "program_type": "On-Demand N2P SDU/MDU Simple",
    "target_eligibility_quarter": "NA"
   }
  },
  {
   "type": "Feature",
   "geometry": {
    "type": "Point",
    "coordinates": [
     145.96697813,
     -38.17131766
    ]
   },
   "properties": {
    "name": "3 MCCOLL STREET NILMA 3821",
    "locID": "LOC000011954252",
    "tech": "FTTN",
    "upgrade": "FTTP_SA",
    "gnaf_pid": "GAVIC421532323",
    "tech_change_status": "Eligible to Order",
    "program_type": "On-Demand N2P SDU/MDU Simple",
    "target_eligibility_quarter": "NA"
   }
  },
  {
   "type": "Feature",
   "geometry": {
    "type": "Point",
    "coordinates": [
     145.96501025,
     -38.17127936
    ]
   },
   "properties": {
    "name": "15 PAYNTER STREET NILMA 3821",
    "locID": "LOC000046768469",
    "tech": "FTTP",
    "upgrade": "FTTP_NA",
    "gnaf_pid": "GAVIC421532324",
    "tech_change_status": "Previous Tech Disconnected",
    "program_type": "On-Demand N2P SDU/MDU Simple",
    "target_eligibility_quarter": "NA"
   }
  },
  {
   "type": "Feature",
   "geometry": {
    "type": "Point",
    "coordinates": [
     145.97125046,
     -38.17702181
    ]
   },
   "properties": {
    "name": "20 CHITALWOOD COURT NILMA 3821",
    "locID": "LOC000048759909",
    "tech": "FTTN",
    "upgrade": "FTTP",
    "gnaf_pid": "GAVIC421562550",
    "tech_change_status": "Eligible to Order",
    "program_type": "On-Demand N2P SDU/MDU Simple",
    "target_eligibility_quarter": "NA"
   }
  },
  {
   "type": "Feature",
   "geometry": {
    "type": "Point",
    "coordinates": [
     145.96545585,
     -38.17051554
    ]
   },
   "properties": {
    "name": "17 MCCOLL STREET NILMA 3821",
    "locID": "LOC000053881453",
    "tech": "FTTN",
    "upgrade": "FTTP_SA",
    "gnaf_pid": "GAVIC421800237",
    "tech_change_status": "Eligible to Order",
    "program_type": "On-Demand N2P SDU/MDU Simple",
    "target_eligibility_quarter": "NA"
   }
  },
  {
   "type": "Feature",
   "geometry": {
    "type": "Point",
    "coordinates": [
     145.96616944,
     -38.17089189
    ]
   },
   "properties": {
    "name": "11 MCCOLL STREET NILMA 3821",
    "locID": "LOC000002747768",
    "tech": "FTTN",
    "upgrade": "FTTP_SA",
    "gnaf_pid": "GAVIC421800238",
    "tech_change_status": "Eligible to Order",
    "program_type": "On-Demand N2P SDU/MDU Simple",
    "target_eligibility_quarter": "NA"
   }
  },
  {
   "type": "Feature",
   "geometry": {
    "type": "Point",
    "coordinates": [
     145.96641892,
     -38.17102377
    ]
   },
   "properties": {
    "name": "9 MCCOLL STREET NILMA 3821",
    "locID": "LOC000010549448",
    "tech": "FTTN",
    "upgrade": "FTTP_SA",
    "gnaf_pid": "GAVIC421800239",
    "tech_change_status": "Eligible to Order",
    "program_type": "On-Demand N2P SDU/MDU Simple",
    "target_eligibility_quarter": "NA"
   }
  },
  {
   "type": "Feature",
   "geometry": {
    "type": "Point",
    "coordinates": [
     145.97351351,
     -38.16916639
    ]
   },
   "properties": {
    "name": "15 DRUMMOND STREET NILMA 3821",
    "locID": "LOC000068129199",
    "tech": "FTTN",
    "upgrade": "FTTP_SA",
    "gnaf_pid": "GAVIC421806680",
    "tech_change_status": "Eligible to Order",
    "program_type": "On-Demand N2P SDU/MDU Simple",
    "target_eligibility_quarter": "NA"
   }
  },
  {
   "type": "Feature",
   "geometry": {
    "type": "Point",
    "coordinates": [
     145.96889255,
     -38.1723766
    ]
   },
   "properties": {
    "name": "11 POLLOCK STREET NILMA 3821",
    "locID": "LOC000012169174",
    "tech": "FTTN",
    "upgrade": "FTTP_SA",
    "gnaf_pid": "GAVIC421816773",
    "tech_change_status": "Eligible to Order",
    "program_type": "On-Demand N2P SDU/MDU Simple",
    "target_eligibility_quarter": "NA"
   }
  },
  {
   "type": "Feature",
   "geometry": {
    "type": "Point",
    "coordinates": [
     145.9667199,
     -38.17256965
    ]
   },
   "properties": {
    "name": "2 SELETTO STREET NILMA 3821",
    "locID": "LOC000082261427",
    "tech": "FTTN",
    "upgrade": "FTTP_SA",
    "gnaf_pid": "GAVIC421832478",
    "tech_change_status": "Eligible to Order",
    "program_type": "On-Demand N2P SDU/MDU Simple",
    "target_eligibility_quarter": "NA"
   }
  },
  {
   "type": "Feature",
   "geometry": {
    "type": "Point",
    "coordinates": [
     145.9699586,
     -38.17606795
    ]
   },
   "properties": {
    "name": "44 NILMA-BONA VISTA ROAD NILMA 3821",
    "locID": "LOC000008881744",
    "tech": "FTTP",
    "upgrade": "FTTP_NA",
    "gnaf_pid": "GAVIC421994326",
    "tech_change_status": "Previous Tech Disconnected",
    "program_type": "On-Demand N2P SDU/MDU Simple",
    "target_eligibility_quarter": "NA"
   }
  },
  {
   "type": "Feature",
   "geometry": {
    "type": "Point",
    "coordinates": [
     145.97400346,
     -38.16556979
    ]
   },
   "properties": {
    "name": "77 BLOOMFIELD ROAD NILMA 3821",
    "locID": "LOC000018112054",
    "tech": "WIRELESS",
    "upgrade": "NULL_NA",
    "gnaf_pid": "GAVIC422002476",
    "tech_change_status": "Not Planned",
    "program_type": "Fixed Wireless and Satellite Upgrade Program",
    "target_eligibility_quarter": "NA"
   }
  },
  {
   "type": "Feature",
   "geometry": {
    "type": "Point",
    "coordinates": [
     145.96439854,
     -38.1772014
    ]
   },
   "properties": {
    "name": "60 CAMERONS ROAD NILMA 3821",
    "locID": "LOC000012797456",
    "tech": "FTTN",
    "upgrade": "FTTP",
    "gnaf_pid": "GAVIC422025614",
    "tech_change_status": "Eligible to Order",
    "program_type": "On-Demand N2P SDU/MDU Simple",
    "target_eligibility_quarter": "NA"
   }
  },
  {
   "type": "Feature",
   "geometry": {
    "type": "Point",
    "coordinates": [
     145.98220445,
     -38.15618729
    ]
   },
   "properties": {
    "name": "205 BLOOMFIELD ROAD NILMA 3821",
    "locID": "LOC000071578444",
    "tech": "WIRELESS",
    "upgrade": "NULL_NA",
    "gnaf_pid": "GAVIC422031101",
    "tech_change_status": "Not Planned",
    "program_type": "Fixed Wireless and Satellite Upgrade Program",
    "target_eligibility_quarter": "NA"
   }
  },
  {
   "type": "Feature",
   "geometry": {
    "type": "Point",
    "coordinates": [
     145.9701186,
     -38.16025512
    ]
   },
   "properties": {
    "name": "93 NO 1 ROAD NILMA 3821",
    "locID": "LOC000047048977",
    "tech": "WIRELESS",
    "upgrade": "NULL_NA",
    "gnaf_pid": "GAVIC422031130",
    "tech_change_status": "Not Planned",
    "program_type": "Fixed Wireless and Satellite Upgrade Program",
    "target_eligibility_quarter": "NA"
   }
  },
  {
   "type": "Feature",
   "geometry": {
    "type": "Point",
    "coordinates": [
     145.98254701,
     -38.15821479
    ]
   },
   "properties": {
    "name": "10 NILMA-SHADY CREEK ROAD NILMA 3821",
    "locID": "LOC000044576650",
    "tech": "WIRELESS",
    "upgrade": "NULL_NA",
    "gnaf_pid": "GAVIC422033333",
    "tech_change_status": "Not Planned",
    "program_type": "Fixed Wireless and Satellite Upgrade Program",
    "target_eligibility_quarter": "NA"
   }
  },
  {
   "type": "Feature",
   "geometry": {
    "type": "Point",
    "coordinates": [
     145.97590339,
     -38.16439675
    ]
   },
   "properties": {
    "name": "102 BLOOMFIELD ROAD NILMA 3821",
    "locID": "LOC000081374271",
    "tech": "WIRELESS",
    "upgrade": "NULL_NA",
    "gnaf_pid": "GAVIC422129001",
    "tech_change_status": "Not Planned",
    "program_type": "Fixed Wireless and Satellite Upgrade Program",
    "target_eligibility_quarter": "NA"
   }
  },
  {
   "type": "Feature",
   "geometry": {
    "type": "Point",
    "coordinates": [
     145.97683896,
     -38.16361183
    ]
   },
   "properties": {
    "name": "112 BLOOMFIELD ROAD NILMA 3821",
    "locID": "LOC000030889311",
    "tech": "WIRELESS",
    "upgrade": "NULL_NA",
    "gnaf_pid": "GAVIC422129002",
    "tech_change_status": "Not Planned",
    "program_type": "Fixed Wireless and Satellite Upgrade Program",
    "target_eligibility_quarter": "NA"
   }
  },
  {
   "type": "Feature",
   "geometry": {
    "type": "Point",
    "coordinates": [
     145.97948587,
     -38.16036407
    ]
   },
   "properties": {
    "name": "156 BLOOMFIELD ROAD NILMA 3821",
    "locID": "LOC000035901381",
    "tech": "WIRELESS",
    "upgrade": "NULL_NA",
    "gnaf_pid": "GAVIC422129003",
    "tech_change_status": "Not Planned",
    "program_type": "Fixed Wireless and Satellite Upgrade Program",
    "target_eligibility_quarter": "NA"
   }
  },
  {
   "type": "Feature",
   "geometry": {
    "type": "Point",
    "coordinates": [
     145.97482706,
     -38.16533536
    ]
   },
   "properties": {
    "name": "58 BLOOMFIELD ROAD NILMA 3821",
    "locID": "LOC000092111220",
    "tech": "WIRELESS",
    "upgrade": "NULL_NA",
    "gnaf_pid": "GAVIC422129004",
    "tech_change_status": "Not Planned",
    "program_type": "Fixed Wireless and Satellite Upgrade Program",
    "target_eligibility_quarter": "NA"
   }
  },
  {
   "type": "Feature",
   "geometry": {
    "type": "Point",
    "coordinates": [
     145.97337463,
     -38.1664565
    ]
   },
   "properties": {
    "name": "60 BLOOMFIELD ROAD NILMA 3821",
    "locID": "LOC000125391894",
    "tech": "WIRELESS",
    "upgrade": "NULL_NA",
    "gnaf_pid": "GAVIC422129005",
    "tech_change_status": "Not Planned",
    "program_type": "Fixed Wireless and Satellite Upgrade Program",
    "target_eligibility_quarter": "NA"
   }
  },
  {
   "type": "Feature",
   "geometry": {
    "type": "Point",
    "coordinates": [
     145.97478328,
     -38.16531524
    ]
   },
   "properties": {
    "name": "92 BLOOMFIELD ROAD NILMA 3821",
    "locID": "LOC000049014762",
    "tech": "WIRELESS",
    "upgrade": "NULL_NA",
    "gnaf_pid": "GAVIC422129006",
    "tech_change_status": "Not Planned",
    "program_type": "Fixed Wireless and Satellite Upgrade Program",
    "target_eligibility_quarter": "NA"
   }
  },
  {
   "type": "Feature",
   "geometry": {
    "type": "Point",
    "coordinates": [
     145.96440086,
     -38.1762281
    ]
   },
   "properties": {
    "name": "49 CAMERONS ROAD NILMA 3821",
    "locID": "LOC000090923334",
    "tech": "FTTN",
    "upgrade": "FTTP",
    "gnaf_pid": "GAVIC422133484",
    "tech_change_status": "Eligible to Order",
    "program_type": "On-Demand N2P SDU/MDU Simple",
    "target_eligibility_quarter": "NA"
   }
  },
  {
   "type": "Feature",
   "geometry": {
    "type": "Point",
    "coordinates": [
     145.9661289,
     -38.1815966
    ]
   },
   "properties": {
    "name": "109 NILMA-BONA VISTA ROAD NILMA 3821",
    "locID": "LOC000040713057",
    "tech": "WIRELESS",
    "upgrade": "NULL_NA",
    "gnaf_pid": "GAVIC422177327",
    "tech_change_status": "Not Planned",
    "program_type": "Fixed Wireless and Satellite Upgrade Program",
    "target_eligibility_quarter": "NA"
   }
  },
  {
   "type": "Feature",
   "geometry": {
    "type": "Point",
    "coordinates": [
     145.96553047,
     -38.18187995
    ]
   },
   "properties": {
    "name": "110 NILMA-BONA VISTA ROAD NILMA 3821",
    "locID": "LOC000093258385",
    "tech": "WIRELESS",
    "upgrade": "NULL_NA",
    "gnaf_pid": "GAVIC422177328",
    "tech_change_status": "Not Planned",
    "program_type": "Fixed Wireless and Satellite Upgrade Program",
    "target_eligibility_quarter": "NA"
   }
  },
  {
   "type": "Feature",
   "geometry": {
    "type": "Point",
    "coordinates": [
     145.96542875,
     -38.18247873
    ]
   },
   "properties": {
    "name": "120 NILMA-BONA VISTA ROAD NILMA 3821",
    "locID": "LOC000032844228",
    "tech": "WIRELESS",
    "upgrade": "NULL_NA",
    "gnaf_pid": "GAVIC422177329",
    "tech_change_status": "Not Planned",
    "program_type": "Fixed Wireless and Satellite Upgrade Program",
    "target_eligibility_quarter": "NA"
   }
  },
  {
   "type": "Feature",
   "geometry": {
    "type": "Point",
    "coordinates": [
     145.96539564,
     -38.18258149
    ]
   },
   "properties": {
    "name": "124 NILMA-BONA VISTA ROAD NILMA 3821",
    "locID": "LOC000030109779",
    "tech": "WIRELESS",
    "upgrade": "NULL_NA",
    "gnaf_pid": "GAVIC422177330",
    "tech_change_status": "Not Planned",
    "program_type": "Fixed Wireless and Satellite Upgrade Program",
    "target_eligibility_quarter": "NA"
   }
  },
  {
   "type": "Feature",
   "geometry": {
    "type": "Point",
    "coordinates": [
     145.96644405,
     -38.17997095
    ]
   },
   "properties": {
    "name": "90 NILMA-BONA VISTA ROAD NILMA 3821",
    "locID": "LOC000065802659",
    "tech": "FTTN",
    "upgrade": "FTTP_NA",
    "gnaf_pid": "GAVIC422177331",
    "tech_change_status": "Committed",
    "program_type": "On-Demand N2P SDU/MDU Simple",
    "target_eligibility_quarter": "Dec 2025"
   }
  },
  {
   "type": "Feature",
   "geometry": {
    "type": "Point",
    "coordinates": [
     145.97479448,
     -38.16080348
    ]
   },
   "properties": {
    "name": "135 NO 1 ROAD NILMA 3821",
    "locID": "LOC000037093900",
    "tech": "WIRELESS",
    "upgrade": "NULL_NA",
    "gnaf_pid": "GAVIC422177430",
    "tech_change_status": "Not Planned",
    "program_type": "Fixed Wireless and Satellite Upgrade Program",
    "target_eligibility_quarter": "NA"
   }
  },
  {
   "type": "Feature",
   "geometry": {
    "type": "Point",
    "coordinates": [
     145.97554112,
     -38.16092191
    ]
   },
   "properties": {
    "name": "143 NO 1 ROAD NILMA 3821",
    "locID": "LOC000022719159",
    "tech": "WIRELESS",
    "upgrade": "NULL_NA",
    "gnaf_pid": "GAVIC422177431",
    "tech_change_status": "Not Planned",
    "program_type": "Fixed Wireless and Satellite Upgrade Program",
    "target_eligibility_quarter": "NA"
   }
  },
  {
   "type": "Feature",
   "geometry": {
    "type": "Point",
    "coordinates": [
     145.97588965,
     -38.1609601
    ]
   },
   "properties": {
    "name": "145 NO 1 ROAD NILMA 3821",
    "locID": "LOC000061508519",
    "tech": "WIRELESS",
    "upgrade": "NULL_NA",
    "gnaf_pid": "GAVIC422177432",
    "tech_change_status": "Not Planned",
    "program_type": "Fixed Wireless and Satellite Upgrade Program",
    "target_eligibility_quarter": "NA"
   }
  },
  {
   "type": "Feature",
   "geometry": {
    "type": "Point",
    "coordinates": [
     145.97602434,
     -38.16097707
    ]
   },
   "properties": {
    "name": "147 NO 1 ROAD NILMA 3821",
    "locID": "LOC000082409752",
    "tech": "WIRELESS",
    "upgrade": "NULL_NA",
    "gnaf_pid": "GAVIC422177433",
    "tech_change_status": "Not Planned",
    "program_type": "Fixed Wireless and Satellite Upgrade Program",
    "target_eligibility_quarter": "NA"
   }
  },
  {
   "type": "Feature",
   "geometry": {
    "type": "Point",
    "coordinates": [
     145.9739045,
     -38.15797156
    ]
   },
   "properties": {
    "name": "33 WALKERS ROAD NILMA 3821",
    "locID": "LOC000079958590",
    "tech": "WIRELESS",
    "upgrade": "NULL_NA",
    "gnaf_pid": "GAVIC422200190",
    "tech_change_status": "Not Planned",
    "program_type": "Fixed Wireless and Satellite Upgrade Program",
    "target_eligibility_quarter": "NA"
   }
  },
  {
   "type": "Feature",
   "geometry": {
    "type": "Point",
    "coordinates": [
     145.97421568,
     -38.157758
    ]
   },
   "properties": {
    "name": "36 WALKERS ROAD NILMA 3821",
    "locID": "LOC000003692239",
    "tech": "WIRELESS",
    "upgrade": "NULL_NA",
    "gnaf_pid": "GAVIC422200191",
    "tech_change_status": "Not Planned",
    "program_type": "Fixed Wireless and Satellite Upgrade Program",
    "target_eligibility_quarter": "NA"
   }
  },
  {
   "type": "Feature",
   "geometry": {
    "type": "Point",
    "coordinates": [
     145.97439823,
     -38.1569485
    ]
   },
   "properties": {
    "name": "46 WALKERS ROAD NILMA 3821",
    "locID": "LOC000102011221",
    "tech": "WIRELESS",
    "upgrade": "NULL_NA",
    "gnaf_pid": "GAVIC422200192",
    "tech_change_status": "Not Planned",
    "program_type": "Fixed Wireless and Satellite Upgrade Program",
    "target_eligibility_quarter": "NA"
   }
  },
  {
   "type": "Feature",
   "geometry": {
    "type": "Point",
    "coordinates": [
     145.97377407,
     -38.16006129
    ]
   },
   "properties": {
    "name": "8 WALKERS ROAD NILMA 3821",
    "locID": "LOC000097156911",
    "tech": "WIRELESS",
    "upgrade": "NULL_NA",
    "gnaf_pid": "GAVIC422200193",
    "tech_change_status": "Not Planned",
    "program_type": "Fixed Wireless and Satellite Upgrade Program",
    "target_eligibility_quarter": "NA"
   }
  },
  {
   "type": "Feature",
   "geometry": {
    "type": "Point",
    "coordinates": [
     145.97420626,
     -38.16576081
    ]
   },
   "properties": {
    "name": "76 BLOOMFIELD ROAD NILMA 3821",
    "locID": "LOC000047942966",
    "tech": "WIRELESS",
    "upgrade": "NULL_NA",
    "gnaf_pid": "GAVIC422278159",
    "tech_change_status": "Not Planned",
    "program_type": "Fixed Wireless and Satellite Upgrade Program",
    "target_eligibility_quarter": "NA"
   }
  },
  {
   "type": "Feature",
   "geometry": {
    "type": "Point",
    "coordinates": [
     145.9743563,
     -38.16564496
    ]
   },
   "properties": {
    "name": "78 BLOOMFIELD ROAD NILMA 3821",
    "locID": "LOC000017756931",
    "tech": "WIRELESS",
    "upgrade": "NULL_NA",
    "gnaf_pid": "GAVIC422278160",
    "tech_change_status": "Not Planned",
    "program_type": "Fixed Wireless and Satellite Upgrade Program",
    "target_eligibility_quarter": "NA"
   }
  },
  {
   "type": "Feature",
   "geometry": {
    "type": "Point",
    "coordinates": [
     145.97348568,
     -38.17731674
    ]
   },
   "properties": {
    "name": "17 CHITALWOOD COURT NILMA 3821",
    "locID": "LOC000104555282",
    "tech": "FTTP",
    "upgrade": "FTTP_NA",
    "gnaf_pid": "GAVIC423504203",
    "tech_change_status": "Previous Tech Disconnected",
    "program_type": "On-Demand N2P SDU/MDU Simple",
    "target_eligibility_quarter": "NA"
   }
  },
  {
   "type": "Feature",
   "geometry": {
    "type": "Point",
    "coordinates": [
     145.97375381,
     -38.1769423
    ]
   },
   "properties": {
    "name": "11 CHITALWOOD COURT NILMA 3821",
    "locID": "LOC000095558576",
    "tech": "FTTP",
    "upgrade": "FTTP_NA",
    "gnaf_pid": "GAVIC423624450",
    "tech_change_status": "Previous Tech Disconnected",
    "program_type": "On-Demand N2P SDU/MDU Simple",
    "target_eligibility_quarter": "NA"
   }
  },
  {
   "type": "Feature",
   "geometry": {
    "type": "Point",
    "coordinates": [
     145.97271314,
     -38.17751809
    ]
   },
   "properties": {
    "name": "21 CHITALWOOD COURT NILMA 3821",
    "locID": "LOC000014372380",
    "tech": "FTTN",
    "upgrade": "FTTP_SA",
    "gnaf_pid": "GAVIC423727540",
    "tech_change_status": "Eligible to Order",
    "program_type": "On-Demand N2P SDU/MDU Simple",
    "target_eligibility_quarter": "NA"
   }
  },
  {
   "type": "Feature",
   "geometry": {
    "type": "Point",
    "coordinates": [
     145.96625827,
     -38.17163122
    ]
   },
   "properties": {
    "name": "6A CHAPEL STREET NILMA 3821",
    "locID": "LOC000074661491",
    "tech": "FTTP",
    "upgrade": "NULL_NA",
    "gnaf_pid": "GAVIC423761850",
    "program_type": "On-Demand N2P SDU/MDU Simple",
    "target_eligibility_quarter": "NA"
   }
  },
  {
   "type": "Feature",
   "geometry": {
    "type": "Point",
    "coordinates": [
     145.97226385,
     -38.17746809
    ]
   },
   "properties": {
    "name": "23 CHITALWOOD COURT NILMA 3821",
    "locID": "LOC000100477325",
    "tech": "FTTP",
    "upgrade": "FTTP_NA",
    "gnaf_pid": "GAVIC423846920",
    "tech_change_status": "Previous Tech Disconnected",
    "program_type": "On-Demand N2P SDU/MDU Simple",
    "target_eligibility_quarter": "NA"
   }
  },
  {
   "type": "Feature",
   "geometry": {
    "type": "Point",
    "coordinates": [
     145.97050999,
     -38.17759046
    ]
   },
   "properties": {
    "name": "29 CHITALWOOD COURT NILMA 3821",
    "locID": "LOC000023459633",
    "tech": "FTTN",
    "upgrade": "FTTP",
    "gnaf_pid": "GAVIC423846921",
    "tech_change_status": "Eligible to Order",
    "program_type": "On-Demand N2P SDU/MDU Simple",
    "target_eligibility_quarter": "NA"
   }
  },
  {
   "type": "Feature",
   "geometry": {
    "type": "Point",
    "coordinates": [
     145.97139241,
     -38.17478205
    ]
   },
   "properties": {
    "name": "1A CHITALWOOD COURT NILMA 3821",
    "locID": "LOC000009409785",
    "tech": "FTTN",
    "upgrade": "FTTP_SA",
    "gnaf_pid": "GAVIC424079435",
    "tech_change_status": "Eligible to Order",
    "program_type": "On-Demand N2P SDU/MDU Simple",
    "target_eligibility_quarter": "NA"
   }
  },
  {
   "type": "Feature",
   "geometry": {
    "type": "Point",
    "coordinates": [
     145.97310625,
     -38.1774839
    ]
   },
   "properties": {
    "name": "19 CHITALWOOD COURT NILMA 3821",
    "locID": "LOC000016849301",
    "tech": "FTTN",
    "upgrade": "FTTP_SA",
    "gnaf_pid": "GAVIC424236037",
    "tech_change_status": "Eligible to Order",
    "program_type": "On-Demand N2P SDU/MDU Simple",
    "target_eligibility_quarter": "NA"
   }
  },
  {
   "type": "Feature",
   "geometry": {
    "type": "Point",
    "coordinates": [
     145.97171335,
     -38.17740385
    ]
   },
   "properties": {
    "name": "25 CHITALWOOD COURT NILMA 3821",
    "locID": "LOC000114020995",
    "tech": "FTTN",
    "upgrade": "FTTP_SA",
    "gnaf_pid": "GAVIC424236038",
    "tech_change_status": "Eligible to Order",
    "program_type": "On-Demand N2P SDU/MDU Simple",
    "target_eligibility_quarter": "NA"
   }
  },
  {
   "type": "Feature",
   "geometry": {
    "type": "Point",
    "coordinates": [
     145.97133989,
     -38.17736066
    ]
   },
   "properties": {
    "name": "27 CHITALWOOD COURT NILMA 3821",
    "locID": "LOC000009179529",
    "tech": "FTTN",
    "upgrade": "FTTP_SA",
    "gnaf_pid": "GAVIC424236039",
    "tech_change_status": "Eligible to Order",
    "program_type": "On-Demand N2P SDU/MDU Simple",
    "target_eligibility_quarter": "NA"
   }
  },
  {
   "type": "Feature",
   "geometry": {
    "type": "Point",
    "coordinates": [
     145.96930723,
     -38.17011801
    ]
   },
   "properties": {
    "name": "10 FRASER STREET NILMA 3821",
    "locID": "LOC000076170403",
    "tech": "FTTN",
    "upgrade": "FTTP_SA",
    "gnaf_pid": "GAVIC424238407",
    "tech_change_status": "Eligible to Order",
    "program_type": "On-Demand N2P SDU/MDU Simple",
    "target_eligibility_quarter": "NA"
   }
  },
  {
   "type": "Feature",
   "geometry": {
    "type": "Point",
    "coordinates": [
     145.96944486,
     -38.17000367
    ]
   },
   "properties": {
    "name": "12 FRASER STREET NILMA 3821",
    "locID": "LOC000048650841",
    "tech": "FTTN",
    "upgrade": "FTTP_SA",
    "gnaf_pid": "GAVIC424238408",
    "tech_change_status": "Eligible to Order",
    "program_type": "On-Demand N2P SDU/MDU Simple",
    "target_eligibility_quarter": "NA"
   }
  },
  {
   "type": "Feature",
   "geometry": {
    "type": "Point",
    "coordinates": [
     145.96961479,
     -38.16986845
    ]
   },
   "properties": {
    "name": "16 FRASER STREET NILMA 3821",
    "locID": "LOC000067890305",
    "tech": "FTTN",
    "upgrade": "FTTP_SA",
    "gnaf_pid": "GAVIC424238409",
    "tech_change_status": "Eligible to Order",
    "program_type": "On-Demand N2P SDU/MDU Simple",
    "target_eligibility_quarter": "NA"
   }
  },
  {
   "type": "Feature",
   "geometry": {
    "type": "Point",
    "coordinates": [
     145.96978315,
     -38.16972985
    ]
   },
   "properties": {
    "name": "18 FRASER STREET NILMA 3821",
    "locID": "LOC000039947417",
    "tech": "FTTN",
    "upgrade": "FTTP_SA",
    "gnaf_pid": "GAVIC424457660",
    "tech_change_status": "Eligible to Order",
    "program_type": "On-Demand N2P SDU/MDU Simple",
    "target_eligibility_quarter": "NA"
   }
  },
  {
   "type": "Feature",
   "geometry": {
    "type": "Point",
    "coordinates": [
     145.9692876,
     -38.16994094
    ]
   },
   "properties": {
    "name": "4 FRASER STREET NILMA 3821",
    "locID": "LOC000079048418",
    "tech": "FTTN",
    "upgrade": "FTTP_SA",
    "gnaf_pid": "GAVIC424466854",
    "tech_change_status": "Eligible to Order",
    "program_type": "On-Demand N2P SDU/MDU Simple",
    "target_eligibility_quarter": "NA"
   }
  },
  {
   "type": "Feature",
   "geometry": {
    "type": "Point",
    "coordinates": [
     145.97923159,
     -38.15750937
    ]
   },
   "properties": {
    "name": "19 EVISON ROAD NILMA 3821",
    "locID": "LOC000114207888",
    "tech": "WIRELESS",
    "upgrade": "NULL_NA",
    "gnaf_pid": "GAVIC424670843",
    "tech_change_status": "Not Planned",
    "program_type": "Fixed Wireless and Satellite Upgrade Program",
    "target_eligibility_quarter": "NA"
   }
  },
  {
   "type": "Feature",
   "geometry": {
    "type": "Point",
    "coordinates": [
     145.97948251,
     -38.1572402
    ]
   },
   "properties": {
    "name": "20 EVISON ROAD NILMA 3821",
    "locID": "LOC000113188041",
    "tech": "WIRELESS",
    "upgrade": "NULL_NA",
    "gnaf_pid": "GAVIC424670844",
    "tech_change_status": "Not Planned",
    "program_type": "Fixed Wireless and Satellite Upgrade Program",
    "target_eligibility_quarter": "NA"
   }
  },
  {
   "type": "Feature",
   "geometry": {
    "type": "Point",
    "coordinates": [
     145.97805668,
     -38.15713755
    ]
   },
   "properties": {
    "name": "30 EVISON ROAD NILMA 3821",
    "locID": "LOC000114056643",
    "tech": "WIRELESS",
    "upgrade": "NULL_NA",
    "gnaf_pid": "GAVIC424670845",
    "tech_change_status": "Not Planned",
    "program_type": "Fixed Wireless and Satellite Upgrade Program",
    "target_eligibility_quarter": "NA"
   }
  },
  {
   "type": "Feature",
   "geometry": {
    "type": "Point",
    "coordinates": [
     145.9653571,
     -38.17704956
    ]
   },
   "properties": {
    "name": "63 CAMERONS ROAD NILMA 3821",
    "locID": "LOC000114073401",
    "tech": "FTTP",
    "upgrade": "FTTP_NA",
    "gnaf_pid": "GAVIC424744420",
    "tech_change_status": "Previous Tech Disconnected",
    "program_type": "On-Demand N2P SDU/MDU Simple",
    "target_eligibility_quarter": "NA"
   }
  },
  {
   "type": "Feature",
   "geometry": {
    "type": "Point",
    "coordinates": [
     145.96565126,
     -38.17740347
    ]
   },
   "properties": {
    "name": "65 CAMERONS ROAD NILMA 3821",
    "locID": "LOC000115073759",
    "tech": "FTTN",
    "upgrade": "FTTP",
    "gnaf_pid": "GAVIC424744422",
    "tech_change_status": "Eligible to Order",
    "program_type": "On-Demand N2P SDU/MDU Simple",
    "target_eligibility_quarter": "NA"
   }
  },
  {
   "type": "Feature",
   "geometry": {
    "type": "Point",
    "coordinates": [
     145.96377196,
     -38.17850714
    ]
   },
   "properties": {
    "name": "11 HILLVIEW CLOSE NILMA 3821",
    "locID": "LOC000113067241",
    "tech": "FTTP",
    "upgrade": "NULL_NA",
    "gnaf_pid": "GAVIC424752817",
    "program_type": "On-Demand N2P SDU/MDU Simple",
    "target_eligibility_quarter": "NA"
   }
  },
  {
   "type": "Feature",
   "geometry": {
    "type": "Point",
    "coordinates": [
     145.96376543,
     -38.17812027
    ]
   },
   "properties": {
    "name": "13 HILLVIEW CLOSE NILMA 3821",
    "locID": "LOC000112841703",
    "tech": "FTTP",
    "upgrade": "FTTP_NA",
    "gnaf_pid": "GAVIC424752818",
    "tech_change_status": "Previous Tech Disconnected",
    "program_type": "On-Demand N2P SDU/MDU Simple",
    "target_eligibility_quarter": "NA"
   }
  },
  {
   "type": "Feature",
   "geometry": {
    "type": "Point",
    "coordinates": [
     145.96391917,
     -38.17790733
    ]
   },
   "properties": {
    "name": "15 HILLVIEW CLOSE NILMA 3821",
    "locID": "LOC000182538539",
    "tech": "FTTP",
    "upgrade": "NULL_NA",
    "gnaf_pid": "GAVIC424752819",
    "tech_change_status": "Previous Tech Disconnected",
    "program_type": "On-Demand N2P SDU/MDU Simple",
    "target_eligibility_quarter": "NA"
   }
  },
  {
   "type": "Feature",
   "geometry": {
    "type": "Point",
    "coordinates": [
     145.96438272,
     -38.17767565
    ]
   },
   "properties": {
    "name": "17 HILLVIEW CLOSE NILMA 3821",
    "locID": "LOC000114903089",
    "tech": "FTTN",
    "upgrade": "FTTP",
    "gnaf_pid": "GAVIC424752820",
    "tech_change_status": "Eligible to Order",
    "program_type": "On-Demand N2P SDU/MDU Simple",
    "target_eligibility_quarter": "NA"
   }
  },
  {
   "type": "Feature",
   "geometry": {
    "type": "Point",
    "coordinates": [
     145.96514046,
     -38.17769331
    ]
   },
   "properties": {
    "name": "1 HILLVIEW CLOSE NILMA 3821",
    "locID": "LOC000113257791",
    "tech": "FTTN",
    "upgrade": "FTTP",
    "gnaf_pid": "GAVIC424752821",
    "tech_change_status": "Eligible to Order",
    "program_type": "On-Demand N2P SDU/MDU Simple",
    "target_eligibility_quarter": "NA"
   }
  },
  {
   "type": "Feature",
   "geometry": {
    "type": "Point",
    "coordinates": [
     145.96411804,
     -38.17838581
    ]
   },
   "properties": {
    "name": "3 HILLVIEW CLOSE NILMA 3821",
    "locID": "LOC000115033094",
    "tech": "FTTN",
    "upgrade": "FTTP",
    "gnaf_pid": "GAVIC424752822",
    "tech_change_status": "Eligible to Order",
    "program_type": "On-Demand N2P SDU/MDU Simple",
    "target_eligibility_quarter": "NA"
   }
  },
  {
   "type": "Feature",
   "geometry": {
    "type": "Point",
    "coordinates": [
     145.96422127,
     -38.1786306
    ]
   },
   "properties": {
    "name": "5 HILLVIEW CLOSE NILMA 3821",
    "locID": "LOC000113107900",
    "tech": "FTTN",
    "upgrade": "FTTP",
    "gnaf_pid": "GAVIC424752823",
    "tech_change_status": "Eligible to Order",
    "program_type": "On-Demand N2P SDU/MDU Simple",
    "target_eligibility_quarter": "NA"
   }
  },
  {
   "type": "Feature",
   "geometry": {
    "type": "Point",
    "coordinates": [
     145.96419758,
     -38.17885766
    ]
   },
   "properties": {
    "name": "7 HILLVIEW CLOSE NILMA 3821",
    "locID": "LOC000112967087",
    "tech": "FTTP",
    "upgrade": "FTTP_NA",
    "gnaf_pid": "GAVIC424752824",
    "tech_change_status": "Previous Tech Disconnected",
    "program_type": "On-Demand N2P SDU/MDU Simple",
    "target_eligibility_quarter": "NA"
   }
  },
  {
   "type": "Feature",
   "geometry": {
    "type": "Point",
    "coordinates": [
     145.96386441,
     -38.17886553
    ]
   },
   "properties": {
    "name": "9 HILLVIEW CLOSE NILMA 3821",
    "locID": "LOC000114300229",
    "tech": "FTTN",
    "upgrade": "FTTP",
    "gnaf_pid": "GAVIC424752825",
    "tech_change_status": "Eligible to Order",
    "program_type": "On-Demand N2P SDU/MDU Simple",
    "target_eligibility_quarter": "NA"
   }
  },
  {
   "type": "Feature",
   "geometry": {
    "type": "Point",
    "coordinates": [
     145.96581431,
     -38.17894646
    ]
   },
   "properties": {
    "name": "11 WARNE CLOSE NILMA 3821",
    "locID": "LOC000114625961",
    "tech": "FTTP",
    "upgrade": "NULL_NA",
    "gnaf_pid": "GAVIC424767832",
    "program_type": "On-Demand N2P SDU/MDU Simple",
    "target_eligibility_quarter": "NA"
   }
  },
  {
   "type": "Feature",
   "geometry": {
    "type": "Point",
    "coordinates": [
     145.96564886,
     -38.17875594
    ]
   },
   "properties": {
    "name": "13 WARNE CLOSE NILMA 3821",
    "locID": "LOC000184100892",
    "tech": "FTTP",
    "upgrade": "FTTP_NA",
    "gnaf_pid": "GAVIC424767833",
    "tech_change_status": "Previous Tech Disconnected",
    "program_type": "On-Demand N2P SDU/MDU Simple",
    "target_eligibility_quarter": "NA"
   }
  },
  {
   "type": "Feature",
   "geometry": {
    "type": "Point",
    "coordinates": [
     145.96556995,
     -38.17842268
    ]
   },
   "properties": {
    "name": "15 WARNE CLOSE NILMA 3821",
    "locID": "LOC000112952750",
    "tech": "FTTP",
    "upgrade": "NULL_NA",
    "gnaf_pid": "GAVIC424767834",
    "program_type": "On-Demand N2P SDU/MDU Simple",
    "target_eligibility_quarter": "NA"
   }
  },
  {
   "type": "Feature",
   "geometry": {
    "type": "Point",
    "coordinates": [
     145.96577685,
     -38.17780199
    ]
   },
   "properties": {
    "name": "3 WARNE CLOSE NILMA 3821",
    "locID": "LOC000114987028",
    "tech": "FTTP",
    "upgrade": "FTTP_NA",
    "gnaf_pid": "GAVIC424767835",
    "tech_change_status": "Previous Tech Disconnected",
    "program_type": "On-Demand N2P SDU/MDU Simple",
    "target_eligibility_quarter": "NA"
   }
  },
  {
   "type": "Feature",
   "geometry": {
    "type": "Point",
    "coordinates": [
     145.96591687,
     -38.17834116
    ]
   },
   "properties": {
    "name": "5 WARNE CLOSE NILMA 3821",
    "locID": "LOC000112922107",
    "tech": "FTTP",
    "upgrade": "NULL_NA",
    "gnaf_pid": "GAVIC424767836",
    "program_type": "On-Demand N2P SDU/MDU Simple",
    "target_eligibility_quarter": "NA"
   }
  },
  {
   "type": "Feature",
   "geometry": {
    "type": "Point",
    "coordinates": [
     145.96604634,
     -38.17863365
    ]
   },
   "properties": {
    "name": "7 WARNE CLOSE NILMA 3821",
    "locID": "LOC000114752204",
    "tech": "FTTP",
    "upgrade": "FTTP_NA",
    "gnaf_pid": "GAVIC424767837",
    "tech_change_status": "Previous Tech Disconnected",
    "program_type": "On-Demand N2P SDU/MDU Simple",
    "target_eligibility_quarter": "NA"
   }
  },
  {
   "type": "Feature",
   "geometry": {
    "type": "Point",
    "coordinates": [
     145.96608074,
     -38.17888071
    ]
   },
   "properties": {
    "name": "9 WARNE CLOSE NILMA 3821",
    "locID": "LOC000114136949",
    "tech": "FTTN",
    "upgrade": "FTTP",
    "gnaf_pid": "GAVIC424767838",
    "tech_change_status": "Eligible to Order",
    "program_type": "On-Demand N2P SDU/MDU Simple",
    "target_eligibility_quarter": "NA"
   }
  },
  {
   "type": "Feature",
   "geometry": {
    "type": "Point",
    "coordinates": [
     145.96625827,
     -38.17163122
    ]
   },
   "properties": {
    "name": "4 PAYNTER STREET NILMA 3821",
    "locID": "LOC000074661491",
    "tech": "FTTP",
    "upgrade": "NULL_NA",
    "gnaf_pid": "GAVIC424915957",
    "program_type": "On-Demand N2P SDU/MDU Simple",
    "target_eligibility_quarter": "NA"
   }
  },
  {
   "type": "Feature",
   "geometry": {
    "type": "Point",
    "coordinates": [
     145.97621513,
     -38.16087666
    ]
   },
   "properties": {
    "name": "UNIT 1, 147 NO 1 ROAD NILMA 3821",
    "locID": "LOC000082409752",
    "tech": "WIRELESS",
    "upgrade": "NULL_NA",
    "gnaf_pid": "GAVIC425230231",
    "tech_change_status": "Not Planned",
    "program_type": "Fixed Wireless and Satellite Upgrade Program",
    "target_eligibility_quarter": "NA"
   }
  },
  {
   "type": "Feature",
   "geometry": {
    "type": "Point",
    "coordinates": [
     145.97602895,
     -38.16097584
    ]
   },
   "properties": {
    "name": "UNIT 2, 147 NO 1 ROAD NILMA 3821",
    "locID": "LOC000082409752",
    "tech": "WIRELESS",
    "upgrade": "NULL_NA",
    "gnaf_pid": "GAVIC425230232",
    "tech_change_status": "Not Planned",
    "program_type": "Fixed Wireless and Satellite Upgrade Program",
    "target_eligibility_quarter": "NA"
   }
  },
  {
   "type": "Feature",
   "geometry": {
    "type": "Point",
    "coordinates": [
     145.96637253,
     -38.1691989
    ]
   },
   "properties": {
    "name": "365 QUEEN STREET NILMA 3821",
    "locID": "LOC000188134210",
    "tech": "FTTN",
    "upgrade": "FTTP",
    "gnaf_pid": "GAVIC425403233",
    "tech_change_status": "Eligible to Order",
    "program_type": "On-Demand N2P SDU/MDU Simple",
    "target_eligibility_quarter": "NA"
   }
  },
  {
   "type": "Feature",
   "geometry": {
    "type": "Point",
    "coordinates": [
     145.96695421,
     -38.17965184
    ]
   },
   "properties": {
    "name": "84 NILMA-BONA VISTA ROAD NILMA 3821",
    "locID": "LOC000195896983",
    "tech": "FTTN",
    "upgrade": "FTTP_SA",
    "gnaf_pid": "GAVIC425703207",
    "tech_change_status": "Eligible to Order",
    "program_type": "On-Demand N2P SDU/MDU Simple",
    "target_eligibility_quarter": "NA"
   }
  },
  {
   "type": "Feature",
   "geometry": {
    "type": "Point",
    "coordinates": [
     145.96470259,
     -38.17683574
    ]
   },
   "properties": {
    "name": "58 CAMERONS ROAD NILMA 3821",
    "locID": "LOC000177887034",
    "tech": "FTTP",
    "upgrade": "NULL_NA",
    "gnaf_pid": "GAVIC719753857",
    "program_type": "On-Demand N2P SDU/MDU Simple",
    "target_eligibility_quarter": "NA"
   }
  },
  {
   "type": "Feature",
   "geometry": {
    "type": "Point",
    "coordinates": [
     145.96504838,
     -38.17740336
    ]
   },
   "properties": {
    "name": "19 HILLVIEW CLOSE NILMA 3821",
    "locID": "LOC000113048203",
    "tech": "FTTP",
    "upgrade": "NULL_NA",
    "gnaf_pid": "GAVIC720916109",
    "program_type": "On-Demand N2P SDU/MDU Simple",
    "target_eligibility_quarter": "NA"
   }
  }
 ]
}