{
 "type": "FeatureCollection",
 "generated": "2026-05-03T07:52:15.934488",
 "suburb": "NOORINBEE",
 "features": [
  {
   "type": "Feature",
   "geometry": {
    "type": "Point",
    "coordinates": [
     149.16914916,
     -37.51440011
    ]
   },
   "properties": {
    "name": "616 MONARO HIGHWAY NOORINBEE 3890",
    "locID": "LOC000034768787",
    "tech": "SATELLITE",
    "upgrade": "NULL_NA",
    "gnaf_pid": "GAVIC412022788",
    "tech_change_status": "Not Planned"
   }
  },
  {
   "type": "Feature",
   "geometry": {
    "type": "Point",
    "coordinates": [
     149.18051347,
     -37.49785809
    ]
   },
   "properties": {
    "name": "849 MONARO HIGHWAY NOORINBEE 3890",
    "locID": "LOC000024415466",
    "tech": "SATELLITE",
    "upgrade": "NULL_NA",
    "gnaf_pid": "GAVIC412022794",
    "tech_change_status": "Not Planned"
   }
  },
  {
   "type": "Feature",
   "geometry": {
    "type": "Point",
    "coordinates": [
     149.18187493,
     -37.49270865
    ]
   },
   "properties": {
    "name": "LOT 6 MONARO HIGHWAY NOORINBEE 3890",
    "locID": "LOC000108881246",
    "tech": "WIRELESS",
    "upgrade": "NULL_NA",
    "gnaf_pid": "GAVIC412695873",
    "tech_change_status": "Not Planned",
    "program_type": "Fixed Wireless and Satellite Upgrade Program",
    "target_eligibility_quarter": "NA"
   }
  },
  {
   "type": "Feature",
   "geometry": {
    "type": "Point",
    "coordinates": [
     149.16277701,
     -37.52960013
    ]
   },
   "properties": {
    "name": "419 MONARO HIGHWAY NOORINBEE 3890",
    "locID": "LOC000107715971",
    "tech": "WIRELESS",
    "upgrade": "NULL_NA",
    "gnaf_pid": "GAVIC421980095",
    "tech_change_status": "Not Planned",
    "program_type": "Fixed Wireless and Satellite Upgrade Program",
    "target_eligibility_quarter": "NA"
   }
  },
  {
   "type": "Feature",
   "geometry": {
    "type": "Point",
    "coordinates": [
     149.17710778,
     -37.47420829
    ]
   },
   "properties": {
    "name": "1136 MONARO HIGHWAY NOORINBEE 3890",
    "locID": "LOC000031065528",
    "tech": "WIRELESS",
    "upgrade": "NULL_NA",
    "gnaf_pid": "GAVIC422310462",
    "tech_change_status": "Not Planned",
    "program_type": "Fixed Wireless and Satellite Upgrade Program",
    "target_eligibility_quarter": "NA"
   }
  },
  {
   "type": "Feature",
   "geometry": {
    "type": "Point",
    "coordinates": [
     149.17710778,
     -37.47420829
    ]
   },
   "properties": {
    "name": "1138 MONARO HIGHWAY NOORINBEE 3890",
    "locID": "LOC000073867770",
    "tech": "WIRELESS",
    "upgrade": "NULL_NA",
    "gnaf_pid": "GAVIC422310463",
    "tech_change_status": "Not Planned",
    "program_type": "Fixed Wireless and Satellite Upgrade Program",
    "target_eligibility_quarter": "NA"
   }
  },
  {
   "type": "Feature",
   "geometry": {
    "type": "Point",
    "coordinates": [
     149.17605419,
     -37.47435802
    ]
   },
   "properties": {
    "name": "1139 MONARO HIGHWAY NOORINBEE 3890",
    "locID": "LOC000027777686",
    "tech": "WIRELESS",
    "upgrade": "NULL_NA",
    "gnaf_pid": "GAVIC422310464",
    "tech_change_status": "Not Planned",
    "program_type": "Fixed Wireless and Satellite Upgrade Program",
    "target_eligibility_quarter": "NA"
   }
  },
  {
   "type": "Feature",
   "geometry": {
    "type": "Point",
    "coordinates": [
     149.1890287,
     -37.45854666
    ]
   },
   "properties": {
    "name": "1362 MONARO HIGHWAY NOORINBEE 3890",
    "locID": "LOC000046772963",
    "tech": "NULL",
    "upgrade": "NULL_NA",
    "gnaf_pid": "GAVIC422310466",
    "tech_change_status": "Not Planned"
   }
  },
  {
   "type": "Feature",
   "geometry": {
    "type": "Point",
    "coordinates": [
     149.19111034,
     -37.45521853
    ]
   },
   "properties": {
    "name": "1404 MONARO HIGHWAY NOORINBEE 3890",
    "locID": "LOC000046792039",
    "tech": "SATELLITE",
    "upgrade": "NULL_NA",
    "gnaf_pid": "GAVIC422310469",
    "tech_change_status": "Not Planned"
   }
  },
  {
   "type": "Feature",
   "geometry": {
    "type": "Point",
    "coordinates": [
     149.16024673,
     -37.53523681
    ]
   },
   "properties": {
    "name": "365 MONARO HIGHWAY NOORINBEE 3890",
    "locID": "LOC000056665107",
    "tech": "SATELLITE",
    "upgrade": "WIRELESS",
    "gnaf_pid": "GAVIC422310472",
    "tech_change_status": "Eligible to Order",
    "program_type": "Fixed Wireless and Satellite Upgrade Program",
    "target_eligibility_quarter": "NA"
   }
  },
  {
   "type": "Feature",
   "geometry": {
    "type": "Point",
    "coordinates": [
     149.1616724,
     -37.5320926
    ]
   },
   "properties": {
    "name": "402 MONARO HIGHWAY NOORINBEE 3890",
    "locID": "LOC000048456420",
    "tech": "WIRELESS",
    "upgrade": "NULL_NA",
    "gnaf_pid": "GAVIC422310474",
    "tech_change_status": "Not Planned",
    "program_type": "Fixed Wireless and Satellite Upgrade Program",
    "target_eligibility_quarter": "NA"
   }
  },
  {
   "type": "Feature",
   "geometry": {
    "type": "Point",
    "coordinates": [
     149.16609943,
     -37.52435126
    ]
   },
   "properties": {
    "name": "503 MONARO HIGHWAY NOORINBEE 3890",
    "locID": "LOC000020411290",
    "tech": "WIRELESS",
    "upgrade": "NULL_NA",
    "gnaf_pid": "GAVIC422310477",
    "tech_change_status": "Not Planned",
    "program_type": "Fixed Wireless and Satellite Upgrade Program",
    "target_eligibility_quarter": "NA"
   }
  },
  {
   "type": "Feature",
   "geometry": {
    "type": "Point",
    "coordinates": [
     149.16716098,
     -37.51997901
    ]
   },
   "properties": {
    "name": "553 MONARO HIGHWAY NOORINBEE 3890",
    "locID": "LOC000015936992",
    "tech": "WIRELESS",
    "upgrade": "NULL_NA",
    "gnaf_pid": "GAVIC422310479",
    "tech_change_status": "Not Planned",
    "program_type": "Fixed Wireless and Satellite Upgrade Program",
    "target_eligibility_quarter": "NA"
   }
  },
  {
   "type": "Feature",
   "geometry": {
    "type": "Point",
    "coordinates": [
     149.1686822,
     -37.51624714
    ]
   },
   "properties": {
    "name": "594 MONARO HIGHWAY NOORINBEE 3890",
    "locID": "LOC000011073878",
    "tech": "NULL",
    "upgrade": "NULL_NA",
    "gnaf_pid": "GAVIC422310480",
    "tech_change_status": "Not Planned"
   }
  },
  {
   "type": "Feature",
   "geometry": {
    "type": "Point",
    "coordinates": [
     149.16806217,
     -37.51621185
    ]
   },
   "properties": {
    "name": "595 MONARO HIGHWAY NOORINBEE 3890",
    "locID": "LOC100078662222",
    "tech": "WIRELESS",
    "upgrade": "NULL_NA",
    "gnaf_pid": "GAVIC422310481",
    "tech_change_status": "Not Planned",
    "program_type": "Fixed Wireless and Satellite Upgrade Program",
    "target_eligibility_quarter": "NA"
   }
  },
  {
   "type": "Feature",
   "geometry": {
    "type": "Point",
    "coordinates": [
     149.16891831,
     -37.51532125
    ]
   },
   "properties": {
    "name": "606 MONARO HIGHWAY NOORINBEE 3890",
    "locID": "LOC000075843459",
    "tech": "NULL",
    "upgrade": "NULL_NA",
    "gnaf_pid": "GAVIC422310482",
    "tech_change_status": "Not Planned"
   }
  },
  {
   "type": "Feature",
   "geometry": {
    "type": "Point",
    "coordinates": [
     149.16840278,
     -37.51480135
    ]
   },
   "properties": {
    "name": "613 MONARO HIGHWAY NOORINBEE 3890",
    "locID": "LOC000031945701",
    "tech": "WIRELESS",
    "upgrade": "NULL_NA",
    "gnaf_pid": "GAVIC422310483",
    "tech_change_status": "Not Planned",
    "program_type": "Fixed Wireless and Satellite Upgrade Program",
    "target_eligibility_quarter": "NA"
   }
  },
  {
   "type": "Feature",
   "geometry": {
    "type": "Point",
    "coordinates": [
     149.17060333,
     -37.5122646
    ]
   },
   "properties": {
    "name": "648 MONARO HIGHWAY NOORINBEE 3890",
    "locID": "LOC000005317735",
    "tech": "NULL",
    "upgrade": "NULL_NA",
    "gnaf_pid": "GAVIC422310484",
    "tech_change_status": "Not Planned"
   }
  },
  {
   "type": "Feature",
   "geometry": {
    "type": "Point",
    "coordinates": [
     149.1696672,
     -37.51193019
    ]
   },
   "properties": {
    "name": "665 MONARO HIGHWAY NOORINBEE 3890",
    "locID": "LOC000088715242",
    "tech": "NULL",
    "upgrade": "NULL_NA",
    "gnaf_pid": "GAVIC422310486",
    "tech_change_status": "Not Planned"
   }
  },
  {
   "type": "Feature",
   "geometry": {
    "type": "Point",
    "coordinates": [
     149.17232112,
     -37.50983518
    ]
   },
   "properties": {
    "name": "697 MONARO HIGHWAY NOORINBEE 3890",
    "locID": "LOC000060132274",
    "tech": "NULL",
    "upgrade": "NULL_NA",
    "gnaf_pid": "GAVIC422310488",
    "tech_change_status": "Not Planned"
   }
  },
  {
   "type": "Feature",
   "geometry": {
    "type": "Point",
    "coordinates": [
     149.18115671,
     -37.49438767
    ]
   },
   "properties": {
    "name": "887 MONARO HIGHWAY NOORINBEE 3890",
    "locID": "LOC000083747975",
    "tech": "SATELLITE",
    "upgrade": "NULL_NA",
    "gnaf_pid": "GAVIC422310496",
    "tech_change_status": "Not Planned"
   }
  },
  {
   "type": "Feature",
   "geometry": {
    "type": "Point",
    "coordinates": [
     149.18209179,
     -37.49418791
    ]
   },
   "properties": {
    "name": "894 MONARO HIGHWAY NOORINBEE 3890",
    "locID": "LOC000084997474",
    "tech": "NULL",
    "upgrade": "NULL_NA",
    "gnaf_pid": "GAVIC422310497",
    "tech_change_status": "Not Planned"
   }
  },
  {
   "type": "Feature",
   "geometry": {
    "type": "Point",
    "coordinates": [
     149.18212205,
     -37.48994248
    ]
   },
   "properties": {
    "name": "937 MONARO HIGHWAY NOORINBEE 3890",
    "locID": "LOC000082117172",
    "tech": "NULL",
    "upgrade": "NULL_NA",
    "gnaf_pid": "GAVIC422310500",
    "tech_change_status": "Not Planned"
   }
  },
  {
   "type": "Feature",
   "geometry": {
    "type": "Point",
    "coordinates": [
     149.18237806,
     -37.4887597
    ]
   },
   "properties": {
    "name": "950 MONARO HIGHWAY NOORINBEE 3890",
    "locID": "LOC000046418982",
    "tech": "WIRELESS",
    "upgrade": "NULL_NA",
    "gnaf_pid": "GAVIC422310502",
    "tech_change_status": "Not Planned",
    "program_type": "Fixed Wireless and Satellite Upgrade Program",
    "target_eligibility_quarter": "NA"
   }
  },
  {
   "type": "Feature",
   "geometry": {
    "type": "Point",
    "coordinates": [
     149.18151515,
     -37.48719945
    ]
   },
   "properties": {
    "name": "969 MONARO HIGHWAY NOORINBEE 3890",
    "locID": "LOC000038860185",
    "tech": "SATELLITE",
    "upgrade": "NULL_NA",
    "gnaf_pid": "GAVIC422310504",
    "tech_change_status": "Not Planned"
   }
  },
  {
   "type": "Feature",
   "geometry": {
    "type": "Point",
    "coordinates": [
     149.180615,
     -37.48580121
    ]
   },
   "properties": {
    "name": "987 MONARO HIGHWAY NOORINBEE 3890",
    "locID": "LOC000088531138",
    "tech": "NULL",
    "upgrade": "NULL_NA",
    "gnaf_pid": "GAVIC422310505",
    "tech_change_status": "Not Planned"
   }
  },
  {
   "type": "Feature",
   "geometry": {
    "type": "Point",
    "coordinates": [
     149.18102959,
     -37.48527989
    ]
   },
   "properties": {
    "name": "996 MONARO HIGHWAY NOORINBEE 3890",
    "locID": "LOC000066215697",
    "tech": "WIRELESS",
    "upgrade": "NULL_NA",
    "gnaf_pid": "GAVIC422310506",
    "tech_change_status": "Not Planned",
    "program_type": "Fixed Wireless and Satellite Upgrade Program",
    "target_eligibility_quarter": "NA"
   }
  },
  {
   "type": "Feature",
   "geometry": {
    "type": "Point",
    "coordinates": [
     149.18029911,
     -37.48505004
    ]
   },
   "properties": {
    "name": "997 MONARO HIGHWAY NOORINBEE 3890",
    "locID": "LOC000088763894",
    "tech": "SATELLITE",
    "upgrade": "NULL_NA",
    "gnaf_pid": "GAVIC422310507",
    "tech_change_status": "Not Planned"
   }
  },
  {
   "type": "Feature",
   "geometry": {
    "type": "Point",
    "coordinates": [
     149.14425069,
     -37.51252084
    ]
   },
   "properties": {
    "name": "919 REED BED CREEK ROAD NOORINBEE 3890",
    "locID": "LOC000082172640",
    "tech": "NULL",
    "upgrade": "NULL_NA",
    "gnaf_pid": "GAVIC422319193",
    "tech_change_status": "Not Planned"
   }
  },
  {
   "type": "Feature",
   "geometry": {
    "type": "Point",
    "coordinates": [
     149.1472222,
     -37.50843845
    ]
   },
   "properties": {
    "name": "972 REED BED CREEK ROAD NOORINBEE 3890",
    "locID": "LOC000073806721",
    "tech": "WIRELESS",
    "upgrade": "NULL_NA",
    "gnaf_pid": "GAVIC422319195",
    "tech_change_status": "Not Planned",
    "program_type": "Fixed Wireless and Satellite Upgrade Program",
    "target_eligibility_quarter": "NA"
   }
  },
  {
   "type": "Feature",
   "geometry": {
    "type": "Point",
    "coordinates": [
     149.17709531,
     -37.50402528
    ]
   },
   "properties": {
    "name": "2 WEST CANN ROAD NOORINBEE 3890",
    "locID": "LOC000102247318",
    "tech": "NULL",
    "upgrade": "NULL_NA",
    "gnaf_pid": "GAVIC422333359",
    "tech_change_status": "Not Planned"
   }
  },
  {
   "type": "Feature",
   "geometry": {
    "type": "Point",
    "coordinates": [
     149.15760719,
     -37.48878321
    ]
   },
   "properties": {
    "name": "369 WEST CANN ROAD NOORINBEE 3890",
    "locID": "LOC000006988327",
    "tech": "SATELLITE",
    "upgrade": "WIRELESS",
    "gnaf_pid": "GAVIC422333365",
    "tech_change_status": "Eligible to Order",
    "program_type": "Fixed Wireless and Satellite Upgrade Program",
    "target_eligibility_quarter": "NA"
   }
  },
  {
   "type": "Feature",
   "geometry": {
    "type": "Point",
    "coordinates": [
     149.1610289,
     -37.47822154
    ]
   },
   "properties": {
    "name": "508 WEST CANN ROAD NOORINBEE 3890",
    "locID": "LOC000048020038",
    "tech": "SATELLITE",
    "upgrade": "WIRELESS",
    "gnaf_pid": "GAVIC422333379",
    "tech_change_status": "Eligible to Order",
    "program_type": "Fixed Wireless and Satellite Upgrade Program",
    "target_eligibility_quarter": "NA"
   }
  },
  {
   "type": "Feature",
   "geometry": {
    "type": "Point",
    "coordinates": [
     149.16911864,
     -37.47228765
    ]
   },
   "properties": {
    "name": "609 WEST CANN ROAD NOORINBEE 3890",
    "locID": "LOC000048732530",
    "tech": "WIRELESS",
    "upgrade": "NULL_NA",
    "gnaf_pid": "GAVIC422333387",
    "tech_change_status": "Not Planned",
    "program_type": "Fixed Wireless and Satellite Upgrade Program",
    "target_eligibility_quarter": "NA"
   }
  },
  {
   "type": "Feature",
   "geometry": {
    "type": "Point",
    "coordinates": [
     149.17692881,
     -37.4643846
    ]
   },
   "properties": {
    "name": "732 WEST CANN ROAD NOORINBEE 3890",
    "locID": "LOC000058508177",
    "tech": "NULL",
    "upgrade": "NULL_NA",
    "gnaf_pid": "GAVIC422333392",
    "tech_change_status": "Not Planned"
   }
  },
  {
   "type": "Feature",
   "geometry": {
    "type": "Point",
    "coordinates": [
     149.17868045,
     -37.46357726
    ]
   },
   "properties": {
    "name": "750 WEST CANN ROAD NOORINBEE 3890",
    "locID": "LOC000095414120",
    "tech": "NULL",
    "upgrade": "NULL_NA",
    "gnaf_pid": "GAVIC422333393",
    "tech_change_status": "Not Planned"
   }
  },
  {
   "type": "Feature",
   "geometry": {
    "type": "Point",
    "coordinates": [
     149.17857565,
     -37.46308355
    ]
   },
   "properties": {
    "name": "755 WEST CANN ROAD NOORINBEE 3890",
    "locID": "LOC000069558497",
    "tech": "WIRELESS",
    "upgrade": "NULL_NA",
    "gnaf_pid": "GAVIC422333394",
    "tech_change_status": "Not Planned",
    "program_type": "Fixed Wireless and Satellite Upgrade Program",
    "target_eligibility_quarter": "NA"
   }
  },
  {
   "type": "Feature",
   "geometry": {
    "type": "Point",
    "coordinates": [
     149.1790253,
     -37.46299414
    ]
   },
   "properties": {
    "name": "758 WEST CANN ROAD NOORINBEE 3890",
    "locID": "LOC000105828448",
    "tech": "NULL",
    "upgrade": "NULL_NA",
    "gnaf_pid": "GAVIC422333396",
    "tech_change_status": "Not Planned"
   }
  },
  {
   "type": "Feature",
   "geometry": {
    "type": "Point",
    "coordinates": [
     149.18545533,
     -37.4547375
    ]
   },
   "properties": {
    "name": "884 WEST CANN ROAD NOORINBEE 3890",
    "locID": "LOC000009343057",
    "tech": "NULL",
    "upgrade": "NULL_NA",
    "gnaf_pid": "GAVIC422333401",
    "tech_change_status": "Not Planned"
   }
  },
  {
   "type": "Feature",
   "geometry": {
    "type": "Point",
    "coordinates": [
     149.18880131,
     -37.44969189
    ]
   },
   "properties": {
    "name": "948 WEST CANN ROAD NOORINBEE 3890",
    "locID": "LOC000022715740",
    "tech": "NULL",
    "upgrade": "NULL_NA",
    "gnaf_pid": "GAVIC422333402",
    "tech_change_status": "Not Planned"
   }
  },
  {
   "type": "Feature",
   "geometry": {
    "type": "Point",
    "coordinates": [
     149.19031968,
     -37.44710433
    ]
   },
   "properties": {
    "name": "986 WEST CANN ROAD NOORINBEE 3890",
    "locID": "LOC000045671039",
    "tech": "NULL",
    "upgrade": "NULL_NA",
    "gnaf_pid": "GAVIC422333404",
    "tech_change_status": "Not Planned"
   }
  },
  {
   "type": "Feature",
   "geometry": {
    "type": "Point",
    "coordinates": [
     149.18953933,
     -37.4475007
    ]
   },
   "properties": {
    "name": "979 WEST CANN ROAD NOORINBEE 3890",
    "locID": "LOC000054214109",
    "tech": "NULL",
    "upgrade": "NULL_NA",
    "gnaf_pid": "GAVIC423389347",
    "tech_change_status": "Not Planned"
   }
  },
  {
   "type": "Feature",
   "geometry": {
    "type": "Point",
    "coordinates": [
     149.16788315,
     -37.53155733
    ]
   },
   "properties": {
    "name": "52 HADFIELD ROAD NOORINBEE 3890",
    "locID": "LOC000097211472",
    "tech": "WIRELESS",
    "upgrade": "NULL_NA",
    "gnaf_pid": "GAVIC423882964",
    "tech_change_status": "Not Planned",
    "program_type": "Fixed Wireless and Satellite Upgrade Program",
    "target_eligibility_quarter": "NA"
   }
  },
  {
   "type": "Feature",
   "geometry": {
    "type": "Point",
    "coordinates": [
     149.16829819,
     -37.53142857
    ]
   },
   "properties": {
    "name": "55 HADFIELD ROAD NOORINBEE 3890",
    "locID": "LOC000032329912",
    "tech": "SATELLITE",
    "upgrade": "NULL_NA",
    "gnaf_pid": "GAVIC423882965",
    "tech_change_status": "Not Planned"
   }
  },
  {
   "type": "Feature",
   "geometry": {
    "type": "Point",
    "coordinates": [
     149.14814528,
     -37.50460045
    ]
   },
   "properties": {
    "name": "1040 REED BED CREEK ROAD NOORINBEE 3890",
    "locID": "LOC000034978055",
    "tech": "SATELLITE",
    "upgrade": "NULL_NA",
    "gnaf_pid": "GAVIC424034330",
    "tech_change_status": "Not Planned"
   }
  },
  {
   "type": "Feature",
   "geometry": {
    "type": "Point",
    "coordinates": [
     149.16739765,
     -37.47327881
    ]
   },
   "properties": {
    "name": "585 WEST CANN ROAD NOORINBEE 3890",
    "locID": "LOC000025091276",
    "tech": "NULL",
    "upgrade": "NULL_NA",
    "gnaf_pid": "GAVIC424037781",
    "tech_change_status": "Not Planned"
   }
  },
  {
   "type": "Feature",
   "geometry": {
    "type": "Point",
    "coordinates": [
     149.16845742,
     -37.514604
    ]
   },
   "properties": {
    "name": "615 MONARO HIGHWAY NOORINBEE 3890",
    "locID": "LOC000018635827",
    "tech": "WIRELESS",
    "upgrade": "NULL_NA",
    "gnaf_pid": "GAVIC424040964",
    "tech_change_status": "Not Planned",
    "program_type": "Fixed Wireless and Satellite Upgrade Program",
    "target_eligibility_quarter": "NA"
   }
  },
  {
   "type": "Feature",
   "geometry": {
    "type": "Point",
    "coordinates": [
     149.15545716,
     -37.49434804
    ]
   },
   "properties": {
    "name": "280 WEST CANN ROAD NOORINBEE 3890",
    "locID": "LOC100078867801",
    "tech": "WIRELESS",
    "upgrade": "NULL_NA",
    "gnaf_pid": "GAVIC424070329",
    "tech_change_status": "Not Planned",
    "program_type": "Fixed Wireless and Satellite Upgrade Program",
    "target_eligibility_quarter": "NA"
   }
  },
  {
   "type": "Feature",
   "geometry": {
    "type": "Point",
    "coordinates": [
     149.15789289,
     -37.48903593
    ]
   },
   "properties": {
    "name": "366 WEST CANN ROAD NOORINBEE 3890",
    "locID": "LOC000092376681",
    "tech": "WIRELESS",
    "upgrade": "NULL_NA",
    "gnaf_pid": "GAVIC424072336",
    "tech_change_status": "Not Planned",
    "program_type": "Fixed Wireless and Satellite Upgrade Program",
    "target_eligibility_quarter": "NA"
   }
  },
  {
   "type": "Feature",
   "geometry": {
    "type": "Point",
    "coordinates": [
     149.16872439,
     -37.51316083
    ]
   },
   "properties": {
    "name": "651 MONARO HIGHWAY NOORINBEE 3890",
    "locID": "LOC000104502567",
    "tech": "WIRELESS",
    "upgrade": "NULL_NA",
    "gnaf_pid": "GAVIC424251953",
    "tech_change_status": "Not Planned",
    "program_type": "Fixed Wireless and Satellite Upgrade Program",
    "target_eligibility_quarter": "NA"
   }
  },
  {
   "type": "Feature",
   "geometry": {
    "type": "Point",
    "coordinates": [
     149.16872439,
     -37.51316083
    ]
   },
   "properties": {
    "name": "629 MONARO HIGHWAY NOORINBEE 3890",
    "locID": "LOC000107885634",
    "tech": "NULL",
    "upgrade": "NULL_NA",
    "gnaf_pid": "GAVIC424267659",
    "tech_change_status": "Not Planned"
   }
  },
  {
   "type": "Feature",
   "geometry": {
    "type": "Point",
    "coordinates": [
     149.18048053,
     -37.48366441
    ]
   },
   "properties": {
    "name": "1010 MONARO HIGHWAY NOORINBEE 3890",
    "locID": "LOC000062410004",
    "tech": "WIRELESS",
    "upgrade": "NULL_NA",
    "gnaf_pid": "GAVIC424458459",
    "tech_change_status": "Not Planned",
    "program_type": "Fixed Wireless and Satellite Upgrade Program",
    "target_eligibility_quarter": "NA"
   }
  },
  {
   "type": "Feature",
   "geometry": {
    "type": "Point",
    "coordinates": [
     149.29437896,
     -37.50655929
    ]
   },
   "properties": {
    "name": "773 DRUMMER TRACK NOORINBEE 3890",
    "locID": "LOC000115883719",
    "tech": "SATELLITE",
    "upgrade": "NULL_NA",
    "gnaf_pid": "GAVIC424877243",
    "tech_change_status": "Not Planned"
   }
  }
 ]
}