{
 "type": "FeatureCollection",
 "generated": "2026-08-28T05:33:54.038046",
 "suburb": "SHELLEY",
 "features": [
  {
   "type": "Feature",
   "geometry": {
    "type": "Point",
    "coordinates": [
     147.53628705,
     -36.19514679
    ]
   },
   "properties": {
    "name": "234 AVONDALE ROAD SHELLEY 3701",
    "locID": "LOC000106781517",
    "tech": "SATELLITE",
    "upgrade": "NULL_NA",
    "gnaf_pid": "GAVIC422124892",
    "tech_change_status": "Not Planned"
   }
  },
  {
   "type": "Feature",
   "geometry": {
    "type": "Point",
    "coordinates": [
     147.54942626,
     -36.18092485
    ]
   },
   "properties": {
    "name": "43 AVONDALE ROAD SHELLEY 3701",
    "locID": "LOC000093849735",
    "tech": "SATELLITE",
    "upgrade": "NULL_NA",
    "gnaf_pid": "GAVIC422124893",
    "tech_change_status": "Not Planned"
   }
  },
  {
   "type": "Feature",
   "geometry": {
    "type": "Point",
    "coordinates": [
     147.55612821,
     -36.17780329
    ]
   },
   "properties": {
    "name": "5431 MURRAY VALLEY HIGHWAY SHELLEY 3701",
    "locID": "LOC000008897128",
    "tech": "SATELLITE",
    "upgrade": "NULL_NA",
    "gnaf_pid": "GAVIC422174919",
    "tech_change_status": "Not Planned"
   }
  },
  {
   "type": "Feature",
   "geometry": {
    "type": "Point",
    "coordinates": [
     147.54364376,
     -36.1751667
    ]
   },
   "properties": {
    "name": "5547A MURRAY VALLEY HIGHWAY SHELLEY 3701",
    "locID": "LOC000026826513",
    "tech": "SATELLITE",
    "upgrade": "NULL_NA",
    "gnaf_pid": "GAVIC422174920",
    "tech_change_status": "Not Planned"
   }
  },
  {
   "type": "Feature",
   "geometry": {
    "type": "Point",
    "coordinates": [
     147.54363931,
     -36.17524713
    ]
   },
   "properties": {
    "name": "5547B MURRAY VALLEY HIGHWAY SHELLEY 3701",
    "locID": "LOC000027063698",
    "tech": "SATELLITE",
    "upgrade": "NULL_NA",
    "gnaf_pid": "GAVIC422174921",
    "tech_change_status": "Not Planned"
   }
  },
  {
   "type": "Feature",
   "geometry": {
    "type": "Point",
    "coordinates": [
     147.54368191,
     -36.17398085
    ]
   },
   "properties": {
    "name": "5550 MURRAY VALLEY HIGHWAY SHELLEY 3701",
    "locID": "LOC000059414372",
    "tech": "SATELLITE",
    "upgrade": "NULL_NA",
    "gnaf_pid": "GAVIC422174922",
    "tech_change_status": "Not Planned"
   }
  },
  {
   "type": "Feature",
   "geometry": {
    "type": "Point",
    "coordinates": [
     147.49767923,
     -36.17217031
    ]
   },
   "properties": {
    "name": "219 BILBOROUGH ROAD SHELLEY 3701",
    "locID": "LOC000029370956",
    "tech": "SATELLITE",
    "upgrade": "NULL_NA",
    "gnaf_pid": "GAVIC422277868",
    "tech_change_status": "Not Planned"
   }
  },
  {
   "type": "Feature",
   "geometry": {
    "type": "Point",
    "coordinates": [
     147.54968083,
     -36.17987455
    ]
   },
   "properties": {
    "name": "33 AVONDALE ROAD SHELLEY 3701",
    "locID": "LOC000096622585",
    "tech": "SATELLITE",
    "upgrade": "NULL_NA",
    "gnaf_pid": "GAVIC423131560",
    "tech_change_status": "Not Planned"
   }
  },
  {
   "type": "Feature",
   "geometry": {
    "type": "Point",
    "coordinates": [
     147.54763791,
     -36.18121996
    ]
   },
   "properties": {
    "name": "40 AVONDALE ROAD SHELLEY 3701",
    "locID": "LOC000054002855",
    "tech": "SATELLITE",
    "upgrade": "NULL_NA",
    "gnaf_pid": "GAVIC423131561",
    "tech_change_status": "Not Planned"
   }
  },
  {
   "type": "Feature",
   "geometry": {
    "type": "Point",
    "coordinates": [
     147.54363931,
     -36.17524713
    ]
   },
   "properties": {
    "name": "5547 MURRAY VALLEY HIGHWAY SHELLEY 3701",
    "locID": "LOC000027063698",
    "tech": "SATELLITE",
    "upgrade": "NULL_NA",
    "gnaf_pid": "GAVIC423849368",
    "tech_change_status": "Not Planned"
   }
  }
 ]
}