{
 "type": "FeatureCollection",
 "generated": "2026-05-03T15:46:08.988455",
 "suburb": "STRADBROKE",
 "features": [
  {
   "type": "Feature",
   "geometry": {
    "type": "Point",
    "coordinates": [
     147.14115796,
     -38.2608173
    ]
   },
   "properties": {
    "name": "1050 SEASPRAY ROAD STRADBROKE 3851",
    "locID": "LOC000027832622",
    "tech": "NULL",
    "upgrade": "NULL_NA",
    "gnaf_pid": "GAVIC422024490",
    "tech_change_status": "Not Planned"
   }
  },
  {
   "type": "Feature",
   "geometry": {
    "type": "Point",
    "coordinates": [
     147.03783803,
     -38.30737359
    ]
   },
   "properties": {
    "name": "65 STANBOROUGH ROAD STRADBROKE 3851",
    "locID": "LOC000092167857",
    "tech": "NULL",
    "upgrade": "NULL_NA",
    "gnaf_pid": "GAVIC422024762",
    "tech_change_status": "Not Planned"
   }
  },
  {
   "type": "Feature",
   "geometry": {
    "type": "Point",
    "coordinates": [
     147.05058376,
     -38.2725836
    ]
   },
   "properties": {
    "name": "46 WINTERS LANE STRADBROKE 3851",
    "locID": "LOC000038035382",
    "tech": "NULL",
    "upgrade": "NULL_NA",
    "gnaf_pid": "GAVIC422026865",
    "tech_change_status": "Not Planned"
   }
  },
  {
   "type": "Feature",
   "geometry": {
    "type": "Point",
    "coordinates": [
     147.14477409,
     -38.26285876
    ]
   },
   "properties": {
    "name": "1084 SEASPRAY ROAD STRADBROKE 3851",
    "locID": "LOC000102840088",
    "tech": "WIRELESS",
    "upgrade": "NULL_NA",
    "gnaf_pid": "GAVIC422026945",
    "tech_change_status": "Not Planned",
    "program_type": "Fixed Wireless and Satellite Upgrade Program",
    "target_eligibility_quarter": "NA"
   }
  },
  {
   "type": "Feature",
   "geometry": {
    "type": "Point",
    "coordinates": [
     146.98806433,
     -38.28741639
    ]
   },
   "properties": {
    "name": "2923 GORMANDALE-STRADBROKE ROAD STRADBROKE 3851",
    "locID": "LOC000091339176",
    "tech": "SATELLITE",
    "upgrade": "NULL_NA",
    "gnaf_pid": "GAVIC422029601",
    "tech_change_status": "Not Planned"
   }
  },
  {
   "type": "Feature",
   "geometry": {
    "type": "Point",
    "coordinates": [
     147.06509315,
     -38.2796933
    ]
   },
   "properties": {
    "name": "269 BRADLEYS ROAD STRADBROKE 3851",
    "locID": "LOC000107915280",
    "tech": "NULL",
    "upgrade": "NULL_NA",
    "gnaf_pid": "GAVIC422030131",
    "tech_change_status": "Not Planned"
   }
  },
  {
   "type": "Feature",
   "geometry": {
    "type": "Point",
    "coordinates": [
     147.0445229,
     -38.27729669
    ]
   },
   "properties": {
    "name": "83 BRADLEYS ROAD STRADBROKE 3851",
    "locID": "LOC000073494996",
    "tech": "SATELLITE",
    "upgrade": "NULL_NA",
    "gnaf_pid": "GAVIC422030345",
    "tech_change_status": "Not Planned"
   }
  },
  {
   "type": "Feature",
   "geometry": {
    "type": "Point",
    "coordinates": [
     147.02152839,
     -38.31582839
    ]
   },
   "properties": {
    "name": "35 ANDERSONS LANE STRADBROKE 3851",
    "locID": "LOC000125313815",
    "tech": "SATELLITE",
    "upgrade": "NULL_NA",
    "gnaf_pid": "GAVIC422123397",
    "tech_change_status": "Not Planned"
   }
  },
  {
   "type": "Feature",
   "geometry": {
    "type": "Point",
    "coordinates": [
     147.03710238,
     -38.27644305
    ]
   },
   "properties": {
    "name": "13 BRADLEYS ROAD STRADBROKE 3851",
    "locID": "LOC000057212672",
    "tech": "SATELLITE",
    "upgrade": "NULL_NA",
    "gnaf_pid": "GAVIC422130356",
    "tech_change_status": "Not Planned"
   }
  },
  {
   "type": "Feature",
   "geometry": {
    "type": "Point",
    "coordinates": [
     147.05452669,
     -38.27704009
    ]
   },
   "properties": {
    "name": "171 BRADLEYS ROAD STRADBROKE 3851",
    "locID": "LOC000062152783",
    "tech": "NULL",
    "upgrade": "NULL_NA",
    "gnaf_pid": "GAVIC422130357",
    "tech_change_status": "Not Planned"
   }
  },
  {
   "type": "Feature",
   "geometry": {
    "type": "Point",
    "coordinates": [
     147.07343196,
     -38.28353664
    ]
   },
   "properties": {
    "name": "355 BRADLEYS ROAD STRADBROKE 3851",
    "locID": "LOC000057289503",
    "tech": "SATELLITE",
    "upgrade": "NULL_NA",
    "gnaf_pid": "GAVIC422130358",
    "tech_change_status": "Not Planned"
   }
  },
  {
   "type": "Feature",
   "geometry": {
    "type": "Point",
    "coordinates": [
     147.0360732,
     -38.2760378
    ]
   },
   "properties": {
    "name": "3 BRADLEYS ROAD STRADBROKE 3851",
    "locID": "LOC000099482892",
    "tech": "SATELLITE",
    "upgrade": "NULL_NA",
    "gnaf_pid": "GAVIC422130359",
    "tech_change_status": "Not Planned"
   }
  },
  {
   "type": "Feature",
   "geometry": {
    "type": "Point",
    "coordinates": [
     147.0819877,
     -38.28618961
    ]
   },
   "properties": {
    "name": "437 BRADLEYS ROAD STRADBROKE 3851",
    "locID": "LOC000039687719",
    "tech": "NULL",
    "upgrade": "NULL_NA",
    "gnaf_pid": "GAVIC422130360",
    "tech_change_status": "Not Planned"
   }
  },
  {
   "type": "Feature",
   "geometry": {
    "type": "Point",
    "coordinates": [
     147.04591765,
     -38.27713393
    ]
   },
   "properties": {
    "name": "95 BRADLEYS ROAD STRADBROKE 3851",
    "locID": "LOC000025154943",
    "tech": "SATELLITE",
    "upgrade": "NULL_NA",
    "gnaf_pid": "GAVIC422130361",
    "tech_change_status": "Not Planned"
   }
  },
  {
   "type": "Feature",
   "geometry": {
    "type": "Point",
    "coordinates": [
     147.00314696,
     -38.29278848
    ]
   },
   "properties": {
    "name": "3084 GORMANDALE-STRADBROKE ROAD STRADBROKE 3851",
    "locID": "LOC000019351224",
    "tech": "SATELLITE",
    "upgrade": "NULL_NA",
    "gnaf_pid": "GAVIC422150769",
    "tech_change_status": "Not Planned"
   }
  },
  {
   "type": "Feature",
   "geometry": {
    "type": "Point",
    "coordinates": [
     147.01183873,
     -38.29728523
    ]
   },
   "properties": {
    "name": "3174 GORMANDALE-STRADBROKE ROAD STRADBROKE 3851",
    "locID": "LOC000077036120",
    "tech": "NULL",
    "upgrade": "NULL_NA",
    "gnaf_pid": "GAVIC422150770",
    "tech_change_status": "Not Planned"
   }
  },
  {
   "type": "Feature",
   "geometry": {
    "type": "Point",
    "coordinates": [
     147.11520134,
     -38.29112781
    ]
   },
   "properties": {
    "name": "238 NICHOLLS ROAD STRADBROKE 3851",
    "locID": "LOC000010658450",
    "tech": "NULL",
    "upgrade": "NULL_NA",
    "gnaf_pid": "GAVIC422177065",
    "tech_change_status": "Not Planned"
   }
  },
  {
   "type": "Feature",
   "geometry": {
    "type": "Point",
    "coordinates": [
     147.11408046,
     -38.29099371
    ]
   },
   "properties": {
    "name": "239 NICHOLLS ROAD STRADBROKE 3851",
    "locID": "LOC000018104305",
    "tech": "NULL",
    "upgrade": "NULL_NA",
    "gnaf_pid": "GAVIC422177066",
    "tech_change_status": "Not Planned"
   }
  },
  {
   "type": "Feature",
   "geometry": {
    "type": "Point",
    "coordinates": [
     147.11756244,
     -38.2802924
    ]
   },
   "properties": {
    "name": "360 NICHOLLS ROAD STRADBROKE 3851",
    "locID": "LOC000073653194",
    "tech": "SATELLITE",
    "upgrade": "NULL_NA",
    "gnaf_pid": "GAVIC422177067",
    "tech_change_status": "Not Planned"
   }
  },
  {
   "type": "Feature",
   "geometry": {
    "type": "Point",
    "coordinates": [
     147.1176075,
     -38.27987778
    ]
   },
   "properties": {
    "name": "362 NICHOLLS ROAD STRADBROKE 3851",
    "locID": "LOC000058098168",
    "tech": "SATELLITE",
    "upgrade": "NULL_NA",
    "gnaf_pid": "GAVIC422177068",
    "tech_change_status": "Not Planned"
   }
  },
  {
   "type": "Feature",
   "geometry": {
    "type": "Point",
    "coordinates": [
     147.11839174,
     -38.27699299
    ]
   },
   "properties": {
    "name": "398 NICHOLLS ROAD STRADBROKE 3851",
    "locID": "LOC000057309591",
    "tech": "SATELLITE",
    "upgrade": "NULL_NA",
    "gnaf_pid": "GAVIC422177069",
    "tech_change_status": "Not Planned"
   }
  },
  {
   "type": "Feature",
   "geometry": {
    "type": "Point",
    "coordinates": [
     147.11953904,
     -38.27244949
    ]
   },
   "properties": {
    "name": "452 NICHOLLS ROAD STRADBROKE 3851",
    "locID": "LOC000044916622",
    "tech": "SATELLITE",
    "upgrade": "NULL_NA",
    "gnaf_pid": "GAVIC422177070",
    "tech_change_status": "Not Planned"
   }
  },
  {
   "type": "Feature",
   "geometry": {
    "type": "Point",
    "coordinates": [
     147.12138601,
     -38.26939233
    ]
   },
   "properties": {
    "name": "490 NICHOLLS ROAD STRADBROKE 3851",
    "locID": "LOC000071737297",
    "tech": "SATELLITE",
    "upgrade": "NULL_NA",
    "gnaf_pid": "GAVIC422177071",
    "tech_change_status": "Not Planned"
   }
  },
  {
   "type": "Feature",
   "geometry": {
    "type": "Point",
    "coordinates": [
     147.09524721,
     -38.29149708
    ]
   },
   "properties": {
    "name": "49 NICHOLLS ROAD STRADBROKE 3851",
    "locID": "LOC000019386464",
    "tech": "NULL",
    "upgrade": "NULL_NA",
    "gnaf_pid": "GAVIC422177072",
    "tech_change_status": "Not Planned"
   }
  },
  {
   "type": "Feature",
   "geometry": {
    "type": "Point",
    "coordinates": [
     147.134237,
     -38.27024358
    ]
   },
   "properties": {
    "name": "628 NICHOLLS ROAD STRADBROKE 3851",
    "locID": "LOC000032004190",
    "tech": "SATELLITE",
    "upgrade": "NULL_NA",
    "gnaf_pid": "GAVIC422177073",
    "tech_change_status": "Not Planned"
   }
  },
  {
   "type": "Feature",
   "geometry": {
    "type": "Point",
    "coordinates": [
     147.14180681,
     -38.27119005
    ]
   },
   "properties": {
    "name": "694 NICHOLLS ROAD STRADBROKE 3851",
    "locID": "LOC000070000434",
    "tech": "SATELLITE",
    "upgrade": "NULL_NA",
    "gnaf_pid": "GAVIC422177074",
    "tech_change_status": "Not Planned"
   }
  },
  {
   "type": "Feature",
   "geometry": {
    "type": "Point",
    "coordinates": [
     147.10038273,
     -38.29224986
    ]
   },
   "properties": {
    "name": "95 NICHOLLS ROAD STRADBROKE 3851",
    "locID": "LOC000085469940",
    "tech": "SATELLITE",
    "upgrade": "NULL_NA",
    "gnaf_pid": "GAVIC422177075",
    "tech_change_status": "Not Planned"
   }
  },
  {
   "type": "Feature",
   "geometry": {
    "type": "Point",
    "coordinates": [
     147.0121641,
     -38.33708365
    ]
   },
   "properties": {
    "name": "4316 SOUTH GIPPSLAND HIGHWAY STRADBROKE 3851",
    "locID": "LOC000067843250",
    "tech": "NULL",
    "upgrade": "NULL_NA",
    "gnaf_pid": "GAVIC422191174",
    "tech_change_status": "Not Planned"
   }
  },
  {
   "type": "Feature",
   "geometry": {
    "type": "Point",
    "coordinates": [
     147.01773475,
     -38.32723258
    ]
   },
   "properties": {
    "name": "4445 SOUTH GIPPSLAND HIGHWAY STRADBROKE 3851",
    "locID": "LOC000088908095",
    "tech": "SATELLITE",
    "upgrade": "NULL_NA",
    "gnaf_pid": "GAVIC422191175",
    "tech_change_status": "Not Planned"
   }
  },
  {
   "type": "Feature",
   "geometry": {
    "type": "Point",
    "coordinates": [
     147.026735,
     -38.3156501
    ]
   },
   "properties": {
    "name": "4594 SOUTH GIPPSLAND HIGHWAY STRADBROKE 3851",
    "locID": "LOC000004865633",
    "tech": "NULL",
    "upgrade": "NULL_NA",
    "gnaf_pid": "GAVIC422191176",
    "tech_change_status": "Not Planned"
   }
  },
  {
   "type": "Feature",
   "geometry": {
    "type": "Point",
    "coordinates": [
     147.02720314,
     -38.31306346
    ]
   },
   "properties": {
    "name": "4623 SOUTH GIPPSLAND HIGHWAY STRADBROKE 3851",
    "locID": "LOC000046225716",
    "tech": "NULL",
    "upgrade": "NULL_NA",
    "gnaf_pid": "GAVIC422191177",
    "tech_change_status": "Not Planned"
   }
  },
  {
   "type": "Feature",
   "geometry": {
    "type": "Point",
    "coordinates": [
     147.03714235,
     -38.28800609
    ]
   },
   "properties": {
    "name": "4918 SOUTH GIPPSLAND HIGHWAY STRADBROKE 3851",
    "locID": "LOC000125459023",
    "tech": "NULL",
    "upgrade": "NULL_NA",
    "gnaf_pid": "GAVIC422191179",
    "tech_change_status": "Not Planned"
   }
  },
  {
   "type": "Feature",
   "geometry": {
    "type": "Point",
    "coordinates": [
     147.03655045,
     -38.28728096
    ]
   },
   "properties": {
    "name": "4921 SOUTH GIPPSLAND HIGHWAY STRADBROKE 3851",
    "locID": "LOC000098070127",
    "tech": "NULL",
    "upgrade": "NULL_NA",
    "gnaf_pid": "GAVIC422191180",
    "tech_change_status": "Not Planned"
   }
  },
  {
   "type": "Feature",
   "geometry": {
    "type": "Point",
    "coordinates": [
     147.03624254,
     -38.27163055
    ]
   },
   "properties": {
    "name": "5088 SOUTH GIPPSLAND HIGHWAY STRADBROKE 3851",
    "locID": "LOC000030838617",
    "tech": "NULL",
    "upgrade": "NULL_NA",
    "gnaf_pid": "GAVIC422191182",
    "tech_change_status": "Not Planned"
   }
  },
  {
   "type": "Feature",
   "geometry": {
    "type": "Point",
    "coordinates": [
     147.0478565,
     -38.25225814
    ]
   },
   "properties": {
    "name": "5349 SOUTH GIPPSLAND HIGHWAY STRADBROKE 3851",
    "locID": "LOC000050452782",
    "tech": "NULL",
    "upgrade": "NULL_NA",
    "gnaf_pid": "GAVIC422191184",
    "tech_change_status": "Not Planned"
   }
  },
  {
   "type": "Feature",
   "geometry": {
    "type": "Point",
    "coordinates": [
     147.05152386,
     -38.2502648
    ]
   },
   "properties": {
    "name": "5389 SOUTH GIPPSLAND HIGHWAY STRADBROKE 3851",
    "locID": "LOC000057863567",
    "tech": "SATELLITE",
    "upgrade": "NULL_NA",
    "gnaf_pid": "GAVIC422191185",
    "tech_change_status": "Not Planned"
   }
  },
  {
   "type": "Feature",
   "geometry": {
    "type": "Point",
    "coordinates": [
     147.05483666,
     -38.24606386
    ]
   },
   "properties": {
    "name": "5457 SOUTH GIPPSLAND HIGHWAY STRADBROKE 3851",
    "locID": "LOC000104737121",
    "tech": "SATELLITE",
    "upgrade": "NULL_NA",
    "gnaf_pid": "GAVIC422191187",
    "tech_change_status": "Not Planned"
   }
  },
  {
   "type": "Feature",
   "geometry": {
    "type": "Point",
    "coordinates": [
     147.05570173,
     -38.24360258
    ]
   },
   "properties": {
    "name": "5482 SOUTH GIPPSLAND HIGHWAY STRADBROKE 3851",
    "locID": "LOC000082436914",
    "tech": "NULL",
    "upgrade": "NULL_NA",
    "gnaf_pid": "GAVIC422191188",
    "tech_change_status": "Not Planned"
   }
  },
  {
   "type": "Feature",
   "geometry": {
    "type": "Point",
    "coordinates": [
     147.05449003,
     -38.24311646
    ]
   },
   "properties": {
    "name": "5487 SOUTH GIPPSLAND HIGHWAY STRADBROKE 3851",
    "locID": "LOC000012782542",
    "tech": "NULL",
    "upgrade": "NULL_NA",
    "gnaf_pid": "GAVIC422191189",
    "tech_change_status": "Not Planned"
   }
  },
  {
   "type": "Feature",
   "geometry": {
    "type": "Point",
    "coordinates": [
     147.0539008,
     -38.23446465
    ]
   },
   "properties": {
    "name": "5581 SOUTH GIPPSLAND HIGHWAY STRADBROKE 3851",
    "locID": "LOC000070361724",
    "tech": "WIRELESS",
    "upgrade": "NULL_NA",
    "gnaf_pid": "GAVIC422191190",
    "tech_change_status": "Not Planned",
    "program_type": "Fixed Wireless and Satellite Upgrade Program",
    "target_eligibility_quarter": "NA"
   }
  },
  {
   "type": "Feature",
   "geometry": {
    "type": "Point",
    "coordinates": [
     147.05450286,
     -38.22970574
    ]
   },
   "properties": {
    "name": "5637 SOUTH GIPPSLAND HIGHWAY STRADBROKE 3851",
    "locID": "LOC000107824215",
    "tech": "WIRELESS",
    "upgrade": "NULL_NA",
    "gnaf_pid": "GAVIC422191192",
    "tech_change_status": "Not Planned",
    "program_type": "Fixed Wireless and Satellite Upgrade Program",
    "target_eligibility_quarter": "NA"
   }
  },
  {
   "type": "Feature",
   "geometry": {
    "type": "Point",
    "coordinates": [
     147.03812443,
     -38.30830176
    ]
   },
   "properties": {
    "name": "70 STANBOROUGH ROAD STRADBROKE 3851",
    "locID": "LOC000058684212",
    "tech": "NULL",
    "upgrade": "NULL_NA",
    "gnaf_pid": "GAVIC422192562",
    "tech_change_status": "Not Planned"
   }
  },
  {
   "type": "Feature",
   "geometry": {
    "type": "Point",
    "coordinates": [
     147.04566292,
     -38.27924315
    ]
   },
   "properties": {
    "name": "90 BRADLEYS ROAD STRADBROKE 3851",
    "locID": "LOC000106438091",
    "tech": "SATELLITE",
    "upgrade": "NULL_NA",
    "gnaf_pid": "GAVIC422278941",
    "tech_change_status": "Not Planned"
   }
  },
  {
   "type": "Feature",
   "geometry": {
    "type": "Point",
    "coordinates": [
     147.00976603,
     -38.27599781
    ]
   },
   "properties": {
    "name": "256 BUXTONS ROAD STRADBROKE 3851",
    "locID": "LOC000107234482",
    "tech": "NULL",
    "upgrade": "NULL_NA",
    "gnaf_pid": "GAVIC422281103",
    "tech_change_status": "Not Planned"
   }
  },
  {
   "type": "Feature",
   "geometry": {
    "type": "Point",
    "coordinates": [
     146.9995107,
     -38.27433088
    ]
   },
   "properties": {
    "name": "347 BUXTONS ROAD STRADBROKE 3851",
    "locID": "LOC000050741391",
    "tech": "NULL",
    "upgrade": "NULL_NA",
    "gnaf_pid": "GAVIC422281104",
    "tech_change_status": "Not Planned"
   }
  },
  {
   "type": "Feature",
   "geometry": {
    "type": "Point",
    "coordinates": [
     146.98479925,
     -38.2629379
    ]
   },
   "properties": {
    "name": "547 BUXTONS ROAD STRADBROKE 3851",
    "locID": "LOC000104769714",
    "tech": "NULL",
    "upgrade": "NULL_NA",
    "gnaf_pid": "GAVIC422281105",
    "tech_change_status": "Not Planned"
   }
  },
  {
   "type": "Feature",
   "geometry": {
    "type": "Point",
    "coordinates": [
     146.97010013,
     -38.2604745
    ]
   },
   "properties": {
    "name": "681 BUXTONS ROAD STRADBROKE 3851",
    "locID": "LOC000097358763",
    "tech": "SATELLITE",
    "upgrade": "NULL_NA",
    "gnaf_pid": "GAVIC422281106",
    "tech_change_status": "Not Planned"
   }
  },
  {
   "type": "Feature",
   "geometry": {
    "type": "Point",
    "coordinates": [
     146.98786983,
     -38.28806525
    ]
   },
   "properties": {
    "name": "2928 GORMANDALE-STRADBROKE ROAD STRADBROKE 3851",
    "locID": "LOC000080761757",
    "tech": "SATELLITE",
    "upgrade": "NULL_NA",
    "gnaf_pid": "GAVIC422294519",
    "tech_change_status": "Not Planned"
   }
  },
  {
   "type": "Feature",
   "geometry": {
    "type": "Point",
    "coordinates": [
     147.0724628,
     -38.26311475
    ]
   },
   "properties": {
    "name": "107 LYONS ROAD STRADBROKE 3851",
    "locID": "LOC000033169212",
    "tech": "NULL",
    "upgrade": "NULL_NA",
    "gnaf_pid": "GAVIC422305849",
    "tech_change_status": "Not Planned"
   }
  },
  {
   "type": "Feature",
   "geometry": {
    "type": "Point",
    "coordinates": [
     147.04723865,
     -38.25123094
    ]
   },
   "properties": {
    "name": "16 MARSH COURT STRADBROKE 3851",
    "locID": "LOC000098354180",
    "tech": "NULL",
    "upgrade": "NULL_NA",
    "gnaf_pid": "GAVIC422307978",
    "tech_change_status": "Not Planned"
   }
  },
  {
   "type": "Feature",
   "geometry": {
    "type": "Point",
    "coordinates": [
     147.0428837,
     -38.25040343
    ]
   },
   "properties": {
    "name": "54 MARSH COURT STRADBROKE 3851",
    "locID": "LOC000046795720",
    "tech": "NULL",
    "upgrade": "NULL_NA",
    "gnaf_pid": "GAVIC422307979",
    "tech_change_status": "Not Planned"
   }
  },
  {
   "type": "Feature",
   "geometry": {
    "type": "Point",
    "coordinates": [
     147.03470859,
     -38.29669337
    ]
   },
   "properties": {
    "name": "4816 SOUTH GIPPSLAND HIGHWAY STRADBROKE 3851",
    "locID": "LOC000107623813",
    "tech": "NULL",
    "upgrade": "NULL_NA",
    "gnaf_pid": "GAVIC422324420",
    "tech_change_status": "Not Planned"
   }
  },
  {
   "type": "Feature",
   "geometry": {
    "type": "Point",
    "coordinates": [
     147.03769085,
     -38.28731195
    ]
   },
   "properties": {
    "name": "4926 SOUTH GIPPSLAND HIGHWAY STRADBROKE 3851",
    "locID": "LOC000038388140",
    "tech": "NULL",
    "upgrade": "NULL_NA",
    "gnaf_pid": "GAVIC422324421",
    "tech_change_status": "Not Planned"
   }
  },
  {
   "type": "Feature",
   "geometry": {
    "type": "Point",
    "coordinates": [
     147.04929661,
     -38.28678488
    ]
   },
   "properties": {
    "name": "102 SEASPRAY-STRADBROKE ROAD WEST STRADBROKE 3851",
    "locID": "LOC000057141899",
    "tech": "NULL",
    "upgrade": "NULL_NA",
    "gnaf_pid": "GAVIC423090798",
    "tech_change_status": "Not Planned"
   }
  },
  {
   "type": "Feature",
   "geometry": {
    "type": "Point",
    "coordinates": [
     147.05323115,
     -38.2899828
    ]
   },
   "properties": {
    "name": "153 SEASPRAY-STRADBROKE ROAD WEST STRADBROKE 3851",
    "locID": "LOC000023567401",
    "tech": "SATELLITE",
    "upgrade": "NULL_NA",
    "gnaf_pid": "GAVIC423090799",
    "tech_change_status": "Not Planned"
   }
  },
  {
   "type": "Feature",
   "geometry": {
    "type": "Point",
    "coordinates": [
     147.05936428,
     -38.29336824
    ]
   },
   "properties": {
    "name": "228 SEASPRAY-STRADBROKE ROAD WEST STRADBROKE 3851",
    "locID": "LOC000071662373",
    "tech": "SATELLITE",
    "upgrade": "NULL_NA",
    "gnaf_pid": "GAVIC423090800",
    "tech_change_status": "Not Planned"
   }
  },
  {
   "type": "Feature",
   "geometry": {
    "type": "Point",
    "coordinates": [
     147.06006151,
     -38.29296233
    ]
   },
   "properties": {
    "name": "233 SEASPRAY-STRADBROKE ROAD WEST STRADBROKE 3851",
    "locID": "LOC000039178710",
    "tech": "NULL",
    "upgrade": "NULL_NA",
    "gnaf_pid": "GAVIC423090801",
    "tech_change_status": "Not Planned"
   }
  },
  {
   "type": "Feature",
   "geometry": {
    "type": "Point",
    "coordinates": [
     147.07107861,
     -38.2976156
    ]
   },
   "properties": {
    "name": "357 SEASPRAY-STRADBROKE ROAD WEST STRADBROKE 3851",
    "locID": "LOC000109840094",
    "tech": "NULL",
    "upgrade": "NULL_NA",
    "gnaf_pid": "GAVIC423090802",
    "tech_change_status": "Not Planned"
   }
  },
  {
   "type": "Feature",
   "geometry": {
    "type": "Point",
    "coordinates": [
     147.08716604,
     -38.30411184
    ]
   },
   "properties": {
    "name": "542 SEASPRAY-STRADBROKE ROAD WEST STRADBROKE 3851",
    "locID": "LOC000170810911",
    "tech": "SATELLITE",
    "upgrade": "NULL_NA",
    "gnaf_pid": "GAVIC423090803",
    "tech_change_status": "Not Planned"
   }
  },
  {
   "type": "Feature",
   "geometry": {
    "type": "Point",
    "coordinates": [
     147.05400473,
     -38.23592464
    ]
   },
   "properties": {
    "name": "5565 SOUTH GIPPSLAND HIGHWAY STRADBROKE 3851",
    "locID": "LOC000028648699",
    "tech": "NULL",
    "upgrade": "NULL_NA",
    "gnaf_pid": "GAVIC423091721",
    "tech_change_status": "Not Planned"
   }
  },
  {
   "type": "Feature",
   "geometry": {
    "type": "Point",
    "coordinates": [
     147.09359708,
     -38.30008879
    ]
   },
   "properties": {
    "name": "3096 GIFFARD ROAD STRADBROKE 3851",
    "locID": "LOC100078155915",
    "tech": "NULL",
    "upgrade": "NULL_NA",
    "gnaf_pid": "GAVIC423458491",
    "tech_change_status": "Not Planned"
   }
  },
  {
   "type": "Feature",
   "geometry": {
    "type": "Point",
    "coordinates": [
     147.0911285,
     -38.29567455
    ]
   },
   "properties": {
    "name": "3151 GIFFARD ROAD STRADBROKE 3851",
    "locID": "LOC000060086044",
    "tech": "SATELLITE",
    "upgrade": "NULL_NA",
    "gnaf_pid": "GAVIC423458492",
    "tech_change_status": "Not Planned"
   }
  },
  {
   "type": "Feature",
   "geometry": {
    "type": "Point",
    "coordinates": [
     147.08957095,
     -38.2897451
    ]
   },
   "properties": {
    "name": "3220 GIFFARD ROAD STRADBROKE 3851",
    "locID": "LOC100079112213",
    "tech": "NULL",
    "upgrade": "NULL_NA",
    "gnaf_pid": "GAVIC423458493",
    "tech_change_status": "Not Planned"
   }
  },
  {
   "type": "Feature",
   "geometry": {
    "type": "Point",
    "coordinates": [
     147.08948504,
     -38.2878449
    ]
   },
   "properties": {
    "name": "3238 GIFFARD ROAD STRADBROKE 3851",
    "locID": "LOC000042211633",
    "tech": "NULL",
    "upgrade": "NULL_NA",
    "gnaf_pid": "GAVIC423458494",
    "tech_change_status": "Not Planned"
   }
  },
  {
   "type": "Feature",
   "geometry": {
    "type": "Point",
    "coordinates": [
     147.08999465,
     -38.28532724
    ]
   },
   "properties": {
    "name": "3272 GIFFARD ROAD STRADBROKE 3851",
    "locID": "LOC000073451447",
    "tech": "NULL",
    "upgrade": "NULL_NA",
    "gnaf_pid": "GAVIC423458495",
    "tech_change_status": "Not Planned"
   }
  },
  {
   "type": "Feature",
   "geometry": {
    "type": "Point",
    "coordinates": [
     147.06953699,
     -38.30248039
    ]
   },
   "properties": {
    "name": "34 JONES LANE STRADBROKE 3851",
    "locID": "LOC000032645261",
    "tech": "NULL",
    "upgrade": "NULL_NA",
    "gnaf_pid": "GAVIC423464431",
    "tech_change_status": "Not Planned"
   }
  },
  {
   "type": "Feature",
   "geometry": {
    "type": "Point",
    "coordinates": [
     147.06861416,
     -38.30628416
    ]
   },
   "properties": {
    "name": "78 JONES LANE STRADBROKE 3851",
    "locID": "LOC000060247359",
    "tech": "SATELLITE",
    "upgrade": "NULL_NA",
    "gnaf_pid": "GAVIC423464432",
    "tech_change_status": "Not Planned"
   }
  },
  {
   "type": "Feature",
   "geometry": {
    "type": "Point",
    "coordinates": [
     147.12459001,
     -38.31416859
    ]
   },
   "properties": {
    "name": "423 SEASPRAY-STRADBROKE ROAD EAST STRADBROKE 3851",
    "locID": "LOC000092908660",
    "tech": "NULL",
    "upgrade": "NULL_NA",
    "gnaf_pid": "GAVIC423486964",
    "tech_change_status": "Not Planned"
   }
  },
  {
   "type": "Feature",
   "geometry": {
    "type": "Point",
    "coordinates": [
     147.12384279,
     -38.31267841
    ]
   },
   "properties": {
    "name": "442 SEASPRAY-STRADBROKE ROAD EAST STRADBROKE 3851",
    "locID": "LOC000066299830",
    "tech": "NULL",
    "upgrade": "NULL_NA",
    "gnaf_pid": "GAVIC423486965",
    "tech_change_status": "Not Planned"
   }
  },
  {
   "type": "Feature",
   "geometry": {
    "type": "Point",
    "coordinates": [
     147.11696654,
     -38.31257101
    ]
   },
   "properties": {
    "name": "502 SEASPRAY-STRADBROKE ROAD EAST STRADBROKE 3851",
    "locID": "LOC000002966466",
    "tech": "NULL",
    "upgrade": "NULL_NA",
    "gnaf_pid": "GAVIC423486966",
    "tech_change_status": "Not Planned"
   }
  },
  {
   "type": "Feature",
   "geometry": {
    "type": "Point",
    "coordinates": [
     147.02168985,
     -38.3202805
    ]
   },
   "properties": {
    "name": "4523 SOUTH GIPPSLAND HIGHWAY STRADBROKE 3851",
    "locID": "LOC000093079171",
    "tech": "NULL",
    "upgrade": "NULL_NA",
    "gnaf_pid": "GAVIC423713058",
    "tech_change_status": "Not Planned"
   }
  },
  {
   "type": "Feature",
   "geometry": {
    "type": "Point",
    "coordinates": [
     147.02828664,
     -38.31001395
    ]
   },
   "properties": {
    "name": "4659 SOUTH GIPPSLAND HIGHWAY STRADBROKE 3851",
    "locID": "LOC000037820041",
    "tech": "NULL",
    "upgrade": "NULL_NA",
    "gnaf_pid": "GAVIC423713059",
    "tech_change_status": "Not Planned"
   }
  },
  {
   "type": "Feature",
   "geometry": {
    "type": "Point",
    "coordinates": [
     146.95253605,
     -38.27044549
    ]
   },
   "properties": {
    "name": "40 MOWATS LANE STRADBROKE 3851",
    "locID": "LOC000034404509",
    "tech": "NULL",
    "upgrade": "NULL_NA",
    "gnaf_pid": "GAVIC423973103",
    "tech_change_status": "Not Planned"
   }
  },
  {
   "type": "Feature",
   "geometry": {
    "type": "Point",
    "coordinates": [
     146.94774939,
     -38.27015108
    ]
   },
   "properties": {
    "name": "83 MOWATS LANE STRADBROKE 3851",
    "locID": "LOC000062221430",
    "tech": "SATELLITE",
    "upgrade": "NULL_NA",
    "gnaf_pid": "GAVIC423973104",
    "tech_change_status": "Not Planned"
   }
  },
  {
   "type": "Feature",
   "geometry": {
    "type": "Point",
    "coordinates": [
     147.01193928,
     -38.29667835
    ]
   },
   "properties": {
    "name": "3175 GORMANDALE-STRADBROKE ROAD STRADBROKE 3851",
    "locID": "LOC000029248648",
    "tech": "NULL",
    "upgrade": "NULL_NA",
    "gnaf_pid": "GAVIC424026981",
    "tech_change_status": "Not Planned"
   }
  },
  {
   "type": "Feature",
   "geometry": {
    "type": "Point",
    "coordinates": [
     147.02948625,
     -38.30657991
    ]
   },
   "properties": {
    "name": "4701 SOUTH GIPPSLAND HIGHWAY STRADBROKE 3851",
    "locID": "LOC000037878010",
    "tech": "NULL",
    "upgrade": "NULL_NA",
    "gnaf_pid": "GAVIC424035590",
    "tech_change_status": "Not Planned"
   }
  },
  {
   "type": "Feature",
   "geometry": {
    "type": "Point",
    "coordinates": [
     147.11728866,
     -38.28142402
    ]
   },
   "properties": {
    "name": "348 NICHOLLS ROAD STRADBROKE 3851",
    "locID": "LOC000075974898",
    "tech": "SATELLITE",
    "upgrade": "NULL_NA",
    "gnaf_pid": "GAVIC424092218",
    "tech_change_status": "Not Planned"
   }
  },
  {
   "type": "Feature",
   "geometry": {
    "type": "Point",
    "coordinates": [
     147.08915298,
     -38.28401305
    ]
   },
   "properties": {
    "name": "3281 GIFFARD ROAD STRADBROKE 3851",
    "locID": "LOC000115859035",
    "tech": "SATELLITE",
    "upgrade": "NULL_NA",
    "gnaf_pid": "GAVIC424617948",
    "tech_change_status": "Not Planned"
   }
  },
  {
   "type": "Feature",
   "geometry": {
    "type": "Point",
    "coordinates": [
     147.06129198,
     -38.2621424
    ]
   },
   "properties": {
    "name": "205 LYONS ROAD STRADBROKE 3851",
    "locID": "LOC000148366750",
    "tech": "NULL",
    "upgrade": "NULL_NA",
    "gnaf_pid": "GAVIC425247257",
    "tech_change_status": "Not Planned"
   }
  },
  {
   "type": "Feature",
   "geometry": {
    "type": "Point",
    "coordinates": [
     147.05487604,
     -38.22823425
    ]
   },
   "properties": {
    "name": "5647 SOUTH GIPPSLAND HIGHWAY STRADBROKE 3851",
    "locID": "LOC000150278889",
    "tech": "WIRELESS",
    "upgrade": "NULL_NA",
    "gnaf_pid": "GAVIC425285219",
    "tech_change_status": "Not Planned",
    "program_type": "Fixed Wireless and Satellite Upgrade Program",
    "target_eligibility_quarter": "NA"
   }
  },
  {
   "type": "Feature",
   "geometry": {
    "type": "Point",
    "coordinates": [
     147.00338654,
     -38.31332739
    ]
   },
   "properties": {
    "name": "193 ANDERSONS LANE STRADBROKE 3851",
    "locID": "LOC000148029711",
    "tech": "NULL",
    "upgrade": "NULL_NA",
    "gnaf_pid": "GAVIC425555498",
    "tech_change_status": "Not Planned"
   }
  },
  {
   "type": "Feature",
   "geometry": {
    "type": "Point",
    "coordinates": [
     147.07278894,
     -38.28672339
    ]
   },
   "properties": {
    "name": "108 NINETY ACRE LANE STRADBROKE 3851",
    "locID": "LOC100072046812",
    "tech": "NULL",
    "upgrade": "NULL_NA",
    "gnaf_pid": "GAVIC719014623",
    "tech_change_status": "Not Planned"
   }
  }
 ]
}