{
 "type": "FeatureCollection",
 "generated": "2024-12-26T22:05:34.016040",
 "suburb": "TOWANINNY SOUTH",
 "features": [
  {
   "type": "Feature",
   "geometry": {
    "type": "Point",
    "coordinates": [
     143.3156245,
     -35.920281
    ]
   },
   "properties": {
    "name": "587 MCNICOLS ROAD TOWANINNY SOUTH 3527",
    "locID": "LOC000017701418",
    "tech": "NULL",
    "upgrade": "NULL_NA",
    "gnaf_pid": "GAVIC423904371",
    "tech_change_status": "Not Planned"
   }
  },
  {
   "type": "Feature",
   "geometry": {
    "type": "Point",
    "coordinates": [
     143.35639435,
     -35.91602471
    ]
   },
   "properties": {
    "name": "2633 CHARLTON-SWAN HILL ROAD TOWANINNY SOUTH 3527",
    "locID": "LOC000021045750",
    "tech": "WIRELESS",
    "upgrade": "NULL_NA",
    "gnaf_pid": "GAVIC424071037",
    "tech_change_status": "Not Planned"
   }
  }
 ]
}