{
 "type": "FeatureCollection",
 "generated": "2024-12-26T22:21:07.114634",
 "suburb": "TRESCO WEST",
 "features": [
  {
   "type": "Feature",
   "geometry": {
    "type": "Point",
    "coordinates": [
     143.63904545,
     -35.48197435
    ]
   },
   "properties": {
    "name": "235 CUMNOCK ROAD TRESCO WEST 3584",
    "locID": "LOC000059228278",
    "tech": "WIRELESS",
    "upgrade": "NULL_NA",
    "gnaf_pid": "GAVIC412495623",
    "tech_change_status": "Not Planned",
    "program_type": "Fixed Wireless and Satellite Upgrade Program",
    "target_eligibility_quarter": "NA"
   }
  },
  {
   "type": "Feature",
   "geometry": {
    "type": "Point",
    "coordinates": [
     143.62697737,
     -35.49467864
    ]
   },
   "properties": {
    "name": "107 SCOWN ROAD TRESCO WEST 3584",
    "locID": "LOC000090898692",
    "tech": "WIRELESS",
    "upgrade": "NULL_NA",
    "gnaf_pid": "GAVIC412495624",
    "tech_change_status": "Not Planned",
    "program_type": "Fixed Wireless and Satellite Upgrade Program",
    "target_eligibility_quarter": "NA"
   }
  },
  {
   "type": "Feature",
   "geometry": {
    "type": "Point",
    "coordinates": [
     143.62134081,
     -35.48838878
    ]
   },
   "properties": {
    "name": "64 WILSON ROAD TRESCO WEST 3584",
    "locID": "LOC000081172688",
    "tech": "WIRELESS",
    "upgrade": "NULL_NA",
    "gnaf_pid": "GAVIC412495626",
    "tech_change_status": "Not Planned",
    "program_type": "Fixed Wireless and Satellite Upgrade Program",
    "target_eligibility_quarter": "NA"
   }
  },
  {
   "type": "Feature",
   "geometry": {
    "type": "Point",
    "coordinates": [
     143.63834653,
     -35.4740757
    ]
   },
   "properties": {
    "name": "146 CUMNOCK ROAD TRESCO WEST 3584",
    "locID": "LOC000107875241",
    "tech": "WIRELESS",
    "upgrade": "NULL_NA",
    "gnaf_pid": "GAVIC412495627",
    "tech_change_status": "Not Planned",
    "program_type": "Fixed Wireless and Satellite Upgrade Program",
    "target_eligibility_quarter": "NA"
   }
  },
  {
   "type": "Feature",
   "geometry": {
    "type": "Point",
    "coordinates": [
     143.63814519,
     -35.475333
    ]
   },
   "properties": {
    "name": "160 CUMNOCK ROAD TRESCO WEST 3584",
    "locID": "LOC000083470667",
    "tech": "WIRELESS",
    "upgrade": "NULL_NA",
    "gnaf_pid": "GAVIC412495816",
    "tech_change_status": "Not Planned",
    "program_type": "Fixed Wireless and Satellite Upgrade Program",
    "target_eligibility_quarter": "NA"
   }
  },
  {
   "type": "Feature",
   "geometry": {
    "type": "Point",
    "coordinates": [
     143.63904472,
     -35.49391553
    ]
   },
   "properties": {
    "name": "367 CUMNOCK ROAD TRESCO WEST 3584",
    "locID": "LOC000058535980",
    "tech": "WIRELESS",
    "upgrade": "NULL_NA",
    "gnaf_pid": "GAVIC412495817",
    "tech_change_status": "Not Planned",
    "program_type": "Fixed Wireless and Satellite Upgrade Program",
    "target_eligibility_quarter": "NA"
   }
  },
  {
   "type": "Feature",
   "geometry": {
    "type": "Point",
    "coordinates": [
     143.64232881,
     -35.4752234
    ]
   },
   "properties": {
    "name": "34 OLD TRESCO ROAD TRESCO WEST 3584",
    "locID": "LOC000007011208",
    "tech": "WIRELESS",
    "upgrade": "NULL_NA",
    "gnaf_pid": "GAVIC412496313",
    "tech_change_status": "Not Planned",
    "program_type": "Fixed Wireless and Satellite Upgrade Program",
    "target_eligibility_quarter": "NA"
   }
  },
  {
   "type": "Feature",
   "geometry": {
    "type": "Point",
    "coordinates": [
     143.6283698,
     -35.50167685
    ]
   },
   "properties": {
    "name": "370 TRESCO WEST ROAD TRESCO WEST 3584",
    "locID": "LOC000011107473",
    "tech": "WIRELESS",
    "upgrade": "NULL_NA",
    "gnaf_pid": "GAVIC412496314",
    "tech_change_status": "Not Planned",
    "program_type": "Fixed Wireless and Satellite Upgrade Program",
    "target_eligibility_quarter": "NA"
   }
  },
  {
   "type": "Feature",
   "geometry": {
    "type": "Point",
    "coordinates": [
     143.62416571,
     -35.48731055
    ]
   },
   "properties": {
    "name": "133 WINERY ROAD TRESCO WEST 3584",
    "locID": "LOC000052942367",
    "tech": "WIRELESS",
    "upgrade": "NULL_NA",
    "gnaf_pid": "GAVIC412499226",
    "tech_change_status": "Not Planned",
    "program_type": "Fixed Wireless and Satellite Upgrade Program",
    "target_eligibility_quarter": "NA"
   }
  },
  {
   "type": "Feature",
   "geometry": {
    "type": "Point",
    "coordinates": [
     143.63033192,
     -35.48715595
    ]
   },
   "properties": {
    "name": "LOT 1 WINERY ROAD TRESCO WEST 3584",
    "locID": "LOC000016167778",
    "tech": "WIRELESS",
    "upgrade": "NULL_NA",
    "gnaf_pid": "GAVIC412681886",
    "tech_change_status": "Not Planned",
    "program_type": "Fixed Wireless and Satellite Upgrade Program",
    "target_eligibility_quarter": "NA"
   }
  },
  {
   "type": "Feature",
   "geometry": {
    "type": "Point",
    "coordinates": [
     143.63030707,
     -35.49437705
    ]
   },
   "properties": {
    "name": "LOT 12 SCOWN ROAD TRESCO WEST 3584",
    "locID": "LOC000038909899",
    "tech": "WIRELESS",
    "upgrade": "NULL_NA",
    "gnaf_pid": "GAVIC412681888",
    "tech_change_status": "Not Planned",
    "program_type": "Fixed Wireless and Satellite Upgrade Program",
    "target_eligibility_quarter": "NA"
   }
  },
  {
   "type": "Feature",
   "geometry": {
    "type": "Point",
    "coordinates": [
     143.63030707,
     -35.49437705
    ]
   },
   "properties": {
    "name": "LOT 13 SCOWN ROAD TRESCO WEST 3584",
    "locID": "LOC000040812269",
    "tech": "WIRELESS",
    "upgrade": "NULL_NA",
    "gnaf_pid": "GAVIC412681889",
    "tech_change_status": "Not Planned",
    "program_type": "Fixed Wireless and Satellite Upgrade Program",
    "target_eligibility_quarter": "NA"
   }
  },
  {
   "type": "Feature",
   "geometry": {
    "type": "Point",
    "coordinates": [
     143.6294951,
     -35.49427018
    ]
   },
   "properties": {
    "name": "84 SCOWN ROAD TRESCO WEST 3584",
    "locID": "LOC000044984470",
    "tech": "WIRELESS",
    "upgrade": "NULL_NA",
    "gnaf_pid": "GAVIC421982020",
    "tech_change_status": "Not Planned",
    "program_type": "Fixed Wireless and Satellite Upgrade Program",
    "target_eligibility_quarter": "NA"
   }
  },
  {
   "type": "Feature",
   "geometry": {
    "type": "Point",
    "coordinates": [
     143.62384151,
     -35.49428514
    ]
   },
   "properties": {
    "name": "136 SCOWN ROAD TRESCO WEST 3584",
    "locID": "LOC000040812269",
    "tech": "WIRELESS",
    "upgrade": "NULL_NA",
    "gnaf_pid": "GAVIC422031272",
    "tech_change_status": "Not Planned",
    "program_type": "Fixed Wireless and Satellite Upgrade Program",
    "target_eligibility_quarter": "NA"
   }
  },
  {
   "type": "Feature",
   "geometry": {
    "type": "Point",
    "coordinates": [
     143.63618765,
     -35.4828751
    ]
   },
   "properties": {
    "name": "24 GEORGE ROAD TRESCO WEST 3584",
    "locID": "LOC000066130757",
    "tech": "WIRELESS",
    "upgrade": "NULL_NA",
    "gnaf_pid": "GAVIC422031330",
    "tech_change_status": "Not Planned",
    "program_type": "Fixed Wireless and Satellite Upgrade Program",
    "target_eligibility_quarter": "NA"
   }
  },
  {
   "type": "Feature",
   "geometry": {
    "type": "Point",
    "coordinates": [
     143.65065878,
     -35.50154761
    ]
   },
   "properties": {
    "name": "168 TRESCO WEST ROAD TRESCO WEST 3584",
    "locID": "LOC000115045761",
    "tech": "WIRELESS",
    "upgrade": "NULL_NA",
    "gnaf_pid": "GAVIC422031332",
    "tech_change_status": "Not Planned",
    "program_type": "Fixed Wireless and Satellite Upgrade Program",
    "target_eligibility_quarter": "NA"
   }
  },
  {
   "type": "Feature",
   "geometry": {
    "type": "Point",
    "coordinates": [
     143.62778944,
     -35.48318455
    ]
   },
   "properties": {
    "name": "101 GEORGE ROAD TRESCO WEST 3584",
    "locID": "LOC000028405904",
    "tech": "WIRELESS",
    "upgrade": "NULL_NA",
    "gnaf_pid": "GAVIC422148803",
    "tech_change_status": "Not Planned",
    "program_type": "Fixed Wireless and Satellite Upgrade Program",
    "target_eligibility_quarter": "NA"
   }
  },
  {
   "type": "Feature",
   "geometry": {
    "type": "Point",
    "coordinates": [
     143.62318354,
     -35.48286115
    ]
   },
   "properties": {
    "name": "140 GEORGE ROAD TRESCO WEST 3584",
    "locID": "LOC000077160412",
    "tech": "WIRELESS",
    "upgrade": "NULL_NA",
    "gnaf_pid": "GAVIC422148804",
    "tech_change_status": "Not Planned",
    "program_type": "Fixed Wireless and Satellite Upgrade Program",
    "target_eligibility_quarter": "NA"
   }
  },
  {
   "type": "Feature",
   "geometry": {
    "type": "Point",
    "coordinates": [
     143.6506976,
     -35.48310693
    ]
   },
   "properties": {
    "name": "156 OLD TRESCO ROAD TRESCO WEST 3584",
    "locID": "LOC000071256666",
    "tech": "WIRELESS",
    "upgrade": "NULL_NA",
    "gnaf_pid": "GAVIC422178907",
    "tech_change_status": "Not Planned",
    "program_type": "Fixed Wireless and Satellite Upgrade Program",
    "target_eligibility_quarter": "NA"
   }
  },
  {
   "type": "Feature",
   "geometry": {
    "type": "Point",
    "coordinates": [
     143.63986621,
     -35.47438496
    ]
   },
   "properties": {
    "name": "15 OLD TRESCO ROAD TRESCO WEST 3584",
    "locID": "LOC000071256666",
    "tech": "WIRELESS",
    "upgrade": "NULL_NA",
    "gnaf_pid": "GAVIC422178908",
    "tech_change_status": "Not Planned",
    "program_type": "Fixed Wireless and Satellite Upgrade Program",
    "target_eligibility_quarter": "NA"
   }
  },
  {
   "type": "Feature",
   "geometry": {
    "type": "Point",
    "coordinates": [
     143.6276323,
     -35.49426571
    ]
   },
   "properties": {
    "name": "102 SCOWN ROAD TRESCO WEST 3584",
    "locID": "LOC000101160477",
    "tech": "WIRELESS",
    "upgrade": "NULL_NA",
    "gnaf_pid": "GAVIC422188842",
    "tech_change_status": "Not Planned",
    "program_type": "Fixed Wireless and Satellite Upgrade Program",
    "target_eligibility_quarter": "NA"
   }
  },
  {
   "type": "Feature",
   "geometry": {
    "type": "Point",
    "coordinates": [
     143.62583619,
     -35.49427779
    ]
   },
   "properties": {
    "name": "118 SCOWN ROAD TRESCO WEST 3584",
    "locID": "LOC000098359041",
    "tech": "WIRELESS",
    "upgrade": "NULL_NA",
    "gnaf_pid": "GAVIC422188843",
    "tech_change_status": "Not Planned",
    "program_type": "Fixed Wireless and Satellite Upgrade Program",
    "target_eligibility_quarter": "NA"
   }
  },
  {
   "type": "Feature",
   "geometry": {
    "type": "Point",
    "coordinates": [
     143.62488958,
     -35.49431643
    ]
   },
   "properties": {
    "name": "126 SCOWN ROAD TRESCO WEST 3584",
    "locID": "LOC000038909899",
    "tech": "WIRELESS",
    "upgrade": "NULL_NA",
    "gnaf_pid": "GAVIC422188844",
    "tech_change_status": "Not Planned",
    "program_type": "Fixed Wireless and Satellite Upgrade Program",
    "target_eligibility_quarter": "NA"
   }
  },
  {
   "type": "Feature",
   "geometry": {
    "type": "Point",
    "coordinates": [
     143.62241996,
     -35.49463155
    ]
   },
   "properties": {
    "name": "149 SCOWN ROAD TRESCO WEST 3584",
    "locID": "LOC000013830616",
    "tech": "WIRELESS",
    "upgrade": "NULL_NA",
    "gnaf_pid": "GAVIC422188845",
    "tech_change_status": "Not Planned",
    "program_type": "Fixed Wireless and Satellite Upgrade Program",
    "target_eligibility_quarter": "NA"
   }
  },
  {
   "type": "Feature",
   "geometry": {
    "type": "Point",
    "coordinates": [
     143.63092836,
     -35.494284
    ]
   },
   "properties": {
    "name": "72 SCOWN ROAD TRESCO WEST 3584",
    "locID": "LOC000095263243",
    "tech": "WIRELESS",
    "upgrade": "NULL_NA",
    "gnaf_pid": "GAVIC422188846",
    "tech_change_status": "Not Planned",
    "program_type": "Fixed Wireless and Satellite Upgrade Program",
    "target_eligibility_quarter": "NA"
   }
  },
  {
   "type": "Feature",
   "geometry": {
    "type": "Point",
    "coordinates": [
     143.63065376,
     -35.4946505
    ]
   },
   "properties": {
    "name": "75 SCOWN ROAD TRESCO WEST 3584",
    "locID": "LOC000006203919",
    "tech": "WIRELESS",
    "upgrade": "NULL_NA",
    "gnaf_pid": "GAVIC422188847",
    "tech_change_status": "Not Planned",
    "program_type": "Fixed Wireless and Satellite Upgrade Program",
    "target_eligibility_quarter": "NA"
   }
  },
  {
   "type": "Feature",
   "geometry": {
    "type": "Point",
    "coordinates": [
     143.6287237,
     -35.49461146
    ]
   },
   "properties": {
    "name": "91 SCOWN ROAD TRESCO WEST 3584",
    "locID": "LOC000029410313",
    "tech": "WIRELESS",
    "upgrade": "NULL_NA",
    "gnaf_pid": "GAVIC422188848",
    "tech_change_status": "Not Planned",
    "program_type": "Fixed Wireless and Satellite Upgrade Program",
    "target_eligibility_quarter": "NA"
   }
  },
  {
   "type": "Feature",
   "geometry": {
    "type": "Point",
    "coordinates": [
     143.63904472,
     -35.49391553
    ]
   },
   "properties": {
    "name": "188A TRESCO WEST ROAD TRESCO WEST 3584",
    "locID": "LOC000032102425",
    "tech": "SATELLITE",
    "upgrade": "NULL_NA",
    "gnaf_pid": "GAVIC422198040",
    "tech_change_status": "Eligible to Order",
    "program_type": "Fixed Wireless and Satellite Upgrade Program",
    "target_eligibility_quarter": "NA"
   }
  },
  {
   "type": "Feature",
   "geometry": {
    "type": "Point",
    "coordinates": [
     143.63904472,
     -35.49391553
    ]
   },
   "properties": {
    "name": "188C TRESCO WEST ROAD TRESCO WEST 3584",
    "locID": "LOC000031732188",
    "tech": "WIRELESS",
    "upgrade": "NULL_NA",
    "gnaf_pid": "GAVIC422198041",
    "tech_change_status": "Not Planned",
    "program_type": "Fixed Wireless and Satellite Upgrade Program",
    "target_eligibility_quarter": "NA"
   }
  },
  {
   "type": "Feature",
   "geometry": {
    "type": "Point",
    "coordinates": [
     143.63021131,
     -35.5016998
    ]
   },
   "properties": {
    "name": "352 TRESCO WEST ROAD TRESCO WEST 3584",
    "locID": "LOC000082216037",
    "tech": "WIRELESS",
    "upgrade": "NULL_NA",
    "gnaf_pid": "GAVIC422198042",
    "tech_change_status": "Not Planned",
    "program_type": "Fixed Wireless and Satellite Upgrade Program",
    "target_eligibility_quarter": "NA"
   }
  },
  {
   "type": "Feature",
   "geometry": {
    "type": "Point",
    "coordinates": [
     143.6216022,
     -35.49270061
    ]
   },
   "properties": {
    "name": "106 WILSON ROAD TRESCO WEST 3584",
    "locID": "LOC000062473755",
    "tech": "WIRELESS",
    "upgrade": "NULL_NA",
    "gnaf_pid": "GAVIC422204130",
    "tech_change_status": "Not Planned",
    "program_type": "Fixed Wireless and Satellite Upgrade Program",
    "target_eligibility_quarter": "NA"
   }
  },
  {
   "type": "Feature",
   "geometry": {
    "type": "Point",
    "coordinates": [
     143.6215438,
     -35.50107553
    ]
   },
   "properties": {
    "name": "200 WILSON ROAD TRESCO WEST 3584",
    "locID": "LOC000106402291",
    "tech": "WIRELESS",
    "upgrade": "NULL_NA",
    "gnaf_pid": "GAVIC422204131",
    "tech_change_status": "Not Planned",
    "program_type": "Fixed Wireless and Satellite Upgrade Program",
    "target_eligibility_quarter": "NA"
   }
  },
  {
   "type": "Feature",
   "geometry": {
    "type": "Point",
    "coordinates": [
     143.62149876,
     -35.48748399
    ]
   },
   "properties": {
    "name": "46 WILSON ROAD TRESCO WEST 3584",
    "locID": "LOC000045809323",
    "tech": "WIRELESS",
    "upgrade": "NULL_NA",
    "gnaf_pid": "GAVIC422204133",
    "tech_change_status": "Not Planned",
    "program_type": "Fixed Wireless and Satellite Upgrade Program",
    "target_eligibility_quarter": "NA"
   }
  },
  {
   "type": "Feature",
   "geometry": {
    "type": "Point",
    "coordinates": [
     143.6221034,
     -35.48726525
    ]
   },
   "properties": {
    "name": "153 WINERY ROAD TRESCO WEST 3584",
    "locID": "LOC000016167778",
    "tech": "WIRELESS",
    "upgrade": "NULL_NA",
    "gnaf_pid": "GAVIC422204455",
    "tech_change_status": "Not Planned",
    "program_type": "Fixed Wireless and Satellite Upgrade Program",
    "target_eligibility_quarter": "NA"
   }
  },
  {
   "type": "Feature",
   "geometry": {
    "type": "Point",
    "coordinates": [
     143.62951193,
     -35.48734735
    ]
   },
   "properties": {
    "name": "85 WINERY ROAD TRESCO WEST 3584",
    "locID": "LOC000091537271",
    "tech": "WIRELESS",
    "upgrade": "NULL_NA",
    "gnaf_pid": "GAVIC422204456",
    "tech_change_status": "Not Planned",
    "program_type": "Fixed Wireless and Satellite Upgrade Program",
    "target_eligibility_quarter": "NA"
   }
  },
  {
   "type": "Feature",
   "geometry": {
    "type": "Point",
    "coordinates": [
     143.63909237,
     -35.51013519
    ]
   },
   "properties": {
    "name": "63 OLD CUMNOCK ROAD TRESCO WEST 3584",
    "locID": "LOC000044551007",
    "tech": "WIRELESS",
    "upgrade": "NULL_NA",
    "gnaf_pid": "GAVIC422416942",
    "tech_change_status": "Not Planned",
    "program_type": "Fixed Wireless and Satellite Upgrade Program",
    "target_eligibility_quarter": "NA"
   }
  },
  {
   "type": "Feature",
   "geometry": {
    "type": "Point",
    "coordinates": [
     143.65961409,
     -35.49317709
    ]
   },
   "properties": {
    "name": "302 BAEL BAEL ROAD TRESCO WEST 3584",
    "locID": "LOC000015234461",
    "tech": "WIRELESS",
    "upgrade": "NULL_NA",
    "gnaf_pid": "GAVIC424484300",
    "tech_change_status": "Not Planned",
    "program_type": "Fixed Wireless and Satellite Upgrade Program",
    "target_eligibility_quarter": "NA"
   }
  },
  {
   "type": "Feature",
   "geometry": {
    "type": "Point",
    "coordinates": [
     143.6599754,
     -35.49377303
    ]
   },
   "properties": {
    "name": "308 BAEL BAEL ROAD TRESCO WEST 3584",
    "locID": "LOC000101500252",
    "tech": "WIRELESS",
    "upgrade": "NULL_NA",
    "gnaf_pid": "GAVIC424484301",
    "tech_change_status": "Not Planned",
    "program_type": "Fixed Wireless and Satellite Upgrade Program",
    "target_eligibility_quarter": "NA"
   }
  },
  {
   "type": "Feature",
   "geometry": {
    "type": "Point",
    "coordinates": [
     143.65000616,
     -35.49098196
    ]
   },
   "properties": {
    "name": "112 MACNAUGHTAN ROAD TRESCO WEST 3584",
    "locID": "LOC000014327065",
    "tech": "WIRELESS",
    "upgrade": "NULL_NA",
    "gnaf_pid": "GAVIC424497935",
    "tech_change_status": "Not Planned",
    "program_type": "Fixed Wireless and Satellite Upgrade Program",
    "target_eligibility_quarter": "NA"
   }
  },
  {
   "type": "Feature",
   "geometry": {
    "type": "Point",
    "coordinates": [
     143.64249389,
     -35.4892701
    ]
   },
   "properties": {
    "name": "29 MACNAUGHTAN ROAD TRESCO WEST 3584",
    "locID": "LOC000035482320",
    "tech": "WIRELESS",
    "upgrade": "NULL_NA",
    "gnaf_pid": "GAVIC424497936",
    "tech_change_status": "Not Planned",
    "program_type": "Fixed Wireless and Satellite Upgrade Program",
    "target_eligibility_quarter": "NA"
   }
  },
  {
   "type": "Feature",
   "geometry": {
    "type": "Point",
    "coordinates": [
     143.64248875,
     -35.48959555
    ]
   },
   "properties": {
    "name": "32 MACNAUGHTAN ROAD TRESCO WEST 3584",
    "locID": "LOC000124842996",
    "tech": "WIRELESS",
    "upgrade": "NULL_NA",
    "gnaf_pid": "GAVIC424497937",
    "tech_change_status": "Not Planned",
    "program_type": "Fixed Wireless and Satellite Upgrade Program",
    "target_eligibility_quarter": "NA"
   }
  },
  {
   "type": "Feature",
   "geometry": {
    "type": "Point",
    "coordinates": [
     143.6451172,
     -35.4892687
    ]
   },
   "properties": {
    "name": "57 MACNAUGHTAN ROAD TRESCO WEST 3584",
    "locID": "LOC000020369474",
    "tech": "WIRELESS",
    "upgrade": "NULL_NA",
    "gnaf_pid": "GAVIC424497938",
    "tech_change_status": "Not Planned",
    "program_type": "Fixed Wireless and Satellite Upgrade Program",
    "target_eligibility_quarter": "NA"
   }
  },
  {
   "type": "Feature",
   "geometry": {
    "type": "Point",
    "coordinates": [
     143.64026164,
     -35.47486124
    ]
   },
   "properties": {
    "name": "14 OLD TRESCO ROAD TRESCO WEST 3584",
    "locID": "LOC000124896419",
    "tech": "WIRELESS",
    "upgrade": "NULL_NA",
    "gnaf_pid": "GAVIC424501018",
    "tech_change_status": "Not Planned",
    "program_type": "Fixed Wireless and Satellite Upgrade Program",
    "target_eligibility_quarter": "NA"
   }
  },
  {
   "type": "Feature",
   "geometry": {
    "type": "Point",
    "coordinates": [
     143.65675416,
     -35.4908406
    ]
   },
   "properties": {
    "name": "176 MACNAUGHTAN ROAD TRESCO WEST 3584",
    "locID": "LOC000003782971",
    "tech": "WIRELESS",
    "upgrade": "NULL_NA",
    "gnaf_pid": "GAVIC424510843",
    "tech_change_status": "Not Planned",
    "program_type": "Fixed Wireless and Satellite Upgrade Program",
    "target_eligibility_quarter": "NA"
   }
  },
  {
   "type": "Feature",
   "geometry": {
    "type": "Point",
    "coordinates": [
     143.64793425,
     -35.50165291
    ]
   },
   "properties": {
    "name": "188 TRESCO WEST ROAD TRESCO WEST 3584",
    "locID": "LOC000031732188",
    "tech": "WIRELESS",
    "upgrade": "NULL_NA",
    "gnaf_pid": "GAVIC720919657",
    "tech_change_status": "Not Planned",
    "program_type": "Fixed Wireless and Satellite Upgrade Program",
    "target_eligibility_quarter": "NA"
   }
  }
 ]
}