{
 "type": "FeatureCollection",
 "generated": "2026-05-21T16:52:02.774054",
 "suburb": "UNDERBOOL",
 "features": [
  {
   "type": "Feature",
   "geometry": {
    "type": "Point",
    "coordinates": [
     141.81032369,
     -35.17147797
    ]
   },
   "properties": {
    "name": "29 MONASH AVENUE UNDERBOOL 3509",
    "locID": "LOC000085375868",
    "tech": "NULL",
    "upgrade": "NULL_NA",
    "gnaf_pid": "GAVIC412496624",
    "tech_change_status": "Not Planned"
   }
  },
  {
   "type": "Feature",
   "geometry": {
    "type": "Point",
    "coordinates": [
     141.81010489,
     -35.17145324
    ]
   },
   "properties": {
    "name": "27 MONASH AVENUE UNDERBOOL 3509",
    "locID": "LOC000037793600",
    "tech": "NULL",
    "upgrade": "NULL_NA",
    "gnaf_pid": "GAVIC412496625",
    "tech_change_status": "Not Planned"
   }
  },
  {
   "type": "Feature",
   "geometry": {
    "type": "Point",
    "coordinates": [
     141.80859647,
     -35.17057583
    ]
   },
   "properties": {
    "name": "6 MALKIN AVENUE UNDERBOOL 3509",
    "locID": "LOC000059191548",
    "tech": "NULL",
    "upgrade": "NULL_NA",
    "gnaf_pid": "GAVIC412496627",
    "tech_change_status": "Not Planned"
   }
  },
  {
   "type": "Feature",
   "geometry": {
    "type": "Point",
    "coordinates": [
     141.81059015,
     -35.17117718
    ]
   },
   "properties": {
    "name": "38 MONASH AVENUE UNDERBOOL 3509",
    "locID": "LOC000005070957",
    "tech": "NULL",
    "upgrade": "NULL_NA",
    "gnaf_pid": "GAVIC412496629",
    "tech_change_status": "Not Planned"
   }
  },
  {
   "type": "Feature",
   "geometry": {
    "type": "Point",
    "coordinates": [
     141.80741873,
     -35.17082949
    ]
   },
   "properties": {
    "name": "18 MONASH AVENUE UNDERBOOL 3509",
    "locID": "LOC000065310300",
    "tech": "NULL",
    "upgrade": "NULL_NA",
    "gnaf_pid": "GAVIC412496630",
    "tech_change_status": "Not Planned"
   }
  },
  {
   "type": "Feature",
   "geometry": {
    "type": "Point",
    "coordinates": [
     141.80904349,
     -35.17096012
    ]
   },
   "properties": {
    "name": "7 MALKIN AVENUE UNDERBOOL 3509",
    "locID": "LOC000103831651",
    "tech": "SATELLITE",
    "upgrade": "NULL_NA",
    "gnaf_pid": "GAVIC412496631",
    "tech_change_status": "Not Planned"
   }
  },
  {
   "type": "Feature",
   "geometry": {
    "type": "Point",
    "coordinates": [
     141.80715037,
     -35.17112756
    ]
   },
   "properties": {
    "name": "13 MONASH AVENUE UNDERBOOL 3509",
    "locID": "LOC000051084241",
    "tech": "NULL",
    "upgrade": "NULL_NA",
    "gnaf_pid": "GAVIC412496632",
    "tech_change_status": "Not Planned"
   }
  },
  {
   "type": "Feature",
   "geometry": {
    "type": "Point",
    "coordinates": [
     141.81102798,
     -35.17121938
    ]
   },
   "properties": {
    "name": "42 MONASH AVENUE UNDERBOOL 3509",
    "locID": "LOC000069173998",
    "tech": "NULL",
    "upgrade": "NULL_NA",
    "gnaf_pid": "GAVIC412496633",
    "tech_change_status": "Not Planned"
   }
  },
  {
   "type": "Feature",
   "geometry": {
    "type": "Point",
    "coordinates": [
     141.81158808,
     -35.17202864
    ]
   },
   "properties": {
    "name": "16 MOSSOP STREET UNDERBOOL 3509",
    "locID": "LOC000088930943",
    "tech": "NULL",
    "upgrade": "NULL_NA",
    "gnaf_pid": "GAVIC412496637",
    "tech_change_status": "Not Planned"
   }
  },
  {
   "type": "Feature",
   "geometry": {
    "type": "Point",
    "coordinates": [
     141.80910024,
     -35.17062889
    ]
   },
   "properties": {
    "name": "3 MALKIN AVENUE UNDERBOOL 3509",
    "locID": "LOC000028508612",
    "tech": "SATELLITE",
    "upgrade": "NULL_NA",
    "gnaf_pid": "GAVIC412496638",
    "tech_change_status": "Not Planned"
   }
  },
  {
   "type": "Feature",
   "geometry": {
    "type": "Point",
    "coordinates": [
     141.81468814,
     -35.17037086
    ]
   },
   "properties": {
    "name": "73 COTTER STREET UNDERBOOL 3509",
    "locID": "LOC000091669989",
    "tech": "SATELLITE",
    "upgrade": "NULL_NA",
    "gnaf_pid": "GAVIC412503581",
    "tech_change_status": "Not Planned"
   }
  },
  {
   "type": "Feature",
   "geometry": {
    "type": "Point",
    "coordinates": [
     141.8121904,
     -35.1708056
    ]
   },
   "properties": {
    "name": "3 MOSSOP STREET UNDERBOOL 3509",
    "locID": "LOC000061833677",
    "tech": "NULL",
    "upgrade": "NULL_NA",
    "gnaf_pid": "GAVIC412503582",
    "tech_change_status": "Not Planned"
   }
  },
  {
   "type": "Feature",
   "geometry": {
    "type": "Point",
    "coordinates": [
     141.81335141,
     -35.1731432
    ]
   },
   "properties": {
    "name": "49 FASHAM STREET UNDERBOOL 3509",
    "locID": "LOC000105595505",
    "tech": "NULL",
    "upgrade": "NULL_NA",
    "gnaf_pid": "GAVIC412503584",
    "tech_change_status": "Not Planned"
   }
  },
  {
   "type": "Feature",
   "geometry": {
    "type": "Point",
    "coordinates": [
     141.80894009,
     -35.17291388
    ]
   },
   "properties": {
    "name": "23 MALKIN AVENUE UNDERBOOL 3509",
    "locID": "LOC000071614830",
    "tech": "NULL",
    "upgrade": "NULL_NA",
    "gnaf_pid": "GAVIC412503585",
    "tech_change_status": "Not Planned"
   }
  },
  {
   "type": "Feature",
   "geometry": {
    "type": "Point",
    "coordinates": [
     141.80857,
     -35.17075482
    ]
   },
   "properties": {
    "name": "8 MALKIN AVENUE UNDERBOOL 3509",
    "locID": "LOC000091428550",
    "tech": "NULL",
    "upgrade": "NULL_NA",
    "gnaf_pid": "GAVIC412503586",
    "tech_change_status": "Not Planned"
   }
  },
  {
   "type": "Feature",
   "geometry": {
    "type": "Point",
    "coordinates": [
     141.80736934,
     -35.17115159
    ]
   },
   "properties": {
    "name": "15 MONASH AVENUE UNDERBOOL 3509",
    "locID": "LOC000002741865",
    "tech": "NULL",
    "upgrade": "NULL_NA",
    "gnaf_pid": "GAVIC412503588",
    "tech_change_status": "Not Planned"
   }
  },
  {
   "type": "Feature",
   "geometry": {
    "type": "Point",
    "coordinates": [
     141.81054266,
     -35.17150284
    ]
   },
   "properties": {
    "name": "31 MONASH AVENUE UNDERBOOL 3509",
    "locID": "LOC000056688870",
    "tech": "NULL",
    "upgrade": "NULL_NA",
    "gnaf_pid": "GAVIC412503590",
    "tech_change_status": "Not Planned"
   }
  },
  {
   "type": "Feature",
   "geometry": {
    "type": "Point",
    "coordinates": [
     141.81812581,
     -35.16612208
    ]
   },
   "properties": {
    "name": "80 GNARR ROAD UNDERBOOL 3509",
    "locID": "LOC000066874010",
    "tech": "SATELLITE",
    "upgrade": "NULL_NA",
    "gnaf_pid": "GAVIC412503592",
    "tech_change_status": "Not Planned"
   }
  },
  {
   "type": "Feature",
   "geometry": {
    "type": "Point",
    "coordinates": [
     141.80994,
     -35.17243183
    ]
   },
   "properties": {
    "name": "30 FASHAM STREET UNDERBOOL 3509",
    "locID": "LOC000032759568",
    "tech": "NULL",
    "upgrade": "NULL_NA",
    "gnaf_pid": "GAVIC412508119",
    "tech_change_status": "Not Planned"
   }
  },
  {
   "type": "Feature",
   "geometry": {
    "type": "Point",
    "coordinates": [
     141.80823843,
     -35.16992015
    ]
   },
   "properties": {
    "name": "19 COTTER STREET UNDERBOOL 3509",
    "locID": "LOC000092376862",
    "tech": "NULL",
    "upgrade": "NULL_NA",
    "gnaf_pid": "GAVIC412508120",
    "tech_change_status": "Not Planned"
   }
  },
  {
   "type": "Feature",
   "geometry": {
    "type": "Point",
    "coordinates": [
     141.81164726,
     -35.1716689
    ]
   },
   "properties": {
    "name": "12 MOSSOP STREET UNDERBOOL 3509",
    "locID": "LOC000108900594",
    "tech": "NULL",
    "upgrade": "NULL_NA",
    "gnaf_pid": "GAVIC412508121",
    "tech_change_status": "Not Planned"
   }
  },
  {
   "type": "Feature",
   "geometry": {
    "type": "Point",
    "coordinates": [
     141.81081288,
     -35.17253053
    ]
   },
   "properties": {
    "name": "38 FASHAM STREET UNDERBOOL 3509",
    "locID": "LOC000045126499",
    "tech": "SATELLITE",
    "upgrade": "NULL_NA",
    "gnaf_pid": "GAVIC412508122",
    "tech_change_status": "Not Planned"
   }
  },
  {
   "type": "Feature",
   "geometry": {
    "type": "Point",
    "coordinates": [
     141.81037731,
     -35.17248189
    ]
   },
   "properties": {
    "name": "34 FASHAM STREET UNDERBOOL 3509",
    "locID": "LOC000097091342",
    "tech": "NULL",
    "upgrade": "NULL_NA",
    "gnaf_pid": "GAVIC412508123",
    "tech_change_status": "Not Planned"
   }
  },
  {
   "type": "Feature",
   "geometry": {
    "type": "Point",
    "coordinates": [
     141.87184793,
     -35.21185929
    ]
   },
   "properties": {
    "name": "3474 STOCK ROUTE ROAD UNDERBOOL 3509",
    "locID": "LOC000092937439",
    "tech": "NULL",
    "upgrade": "NULL_NA",
    "gnaf_pid": "GAVIC412508126",
    "tech_change_status": "Not Planned"
   }
  },
  {
   "type": "Feature",
   "geometry": {
    "type": "Point",
    "coordinates": [
     141.81149266,
     -35.17257834
    ]
   },
   "properties": {
    "name": "22 MOSSOP STREET UNDERBOOL 3509",
    "locID": "LOC000061792344",
    "tech": "NULL",
    "upgrade": "NULL_NA",
    "gnaf_pid": "GAVIC412508127",
    "tech_change_status": "Not Planned"
   }
  },
  {
   "type": "Feature",
   "geometry": {
    "type": "Point",
    "coordinates": [
     141.8132045,
     -35.17148551
    ]
   },
   "properties": {
    "name": "52 MONASH AVENUE UNDERBOOL 3509",
    "locID": "LOC000040647800",
    "tech": "NULL",
    "upgrade": "NULL_NA",
    "gnaf_pid": "GAVIC412508128",
    "tech_change_status": "Not Planned"
   }
  },
  {
   "type": "Feature",
   "geometry": {
    "type": "Point",
    "coordinates": [
     141.80742337,
     -35.17215222
    ]
   },
   "properties": {
    "name": "20 FASHAM STREET UNDERBOOL 3509",
    "locID": "LOC000029261837",
    "tech": "NULL",
    "upgrade": "NULL_NA",
    "gnaf_pid": "GAVIC412508162",
    "tech_change_status": "Not Planned"
   }
  },
  {
   "type": "Feature",
   "geometry": {
    "type": "Point",
    "coordinates": [
     141.80988655,
     -35.17142831
    ]
   },
   "properties": {
    "name": "25 MONASH AVENUE UNDERBOOL 3509",
    "locID": "LOC000054473407",
    "tech": "NULL",
    "upgrade": "NULL_NA",
    "gnaf_pid": "GAVIC412508165",
    "tech_change_status": "Not Planned"
   }
  },
  {
   "type": "Feature",
   "geometry": {
    "type": "Point",
    "coordinates": [
     141.80907185,
     -35.17078465
    ]
   },
   "properties": {
    "name": "5 MALKIN AVENUE UNDERBOOL 3509",
    "locID": "LOC000015944336",
    "tech": "SATELLITE",
    "upgrade": "NULL_NA",
    "gnaf_pid": "GAVIC412508166",
    "tech_change_status": "Not Planned"
   }
  },
  {
   "type": "Feature",
   "geometry": {
    "type": "Point",
    "coordinates": [
     141.81585329,
     -35.1720864
    ]
   },
   "properties": {
    "name": "59 MONASH AVENUE UNDERBOOL 3509",
    "locID": "LOC000026169366",
    "tech": "NULL",
    "upgrade": "NULL_NA",
    "gnaf_pid": "GAVIC412508167",
    "tech_change_status": "Not Planned"
   }
  },
  {
   "type": "Feature",
   "geometry": {
    "type": "Point",
    "coordinates": [
     141.81298099,
     -35.17176726
    ]
   },
   "properties": {
    "name": "43 MONASH AVENUE UNDERBOOL 3509",
    "locID": "LOC000102976135",
    "tech": "NULL",
    "upgrade": "NULL_NA",
    "gnaf_pid": "GAVIC412512300",
    "tech_change_status": "Not Planned"
   }
  },
  {
   "type": "Feature",
   "geometry": {
    "type": "Point",
    "coordinates": [
     141.80976407,
     -35.17110148
    ]
   },
   "properties": {
    "name": "30 MONASH AVENUE UNDERBOOL 3509",
    "locID": "LOC000027738187",
    "tech": "NULL",
    "upgrade": "NULL_NA",
    "gnaf_pid": "GAVIC412512301",
    "tech_change_status": "Not Planned"
   }
  },
  {
   "type": "Feature",
   "geometry": {
    "type": "Point",
    "coordinates": [
     141.8108106,
     -35.17119937
    ]
   },
   "properties": {
    "name": "40 MONASH AVENUE UNDERBOOL 3509",
    "locID": "LOC000101942864",
    "tech": "NULL",
    "upgrade": "NULL_NA",
    "gnaf_pid": "GAVIC412512303",
    "tech_change_status": "Not Planned"
   }
  },
  {
   "type": "Feature",
   "geometry": {
    "type": "Point",
    "coordinates": [
     141.81323659,
     -35.17181533
    ]
   },
   "properties": {
    "name": "45 MONASH AVENUE UNDERBOOL 3509",
    "locID": "LOC000073340359",
    "tech": "NULL",
    "upgrade": "NULL_NA",
    "gnaf_pid": "GAVIC412512304",
    "tech_change_status": "Not Planned"
   }
  },
  {
   "type": "Feature",
   "geometry": {
    "type": "Point",
    "coordinates": [
     141.80910729,
     -35.17193036
    ]
   },
   "properties": {
    "name": "15 MALKIN AVENUE UNDERBOOL 3509",
    "locID": "LOC000058076949",
    "tech": "NULL",
    "upgrade": "NULL_NA",
    "gnaf_pid": "GAVIC412515197",
    "tech_change_status": "Not Planned"
   }
  },
  {
   "type": "Feature",
   "geometry": {
    "type": "Point",
    "coordinates": [
     141.80720036,
     -35.17080548
    ]
   },
   "properties": {
    "name": "16 MONASH AVENUE UNDERBOOL 3509",
    "locID": "LOC000064373053",
    "tech": "NULL",
    "upgrade": "NULL_NA",
    "gnaf_pid": "GAVIC412515199",
    "tech_change_status": "Not Planned"
   }
  },
  {
   "type": "Feature",
   "geometry": {
    "type": "Point",
    "coordinates": [
     141.78062919,
     -35.15254658
    ]
   },
   "properties": {
    "name": "154 HARVEY ROAD UNDERBOOL 3509",
    "locID": "LOC000098159840",
    "tech": "NULL",
    "upgrade": "NULL_NA",
    "gnaf_pid": "GAVIC412526229",
    "tech_change_status": "Not Planned"
   }
  },
  {
   "type": "Feature",
   "geometry": {
    "type": "Point",
    "coordinates": [
     141.80736306,
     -35.17248673
    ]
   },
   "properties": {
    "name": "19 FASHAM STREET UNDERBOOL 3509",
    "locID": "LOC000030181685",
    "tech": "NULL",
    "upgrade": "NULL_NA",
    "gnaf_pid": "GAVIC412526234",
    "tech_change_status": "Not Planned"
   }
  },
  {
   "type": "Feature",
   "geometry": {
    "type": "Point",
    "coordinates": [
     141.80780078,
     -35.16987111
    ]
   },
   "properties": {
    "name": "15 COTTER STREET UNDERBOOL 3509",
    "locID": "LOC000039282450",
    "tech": "NULL",
    "upgrade": "NULL_NA",
    "gnaf_pid": "GAVIC412528133",
    "tech_change_status": "Not Planned"
   }
  },
  {
   "type": "Feature",
   "geometry": {
    "type": "Point",
    "coordinates": [
     141.80916656,
     -35.1715711
    ]
   },
   "properties": {
    "name": "11 MALKIN AVENUE UNDERBOOL 3509",
    "locID": "LOC000067519319",
    "tech": "NULL",
    "upgrade": "NULL_NA",
    "gnaf_pid": "GAVIC412528134",
    "tech_change_status": "Not Planned"
   }
  },
  {
   "type": "Feature",
   "geometry": {
    "type": "Point",
    "coordinates": [
     141.81190814,
     -35.17252996
    ]
   },
   "properties": {
    "name": "19 MOSSOP STREET UNDERBOOL 3509",
    "locID": "LOC000055143882",
    "tech": "NULL",
    "upgrade": "NULL_NA",
    "gnaf_pid": "GAVIC412528135",
    "tech_change_status": "Not Planned"
   }
  },
  {
   "type": "Feature",
   "geometry": {
    "type": "Point",
    "coordinates": [
     141.80816668,
     -35.17182958
    ]
   },
   "properties": {
    "name": "18 MALKIN AVENUE UNDERBOOL 3509",
    "locID": "LOC000014685863",
    "tech": "NULL",
    "upgrade": "NULL_NA",
    "gnaf_pid": "GAVIC412528138",
    "tech_change_status": "Not Planned"
   }
  },
  {
   "type": "Feature",
   "geometry": {
    "type": "Point",
    "coordinates": [
     141.8075876,
     -35.17117469
    ]
   },
   "properties": {
    "name": "17 MONASH AVENUE UNDERBOOL 3509",
    "locID": "LOC000042775785",
    "tech": "NULL",
    "upgrade": "NULL_NA",
    "gnaf_pid": "GAVIC412528139",
    "tech_change_status": "Not Planned"
   }
  },
  {
   "type": "Feature",
   "geometry": {
    "type": "Point",
    "coordinates": [
     141.8090462,
     -35.17230066
    ]
   },
   "properties": {
    "name": "19 MALKIN AVENUE UNDERBOOL 3509",
    "locID": "LOC000053040911",
    "tech": "NULL",
    "upgrade": "NULL_NA",
    "gnaf_pid": "GAVIC412528140",
    "tech_change_status": "Not Planned"
   }
  },
  {
   "type": "Feature",
   "geometry": {
    "type": "Point",
    "coordinates": [
     141.81541641,
     -35.17204312
    ]
   },
   "properties": {
    "name": "57 MONASH AVENUE UNDERBOOL 3509",
    "locID": "LOC000060447024",
    "tech": "NULL",
    "upgrade": "NULL_NA",
    "gnaf_pid": "GAVIC412528143",
    "tech_change_status": "Not Planned"
   }
  },
  {
   "type": "Feature",
   "geometry": {
    "type": "Point",
    "coordinates": [
     141.81298619,
     -35.1714601
    ]
   },
   "properties": {
    "name": "50 MONASH AVENUE UNDERBOOL 3509",
    "locID": "LOC000047737978",
    "tech": "NULL",
    "upgrade": "NULL_NA",
    "gnaf_pid": "GAVIC412528145",
    "tech_change_status": "Not Planned"
   }
  },
  {
   "type": "Feature",
   "geometry": {
    "type": "Point",
    "coordinates": [
     141.80813725,
     -35.17200916
    ]
   },
   "properties": {
    "name": "20 MALKIN AVENUE UNDERBOOL 3509",
    "locID": "LOC000018548734",
    "tech": "NULL",
    "upgrade": "NULL_NA",
    "gnaf_pid": "GAVIC412528146",
    "tech_change_status": "Not Planned"
   }
  },
  {
   "type": "Feature",
   "geometry": {
    "type": "Point",
    "coordinates": [
     141.80907766,
     -35.17210999
    ]
   },
   "properties": {
    "name": "17 MALKIN AVENUE UNDERBOOL 3509",
    "locID": "LOC000027705370",
    "tech": "NULL",
    "upgrade": "NULL_NA",
    "gnaf_pid": "GAVIC412528147",
    "tech_change_status": "Not Planned"
   }
  },
  {
   "type": "Feature",
   "geometry": {
    "type": "Point",
    "coordinates": [
     141.81195643,
     -35.17224879
    ]
   },
   "properties": {
    "name": "17 MOSSOP STREET UNDERBOOL 3509",
    "locID": "LOC000094763163",
    "tech": "NULL",
    "upgrade": "NULL_NA",
    "gnaf_pid": "GAVIC412528148",
    "tech_change_status": "Not Planned"
   }
  },
  {
   "type": "Feature",
   "geometry": {
    "type": "Point",
    "coordinates": [
     141.80819609,
     -35.17165048
    ]
   },
   "properties": {
    "name": "16 MALKIN AVENUE UNDERBOOL 3509",
    "locID": "LOC000057512713",
    "tech": "NULL",
    "upgrade": "NULL_NA",
    "gnaf_pid": "GAVIC412528149",
    "tech_change_status": "Not Planned"
   }
  },
  {
   "type": "Feature",
   "geometry": {
    "type": "Point",
    "coordinates": [
     141.81059622,
     -35.17250695
    ]
   },
   "properties": {
    "name": "36 FASHAM STREET UNDERBOOL 3509",
    "locID": "LOC000069475137",
    "tech": "NULL",
    "upgrade": "NULL_NA",
    "gnaf_pid": "GAVIC412537033",
    "tech_change_status": "Not Planned"
   }
  },
  {
   "type": "Feature",
   "geometry": {
    "type": "Point",
    "coordinates": [
     141.80692343,
     -35.17243894
    ]
   },
   "properties": {
    "name": "15 FASHAM STREET UNDERBOOL 3509",
    "locID": "LOC000105640422",
    "tech": "SATELLITE",
    "upgrade": "NULL_NA",
    "gnaf_pid": "GAVIC412540081",
    "tech_change_status": "Not Planned"
   }
  },
  {
   "type": "Feature",
   "geometry": {
    "type": "Point",
    "coordinates": [
     141.81076156,
     -35.17152759
    ]
   },
   "properties": {
    "name": "33 MONASH AVENUE UNDERBOOL 3509",
    "locID": "LOC000091937055",
    "tech": "NULL",
    "upgrade": "NULL_NA",
    "gnaf_pid": "GAVIC412540082",
    "tech_change_status": "Not Planned"
   }
  },
  {
   "type": "Feature",
   "geometry": {
    "type": "Point",
    "coordinates": [
     141.81497795,
     -35.17199964
    ]
   },
   "properties": {
    "name": "55 MONASH AVENUE UNDERBOOL 3509",
    "locID": "LOC000048745864",
    "tech": "NULL",
    "upgrade": "NULL_NA",
    "gnaf_pid": "GAVIC412540084",
    "tech_change_status": "Not Planned"
   }
  },
  {
   "type": "Feature",
   "geometry": {
    "type": "Point",
    "coordinates": [
     141.81161918,
     -35.17184973
    ]
   },
   "properties": {
    "name": "14 MOSSOP STREET UNDERBOOL 3509",
    "locID": "LOC000011890756",
    "tech": "NULL",
    "upgrade": "NULL_NA",
    "gnaf_pid": "GAVIC412540086",
    "tech_change_status": "Not Planned"
   }
  },
  {
   "type": "Feature",
   "geometry": {
    "type": "Point",
    "coordinates": [
     141.81198684,
     -35.17207071
    ]
   },
   "properties": {
    "name": "15 MOSSOP STREET UNDERBOOL 3509",
    "locID": "LOC000055921794",
    "tech": "NULL",
    "upgrade": "NULL_NA",
    "gnaf_pid": "GAVIC412540087",
    "tech_change_status": "Not Planned"
   }
  },
  {
   "type": "Feature",
   "geometry": {
    "type": "Point",
    "coordinates": [
     141.8109789,
     -35.1715499
    ]
   },
   "properties": {
    "name": "35 MONASH AVENUE UNDERBOOL 3509",
    "locID": "LOC000012833325",
    "tech": "NULL",
    "upgrade": "NULL_NA",
    "gnaf_pid": "GAVIC412540088",
    "tech_change_status": "Not Planned"
   }
  },
  {
   "type": "Feature",
   "geometry": {
    "type": "Point",
    "coordinates": [
     141.80763782,
     -35.17085367
    ]
   },
   "properties": {
    "name": "20 MONASH AVENUE UNDERBOOL 3509",
    "locID": "LOC000010973843",
    "tech": "NULL",
    "upgrade": "NULL_NA",
    "gnaf_pid": "GAVIC412540089",
    "tech_change_status": "Not Planned"
   }
  },
  {
   "type": "Feature",
   "geometry": {
    "type": "Point",
    "coordinates": [
     141.81210589,
     -35.17133026
    ]
   },
   "properties": {
    "name": "9 MOSSOP STREET UNDERBOOL 3509",
    "locID": "LOC000100096908",
    "tech": "NULL",
    "upgrade": "NULL_NA",
    "gnaf_pid": "GAVIC412540090",
    "tech_change_status": "Not Planned"
   }
  },
  {
   "type": "Feature",
   "geometry": {
    "type": "Point",
    "coordinates": [
     141.80804112,
     -35.17259208
    ]
   },
   "properties": {
    "name": "24 MALKIN AVENUE UNDERBOOL 3509",
    "locID": "LOC000062124097",
    "tech": "NULL",
    "upgrade": "NULL_NA",
    "gnaf_pid": "GAVIC412540092",
    "tech_change_status": "Not Planned"
   }
  },
  {
   "type": "Feature",
   "geometry": {
    "type": "Point",
    "coordinates": [
     141.81216688,
     -35.17096856
    ]
   },
   "properties": {
    "name": "5 MOSSOP STREET UNDERBOOL 3509",
    "locID": "LOC000067736714",
    "tech": "SATELLITE",
    "upgrade": "NULL_NA",
    "gnaf_pid": "GAVIC412540094",
    "tech_change_status": "Not Planned"
   }
  },
  {
   "type": "Feature",
   "geometry": {
    "type": "Point",
    "coordinates": [
     141.80692548,
     -35.169773
    ]
   },
   "properties": {
    "name": "7 COTTER STREET UNDERBOOL 3509",
    "locID": "LOC000056234756",
    "tech": "NULL",
    "upgrade": "NULL_NA",
    "gnaf_pid": "GAVIC412540095",
    "tech_change_status": "Not Planned"
   }
  },
  {
   "type": "Feature",
   "geometry": {
    "type": "Point",
    "coordinates": [
     141.80972111,
     -35.17240857
    ]
   },
   "properties": {
    "name": "28 FASHAM STREET UNDERBOOL 3509",
    "locID": "LOC000105934313",
    "tech": "SATELLITE",
    "upgrade": "NULL_NA",
    "gnaf_pid": "GAVIC412540097",
    "tech_change_status": "Not Planned"
   }
  },
  {
   "type": "Feature",
   "geometry": {
    "type": "Point",
    "coordinates": [
     141.86429561,
     -35.24873785
    ]
   },
   "properties": {
    "name": "214 GUNNER ROAD UNDERBOOL 3509",
    "locID": "LOC000007794846",
    "tech": "SATELLITE",
    "upgrade": "NULL_NA",
    "gnaf_pid": "GAVIC412544230",
    "tech_change_status": "Not Planned"
   }
  },
  {
   "type": "Feature",
   "geometry": {
    "type": "Point",
    "coordinates": [
     141.8092272,
     -35.17002972
    ]
   },
   "properties": {
    "name": "25 COTTER STREET UNDERBOOL 3509",
    "locID": "LOC000092051518",
    "tech": "NULL",
    "upgrade": "NULL_NA",
    "gnaf_pid": "GAVIC412544231",
    "tech_change_status": "Not Planned"
   }
  },
  {
   "type": "Feature",
   "geometry": {
    "type": "Point",
    "coordinates": [
     141.8126476,
     -35.17174942
    ]
   },
   "properties": {
    "name": "41 MONASH AVENUE UNDERBOOL 3509",
    "locID": "LOC000059016350",
    "tech": "NULL",
    "upgrade": "NULL_NA",
    "gnaf_pid": "GAVIC412544232",
    "tech_change_status": "Not Planned"
   }
  },
  {
   "type": "Feature",
   "geometry": {
    "type": "Point",
    "coordinates": [
     141.81021173,
     -35.17279478
    ]
   },
   "properties": {
    "name": "33 FASHAM STREET UNDERBOOL 3509",
    "locID": "LOC000036711385",
    "tech": "NULL",
    "upgrade": "NULL_NA",
    "gnaf_pid": "GAVIC412549672",
    "tech_change_status": "Not Planned"
   }
  },
  {
   "type": "Feature",
   "geometry": {
    "type": "Point",
    "coordinates": [
     141.81015888,
     -35.17245683
    ]
   },
   "properties": {
    "name": "32 FASHAM STREET UNDERBOOL 3509",
    "locID": "LOC000060319992",
    "tech": "NULL",
    "upgrade": "NULL_NA",
    "gnaf_pid": "GAVIC412551683",
    "tech_change_status": "Not Planned"
   }
  },
  {
   "type": "Feature",
   "geometry": {
    "type": "Point",
    "coordinates": [
     141.80977546,
     -35.17274589
    ]
   },
   "properties": {
    "name": "29 FASHAM STREET UNDERBOOL 3509",
    "locID": "LOC000104011061",
    "tech": "NULL",
    "upgrade": "NULL_NA",
    "gnaf_pid": "GAVIC412551684",
    "tech_change_status": "Not Planned"
   }
  },
  {
   "type": "Feature",
   "geometry": {
    "type": "Point",
    "coordinates": [
     141.8065437,
     -35.17073375
    ]
   },
   "properties": {
    "name": "10 MONASH AVENUE UNDERBOOL 3509",
    "locID": "LOC000056271789",
    "tech": "NULL",
    "upgrade": "NULL_NA",
    "gnaf_pid": "GAVIC412551685",
    "tech_change_status": "Not Planned"
   }
  },
  {
   "type": "Feature",
   "geometry": {
    "type": "Point",
    "coordinates": [
     141.81010205,
     -35.17012545
    ]
   },
   "properties": {
    "name": "35 COTTER STREET UNDERBOOL 3509",
    "locID": "LOC000081840281",
    "tech": "NULL",
    "upgrade": "NULL_NA",
    "gnaf_pid": "GAVIC414353070",
    "tech_change_status": "Not Planned"
   }
  },
  {
   "type": "Feature",
   "geometry": {
    "type": "Point",
    "coordinates": [
     141.80659847,
     -35.16973654
    ]
   },
   "properties": {
    "name": "3-5 COTTER STREET UNDERBOOL 3509",
    "locID": "LOC000028887303",
    "tech": "NULL",
    "upgrade": "NULL_NA",
    "gnaf_pid": "GAVIC414353071",
    "tech_change_status": "Not Planned"
   }
  },
  {
   "type": "Feature",
   "geometry": {
    "type": "Point",
    "coordinates": [
     141.80635622,
     -35.16970919
    ]
   },
   "properties": {
    "name": "1 COTTER STREET UNDERBOOL 3509",
    "locID": "LOC000039282450",
    "tech": "NULL",
    "upgrade": "NULL_NA",
    "gnaf_pid": "GAVIC414353081",
    "tech_change_status": "Not Planned"
   }
  },
  {
   "type": "Feature",
   "geometry": {
    "type": "Point",
    "coordinates": [
     141.81098108,
     -35.17019791
    ]
   },
   "properties": {
    "name": "43 COTTER STREET UNDERBOOL 3509",
    "locID": "LOC000039420312",
    "tech": "NULL",
    "upgrade": "NULL_NA",
    "gnaf_pid": "GAVIC414353113",
    "tech_change_status": "Not Planned"
   }
  },
  {
   "type": "Feature",
   "geometry": {
    "type": "Point",
    "coordinates": [
     141.80714359,
     -35.17246281
    ]
   },
   "properties": {
    "name": "17 FASHAM STREET UNDERBOOL 3509",
    "locID": "LOC000002056638",
    "tech": "NULL",
    "upgrade": "NULL_NA",
    "gnaf_pid": "GAVIC414353119",
    "tech_change_status": "Not Planned"
   }
  },
  {
   "type": "Feature",
   "geometry": {
    "type": "Point",
    "coordinates": [
     141.80643415,
     -35.17237451
    ]
   },
   "properties": {
    "name": "9-11 FASHAM STREET UNDERBOOL 3509",
    "locID": "LOC000021872889",
    "tech": "NULL",
    "upgrade": "NULL_NA",
    "gnaf_pid": "GAVIC414353120",
    "tech_change_status": "Not Planned"
   }
  },
  {
   "type": "Feature",
   "geometry": {
    "type": "Point",
    "coordinates": [
     141.80856521,
     -35.17230335
    ]
   },
   "properties": {
    "name": "24 FASHAM STREET UNDERBOOL 3509",
    "locID": "LOC000079399267",
    "tech": "NULL",
    "upgrade": "NULL_NA",
    "gnaf_pid": "GAVIC414353128",
    "tech_change_status": "Not Planned"
   }
  },
  {
   "type": "Feature",
   "geometry": {
    "type": "Point",
    "coordinates": [
     141.81042653,
     -35.17283428
    ]
   },
   "properties": {
    "name": "35 FASHAM STREET UNDERBOOL 3509",
    "locID": "LOC000105640422",
    "tech": "SATELLITE",
    "upgrade": "NULL_NA",
    "gnaf_pid": "GAVIC414353129",
    "tech_change_status": "Not Planned"
   }
  },
  {
   "type": "Feature",
   "geometry": {
    "type": "Point",
    "coordinates": [
     141.81117156,
     -35.17274712
    ]
   },
   "properties": {
    "name": "5 FASHAM STREET UNDERBOOL 3509",
    "locID": "LOC000022964099",
    "tech": "NULL",
    "upgrade": "NULL_NA",
    "gnaf_pid": "GAVIC414353131",
    "tech_change_status": "Not Planned"
   }
  },
  {
   "type": "Feature",
   "geometry": {
    "type": "Point",
    "coordinates": [
     141.81398309,
     -35.17321943
    ]
   },
   "properties": {
    "name": "53 FASHAM STREET UNDERBOOL 3509",
    "locID": "LOC000022964099",
    "tech": "NULL",
    "upgrade": "NULL_NA",
    "gnaf_pid": "GAVIC414353150",
    "tech_change_status": "Not Planned"
   }
  },
  {
   "type": "Feature",
   "geometry": {
    "type": "Point",
    "coordinates": [
     141.80832428,
     -35.17092595
    ]
   },
   "properties": {
    "name": "26 MONASH AVENUE UNDERBOOL 3509",
    "locID": "LOC000095051676",
    "tech": "NULL",
    "upgrade": "NULL_NA",
    "gnaf_pid": "GAVIC414380902",
    "tech_change_status": "Not Planned"
   }
  },
  {
   "type": "Feature",
   "geometry": {
    "type": "Point",
    "coordinates": [
     141.80637806,
     -35.17105336
    ]
   },
   "properties": {
    "name": "5-7 MONASH AVENUE UNDERBOOL 3509",
    "locID": "LOC000046674780",
    "tech": "NULL",
    "upgrade": "NULL_NA",
    "gnaf_pid": "GAVIC414380906",
    "tech_change_status": "Not Planned"
   }
  },
  {
   "type": "Feature",
   "geometry": {
    "type": "Point",
    "coordinates": [
     141.80572205,
     -35.17065274
    ]
   },
   "properties": {
    "name": "2-4 MONASH AVENUE UNDERBOOL 3509",
    "locID": "LOC000061852692",
    "tech": "NULL",
    "upgrade": "NULL_NA",
    "gnaf_pid": "GAVIC414380907",
    "tech_change_status": "Not Planned"
   }
  },
  {
   "type": "Feature",
   "geometry": {
    "type": "Point",
    "coordinates": [
     141.81177059,
     -35.17093382
    ]
   },
   "properties": {
    "name": "6 MOSSOP STREET UNDERBOOL 3509",
    "locID": "LOC000057760295",
    "tech": "NULL",
    "upgrade": "NULL_NA",
    "gnaf_pid": "GAVIC414380934",
    "tech_change_status": "Not Planned"
   }
  },
  {
   "type": "Feature",
   "geometry": {
    "type": "Point",
    "coordinates": [
     141.81180745,
     -35.17311123
    ]
   },
   "properties": {
    "name": "25 MOSSOP STREET UNDERBOOL 3509",
    "locID": "LOC000098254046",
    "tech": "NULL",
    "upgrade": "NULL_NA",
    "gnaf_pid": "GAVIC414380939",
    "tech_change_status": "Not Planned"
   }
  },
  {
   "type": "Feature",
   "geometry": {
    "type": "Point",
    "coordinates": [
     141.8106478,
     -35.17283871
    ]
   },
   "properties": {
    "name": "37 FASHAM STREET UNDERBOOL 3509",
    "locID": "LOC000059191433",
    "tech": "NULL",
    "upgrade": "NULL_NA",
    "gnaf_pid": "GAVIC414385424",
    "tech_change_status": "Not Planned"
   }
  },
  {
   "type": "Feature",
   "geometry": {
    "type": "Point",
    "coordinates": [
     141.808663,
     -35.17017154
    ]
   },
   "properties": {
    "name": "2 MALKIN AVENUE UNDERBOOL 3509",
    "locID": "LOC000085256433",
    "tech": "NULL",
    "upgrade": "NULL_NA",
    "gnaf_pid": "GAVIC414385428",
    "tech_change_status": "Not Planned"
   }
  },
  {
   "type": "Feature",
   "geometry": {
    "type": "Point",
    "coordinates": [
     141.80919739,
     -35.1713803
    ]
   },
   "properties": {
    "name": "9 MALKIN AVENUE UNDERBOOL 3509",
    "locID": "LOC000037750713",
    "tech": "NULL",
    "upgrade": "NULL_NA",
    "gnaf_pid": "GAVIC414385431",
    "tech_change_status": "Not Planned"
   }
  },
  {
   "type": "Feature",
   "geometry": {
    "type": "Point",
    "coordinates": [
     141.80888871,
     -35.17323726
    ]
   },
   "properties": {
    "name": "25-27 MALKIN AVENUE UNDERBOOL 3509",
    "locID": "LOC000091799531",
    "tech": "NULL",
    "upgrade": "NULL_NA",
    "gnaf_pid": "GAVIC414385449",
    "tech_change_status": "Not Planned"
   }
  },
  {
   "type": "Feature",
   "geometry": {
    "type": "Point",
    "coordinates": [
     141.8061606,
     -35.17070201
    ]
   },
   "properties": {
    "name": "6-8 MONASH AVENUE UNDERBOOL 3509",
    "locID": "LOC000007598851",
    "tech": "NULL",
    "upgrade": "NULL_NA",
    "gnaf_pid": "GAVIC414385493",
    "tech_change_status": "Not Planned"
   }
  },
  {
   "type": "Feature",
   "geometry": {
    "type": "Point",
    "coordinates": [
     141.80873136,
     -35.17131131
    ]
   },
   "properties": {
    "name": "21 MONASH AVENUE UNDERBOOL 3509",
    "locID": "LOC000087642440",
    "tech": "NULL",
    "upgrade": "NULL_NA",
    "gnaf_pid": "GAVIC414385499",
    "tech_change_status": "Not Planned"
   }
  },
  {
   "type": "Feature",
   "geometry": {
    "type": "Point",
    "coordinates": [
     141.8069311,
     -35.1711034
    ]
   },
   "properties": {
    "name": "11 MONASH AVENUE UNDERBOOL 3509",
    "locID": "LOC000075560142",
    "tech": "NULL",
    "upgrade": "NULL_NA",
    "gnaf_pid": "GAVIC414386182",
    "tech_change_status": "Not Planned"
   }
  },
  {
   "type": "Feature",
   "geometry": {
    "type": "Point",
    "coordinates": [
     141.81003742,
     -35.17098243
    ]
   },
   "properties": {
    "name": "UNIT 1, 32 MONASH AVENUE UNDERBOOL 3509",
    "locID": "LOC000016888759",
    "tech": "NULL",
    "upgrade": "NULL_NA",
    "gnaf_pid": "GAVIC414386186",
    "tech_change_status": "Not Planned"
   }
  },
  {
   "type": "Feature",
   "geometry": {
    "type": "Point",
    "coordinates": [
     141.81026558,
     -35.17114042
    ]
   },
   "properties": {
    "name": "34-36 MONASH AVENUE UNDERBOOL 3509",
    "locID": "LOC000066237980",
    "tech": "NULL",
    "upgrade": "NULL_NA",
    "gnaf_pid": "GAVIC414386187",
    "tech_change_status": "Not Planned"
   }
  },
  {
   "type": "Feature",
   "geometry": {
    "type": "Point",
    "coordinates": [
     141.81409048,
     -35.17191055
    ]
   },
   "properties": {
    "name": "49-53 MONASH AVENUE UNDERBOOL 3509",
    "locID": "LOC000085422118",
    "tech": "NULL",
    "upgrade": "NULL_NA",
    "gnaf_pid": "GAVIC414386195",
    "tech_change_status": "Not Planned"
   }
  },
  {
   "type": "Feature",
   "geometry": {
    "type": "Point",
    "coordinates": [
     141.81213656,
     -35.17114847
    ]
   },
   "properties": {
    "name": "7 MOSSOP STREET UNDERBOOL 3509",
    "locID": "LOC000073114300",
    "tech": "NULL",
    "upgrade": "NULL_NA",
    "gnaf_pid": "GAVIC414386205",
    "tech_change_status": "Not Planned"
   }
  },
  {
   "type": "Feature",
   "geometry": {
    "type": "Point",
    "coordinates": [
     141.81203322,
     -35.17178971
    ]
   },
   "properties": {
    "name": "11-13 MOSSOP STREET UNDERBOOL 3509",
    "locID": "LOC000079429122",
    "tech": "NULL",
    "upgrade": "NULL_NA",
    "gnaf_pid": "GAVIC414386208",
    "tech_change_status": "Not Planned"
   }
  },
  {
   "type": "Feature",
   "geometry": {
    "type": "Point",
    "coordinates": [
     141.80605589,
     -35.1723304
    ]
   },
   "properties": {
    "name": "7 FASHAM STREET UNDERBOOL 3509",
    "locID": "LOC000016898672",
    "tech": "SATELLITE",
    "upgrade": "NULL_NA",
    "gnaf_pid": "GAVIC420092826",
    "tech_change_status": "Not Planned"
   }
  },
  {
   "type": "Feature",
   "geometry": {
    "type": "Point",
    "coordinates": [
     141.81821706,
     -35.1708463
    ]
   },
   "properties": {
    "name": "4905 MALLEE HIGHWAY UNDERBOOL 3509",
    "locID": "LOC000086678636",
    "tech": "NULL",
    "upgrade": "NULL_NA",
    "gnaf_pid": "GAVIC421986815",
    "tech_change_status": "Not Planned"
   }
  },
  {
   "type": "Feature",
   "geometry": {
    "type": "Point",
    "coordinates": [
     141.80993425,
     -35.17110359
    ]
   },
   "properties": {
    "name": "32 MONASH AVENUE UNDERBOOL 3509",
    "locID": "LOC000016963436",
    "tech": "SATELLITE",
    "upgrade": "NULL_NA",
    "gnaf_pid": "GAVIC422104381",
    "tech_change_status": "Not Planned"
   }
  },
  {
   "type": "Feature",
   "geometry": {
    "type": "Point",
    "coordinates": [
     141.8966808,
     -35.09206051
    ]
   },
   "properties": {
    "name": "841 KRUSS ROAD UNDERBOOL 3509",
    "locID": "LOC000067696737",
    "tech": "NULL",
    "upgrade": "NULL_NA",
    "gnaf_pid": "GAVIC422404741",
    "tech_change_status": "Not Planned"
   }
  },
  {
   "type": "Feature",
   "geometry": {
    "type": "Point",
    "coordinates": [
     141.8140894,
     -35.1703049
    ]
   },
   "properties": {
    "name": "67 COTTER STREET UNDERBOOL 3509",
    "locID": "LOC000042549450",
    "tech": "NULL",
    "upgrade": "NULL_NA",
    "gnaf_pid": "GAVIC423066029",
    "tech_change_status": "Not Planned"
   }
  },
  {
   "type": "Feature",
   "geometry": {
    "type": "Point",
    "coordinates": [
     141.81170049,
     -35.17376153
    ]
   },
   "properties": {
    "name": "29 MOSSOP STREET UNDERBOOL 3509",
    "locID": "LOC000124781326",
    "tech": "NULL",
    "upgrade": "NULL_NA",
    "gnaf_pid": "GAVIC423083075",
    "tech_change_status": "Not Planned"
   }
  },
  {
   "type": "Feature",
   "geometry": {
    "type": "Point",
    "coordinates": [
     141.81032052,
     -35.17015011
    ]
   },
   "properties": {
    "name": "37-41 COTTER STREET UNDERBOOL 3509",
    "locID": "LOC000022649255",
    "tech": "SATELLITE",
    "upgrade": "NULL_NA",
    "gnaf_pid": "GAVIC423102438",
    "tech_change_status": "Not Planned"
   }
  },
  {
   "type": "Feature",
   "geometry": {
    "type": "Point",
    "coordinates": [
     141.80531722,
     -35.17228298
    ]
   },
   "properties": {
    "name": "13 WESTH STREET UNDERBOOL 3509",
    "locID": "LOC000102628754",
    "tech": "NULL",
    "upgrade": "NULL_NA",
    "gnaf_pid": "GAVIC423347542",
    "tech_change_status": "Not Planned"
   }
  },
  {
   "type": "Feature",
   "geometry": {
    "type": "Point",
    "coordinates": [
     141.80485729,
     -35.17267199
    ]
   },
   "properties": {
    "name": "14 WESTH STREET UNDERBOOL 3509",
    "locID": "LOC000093574797",
    "tech": "NULL",
    "upgrade": "NULL_NA",
    "gnaf_pid": "GAVIC423347543",
    "tech_change_status": "Not Planned"
   }
  },
  {
   "type": "Feature",
   "geometry": {
    "type": "Point",
    "coordinates": [
     141.8052804,
     -35.17250056
    ]
   },
   "properties": {
    "name": "15 WESTH STREET UNDERBOOL 3509",
    "locID": "LOC000025200002",
    "tech": "NULL",
    "upgrade": "NULL_NA",
    "gnaf_pid": "GAVIC423347544",
    "tech_change_status": "Not Planned"
   }
  },
  {
   "type": "Feature",
   "geometry": {
    "type": "Point",
    "coordinates": [
     141.80523453,
     -35.17272966
    ]
   },
   "properties": {
    "name": "17 WESTH STREET UNDERBOOL 3509",
    "locID": "LOC000101288481",
    "tech": "NULL",
    "upgrade": "NULL_NA",
    "gnaf_pid": "GAVIC423347545",
    "tech_change_status": "Not Planned"
   }
  },
  {
   "type": "Feature",
   "geometry": {
    "type": "Point",
    "coordinates": [
     141.80520759,
     -35.17293118
    ]
   },
   "properties": {
    "name": "19 WESTH STREET UNDERBOOL 3509",
    "locID": "LOC000018663048",
    "tech": "NULL",
    "upgrade": "NULL_NA",
    "gnaf_pid": "GAVIC423347546",
    "tech_change_status": "Not Planned"
   }
  },
  {
   "type": "Feature",
   "geometry": {
    "type": "Point",
    "coordinates": [
     141.80551441,
     -35.17107576
    ]
   },
   "properties": {
    "name": "3 WESTH STREET UNDERBOOL 3509",
    "locID": "LOC000021972695",
    "tech": "NULL",
    "upgrade": "NULL_NA",
    "gnaf_pid": "GAVIC423347549",
    "tech_change_status": "Not Planned"
   }
  },
  {
   "type": "Feature",
   "geometry": {
    "type": "Point",
    "coordinates": [
     141.80546696,
     -35.17135683
    ]
   },
   "properties": {
    "name": "5 WESTH STREET UNDERBOOL 3509",
    "locID": "LOC000032098990",
    "tech": "NULL",
    "upgrade": "NULL_NA",
    "gnaf_pid": "GAVIC423347550",
    "tech_change_status": "Not Planned"
   }
  },
  {
   "type": "Feature",
   "geometry": {
    "type": "Point",
    "coordinates": [
     141.8054364,
     -35.1715377
    ]
   },
   "properties": {
    "name": "7 WESTH STREET UNDERBOOL 3509",
    "locID": "LOC000021972695",
    "tech": "NULL",
    "upgrade": "NULL_NA",
    "gnaf_pid": "GAVIC423347551",
    "tech_change_status": "Not Planned"
   }
  },
  {
   "type": "Feature",
   "geometry": {
    "type": "Point",
    "coordinates": [
     141.80551441,
     -35.17107576
    ]
   },
   "properties": {
    "name": "1-3 WESTH STREET UNDERBOOL 3509",
    "locID": "LOC000124776983",
    "tech": "NULL",
    "upgrade": "NULL_NA",
    "gnaf_pid": "GAVIC423347943",
    "tech_change_status": "Not Planned"
   }
  },
  {
   "type": "Feature",
   "geometry": {
    "type": "Point",
    "coordinates": [
     141.80539459,
     -35.17180806
    ]
   },
   "properties": {
    "name": "9-11 WESTH STREET UNDERBOOL 3509",
    "locID": "LOC000071850521",
    "tech": "NULL",
    "upgrade": "NULL_NA",
    "gnaf_pid": "GAVIC423347948",
    "tech_change_status": "Not Planned"
   }
  },
  {
   "type": "Feature",
   "geometry": {
    "type": "Point",
    "coordinates": [
     141.80687876,
     -35.17209309
    ]
   },
   "properties": {
    "name": "14-16 FASHAM STREET UNDERBOOL 3509",
    "locID": "LOC000124777077",
    "tech": "NULL",
    "upgrade": "NULL_NA",
    "gnaf_pid": "GAVIC423791010",
    "tech_change_status": "Not Planned"
   }
  },
  {
   "type": "Feature",
   "geometry": {
    "type": "Point",
    "coordinates": [
     141.78547202,
     -35.2120267
    ]
   },
   "properties": {
    "name": "545 UNDERBOOL SOUTH ROAD UNDERBOOL 3509",
    "locID": "LOC000023021075",
    "tech": "NULL",
    "upgrade": "NULL_NA",
    "gnaf_pid": "GAVIC423807887",
    "tech_change_status": "Not Planned"
   }
  },
  {
   "type": "Feature",
   "geometry": {
    "type": "Point",
    "coordinates": [
     141.87048549,
     -35.21185105
    ]
   },
   "properties": {
    "name": "3464 STOCK ROUTE ROAD UNDERBOOL 3509",
    "locID": "LOC000024305016",
    "tech": "NULL",
    "upgrade": "NULL_NA",
    "gnaf_pid": "GAVIC423905352",
    "tech_change_status": "Not Planned"
   }
  },
  {
   "type": "Feature",
   "geometry": {
    "type": "Point",
    "coordinates": [
     141.7947571,
     -35.19073143
    ]
   },
   "properties": {
    "name": "268 UNDERBOOL SOUTH ROAD UNDERBOOL 3509",
    "locID": "LOC000047519673",
    "tech": "NULL",
    "upgrade": "NULL_NA",
    "gnaf_pid": "GAVIC423905846",
    "tech_change_status": "Not Planned"
   }
  },
  {
   "type": "Feature",
   "geometry": {
    "type": "Point",
    "coordinates": [
     141.83009906,
     -35.24967155
    ]
   },
   "properties": {
    "name": "390 WELSHMANS PLAIN ROAD UNDERBOOL 3509",
    "locID": "LOC000098194997",
    "tech": "SATELLITE",
    "upgrade": "NULL_NA",
    "gnaf_pid": "GAVIC423906137",
    "tech_change_status": "Not Planned"
   }
  },
  {
   "type": "Feature",
   "geometry": {
    "type": "Point",
    "coordinates": [
     141.82347294,
     -35.17806025
    ]
   },
   "properties": {
    "name": "109 UNDERBOOL-PATCHEWOLLOCK ROAD UNDERBOOL 3509",
    "locID": "LOC000019588998",
    "tech": "NULL",
    "upgrade": "NULL_NA",
    "gnaf_pid": "GAVIC423984850",
    "tech_change_status": "Not Planned"
   }
  },
  {
   "type": "Feature",
   "geometry": {
    "type": "Point",
    "coordinates": [
     141.8395313,
     -35.1889776
    ]
   },
   "properties": {
    "name": "307 UNDERBOOL-PATCHEWOLLOCK ROAD UNDERBOOL 3509",
    "locID": "LOC000107499249",
    "tech": "NULL",
    "upgrade": "NULL_NA",
    "gnaf_pid": "GAVIC423984852",
    "tech_change_status": "Not Planned"
   }
  },
  {
   "type": "Feature",
   "geometry": {
    "type": "Point",
    "coordinates": [
     141.8372657,
     -35.20795565
    ]
   },
   "properties": {
    "name": "520 UNDERBOOL-PATCHEWOLLOCK ROAD UNDERBOOL 3509",
    "locID": "LOC000020236714",
    "tech": "NULL",
    "upgrade": "NULL_NA",
    "gnaf_pid": "GAVIC423984854",
    "tech_change_status": "Not Planned"
   }
  },
  {
   "type": "Feature",
   "geometry": {
    "type": "Point",
    "coordinates": [
     141.84025382,
     -35.21647386
    ]
   },
   "properties": {
    "name": "617 UNDERBOOL-PATCHEWOLLOCK ROAD UNDERBOOL 3509",
    "locID": "LOC000060395402",
    "tech": "NULL",
    "upgrade": "NULL_NA",
    "gnaf_pid": "GAVIC423984855",
    "tech_change_status": "Not Planned"
   }
  },
  {
   "type": "Feature",
   "geometry": {
    "type": "Point",
    "coordinates": [
     141.79486413,
     -35.08429475
    ]
   },
   "properties": {
    "name": "985 AIKMAN ROAD UNDERBOOL 3509",
    "locID": "LOC100079010770",
    "tech": "NULL",
    "upgrade": "NULL_NA",
    "gnaf_pid": "GAVIC424020002",
    "tech_change_status": "Not Planned"
   }
  },
  {
   "type": "Feature",
   "geometry": {
    "type": "Point",
    "coordinates": [
     141.83338698,
     -35.10239468
    ]
   },
   "properties": {
    "name": "391 CAMPBELL ROAD UNDERBOOL 3509",
    "locID": "LOC100079110938",
    "tech": "NULL",
    "upgrade": "NULL_NA",
    "gnaf_pid": "GAVIC424022475",
    "tech_change_status": "Not Planned"
   }
  },
  {
   "type": "Feature",
   "geometry": {
    "type": "Point",
    "coordinates": [
     141.83491646,
     -35.09421479
    ]
   },
   "properties": {
    "name": "478 CAMPBELL ROAD UNDERBOOL 3509",
    "locID": "LOC000124781451",
    "tech": "NULL",
    "upgrade": "NULL_NA",
    "gnaf_pid": "GAVIC424022476",
    "tech_change_status": "Not Planned"
   }
  },
  {
   "type": "Feature",
   "geometry": {
    "type": "Point",
    "coordinates": [
     141.88493749,
     -35.16263179
    ]
   },
   "properties": {
    "name": "4263 MALLEE HIGHWAY UNDERBOOL 3509",
    "locID": "LOC000124767533",
    "tech": "NULL",
    "upgrade": "NULL_NA",
    "gnaf_pid": "GAVIC424030872",
    "tech_change_status": "Not Planned"
   }
  },
  {
   "type": "Feature",
   "geometry": {
    "type": "Point",
    "coordinates": [
     141.8714088,
     -35.1645693
    ]
   },
   "properties": {
    "name": "4387 MALLEE HIGHWAY UNDERBOOL 3509",
    "locID": "LOC000124767567",
    "tech": "NULL",
    "upgrade": "NULL_NA",
    "gnaf_pid": "GAVIC424030873",
    "tech_change_status": "Not Planned"
   }
  },
  {
   "type": "Feature",
   "geometry": {
    "type": "Point",
    "coordinates": [
     141.86977486,
     -35.16477039
    ]
   },
   "properties": {
    "name": "4403 MALLEE HIGHWAY UNDERBOOL 3509",
    "locID": "LOC000114349637",
    "tech": "NULL",
    "upgrade": "NULL_NA",
    "gnaf_pid": "GAVIC424030874",
    "tech_change_status": "Not Planned"
   }
  },
  {
   "type": "Feature",
   "geometry": {
    "type": "Point",
    "coordinates": [
     141.81238131,
     -35.17011511
    ]
   },
   "properties": {
    "name": "55-57 COTTER STREET UNDERBOOL 3509",
    "locID": "LOC100078123792",
    "tech": "NULL",
    "upgrade": "NULL_NA",
    "gnaf_pid": "GAVIC424444187",
    "tech_change_status": "Not Planned"
   }
  },
  {
   "type": "Feature",
   "geometry": {
    "type": "Point",
    "coordinates": [
     141.8082421,
     -35.17136979
    ]
   },
   "properties": {
    "name": "12-14 MALKIN AVENUE UNDERBOOL 3509",
    "locID": "LOC000124777049",
    "tech": "NULL",
    "upgrade": "NULL_NA",
    "gnaf_pid": "GAVIC424450329",
    "tech_change_status": "Not Planned"
   }
  },
  {
   "type": "Feature",
   "geometry": {
    "type": "Point",
    "coordinates": [
     141.80810597,
     -35.17220034
    ]
   },
   "properties": {
    "name": "22 MALKIN AVENUE UNDERBOOL 3509",
    "locID": "LOC000154281665",
    "tech": "SATELLITE",
    "upgrade": "NULL_NA",
    "gnaf_pid": "GAVIC424450330",
    "tech_change_status": "Not Planned"
   }
  },
  {
   "type": "Feature",
   "geometry": {
    "type": "Point",
    "coordinates": [
     141.81154137,
     -35.172298
    ]
   },
   "properties": {
    "name": "18-20 MOSSOP STREET UNDERBOOL 3509",
    "locID": "LOC000124777123",
    "tech": "NULL",
    "upgrade": "NULL_NA",
    "gnaf_pid": "GAVIC424451142",
    "tech_change_status": "Not Planned"
   }
  },
  {
   "type": "Feature",
   "geometry": {
    "type": "Point",
    "coordinates": [
     141.80587613,
     -35.1702847
    ]
   },
   "properties": {
    "name": "5 UNDERBOOL SOUTH ROAD UNDERBOOL 3509",
    "locID": "LOC000023021075",
    "tech": "NULL",
    "upgrade": "NULL_NA",
    "gnaf_pid": "GAVIC424507446",
    "tech_change_status": "Not Planned"
   }
  },
  {
   "type": "Feature",
   "geometry": {
    "type": "Point",
    "coordinates": [
     141.81014674,
     -35.1631821
    ]
   },
   "properties": {
    "name": "70 KILPATRICK LANE UNDERBOOL 3509",
    "locID": "LOC000080655615",
    "tech": "NULL",
    "upgrade": "NULL_NA",
    "gnaf_pid": "GAVIC424549701",
    "tech_change_status": "Not Planned"
   }
  },
  {
   "type": "Feature",
   "geometry": {
    "type": "Point",
    "coordinates": [
     141.7607679,
     -35.16308748
    ]
   },
   "properties": {
    "name": "140 ANDERSON ROAD UNDERBOOL 3509",
    "locID": "LOC000115794189",
    "tech": "NULL",
    "upgrade": "NULL_NA",
    "gnaf_pid": "GAVIC424778397",
    "tech_change_status": "Not Planned"
   }
  },
  {
   "type": "Feature",
   "geometry": {
    "type": "Point",
    "coordinates": [
     141.80789501,
     -35.17350253
    ]
   },
   "properties": {
    "name": "32 MALKIN AVENUE UNDERBOOL 3509",
    "locID": "LOC000097200301",
    "tech": "NULL",
    "upgrade": "NULL_NA",
    "gnaf_pid": "GAVIC424785406",
    "tech_change_status": "Not Planned"
   }
  },
  {
   "type": "Feature",
   "geometry": {
    "type": "Point",
    "coordinates": [
     141.80966516,
     -35.17109313
    ]
   },
   "properties": {
    "name": "30A MONASH AVENUE UNDERBOOL 3509",
    "locID": "LOC000150281187",
    "tech": "NULL",
    "upgrade": "NULL_NA",
    "gnaf_pid": "GAVIC425619881",
    "tech_change_status": "Not Planned"
   }
  },
  {
   "type": "Feature",
   "geometry": {
    "type": "Point",
    "coordinates": [
     141.81296,
     -35.16893405
    ]
   },
   "properties": {
    "name": "3 GNARR ROAD UNDERBOOL 3509",
    "locID": "LOC000066874010",
    "tech": "SATELLITE",
    "upgrade": "NULL_NA",
    "gnaf_pid": "GAVIC720055264",
    "tech_change_status": "Not Planned"
   }
  },
  {
   "type": "Feature",
   "geometry": {
    "type": "Point",
    "coordinates": [
     141.8099301,
     -35.17012655
    ]
   },
   "properties": {
    "name": "33 COTTER STREET UNDERBOOL 3509",
    "locID": "LOC100087440660",
    "tech": "NULL",
    "upgrade": "NULL_NA",
    "gnaf_pid": "GAVIC720065211",
    "tech_change_status": "Not Planned"
   }
  }
 ]
}