{
 "type": "FeatureCollection",
 "generated": "2024-10-30T16:44:38.378493",
 "suburb": "WALKERVILLE NORTH",
 "features": [
  {
   "type": "Feature",
   "geometry": {
    "type": "Point",
    "coordinates": [
     145.99591708,
     -38.85290105
    ]
   },
   "properties": {
    "name": "1 HOLT STREET WALKERVILLE NORTH 3956",
    "locID": "LOC000150281731",
    "tech": "WIRELESS",
    "upgrade": "NULL_NA",
    "gnaf_pid": "GAVIC425227540",
    "tech_change_status": "Not Planned",
    "program_type": "Fixed Wireless and Satellite Upgrade Program",
    "target_eligibility_quarter": "NA"
   }
  },
  {
   "type": "Feature",
   "geometry": {
    "type": "Point",
    "coordinates": [
     145.99549112,
     -38.85287035
    ]
   },
   "properties": {
    "name": "3 HOLT STREET WALKERVILLE NORTH 3956",
    "locID": "LOC000150281749",
    "tech": "WIRELESS",
    "upgrade": "NULL_NA",
    "gnaf_pid": "GAVIC425227541",
    "tech_change_status": "Not Planned",
    "program_type": "Fixed Wireless and Satellite Upgrade Program",
    "target_eligibility_quarter": "NA"
   }
  },
  {
   "type": "Feature",
   "geometry": {
    "type": "Point",
    "coordinates": [
     145.99559787,
     -38.852655
    ]
   },
   "properties": {
    "name": "4 HOLT STREET WALKERVILLE NORTH 3956",
    "locID": "LOC000150281754",
    "tech": "WIRELESS",
    "upgrade": "NULL_NA",
    "gnaf_pid": "GAVIC425227542",
    "tech_change_status": "Not Planned",
    "program_type": "Fixed Wireless and Satellite Upgrade Program",
    "target_eligibility_quarter": "NA"
   }
  },
  {
   "type": "Feature",
   "geometry": {
    "type": "Point",
    "coordinates": [
     145.99531853,
     -38.85285084
    ]
   },
   "properties": {
    "name": "5 HOLT STREET WALKERVILLE NORTH 3956",
    "locID": "LOC000150281765",
    "tech": "WIRELESS",
    "upgrade": "NULL_NA",
    "gnaf_pid": "GAVIC425227543",
    "tech_change_status": "Not Planned",
    "program_type": "Fixed Wireless and Satellite Upgrade Program",
    "target_eligibility_quarter": "NA"
   }
  },
  {
   "type": "Feature",
   "geometry": {
    "type": "Point",
    "coordinates": [
     145.99544959,
     -38.85254559
    ]
   },
   "properties": {
    "name": "6 HOLT STREET WALKERVILLE NORTH 3956",
    "locID": "LOC000150281777",
    "tech": "WIRELESS",
    "upgrade": "NULL_NA",
    "gnaf_pid": "GAVIC425227544",
    "tech_change_status": "Not Planned",
    "program_type": "Fixed Wireless and Satellite Upgrade Program",
    "target_eligibility_quarter": "NA"
   }
  },
  {
   "type": "Feature",
   "geometry": {
    "type": "Point",
    "coordinates": [
     145.99509972,
     -38.85283995
    ]
   },
   "properties": {
    "name": "7 HOLT STREET WALKERVILLE NORTH 3956",
    "locID": "LOC000150281783",
    "tech": "WIRELESS",
    "upgrade": "NULL_NA",
    "gnaf_pid": "GAVIC425227545",
    "tech_change_status": "Not Planned",
    "program_type": "Fixed Wireless and Satellite Upgrade Program",
    "target_eligibility_quarter": "NA"
   }
  },
  {
   "type": "Feature",
   "geometry": {
    "type": "Point",
    "coordinates": [
     145.99545111,
     -38.85243746
    ]
   },
   "properties": {
    "name": "8 HOLT STREET WALKERVILLE NORTH 3956",
    "locID": "LOC000150281796",
    "tech": "WIRELESS",
    "upgrade": "NULL_NA",
    "gnaf_pid": "GAVIC425227546",
    "tech_change_status": "Not Planned",
    "program_type": "Fixed Wireless and Satellite Upgrade Program",
    "target_eligibility_quarter": "NA"
   }
  },
  {
   "type": "Feature",
   "geometry": {
    "type": "Point",
    "coordinates": [
     146.00142067,
     -38.83856619
    ]
   },
   "properties": {
    "name": "3 LOOP ROAD WALKERVILLE NORTH 3956",
    "locID": "LOC000150281806",
    "tech": "WIRELESS",
    "upgrade": "NULL_NA",
    "gnaf_pid": "GAVIC425228737",
    "tech_change_status": "Not Planned",
    "program_type": "Fixed Wireless and Satellite Upgrade Program",
    "target_eligibility_quarter": "NA"
   }
  },
  {
   "type": "Feature",
   "geometry": {
    "type": "Point",
    "coordinates": [
     145.99656719,
     -38.84675103
    ]
   },
   "properties": {
    "name": "10 WARATAH STREET WALKERVILLE NORTH 3956",
    "locID": "LOC000150281810",
    "tech": "WIRELESS",
    "upgrade": "NULL_NA",
    "gnaf_pid": "GAVIC425235705",
    "tech_change_status": "Not Planned",
    "program_type": "Fixed Wireless and Satellite Upgrade Program",
    "target_eligibility_quarter": "NA"
   }
  },
  {
   "type": "Feature",
   "geometry": {
    "type": "Point",
    "coordinates": [
     145.99682674,
     -38.84722107
    ]
   },
   "properties": {
    "name": "11 WARATAH STREET WALKERVILLE NORTH 3956",
    "locID": "LOC000150281823",
    "tech": "WIRELESS",
    "upgrade": "NULL_NA",
    "gnaf_pid": "GAVIC425235706",
    "tech_change_status": "Not Planned",
    "program_type": "Fixed Wireless and Satellite Upgrade Program",
    "target_eligibility_quarter": "NA"
   }
  },
  {
   "type": "Feature",
   "geometry": {
    "type": "Point",
    "coordinates": [
     145.99653613,
     -38.84688898
    ]
   },
   "properties": {
    "name": "12 WARATAH STREET WALKERVILLE NORTH 3956",
    "locID": "LOC000150281834",
    "tech": "WIRELESS",
    "upgrade": "NULL_NA",
    "gnaf_pid": "GAVIC425235707",
    "tech_change_status": "Not Planned",
    "program_type": "Fixed Wireless and Satellite Upgrade Program",
    "target_eligibility_quarter": "NA"
   }
  },
  {
   "type": "Feature",
   "geometry": {
    "type": "Point",
    "coordinates": [
     145.99679446,
     -38.84736443
    ]
   },
   "properties": {
    "name": "13 WARATAH STREET WALKERVILLE NORTH 3956",
    "locID": "LOC000150281847",
    "tech": "WIRELESS",
    "upgrade": "NULL_NA",
    "gnaf_pid": "GAVIC425235708",
    "tech_change_status": "Not Planned",
    "program_type": "Fixed Wireless and Satellite Upgrade Program",
    "target_eligibility_quarter": "NA"
   }
  },
  {
   "type": "Feature",
   "geometry": {
    "type": "Point",
    "coordinates": [
     145.99650446,
     -38.84702964
    ]
   },
   "properties": {
    "name": "14 WARATAH STREET WALKERVILLE NORTH 3956",
    "locID": "LOC100072049508",
    "tech": "WIRELESS",
    "upgrade": "NULL_NA",
    "gnaf_pid": "GAVIC425235709",
    "tech_change_status": "Not Planned",
    "program_type": "Fixed Wireless and Satellite Upgrade Program",
    "target_eligibility_quarter": "NA"
   }
  },
  {
   "type": "Feature",
   "geometry": {
    "type": "Point",
    "coordinates": [
     145.99676219,
     -38.84750779
    ]
   },
   "properties": {
    "name": "15 WARATAH STREET WALKERVILLE NORTH 3956",
    "locID": "LOC000150281852",
    "tech": "WIRELESS",
    "upgrade": "NULL_NA",
    "gnaf_pid": "GAVIC425235710",
    "tech_change_status": "Not Planned",
    "program_type": "Fixed Wireless and Satellite Upgrade Program",
    "target_eligibility_quarter": "NA"
   }
  },
  {
   "type": "Feature",
   "geometry": {
    "type": "Point",
    "coordinates": [
     145.99647219,
     -38.847173
    ]
   },
   "properties": {
    "name": "16 WARATAH STREET WALKERVILLE NORTH 3956",
    "locID": "LOC000150281868",
    "tech": "WIRELESS",
    "upgrade": "NULL_NA",
    "gnaf_pid": "GAVIC425235711",
    "tech_change_status": "Not Planned",
    "program_type": "Fixed Wireless and Satellite Upgrade Program",
    "target_eligibility_quarter": "NA"
   }
  },
  {
   "type": "Feature",
   "geometry": {
    "type": "Point",
    "coordinates": [
     145.99673022,
     -38.8476498
    ]
   },
   "properties": {
    "name": "17 WARATAH STREET WALKERVILLE NORTH 3956",
    "locID": "LOC000150281875",
    "tech": "WIRELESS",
    "upgrade": "NULL_NA",
    "gnaf_pid": "GAVIC425235712",
    "tech_change_status": "Not Planned",
    "program_type": "Fixed Wireless and Satellite Upgrade Program",
    "target_eligibility_quarter": "NA"
   }
  },
  {
   "type": "Feature",
   "geometry": {
    "type": "Point",
    "coordinates": [
     145.99643991,
     -38.84731636
    ]
   },
   "properties": {
    "name": "18 WARATAH STREET WALKERVILLE NORTH 3956",
    "locID": "LOC000150281881",
    "tech": "WIRELESS",
    "upgrade": "NULL_NA",
    "gnaf_pid": "GAVIC425235713",
    "tech_change_status": "Not Planned",
    "program_type": "Fixed Wireless and Satellite Upgrade Program",
    "target_eligibility_quarter": "NA"
   }
  },
  {
   "type": "Feature",
   "geometry": {
    "type": "Point",
    "coordinates": [
     145.99714143,
     -38.84651944
    ]
   },
   "properties": {
    "name": "1 WARATAH STREET WALKERVILLE NORTH 3956",
    "locID": "LOC000150281909",
    "tech": "WIRELESS",
    "upgrade": "NULL_NA",
    "gnaf_pid": "GAVIC425235715",
    "tech_change_status": "Not Planned",
    "program_type": "Fixed Wireless and Satellite Upgrade Program",
    "target_eligibility_quarter": "NA"
   }
  },
  {
   "type": "Feature",
   "geometry": {
    "type": "Point",
    "coordinates": [
     145.99717236,
     -38.84623439
    ]
   },
   "properties": {
    "name": "2 WARATAH STREET WALKERVILLE NORTH 3956",
    "locID": "LOC000150281913",
    "tech": "SATELLITE",
    "upgrade": "NULL_NA",
    "gnaf_pid": "GAVIC425235718",
    "tech_change_status": "Not Planned"
   }
  },
  {
   "type": "Feature",
   "geometry": {
    "type": "Point",
    "coordinates": [
     145.99695372,
     -38.84652383
    ]
   },
   "properties": {
    "name": "3 WARATAH STREET WALKERVILLE NORTH 3956",
    "locID": "LOC000150281913",
    "tech": "SATELLITE",
    "upgrade": "NULL_NA",
    "gnaf_pid": "GAVIC425235719",
    "tech_change_status": "Not Planned"
   }
  },
  {
   "type": "Feature",
   "geometry": {
    "type": "Point",
    "coordinates": [
     145.99659824,
     -38.84661308
    ]
   },
   "properties": {
    "name": "8 WARATAH STREET WALKERVILLE NORTH 3956",
    "locID": "LOC000150281950",
    "tech": "SATELLITE",
    "upgrade": "NULL_NA",
    "gnaf_pid": "GAVIC425235723",
    "tech_change_status": "Not Planned"
   }
  },
  {
   "type": "Feature",
   "geometry": {
    "type": "Point",
    "coordinates": [
     145.99685901,
     -38.84707771
    ]
   },
   "properties": {
    "name": "9 WARATAH STREET WALKERVILLE NORTH 3956",
    "locID": "LOC000150281966",
    "tech": "WIRELESS",
    "upgrade": "NULL_NA",
    "gnaf_pid": "GAVIC425235724",
    "tech_change_status": "Not Planned",
    "program_type": "Fixed Wireless and Satellite Upgrade Program",
    "target_eligibility_quarter": "NA"
   }
  },
  {
   "type": "Feature",
   "geometry": {
    "type": "Point",
    "coordinates": [
     145.99603606,
     -38.8539377
    ]
   },
   "properties": {
    "name": "UNIT 1, 102 BAYSIDE DRIVE WALKERVILLE NORTH 3956",
    "locID": "LOC000150282167",
    "tech": "WIRELESS",
    "upgrade": "NULL_NA",
    "gnaf_pid": "GAVIC425272041",
    "tech_change_status": "Not Planned",
    "program_type": "Fixed Wireless and Satellite Upgrade Program",
    "target_eligibility_quarter": "NA"
   }
  },
  {
   "type": "Feature",
   "geometry": {
    "type": "Point",
    "coordinates": [
     145.99551779,
     -38.85404102
    ]
   },
   "properties": {
    "name": "UNIT 2, 102 BAYSIDE DRIVE WALKERVILLE NORTH 3956",
    "locID": "LOC000150282167",
    "tech": "WIRELESS",
    "upgrade": "NULL_NA",
    "gnaf_pid": "GAVIC425272042",
    "tech_change_status": "Not Planned",
    "program_type": "Fixed Wireless and Satellite Upgrade Program",
    "target_eligibility_quarter": "NA"
   }
  },
  {
   "type": "Feature",
   "geometry": {
    "type": "Point",
    "coordinates": [
     145.99597998,
     -38.85365653
    ]
   },
   "properties": {
    "name": "100 BAYSIDE DRIVE WALKERVILLE NORTH 3956",
    "locID": "LOC000150282007",
    "tech": "WIRELESS",
    "upgrade": "NULL_NA",
    "gnaf_pid": "GAVIC425272043",
    "tech_change_status": "Not Planned",
    "program_type": "Fixed Wireless and Satellite Upgrade Program",
    "target_eligibility_quarter": "NA"
   }
  },
  {
   "type": "Feature",
   "geometry": {
    "type": "Point",
    "coordinates": [
     145.99614168,
     -38.85414797
    ]
   },
   "properties": {
    "name": "104 BAYSIDE DRIVE WALKERVILLE NORTH 3956",
    "locID": "LOC000150282011",
    "tech": "WIRELESS",
    "upgrade": "NULL_NA",
    "gnaf_pid": "GAVIC425272044",
    "tech_change_status": "Not Planned",
    "program_type": "Fixed Wireless and Satellite Upgrade Program",
    "target_eligibility_quarter": "NA"
   }
  },
  {
   "type": "Feature",
   "geometry": {
    "type": "Point",
    "coordinates": [
     145.99596754,
     -38.85430929
    ]
   },
   "properties": {
    "name": "106 BAYSIDE DRIVE WALKERVILLE NORTH 3956",
    "locID": "LOC000150282024",
    "tech": "WIRELESS",
    "upgrade": "NULL_NA",
    "gnaf_pid": "GAVIC425272046",
    "tech_change_status": "Not Planned",
    "program_type": "Fixed Wireless and Satellite Upgrade Program",
    "target_eligibility_quarter": "NA"
   }
  },
  {
   "type": "Feature",
   "geometry": {
    "type": "Point",
    "coordinates": [
     145.99611881,
     -38.85449083
    ]
   },
   "properties": {
    "name": "108 BAYSIDE DRIVE WALKERVILLE NORTH 3956",
    "locID": "LOC000150282030",
    "tech": "WIRELESS",
    "upgrade": "NULL_NA",
    "gnaf_pid": "GAVIC425272047",
    "tech_change_status": "Not Planned",
    "program_type": "Fixed Wireless and Satellite Upgrade Program",
    "target_eligibility_quarter": "NA"
   }
  },
  {
   "type": "Feature",
   "geometry": {
    "type": "Point",
    "coordinates": [
     145.99835557,
     -38.84360464
    ]
   },
   "properties": {
    "name": "22 BAYSIDE DRIVE WALKERVILLE NORTH 3956",
    "locID": "LOC100086211338",
    "tech": "WIRELESS",
    "upgrade": "NULL_NA",
    "gnaf_pid": "GAVIC425272048",
    "tech_change_status": "Not Planned",
    "program_type": "Fixed Wireless and Satellite Upgrade Program",
    "target_eligibility_quarter": "NA"
   }
  },
  {
   "type": "Feature",
   "geometry": {
    "type": "Point",
    "coordinates": [
     145.99823394,
     -38.84405866
    ]
   },
   "properties": {
    "name": "28 BAYSIDE DRIVE WALKERVILLE NORTH 3956",
    "locID": "LOC000153227104",
    "tech": "SATELLITE",
    "upgrade": "NULL_NA",
    "gnaf_pid": "GAVIC425272050",
    "tech_change_status": "Not Planned"
   }
  },
  {
   "type": "Feature",
   "geometry": {
    "type": "Point",
    "coordinates": [
     145.99818639,
     -38.84423607
    ]
   },
   "properties": {
    "name": "30 BAYSIDE DRIVE WALKERVILLE NORTH 3956",
    "locID": "LOC000150282069",
    "tech": "WIRELESS",
    "upgrade": "NULL_NA",
    "gnaf_pid": "GAVIC425272051",
    "tech_change_status": "Not Planned",
    "program_type": "Fixed Wireless and Satellite Upgrade Program",
    "target_eligibility_quarter": "NA"
   }
  },
  {
   "type": "Feature",
   "geometry": {
    "type": "Point",
    "coordinates": [
     145.99813854,
     -38.84441343
    ]
   },
   "properties": {
    "name": "32 BAYSIDE DRIVE WALKERVILLE NORTH 3956",
    "locID": "LOC000150282076",
    "tech": "WIRELESS",
    "upgrade": "NULL_NA",
    "gnaf_pid": "GAVIC425272052",
    "tech_change_status": "Not Planned",
    "program_type": "Fixed Wireless and Satellite Upgrade Program",
    "target_eligibility_quarter": "NA"
   }
  },
  {
   "type": "Feature",
   "geometry": {
    "type": "Point",
    "coordinates": [
     145.99804552,
     -38.84476682
    ]
   },
   "properties": {
    "name": "36 BAYSIDE DRIVE WALKERVILLE NORTH 3956",
    "locID": "LOC100078157586",
    "tech": "WIRELESS",
    "upgrade": "NULL_NA",
    "gnaf_pid": "GAVIC425272054",
    "tech_change_status": "Not Planned",
    "program_type": "Fixed Wireless and Satellite Upgrade Program",
    "target_eligibility_quarter": "NA"
   }
  },
  {
   "type": "Feature",
   "geometry": {
    "type": "Point",
    "coordinates": [
     145.99797715,
     -38.84503231
    ]
   },
   "properties": {
    "name": "38 BAYSIDE DRIVE WALKERVILLE NORTH 3956",
    "locID": "LOC000150282105",
    "tech": "WIRELESS",
    "upgrade": "NULL_NA",
    "gnaf_pid": "GAVIC425272055",
    "tech_change_status": "Not Planned",
    "program_type": "Fixed Wireless and Satellite Upgrade Program",
    "target_eligibility_quarter": "NA"
   }
  },
  {
   "type": "Feature",
   "geometry": {
    "type": "Point",
    "coordinates": [
     145.9959695,
     -38.85086786
    ]
   },
   "properties": {
    "name": "80 BAYSIDE DRIVE WALKERVILLE NORTH 3956",
    "locID": "LOC000150282114",
    "tech": "WIRELESS",
    "upgrade": "NULL_NA",
    "gnaf_pid": "GAVIC425272057",
    "tech_change_status": "Not Planned",
    "program_type": "Fixed Wireless and Satellite Upgrade Program",
    "target_eligibility_quarter": "NA"
   }
  },
  {
   "type": "Feature",
   "geometry": {
    "type": "Point",
    "coordinates": [
     145.99727658,
     -38.84718154
    ]
   },
   "properties": {
    "name": "82 BAYSIDE DRIVE WALKERVILLE NORTH 3956",
    "locID": "LOC000153528863",
    "tech": "WIRELESS",
    "upgrade": "NULL_NA",
    "gnaf_pid": "GAVIC425272058",
    "tech_change_status": "Not Planned",
    "program_type": "Fixed Wireless and Satellite Upgrade Program",
    "target_eligibility_quarter": "NA"
   }
  },
  {
   "type": "Feature",
   "geometry": {
    "type": "Point",
    "coordinates": [
     145.99576548,
     -38.85219588
    ]
   },
   "properties": {
    "name": "88 BAYSIDE DRIVE WALKERVILLE NORTH 3956",
    "locID": "LOC000150282122",
    "tech": "WIRELESS",
    "upgrade": "NULL_NA",
    "gnaf_pid": "GAVIC425272059",
    "tech_change_status": "Not Planned",
    "program_type": "Fixed Wireless and Satellite Upgrade Program",
    "target_eligibility_quarter": "NA"
   }
  },
  {
   "type": "Feature",
   "geometry": {
    "type": "Point",
    "coordinates": [
     145.99559784,
     -38.85116389
    ]
   },
   "properties": {
    "name": "8 NICOLL STREET WALKERVILLE NORTH 3956",
    "locID": "LOC000150282151",
    "tech": "WIRELESS",
    "upgrade": "NULL_NA",
    "gnaf_pid": "GAVIC425282444",
    "tech_change_status": "Not Planned",
    "program_type": "Fixed Wireless and Satellite Upgrade Program",
    "target_eligibility_quarter": "NA"
   }
  },
  {
   "type": "Feature",
   "geometry": {
    "type": "Point",
    "coordinates": [
     145.99551779,
     -38.85404102
    ]
   },
   "properties": {
    "name": "102 BAYSIDE DRIVE WALKERVILLE NORTH 3956",
    "locID": "LOC000150282167",
    "tech": "WIRELESS",
    "upgrade": "NULL_NA",
    "gnaf_pid": "GAVIC425293823",
    "tech_change_status": "Not Planned",
    "program_type": "Fixed Wireless and Satellite Upgrade Program",
    "target_eligibility_quarter": "NA"
   }
  },
  {
   "type": "Feature",
   "geometry": {
    "type": "Point",
    "coordinates": [
     145.99692173,
     -38.84679913
    ]
   },
   "properties": {
    "name": "54 BAYSIDE DRIVE WALKERVILLE NORTH 3956",
    "locID": "LOC100086273812",
    "tech": "WIRELESS",
    "upgrade": "NULL_NA",
    "gnaf_pid": "GAVIC425556500",
    "tech_change_status": "Not Planned",
    "program_type": "Fixed Wireless and Satellite Upgrade Program",
    "target_eligibility_quarter": "NA"
   }
  },
  {
   "type": "Feature",
   "geometry": {
    "type": "Point",
    "coordinates": [
     145.99619135,
     -38.85431337
    ]
   },
   "properties": {
    "name": "106-108 BAYSIDE DRIVE WALKERVILLE NORTH 3956",
    "locID": "LOC000150282024",
    "tech": "WIRELESS",
    "upgrade": "NULL_NA",
    "gnaf_pid": "GAVIC719415923",
    "tech_change_status": "Not Planned",
    "program_type": "Fixed Wireless and Satellite Upgrade Program",
    "target_eligibility_quarter": "NA"
   }
  },
  {
   "type": "Feature",
   "geometry": {
    "type": "Point",
    "coordinates": [
     145.99642255,
     -38.85125995
    ]
   },
   "properties": {
    "name": "84 BAYSIDE DRIVE WALKERVILLE NORTH 3956",
    "locID": "LOC100086288325",
    "tech": "WIRELESS",
    "upgrade": "NULL_NA",
    "gnaf_pid": "GAVIC719426378",
    "tech_change_status": "Not Planned",
    "program_type": "Fixed Wireless and Satellite Upgrade Program",
    "target_eligibility_quarter": "NA"
   }
  },
  {
   "type": "Feature",
   "geometry": {
    "type": "Point",
    "coordinates": [
     145.99828953,
     -38.84338281
    ]
   },
   "properties": {
    "name": "22A BAYSIDE DRIVE WALKERVILLE NORTH 3956",
    "locID": "LOC100086211338",
    "tech": "WIRELESS",
    "upgrade": "NULL_NA",
    "gnaf_pid": "GAVIC720360445",
    "tech_change_status": "Not Planned",
    "program_type": "Fixed Wireless and Satellite Upgrade Program",
    "target_eligibility_quarter": "NA"
   }
  },
  {
   "type": "Feature",
   "geometry": {
    "type": "Point",
    "coordinates": [
     145.99695309,
     -38.84665982
    ]
   },
   "properties": {
    "name": "52 BAYSIDE DRIVE WALKERVILLE NORTH 3956",
    "locID": "LOC000150281921",
    "tech": "WIRELESS",
    "upgrade": "NULL_NA",
    "gnaf_pid": "GAVIC720760466",
    "tech_change_status": "Not Planned",
    "program_type": "Fixed Wireless and Satellite Upgrade Program",
    "target_eligibility_quarter": "NA"
   }
  },
  {
   "type": "Feature",
   "geometry": {
    "type": "Point",
    "coordinates": [
     145.99740181,
     -38.84772211
    ]
   },
   "properties": {
    "name": "1 BAYSIDE DRIVE WALKERVILLE NORTH 3956",
    "locID": "LOC000150282030",
    "tech": "WIRELESS",
    "upgrade": "NULL_NA",
    "gnaf_pid": "GAVIC720976002",
    "tech_change_status": "Not Planned",
    "program_type": "Fixed Wireless and Satellite Upgrade Program",
    "target_eligibility_quarter": "NA"
   }
  }
 ]
}