{
 "type": "FeatureCollection",
 "generated": "2024-11-17T00:41:27.281022",
 "suburb": "WEEAPROINAH",
 "features": [
  {
   "type": "Feature",
   "geometry": {
    "type": "Point",
    "coordinates": [
     143.51282672,
     -38.63314446
    ]
   },
   "properties": {
    "name": "3948 COLAC-LAVERS HILL ROAD WEEAPROINAH 3237",
    "locID": "LOC000078843188",
    "tech": "SATELLITE",
    "upgrade": "NULL_NA",
    "gnaf_pid": "GAVIC412567362",
    "tech_change_status": "Not Planned"
   }
  },
  {
   "type": "Feature",
   "geometry": {
    "type": "Point",
    "coordinates": [
     143.49764233,
     -38.63692697
    ]
   },
   "properties": {
    "name": "4035 COLAC-LAVERS HILL ROAD WEEAPROINAH 3237",
    "locID": "LOC000057771500",
    "tech": "SATELLITE",
    "upgrade": "NULL_NA",
    "gnaf_pid": "GAVIC419668176",
    "tech_change_status": "Not Planned"
   }
  },
  {
   "type": "Feature",
   "geometry": {
    "type": "Point",
    "coordinates": [
     143.49974905,
     -38.6347343
    ]
   },
   "properties": {
    "name": "4080 COLAC-LAVERS HILL ROAD WEEAPROINAH 3237",
    "locID": "LOC000080111257",
    "tech": "SATELLITE",
    "upgrade": "NULL_NA",
    "gnaf_pid": "GAVIC419670843",
    "tech_change_status": "Not Planned"
   }
  },
  {
   "type": "Feature",
   "geometry": {
    "type": "Point",
    "coordinates": [
     143.48174515,
     -38.63852894
    ]
   },
   "properties": {
    "name": "4235 COLAC-LAVERS HILL ROAD WEEAPROINAH 3237",
    "locID": "LOC000018628854",
    "tech": "NULL",
    "upgrade": "NULL_NA",
    "gnaf_pid": "GAVIC420072945",
    "tech_change_status": "Not Planned"
   }
  },
  {
   "type": "Feature",
   "geometry": {
    "type": "Point",
    "coordinates": [
     143.49736439,
     -38.63682837
    ]
   },
   "properties": {
    "name": "4105 COLAC-LAVERS HILL ROAD WEEAPROINAH 3237",
    "locID": "LOC000057892226",
    "tech": "SATELLITE",
    "upgrade": "NULL_NA",
    "gnaf_pid": "GAVIC420259937",
    "tech_change_status": "Not Planned"
   }
  },
  {
   "type": "Feature",
   "geometry": {
    "type": "Point",
    "coordinates": [
     143.50114814,
     -38.63497703
    ]
   },
   "properties": {
    "name": "4065 COLAC-LAVERS HILL ROAD WEEAPROINAH 3237",
    "locID": "LOC000013590373",
    "tech": "SATELLITE",
    "upgrade": "NULL_NA",
    "gnaf_pid": "GAVIC420271643",
    "tech_change_status": "Not Planned"
   }
  },
  {
   "type": "Feature",
   "geometry": {
    "type": "Point",
    "coordinates": [
     143.50571592,
     -38.63354188
    ]
   },
   "properties": {
    "name": "4025 COLAC-LAVERS HILL ROAD WEEAPROINAH 3237",
    "locID": "LOC000006243189",
    "tech": "SATELLITE",
    "upgrade": "NULL_NA",
    "gnaf_pid": "GAVIC420572905",
    "tech_change_status": "Not Planned"
   }
  },
  {
   "type": "Feature",
   "geometry": {
    "type": "Point",
    "coordinates": [
     143.48709029,
     -38.637782
    ]
   },
   "properties": {
    "name": "4195 COLAC-LAVERS HILL ROAD WEEAPROINAH 3237",
    "locID": "LOC000084742189",
    "tech": "SATELLITE",
    "upgrade": "NULL_NA",
    "gnaf_pid": "GAVIC420686639",
    "tech_change_status": "Not Planned"
   }
  },
  {
   "type": "Feature",
   "geometry": {
    "type": "Point",
    "coordinates": [
     143.48266075,
     -38.63706185
    ]
   },
   "properties": {
    "name": "4230 COLAC-LAVERS HILL ROAD WEEAPROINAH 3237",
    "locID": "LOC000109025139",
    "tech": "SATELLITE",
    "upgrade": "NULL_NA",
    "gnaf_pid": "GAVIC420892076",
    "tech_change_status": "Not Planned"
   }
  },
  {
   "type": "Feature",
   "geometry": {
    "type": "Point",
    "coordinates": [
     143.51170535,
     -38.63378526
    ]
   },
   "properties": {
    "name": "3965 COLAC-LAVERS HILL ROAD WEEAPROINAH 3237",
    "locID": "LOC000020189357",
    "tech": "SATELLITE",
    "upgrade": "NULL_NA",
    "gnaf_pid": "GAVIC421454702",
    "tech_change_status": "Not Planned"
   }
  },
  {
   "type": "Feature",
   "geometry": {
    "type": "Point",
    "coordinates": [
     143.50044656,
     -38.63510264
    ]
   },
   "properties": {
    "name": "4075 COLAC-LAVERS HILL ROAD WEEAPROINAH 3237",
    "locID": "LOC000092202915",
    "tech": "SATELLITE",
    "upgrade": "NULL_NA",
    "gnaf_pid": "GAVIC421466463",
    "tech_change_status": "Not Planned"
   }
  },
  {
   "type": "Feature",
   "geometry": {
    "type": "Point",
    "coordinates": [
     143.51282669,
     -38.63316301
    ]
   },
   "properties": {
    "name": "3950 COLAC-LAVERS HILL ROAD WEEAPROINAH 3237",
    "locID": "LOC000063754070",
    "tech": "SATELLITE",
    "upgrade": "NULL_NA",
    "gnaf_pid": "GAVIC421815317",
    "tech_change_status": "Not Planned"
   }
  },
  {
   "type": "Feature",
   "geometry": {
    "type": "Point",
    "coordinates": [
     143.49307643,
     -38.62448523
    ]
   },
   "properties": {
    "name": "55 MINCHINTON ROAD WEEAPROINAH 3237",
    "locID": "LOC000098342198",
    "tech": "SATELLITE",
    "upgrade": "NULL_NA",
    "gnaf_pid": "GAVIC423915160",
    "tech_change_status": "Not Planned"
   }
  },
  {
   "type": "Feature",
   "geometry": {
    "type": "Point",
    "coordinates": [
     143.48208079,
     -38.6378986
    ]
   },
   "properties": {
    "name": "4275 COLAC-LAVERS HILL ROAD WEEAPROINAH 3237",
    "locID": "LOC000006851955",
    "tech": "SATELLITE",
    "upgrade": "NULL_NA",
    "gnaf_pid": "GAVIC423966041",
    "tech_change_status": "Not Planned"
   }
  },
  {
   "type": "Feature",
   "geometry": {
    "type": "Point",
    "coordinates": [
     143.49231951,
     -38.62679015
    ]
   },
   "properties": {
    "name": "20 MINCHINTON ROAD WEEAPROINAH 3237",
    "locID": "LOC000003497818",
    "tech": "SATELLITE",
    "upgrade": "NULL_NA",
    "gnaf_pid": "GAVIC423972639",
    "tech_change_status": "Not Planned"
   }
  }
 ]
}