{
 "type": "FeatureCollection",
 "generated": "2025-02-14T02:55:03.071349",
 "suburb": "WYUNA EAST",
 "features": [
  {
   "type": "Feature",
   "geometry": {
    "type": "Point",
    "coordinates": [
     145.07855465,
     -36.23995165
    ]
   },
   "properties": {
    "name": "478 WILSON ROAD WYUNA EAST 3620",
    "locID": "LOC000004410721",
    "tech": "WIRELESS",
    "upgrade": "NULL_NA",
    "gnaf_pid": "GAVIC412644137",
    "tech_change_status": "Not Planned",
    "program_type": "Fixed Wireless and Satellite Upgrade Program",
    "target_eligibility_quarter": "NA"
   }
  },
  {
   "type": "Feature",
   "geometry": {
    "type": "Point",
    "coordinates": [
     145.13160268,
     -36.2402513
    ]
   },
   "properties": {
    "name": "3 WILSON ROAD WYUNA EAST 3620",
    "locID": "LOC000177095885",
    "tech": "WIRELESS",
    "upgrade": "NULL_NA",
    "gnaf_pid": "GAVIC419673906",
    "tech_change_status": "Not Planned",
    "program_type": "Fixed Wireless and Satellite Upgrade Program",
    "target_eligibility_quarter": "NA"
   }
  },
  {
   "type": "Feature",
   "geometry": {
    "type": "Point",
    "coordinates": [
     145.0497378,
     -36.23625819
    ]
   },
   "properties": {
    "name": "702 JOHN ALLAN ROAD WYUNA EAST 3620",
    "locID": "LOC000142986039",
    "tech": "WIRELESS",
    "upgrade": "NULL_NA",
    "gnaf_pid": "GAVIC419773346",
    "tech_change_status": "Not Planned",
    "program_type": "Fixed Wireless and Satellite Upgrade Program",
    "target_eligibility_quarter": "NA"
   }
  },
  {
   "type": "Feature",
   "geometry": {
    "type": "Point",
    "coordinates": [
     145.05759634,
     -36.24018097
    ]
   },
   "properties": {
    "name": "667 WILSON ROAD WYUNA EAST 3620",
    "locID": "LOC000037706820",
    "tech": "WIRELESS",
    "upgrade": "NULL_NA",
    "gnaf_pid": "GAVIC419844574",
    "tech_change_status": "Not Planned",
    "program_type": "Fixed Wireless and Satellite Upgrade Program",
    "target_eligibility_quarter": "NA"
   }
  },
  {
   "type": "Feature",
   "geometry": {
    "type": "Point",
    "coordinates": [
     145.11333901,
     -36.23993755
    ]
   },
   "properties": {
    "name": "168 WILSON ROAD WYUNA EAST 3620",
    "locID": "LOC000092810250",
    "tech": "WIRELESS",
    "upgrade": "NULL_NA",
    "gnaf_pid": "GAVIC419974319",
    "tech_change_status": "Not Planned",
    "program_type": "Fixed Wireless and Satellite Upgrade Program",
    "target_eligibility_quarter": "NA"
   }
  },
  {
   "type": "Feature",
   "geometry": {
    "type": "Point",
    "coordinates": [
     145.13179073,
     -36.24964696
    ]
   },
   "properties": {
    "name": "721 WELLER ROAD WYUNA EAST 3620",
    "locID": "LOC000019348076",
    "tech": "WIRELESS",
    "upgrade": "NULL_NA",
    "gnaf_pid": "GAVIC420068244",
    "tech_change_status": "Not Planned",
    "program_type": "Fixed Wireless and Satellite Upgrade Program",
    "target_eligibility_quarter": "NA"
   }
  },
  {
   "type": "Feature",
   "geometry": {
    "type": "Point",
    "coordinates": [
     145.10329959,
     -36.23267565
    ]
   },
   "properties": {
    "name": "374 TREVASKIS ROAD WYUNA EAST 3620",
    "locID": "LOC000057492754",
    "tech": "WIRELESS",
    "upgrade": "NULL_NA",
    "gnaf_pid": "GAVIC420068257",
    "tech_change_status": "Not Planned",
    "program_type": "Fixed Wireless and Satellite Upgrade Program",
    "target_eligibility_quarter": "NA"
   }
  },
  {
   "type": "Feature",
   "geometry": {
    "type": "Point",
    "coordinates": [
     145.10328989,
     -36.23031381
    ]
   },
   "properties": {
    "name": "348 TREVASKIS ROAD WYUNA EAST 3620",
    "locID": "LOC000088974862",
    "tech": "WIRELESS",
    "upgrade": "NULL_NA",
    "gnaf_pid": "GAVIC420068258",
    "tech_change_status": "Not Planned",
    "program_type": "Fixed Wireless and Satellite Upgrade Program",
    "target_eligibility_quarter": "NA"
   }
  },
  {
   "type": "Feature",
   "geometry": {
    "type": "Point",
    "coordinates": [
     145.04976913,
     -36.25022136
    ]
   },
   "properties": {
    "name": "546 JOHN ALLAN ROAD WYUNA EAST 3620",
    "locID": "LOC000091024306",
    "tech": "WIRELESS",
    "upgrade": "NULL_NA",
    "gnaf_pid": "GAVIC420139263",
    "tech_change_status": "Not Planned",
    "program_type": "Fixed Wireless and Satellite Upgrade Program",
    "target_eligibility_quarter": "NA"
   }
  },
  {
   "type": "Feature",
   "geometry": {
    "type": "Point",
    "coordinates": [
     145.06811667,
     -36.23293374
    ]
   },
   "properties": {
    "name": "740 GODDARD ROAD WYUNA EAST 3620",
    "locID": "LOC000080209935",
    "tech": "WIRELESS",
    "upgrade": "NULL_NA",
    "gnaf_pid": "GAVIC420269373",
    "tech_change_status": "Not Planned",
    "program_type": "Fixed Wireless and Satellite Upgrade Program",
    "target_eligibility_quarter": "NA"
   }
  },
  {
   "type": "Feature",
   "geometry": {
    "type": "Point",
    "coordinates": [
     145.0680538,
     -36.22851494
    ]
   },
   "properties": {
    "name": "790 GODDARD ROAD WYUNA EAST 3620",
    "locID": "LOC000051760837",
    "tech": "WIRELESS",
    "upgrade": "NULL_NA",
    "gnaf_pid": "GAVIC420392280",
    "tech_change_status": "Not Planned",
    "program_type": "Fixed Wireless and Satellite Upgrade Program",
    "target_eligibility_quarter": "NA"
   }
  },
  {
   "type": "Feature",
   "geometry": {
    "type": "Point",
    "coordinates": [
     145.08317072,
     -36.25458287
    ]
   },
   "properties": {
    "name": "766 FINLAY ROAD WYUNA EAST 3620",
    "locID": "LOC000037707624",
    "tech": "WIRELESS",
    "upgrade": "NULL_NA",
    "gnaf_pid": "GAVIC420460679",
    "tech_change_status": "Not Planned",
    "program_type": "Fixed Wireless and Satellite Upgrade Program",
    "target_eligibility_quarter": "Jun 2025"
   }
  },
  {
   "type": "Feature",
   "geometry": {
    "type": "Point",
    "coordinates": [
     145.13068803,
     -36.23987644
    ]
   },
   "properties": {
    "name": "10 WILSON ROAD WYUNA EAST 3620",
    "locID": "LOC000105740660",
    "tech": "WIRELESS",
    "upgrade": "NULL_NA",
    "gnaf_pid": "GAVIC420570090",
    "tech_change_status": "Not Planned",
    "program_type": "Fixed Wireless and Satellite Upgrade Program",
    "target_eligibility_quarter": "NA"
   }
  },
  {
   "type": "Feature",
   "geometry": {
    "type": "Point",
    "coordinates": [
     145.05392106,
     -36.2546698
    ]
   },
   "properties": {
    "name": "1026 FINLAY ROAD WYUNA EAST 3620",
    "locID": "LOC000023539903",
    "tech": "WIRELESS",
    "upgrade": "NULL_NA",
    "gnaf_pid": "GAVIC420639970",
    "tech_change_status": "Not Planned",
    "program_type": "Fixed Wireless and Satellite Upgrade Program",
    "target_eligibility_quarter": "NA"
   }
  },
  {
   "type": "Feature",
   "geometry": {
    "type": "Point",
    "coordinates": [
     145.0884576,
     -36.23996612
    ]
   },
   "properties": {
    "name": "390 WILSON ROAD WYUNA EAST 3620",
    "locID": "LOC000059872215",
    "tech": "WIRELESS",
    "upgrade": "NULL_NA",
    "gnaf_pid": "GAVIC420876361",
    "tech_change_status": "Not Planned",
    "program_type": "Fixed Wireless and Satellite Upgrade Program",
    "target_eligibility_quarter": "NA"
   }
  },
  {
   "type": "Feature",
   "geometry": {
    "type": "Point",
    "coordinates": [
     145.05545696,
     -36.25466775
    ]
   },
   "properties": {
    "name": "1014 FINLAY ROAD WYUNA EAST 3620",
    "locID": "LOC000095550998",
    "tech": "WIRELESS",
    "upgrade": "NULL_NA",
    "gnaf_pid": "GAVIC420955832",
    "tech_change_status": "Not Planned",
    "program_type": "Fixed Wireless and Satellite Upgrade Program",
    "target_eligibility_quarter": "Jun 2025"
   }
  },
  {
   "type": "Feature",
   "geometry": {
    "type": "Point",
    "coordinates": [
     145.10333436,
     -36.25337145
    ]
   },
   "properties": {
    "name": "606 TREVASKIS ROAD WYUNA EAST 3620",
    "locID": "LOC000034570043",
    "tech": "WIRELESS",
    "upgrade": "NULL_NA",
    "gnaf_pid": "GAVIC420960619",
    "tech_change_status": "Not Planned",
    "program_type": "Fixed Wireless and Satellite Upgrade Program",
    "target_eligibility_quarter": "Jun 2025"
   }
  },
  {
   "type": "Feature",
   "geometry": {
    "type": "Point",
    "coordinates": [
     145.11267245,
     -36.23995407
    ]
   },
   "properties": {
    "name": "170 WILSON ROAD WYUNA EAST 3620",
    "locID": "LOC000080509744",
    "tech": "WIRELESS",
    "upgrade": "NULL_NA",
    "gnaf_pid": "GAVIC421337371",
    "tech_change_status": "Not Planned",
    "program_type": "Fixed Wireless and Satellite Upgrade Program",
    "target_eligibility_quarter": "NA"
   }
  },
  {
   "type": "Feature",
   "geometry": {
    "type": "Point",
    "coordinates": [
     145.04969433,
     -36.24382924
    ]
   },
   "properties": {
    "name": "620 JOHN ALLAN ROAD WYUNA EAST 3620",
    "locID": "LOC000092149638",
    "tech": "WIRELESS",
    "upgrade": "NULL_NA",
    "gnaf_pid": "GAVIC421355575",
    "tech_change_status": "Not Planned",
    "program_type": "Fixed Wireless and Satellite Upgrade Program",
    "target_eligibility_quarter": "NA"
   }
  },
  {
   "type": "Feature",
   "geometry": {
    "type": "Point",
    "coordinates": [
     145.12078696,
     -36.23992222
    ]
   },
   "properties": {
    "name": "100 WILSON ROAD WYUNA EAST 3620",
    "locID": "LOC000105740660",
    "tech": "WIRELESS",
    "upgrade": "NULL_NA",
    "gnaf_pid": "GAVIC421532120",
    "tech_change_status": "Not Planned",
    "program_type": "Fixed Wireless and Satellite Upgrade Program",
    "target_eligibility_quarter": "NA"
   }
  },
  {
   "type": "Feature",
   "geometry": {
    "type": "Point",
    "coordinates": [
     145.1104782,
     -36.23998253
    ]
   },
   "properties": {
    "name": "194 WILSON ROAD WYUNA EAST 3620",
    "locID": "LOC000045740017",
    "tech": "WIRELESS",
    "upgrade": "NULL_NA",
    "gnaf_pid": "GAVIC421546342",
    "tech_change_status": "Not Planned",
    "program_type": "Fixed Wireless and Satellite Upgrade Program",
    "target_eligibility_quarter": "NA"
   }
  },
  {
   "type": "Feature",
   "geometry": {
    "type": "Point",
    "coordinates": [
     145.10376938,
     -36.23856029
    ]
   },
   "properties": {
    "name": "439 TREVASKIS ROAD WYUNA EAST 3620",
    "locID": "LOC000042362843",
    "tech": "WIRELESS",
    "upgrade": "NULL_NA",
    "gnaf_pid": "GAVIC421554607",
    "tech_change_status": "Not Planned",
    "program_type": "Fixed Wireless and Satellite Upgrade Program",
    "target_eligibility_quarter": "Jun 2025"
   }
  },
  {
   "type": "Feature",
   "geometry": {
    "type": "Point",
    "coordinates": [
     145.06752059,
     -36.23032236
    ]
   },
   "properties": {
    "name": "771 GODDARD ROAD WYUNA EAST 3620",
    "locID": "LOC000114790398",
    "tech": "WIRELESS",
    "upgrade": "NULL_NA",
    "gnaf_pid": "GAVIC421559988",
    "tech_change_status": "Not Planned",
    "program_type": "Fixed Wireless and Satellite Upgrade Program",
    "target_eligibility_quarter": "NA"
   }
  },
  {
   "type": "Feature",
   "geometry": {
    "type": "Point",
    "coordinates": [
     145.10336434,
     -36.2493347
    ]
   },
   "properties": {
    "name": "562 TREVASKIS ROAD WYUNA EAST 3620",
    "locID": "LOC000069098981",
    "tech": "WIRELESS",
    "upgrade": "NULL_NA",
    "gnaf_pid": "GAVIC421563671",
    "tech_change_status": "Not Planned",
    "program_type": "Fixed Wireless and Satellite Upgrade Program",
    "target_eligibility_quarter": "Jun 2025"
   }
  },
  {
   "type": "Feature",
   "geometry": {
    "type": "Point",
    "coordinates": [
     145.10320818,
     -36.24606075
    ]
   },
   "properties": {
    "name": "524 TREVASKIS ROAD WYUNA EAST 3620",
    "locID": "LOC000069893789",
    "tech": "WIRELESS",
    "upgrade": "NULL_NA",
    "gnaf_pid": "GAVIC421579495",
    "tech_change_status": "Not Planned",
    "program_type": "Fixed Wireless and Satellite Upgrade Program",
    "target_eligibility_quarter": "NA"
   }
  },
  {
   "type": "Feature",
   "geometry": {
    "type": "Point",
    "coordinates": [
     145.12247326,
     -36.24026587
    ]
   },
   "properties": {
    "name": "81 WILSON ROAD WYUNA EAST 3620",
    "locID": "LOC000063282120",
    "tech": "WIRELESS",
    "upgrade": "NULL_NA",
    "gnaf_pid": "GAVIC421818640",
    "tech_change_status": "Not Planned",
    "program_type": "Fixed Wireless and Satellite Upgrade Program",
    "target_eligibility_quarter": "NA"
   }
  },
  {
   "type": "Feature",
   "geometry": {
    "type": "Point",
    "coordinates": [
     145.1126529,
     -36.24024221
    ]
   },
   "properties": {
    "name": "169 WILSON ROAD WYUNA EAST 3620",
    "locID": "LOC000098215512",
    "tech": "WIRELESS",
    "upgrade": "NULL_NA",
    "gnaf_pid": "GAVIC421830173",
    "tech_change_status": "Not Planned",
    "program_type": "Fixed Wireless and Satellite Upgrade Program",
    "target_eligibility_quarter": "NA"
   }
  },
  {
   "type": "Feature",
   "geometry": {
    "type": "Point",
    "coordinates": [
     145.10378631,
     -36.23693801
    ]
   },
   "properties": {
    "name": "421 TREVASKIS ROAD WYUNA EAST 3620",
    "locID": "LOC000072683100",
    "tech": "WIRELESS",
    "upgrade": "NULL_NA",
    "gnaf_pid": "GAVIC421842070",
    "tech_change_status": "Not Planned",
    "program_type": "Fixed Wireless and Satellite Upgrade Program",
    "target_eligibility_quarter": "NA"
   }
  },
  {
   "type": "Feature",
   "geometry": {
    "type": "Point",
    "coordinates": [
     145.0569595,
     -36.25466514
    ]
   },
   "properties": {
    "name": "1000 FINLAY ROAD WYUNA EAST 3620",
    "locID": "LOC000053008952",
    "tech": "WIRELESS",
    "upgrade": "NULL_NA",
    "gnaf_pid": "GAVIC421858288",
    "tech_change_status": "Not Planned",
    "program_type": "Fixed Wireless and Satellite Upgrade Program",
    "target_eligibility_quarter": "NA"
   }
  },
  {
   "type": "Feature",
   "geometry": {
    "type": "Point",
    "coordinates": [
     145.04973956,
     -36.23215684
    ]
   },
   "properties": {
    "name": "748 JOHN ALLAN ROAD WYUNA EAST 3620",
    "locID": "LOC000100515803",
    "tech": "WIRELESS",
    "upgrade": "NULL_NA",
    "gnaf_pid": "GAVIC421994567",
    "tech_change_status": "Not Planned",
    "program_type": "Fixed Wireless and Satellite Upgrade Program",
    "target_eligibility_quarter": "NA"
   }
  },
  {
   "type": "Feature",
   "geometry": {
    "type": "Point",
    "coordinates": [
     145.10326962,
     -36.235758
    ]
   },
   "properties": {
    "name": "408 TREVASKIS ROAD WYUNA EAST 3620",
    "locID": "LOC000030114687",
    "tech": "WIRELESS",
    "upgrade": "NULL_NA",
    "gnaf_pid": "GAVIC422026374",
    "tech_change_status": "Not Planned",
    "program_type": "Fixed Wireless and Satellite Upgrade Program",
    "target_eligibility_quarter": "NA"
   }
  },
  {
   "type": "Feature",
   "geometry": {
    "type": "Point",
    "coordinates": [
     145.11664795,
     -36.25460155
    ]
   },
   "properties": {
    "name": "466 FINLAY ROAD WYUNA EAST 3620",
    "locID": "LOC000038585945",
    "tech": "WIRELESS",
    "upgrade": "NULL_NA",
    "gnaf_pid": "GAVIC422146569",
    "tech_change_status": "Not Planned",
    "program_type": "Fixed Wireless and Satellite Upgrade Program",
    "target_eligibility_quarter": "NA"
   }
  },
  {
   "type": "Feature",
   "geometry": {
    "type": "Point",
    "coordinates": [
     145.07224,
     -36.25466908
    ]
   },
   "properties": {
    "name": "864 FINLAY ROAD WYUNA EAST 3620",
    "locID": "LOC000022991326",
    "tech": "WIRELESS",
    "upgrade": "NULL_NA",
    "gnaf_pid": "GAVIC422146570",
    "tech_change_status": "Not Planned",
    "program_type": "Fixed Wireless and Satellite Upgrade Program",
    "target_eligibility_quarter": "NA"
   }
  },
  {
   "type": "Feature",
   "geometry": {
    "type": "Point",
    "coordinates": [
     145.05992049,
     -36.2546411
    ]
   },
   "properties": {
    "name": "974 FINLAY ROAD WYUNA EAST 3620",
    "locID": "LOC000048971882",
    "tech": "WIRELESS",
    "upgrade": "NULL_NA",
    "gnaf_pid": "GAVIC422146571",
    "tech_change_status": "Not Planned",
    "program_type": "Fixed Wireless and Satellite Upgrade Program",
    "target_eligibility_quarter": "NA"
   }
  },
  {
   "type": "Feature",
   "geometry": {
    "type": "Point",
    "coordinates": [
     145.05830605,
     -36.25466898
    ]
   },
   "properties": {
    "name": "988 FINLAY ROAD WYUNA EAST 3620",
    "locID": "LOC000071872942",
    "tech": "WIRELESS",
    "upgrade": "NULL_NA",
    "gnaf_pid": "GAVIC422146572",
    "tech_change_status": "Not Planned",
    "program_type": "Fixed Wireless and Satellite Upgrade Program",
    "target_eligibility_quarter": "NA"
   }
  },
  {
   "type": "Feature",
   "geometry": {
    "type": "Point",
    "coordinates": [
     145.0596218,
     -36.24016878
    ]
   },
   "properties": {
    "name": "647 WILSON ROAD WYUNA EAST 3620",
    "locID": "LOC000048278231",
    "tech": "WIRELESS",
    "upgrade": "NULL_NA",
    "gnaf_pid": "GAVIC422204138",
    "tech_change_status": "Not Planned",
    "program_type": "Fixed Wireless and Satellite Upgrade Program",
    "target_eligibility_quarter": "NA"
   }
  },
  {
   "type": "Feature",
   "geometry": {
    "type": "Point",
    "coordinates": [
     145.05996155,
     -36.25461512
    ]
   },
   "properties": {
    "name": "976 FINLAY ROAD WYUNA EAST 3620",
    "locID": "LOC000072762015",
    "tech": "WIRELESS",
    "upgrade": "NULL_NA",
    "gnaf_pid": "GAVIC423631232",
    "tech_change_status": "Not Planned",
    "program_type": "Fixed Wireless and Satellite Upgrade Program",
    "target_eligibility_quarter": "NA"
   }
  },
  {
   "type": "Feature",
   "geometry": {
    "type": "Point",
    "coordinates": [
     145.08903073,
     -36.24019161
    ]
   },
   "properties": {
    "name": "383 WILSON ROAD WYUNA EAST 3620",
    "locID": "LOC000096952646",
    "tech": "WIRELESS",
    "upgrade": "NULL_NA",
    "gnaf_pid": "GAVIC423715225",
    "tech_change_status": "Not Planned",
    "program_type": "Fixed Wireless and Satellite Upgrade Program",
    "target_eligibility_quarter": "NA"
   }
  },
  {
   "type": "Feature",
   "geometry": {
    "type": "Point",
    "coordinates": [
     145.0832557,
     -36.24022572
    ]
   },
   "properties": {
    "name": "435 WILSON ROAD WYUNA EAST 3620",
    "locID": "LOC000124836562",
    "tech": "WIRELESS",
    "upgrade": "NULL_NA",
    "gnaf_pid": "GAVIC424768977",
    "tech_change_status": "Not Planned",
    "program_type": "Fixed Wireless and Satellite Upgrade Program",
    "target_eligibility_quarter": "NA"
   }
  }
 ]
}