{
 "type": "FeatureCollection",
 "generated": "2025-01-02T12:46:53.162276",
 "suburb": "ALMA PARK",
 "features": [
  {
   "type": "Feature",
   "geometry": {
    "type": "Point",
    "coordinates": [
     146.81079587,
     -35.59697785
    ]
   },
   "properties": {
    "name": "158 ALMA PARK CEMETERY ROAD ALMA PARK 2659",
    "locID": "LOC000028061391",
    "tech": "NULL",
    "upgrade": "NULL_NA",
    "gnaf_pid": "GANSW717689351",
    "tech_change_status": "Not Planned"
   }
  },
  {
   "type": "Feature",
   "geometry": {
    "type": "Point",
    "coordinates": [
     146.79872892,
     -35.5869904
    ]
   },
   "properties": {
    "name": "5 ALMA PARK CEMETERY ROAD ALMA PARK 2659",
    "locID": "LOC000020522994",
    "tech": "NULL",
    "upgrade": "NULL_NA",
    "gnaf_pid": "GANSW717689352",
    "tech_change_status": "Not Planned"
   }
  },
  {
   "type": "Feature",
   "geometry": {
    "type": "Point",
    "coordinates": [
     146.84338914,
     -35.5743238
    ]
   },
   "properties": {
    "name": "1577 KELLYS ROAD ALMA PARK 2659",
    "locID": "LOC000121773420",
    "tech": "WIRELESS",
    "upgrade": "NULL_NA",
    "gnaf_pid": "GANSW717705405",
    "tech_change_status": "Not Planned",
    "program_type": "Fixed Wireless and Satellite Upgrade Program",
    "target_eligibility_quarter": "NA"
   }
  },
  {
   "type": "Feature",
   "geometry": {
    "type": "Point",
    "coordinates": [
     146.77049216,
     -35.59906584
    ]
   },
   "properties": {
    "name": "124 LIESCHKES ROAD ALMA PARK 2659",
    "locID": "LOC000142501932",
    "tech": "SATELLITE",
    "upgrade": "NULL_NA",
    "gnaf_pid": "GANSW717706966",
    "tech_change_status": "Not Planned"
   }
  },
  {
   "type": "Feature",
   "geometry": {
    "type": "Point",
    "coordinates": [
     146.75901152,
     -35.6152078
    ]
   },
   "properties": {
    "name": "254 MULLEMBLAH ROAD ALMA PARK 2659",
    "locID": "LOC000115542459",
    "tech": "SATELLITE",
    "upgrade": "NULL_NA",
    "gnaf_pid": "GANSW717778858",
    "tech_change_status": "Not Planned"
   }
  },
  {
   "type": "Feature",
   "geometry": {
    "type": "Point",
    "coordinates": [
     146.75353894,
     -35.58917877
    ]
   },
   "properties": {
    "name": "510 MUNYAPLAH SETTLEMENT ROAD ALMA PARK 2659",
    "locID": "LOC000115543620",
    "tech": "NULL",
    "upgrade": "NULL_NA",
    "gnaf_pid": "GANSW717852878",
    "tech_change_status": "Not Planned"
   }
  },
  {
   "type": "Feature",
   "geometry": {
    "type": "Point",
    "coordinates": [
     146.78479849,
     -35.5821399
    ]
   },
   "properties": {
    "name": "777 MUNYAPLAH SETTLEMENT ROAD ALMA PARK 2659",
    "locID": "LOC000115547621",
    "tech": "SATELLITE",
    "upgrade": "NULL_NA",
    "gnaf_pid": "GANSW717852879",
    "tech_change_status": "Not Planned"
   }
  },
  {
   "type": "Feature",
   "geometry": {
    "type": "Point",
    "coordinates": [
     146.8482233,
     -35.5895166
    ]
   },
   "properties": {
    "name": "8 SCHLENKERS ROAD ALMA PARK 2659",
    "locID": "LOC000084061113",
    "tech": "SATELLITE",
    "upgrade": "NULL_NA",
    "gnaf_pid": "GANSW717899070",
    "tech_change_status": "Not Planned"
   }
  },
  {
   "type": "Feature",
   "geometry": {
    "type": "Point",
    "coordinates": [
     146.86452472,
     -35.63765668
    ]
   },
   "properties": {
    "name": "155 SHERWYN ROAD ALMA PARK 2659",
    "locID": "LOC000046337451",
    "tech": "NULL",
    "upgrade": "NULL_NA",
    "gnaf_pid": "GANSW717899521",
    "tech_change_status": "Not Planned"
   }
  },
  {
   "type": "Feature",
   "geometry": {
    "type": "Point",
    "coordinates": [
     146.79210639,
     -35.59976239
    ]
   },
   "properties": {
    "name": "1422 ALMA PARK ROAD ALMA PARK 2659",
    "locID": "LOC000115109165",
    "tech": "NULL",
    "upgrade": "NULL_NA",
    "gnaf_pid": "GANSW717941612",
    "tech_change_status": "Not Planned"
   }
  },
  {
   "type": "Feature",
   "geometry": {
    "type": "Point",
    "coordinates": [
     146.79180711,
     -35.6045687
    ]
   },
   "properties": {
    "name": "1438 ALMA PARK ROAD ALMA PARK 2659",
    "locID": "LOC100078130798",
    "tech": "NULL",
    "upgrade": "NULL_NA",
    "gnaf_pid": "GANSW717941613",
    "tech_change_status": "Not Planned"
   }
  },
  {
   "type": "Feature",
   "geometry": {
    "type": "Point",
    "coordinates": [
     146.78185274,
     -35.60234197
    ]
   },
   "properties": {
    "name": "1445 ALMA PARK ROAD ALMA PARK 2659",
    "locID": "LOC000114883295",
    "tech": "NULL",
    "upgrade": "NULL_NA",
    "gnaf_pid": "GANSW717941614",
    "tech_change_status": "Not Planned"
   }
  },
  {
   "type": "Feature",
   "geometry": {
    "type": "Point",
    "coordinates": [
     146.79910411,
     -35.57222655
    ]
   },
   "properties": {
    "name": "1802 ALMA PARK ROAD ALMA PARK 2659",
    "locID": "LOC000012381105",
    "tech": "NULL",
    "upgrade": "NULL_NA",
    "gnaf_pid": "GANSW717941615",
    "tech_change_status": "Not Planned"
   }
  },
  {
   "type": "Feature",
   "geometry": {
    "type": "Point",
    "coordinates": [
     146.81035519,
     -35.63135406
    ]
   },
   "properties": {
    "name": "991 ALMA PARK ROAD ALMA PARK 2659",
    "locID": "LOC000114860982",
    "tech": "WIRELESS",
    "upgrade": "NULL_NA",
    "gnaf_pid": "GANSW717941616",
    "tech_change_status": "Not Planned",
    "program_type": "Fixed Wireless and Satellite Upgrade Program",
    "target_eligibility_quarter": "NA"
   }
  },
  {
   "type": "Feature",
   "geometry": {
    "type": "Point",
    "coordinates": [
     146.81019582,
     -35.61229504
    ]
   },
   "properties": {
    "name": "131 HOPEVIEW ROAD ALMA PARK 2659",
    "locID": "LOC000115553771",
    "tech": "WIRELESS",
    "upgrade": "NULL_NA",
    "gnaf_pid": "GANSW718227478",
    "tech_change_status": "Not Planned",
    "program_type": "Fixed Wireless and Satellite Upgrade Program",
    "target_eligibility_quarter": "NA"
   }
  },
  {
   "type": "Feature",
   "geometry": {
    "type": "Point",
    "coordinates": [
     146.75425011,
     -35.57124503
    ]
   },
   "properties": {
    "name": "470 MUNYAPLAH BOUNDARY ROAD ALMA PARK 2659",
    "locID": "LOC000142501921",
    "tech": "SATELLITE",
    "upgrade": "NULL_NA",
    "gnaf_pid": "GANSW718228916",
    "tech_change_status": "Not Planned"
   }
  },
  {
   "type": "Feature",
   "geometry": {
    "type": "Point",
    "coordinates": [
     146.77975018,
     -35.56216508
    ]
   },
   "properties": {
    "name": "673 MUNYAPLAH BOUNDARY ROAD ALMA PARK 2659",
    "locID": "LOC000148385752",
    "tech": "SATELLITE",
    "upgrade": "NULL_NA",
    "gnaf_pid": "GANSW718577554",
    "tech_change_status": "Not Planned"
   }
  },
  {
   "type": "Feature",
   "geometry": {
    "type": "Point",
    "coordinates": [
     146.75342436,
     -35.56539359
    ]
   },
   "properties": {
    "name": "467 MUNYAPLAH BOUNDARY ROAD ALMA PARK 2659",
    "locID": "LOC000148089981",
    "tech": "NULL",
    "upgrade": "NULL_NA",
    "gnaf_pid": "GANSW718603904",
    "tech_change_status": "Not Planned"
   }
  },
  {
   "type": "Feature",
   "geometry": {
    "type": "Point",
    "coordinates": [
     146.78877364,
     -35.56690925
    ]
   },
   "properties": {
    "name": "783 MUNYAPLAH BOUNDARY ROAD ALMA PARK 2659",
    "locID": "LOC000148101593",
    "tech": "SATELLITE",
    "upgrade": "NULL_NA",
    "gnaf_pid": "GANSW718603905",
    "tech_change_status": "Not Planned"
   }
  }
 ]
}