{
 "type": "FeatureCollection",
 "generated": "2026-06-09T14:34:08.951131",
 "suburb": "AMAROO",
 "features": [
  {
   "type": "Feature",
   "geometry": {
    "type": "Point",
    "coordinates": [
     148.91769336,
     -33.14489739
    ]
   },
   "properties": {
    "name": "269 AMAROO ROAD AMAROO 2866",
    "locID": "LOC000086821227",
    "tech": "WIRELESS",
    "upgrade": "NULL_NA",
    "gnaf_pid": "GANSW716625810",
    "tech_change_status": "Previous Tech Disconnected",
    "program_type": "Fixed Wireless and Satellite Upgrade Program",
    "target_eligibility_quarter": "NA"
   }
  },
  {
   "type": "Feature",
   "geometry": {
    "type": "Point",
    "coordinates": [
     148.91473838,
     -33.14948482
    ]
   },
   "properties": {
    "name": "304 AMAROO ROAD AMAROO 2866",
    "locID": "LOC000073364757",
    "tech": "WIRELESS",
    "upgrade": "NULL_NA",
    "gnaf_pid": "GANSW716625811",
    "tech_change_status": "Not Planned",
    "program_type": "Fixed Wireless and Satellite Upgrade Program",
    "target_eligibility_quarter": "NA"
   }
  },
  {
   "type": "Feature",
   "geometry": {
    "type": "Point",
    "coordinates": [
     148.9159976,
     -33.15275249
    ]
   },
   "properties": {
    "name": "356 AMAROO ROAD AMAROO 2866",
    "locID": "LOC000055980650",
    "tech": "SATELLITE",
    "upgrade": "WIRELESS",
    "gnaf_pid": "GANSW716625812",
    "tech_change_status": "Eligible to Order",
    "program_type": "Fixed Wireless and Satellite Upgrade Program",
    "target_eligibility_quarter": "NA"
   }
  },
  {
   "type": "Feature",
   "geometry": {
    "type": "Point",
    "coordinates": [
     148.92305935,
     -33.17607292
    ]
   },
   "properties": {
    "name": "620 AMAROO ROAD AMAROO 2866",
    "locID": "LOC000078493654",
    "tech": "WIRELESS",
    "upgrade": "NULL_NA",
    "gnaf_pid": "GANSW716625814",
    "tech_change_status": "Not Planned",
    "program_type": "Fixed Wireless and Satellite Upgrade Program",
    "target_eligibility_quarter": "NA"
   }
  },
  {
   "type": "Feature",
   "geometry": {
    "type": "Point",
    "coordinates": [
     148.9259247,
     -33.18193829
    ]
   },
   "properties": {
    "name": "678 AMAROO ROAD AMAROO 2866",
    "locID": "LOC000005454853",
    "tech": "WIRELESS",
    "upgrade": "NULL_NA",
    "gnaf_pid": "GANSW716625815",
    "tech_change_status": "Not Planned",
    "program_type": "Fixed Wireless and Satellite Upgrade Program",
    "target_eligibility_quarter": "NA"
   }
  },
  {
   "type": "Feature",
   "geometry": {
    "type": "Point",
    "coordinates": [
     148.90514973,
     -33.16742605
    ]
   },
   "properties": {
    "name": "104 WHITEHEADS ROAD AMAROO 2866",
    "locID": "LOC000071073103",
    "tech": "WIRELESS",
    "upgrade": "NULL_NA",
    "gnaf_pid": "GANSW716643110",
    "tech_change_status": "Eligible to Order",
    "program_type": "Fixed Wireless and Satellite Upgrade Program",
    "target_eligibility_quarter": "NA"
   }
  },
  {
   "type": "Feature",
   "geometry": {
    "type": "Point",
    "coordinates": [
     148.91163193,
     -33.14536246
    ]
   },
   "properties": {
    "name": "270 AMAROO ROAD AMAROO 2866",
    "locID": "LOC000027104562",
    "tech": "WIRELESS",
    "upgrade": "NULL_NA",
    "gnaf_pid": "GANSW716644726",
    "tech_change_status": "Not Planned",
    "program_type": "Fixed Wireless and Satellite Upgrade Program",
    "target_eligibility_quarter": "NA"
   }
  },
  {
   "type": "Feature",
   "geometry": {
    "type": "Point",
    "coordinates": [
     148.92079812,
     -33.1572862
    ]
   },
   "properties": {
    "name": "401 AMAROO ROAD AMAROO 2866",
    "locID": "LOC000008292094",
    "tech": "WIRELESS",
    "upgrade": "NULL_NA",
    "gnaf_pid": "GANSW716644727",
    "tech_change_status": "Not Planned",
    "program_type": "Fixed Wireless and Satellite Upgrade Program",
    "target_eligibility_quarter": "NA"
   }
  },
  {
   "type": "Feature",
   "geometry": {
    "type": "Point",
    "coordinates": [
     148.92039395,
     -33.16382012
    ]
   },
   "properties": {
    "name": "485 AMAROO ROAD AMAROO 2866",
    "locID": "LOC000038960635",
    "tech": "WIRELESS",
    "upgrade": "NULL_NA",
    "gnaf_pid": "GANSW716644728",
    "tech_change_status": "Not Planned",
    "program_type": "Fixed Wireless and Satellite Upgrade Program",
    "target_eligibility_quarter": "NA"
   }
  },
  {
   "type": "Feature",
   "geometry": {
    "type": "Point",
    "coordinates": [
     148.95314975,
     -33.14990299
    ]
   },
   "properties": {
    "name": "353 JENNINGS LANE AMAROO 2866",
    "locID": "LOC000037199010",
    "tech": "WIRELESS",
    "upgrade": "NULL_NA",
    "gnaf_pid": "GANSW716667539",
    "tech_change_status": "Eligible to Order",
    "program_type": "Fixed Wireless and Satellite Upgrade Program",
    "target_eligibility_quarter": "NA"
   }
  },
  {
   "type": "Feature",
   "geometry": {
    "type": "Point",
    "coordinates": [
     148.9181426,
     -33.16003905
    ]
   },
   "properties": {
    "name": "496 AMAROO ROAD AMAROO 2866",
    "locID": "LOC100090276950",
    "tech": "SATELLITE",
    "upgrade": "NULL_NA",
    "gnaf_pid": "GANSW716912829",
    "tech_change_status": "Not Planned"
   }
  },
  {
   "type": "Feature",
   "geometry": {
    "type": "Point",
    "coordinates": [
     148.92670754,
     -33.18266997
    ]
   },
   "properties": {
    "name": "722 AMAROO ROAD AMAROO 2866",
    "locID": "LOC000097985286",
    "tech": "WIRELESS",
    "upgrade": "NULL_NA",
    "gnaf_pid": "GANSW717352450",
    "tech_change_status": "Not Planned",
    "program_type": "Fixed Wireless and Satellite Upgrade Program",
    "target_eligibility_quarter": "NA"
   }
  },
  {
   "type": "Feature",
   "geometry": {
    "type": "Point",
    "coordinates": [
     148.89458288,
     -33.16728421
    ]
   },
   "properties": {
    "name": "831 RUTHERFORD ROAD AMAROO 2866",
    "locID": "LOC000019592106",
    "tech": "WIRELESS",
    "upgrade": "NULL_NA",
    "gnaf_pid": "GANSW717545755",
    "tech_change_status": "Not Planned",
    "program_type": "Fixed Wireless and Satellite Upgrade Program",
    "target_eligibility_quarter": "NA"
   }
  }
 ]
}