{
 "type": "FeatureCollection",
 "generated": "2025-03-17T05:08:27.905444",
 "suburb": "BARCOONGERE",
 "features": [
  {
   "type": "Feature",
   "geometry": {
    "type": "Point",
    "coordinates": [
     153.17592938,
     -29.94886514
    ]
   },
   "properties": {
    "name": "95 BARCOONGERE WAY BARCOONGERE 2460",
    "locID": "LOC000094238463",
    "tech": "WIRELESS",
    "upgrade": "NULL_NA",
    "gnaf_pid": "GANSW720459723",
    "tech_change_status": "Not Planned",
    "program_type": "Fixed Wireless and Satellite Upgrade Program",
    "target_eligibility_quarter": "NA"
   }
  }
 ]
}