{
 "type": "FeatureCollection",
 "generated": "2024-12-10T15:23:23.194882",
 "suburb": "BARRENGARRY",
 "features": [
  {
   "type": "Feature",
   "geometry": {
    "type": "Point",
    "coordinates": [
     150.52204886,
     -34.67868918
    ]
   },
   "properties": {
    "name": "25 KELVIN ROAD BARRENGARRY 2577",
    "locID": "LOC000029602392",
    "tech": "WIRELESS",
    "upgrade": "NULL_NA",
    "gnaf_pid": "GANSW704020561",
    "tech_change_status": "Not Planned",
    "program_type": "Fixed Wireless and Satellite Upgrade Program",
    "target_eligibility_quarter": "NA"
   }
  },
  {
   "type": "Feature",
   "geometry": {
    "type": "Point",
    "coordinates": [
     150.52117066,
     -34.67676123
    ]
   },
   "properties": {
    "name": "69 KELVIN ROAD BARRENGARRY 2577",
    "locID": "LOC000098996041",
    "tech": "WIRELESS",
    "upgrade": "NULL_NA",
    "gnaf_pid": "GANSW704022008",
    "tech_change_status": "Not Planned",
    "program_type": "Fixed Wireless and Satellite Upgrade Program",
    "target_eligibility_quarter": "NA"
   }
  },
  {
   "type": "Feature",
   "geometry": {
    "type": "Point",
    "coordinates": [
     150.51778507,
     -34.67573956
    ]
   },
   "properties": {
    "name": "77 KELVIN ROAD BARRENGARRY 2577",
    "locID": "LOC000008204680",
    "tech": "WIRELESS",
    "upgrade": "NULL_NA",
    "gnaf_pid": "GANSW704022009",
    "tech_change_status": "Not Planned",
    "program_type": "Fixed Wireless and Satellite Upgrade Program",
    "target_eligibility_quarter": "NA"
   }
  },
  {
   "type": "Feature",
   "geometry": {
    "type": "Point",
    "coordinates": [
     150.52315654,
     -34.71868743
    ]
   },
   "properties": {
    "name": "2151 MOSS VALE ROAD BARRENGARRY 2577",
    "locID": "LOC000072623501",
    "tech": "WIRELESS",
    "upgrade": "NULL_NA",
    "gnaf_pid": "GANSW704022010",
    "tech_change_status": "Not Planned",
    "program_type": "Fixed Wireless and Satellite Upgrade Program",
    "target_eligibility_quarter": "NA"
   }
  },
  {
   "type": "Feature",
   "geometry": {
    "type": "Point",
    "coordinates": [
     150.52463939,
     -34.71834693
    ]
   },
   "properties": {
    "name": "2153 MOSS VALE ROAD BARRENGARRY 2577",
    "locID": "LOC000018098045",
    "tech": "WIRELESS",
    "upgrade": "NULL_NA",
    "gnaf_pid": "GANSW704022011",
    "tech_change_status": "Not Planned",
    "program_type": "Fixed Wireless and Satellite Upgrade Program",
    "target_eligibility_quarter": "NA"
   }
  },
  {
   "type": "Feature",
   "geometry": {
    "type": "Point",
    "coordinates": [
     150.52480917,
     -34.71823313
    ]
   },
   "properties": {
    "name": "2155 MOSS VALE ROAD BARRENGARRY 2577",
    "locID": "LOC000072131078",
    "tech": "WIRELESS",
    "upgrade": "NULL_NA",
    "gnaf_pid": "GANSW704022012",
    "tech_change_status": "Not Planned",
    "program_type": "Fixed Wireless and Satellite Upgrade Program",
    "target_eligibility_quarter": "NA"
   }
  },
  {
   "type": "Feature",
   "geometry": {
    "type": "Point",
    "coordinates": [
     150.52491659,
     -34.71811429
    ]
   },
   "properties": {
    "name": "2157 MOSS VALE ROAD BARRENGARRY 2577",
    "locID": "LOC000051492695",
    "tech": "WIRELESS",
    "upgrade": "NULL_NA",
    "gnaf_pid": "GANSW704022013",
    "tech_change_status": "Not Planned",
    "program_type": "Fixed Wireless and Satellite Upgrade Program",
    "target_eligibility_quarter": "NA"
   }
  },
  {
   "type": "Feature",
   "geometry": {
    "type": "Point",
    "coordinates": [
     150.525024,
     -34.71799544
    ]
   },
   "properties": {
    "name": "2159 MOSS VALE ROAD BARRENGARRY 2577",
    "locID": "LOC000088272157",
    "tech": "WIRELESS",
    "upgrade": "NULL_NA",
    "gnaf_pid": "GANSW704022014",
    "tech_change_status": "Not Planned",
    "program_type": "Fixed Wireless and Satellite Upgrade Program",
    "target_eligibility_quarter": "NA"
   }
  },
  {
   "type": "Feature",
   "geometry": {
    "type": "Point",
    "coordinates": [
     150.52513141,
     -34.71787659
    ]
   },
   "properties": {
    "name": "2161 MOSS VALE ROAD BARRENGARRY 2577",
    "locID": "LOC000068535193",
    "tech": "WIRELESS",
    "upgrade": "NULL_NA",
    "gnaf_pid": "GANSW704022015",
    "tech_change_status": "Not Planned",
    "program_type": "Fixed Wireless and Satellite Upgrade Program",
    "target_eligibility_quarter": "NA"
   }
  },
  {
   "type": "Feature",
   "geometry": {
    "type": "Point",
    "coordinates": [
     150.52523882,
     -34.71775776
    ]
   },
   "properties": {
    "name": "2163 MOSS VALE ROAD BARRENGARRY 2577",
    "locID": "LOC000068460999",
    "tech": "WIRELESS",
    "upgrade": "NULL_NA",
    "gnaf_pid": "GANSW704022016",
    "tech_change_status": "Not Planned",
    "program_type": "Fixed Wireless and Satellite Upgrade Program",
    "target_eligibility_quarter": "NA"
   }
  },
  {
   "type": "Feature",
   "geometry": {
    "type": "Point",
    "coordinates": [
     150.52533728,
     -34.71764882
    ]
   },
   "properties": {
    "name": "2165 MOSS VALE ROAD BARRENGARRY 2577",
    "locID": "LOC000009020616",
    "tech": "WIRELESS",
    "upgrade": "NULL_NA",
    "gnaf_pid": "GANSW704022017",
    "tech_change_status": "Not Planned",
    "program_type": "Fixed Wireless and Satellite Upgrade Program",
    "target_eligibility_quarter": "NA"
   }
  },
  {
   "type": "Feature",
   "geometry": {
    "type": "Point",
    "coordinates": [
     150.52548991,
     -34.71755031
    ]
   },
   "properties": {
    "name": "2167 MOSS VALE ROAD BARRENGARRY 2577",
    "locID": "LOC000018868296",
    "tech": "WIRELESS",
    "upgrade": "NULL_NA",
    "gnaf_pid": "GANSW704027286",
    "tech_change_status": "Not Planned",
    "program_type": "Fixed Wireless and Satellite Upgrade Program",
    "target_eligibility_quarter": "NA"
   }
  },
  {
   "type": "Feature",
   "geometry": {
    "type": "Point",
    "coordinates": [
     150.5293814,
     -34.71817439
    ]
   },
   "properties": {
    "name": "2168 MOSS VALE ROAD BARRENGARRY 2577",
    "locID": "LOC000061219472",
    "tech": "WIRELESS",
    "upgrade": "NULL_NA",
    "gnaf_pid": "GANSW704027287",
    "tech_change_status": "Not Planned",
    "program_type": "Fixed Wireless and Satellite Upgrade Program",
    "target_eligibility_quarter": "NA"
   }
  },
  {
   "type": "Feature",
   "geometry": {
    "type": "Point",
    "coordinates": [
     150.5289462,
     -34.7155436
    ]
   },
   "properties": {
    "name": "2210 MOSS VALE ROAD BARRENGARRY 2577",
    "locID": "LOC000101408097",
    "tech": "WIRELESS",
    "upgrade": "NULL_NA",
    "gnaf_pid": "GANSW704027288",
    "tech_change_status": "Not Planned",
    "program_type": "Fixed Wireless and Satellite Upgrade Program",
    "target_eligibility_quarter": "NA"
   }
  },
  {
   "type": "Feature",
   "geometry": {
    "type": "Point",
    "coordinates": [
     150.52700399,
     -34.71448655
    ]
   },
   "properties": {
    "name": "2213 MOSS VALE ROAD BARRENGARRY 2577",
    "locID": "LOC000022378472",
    "tech": "WIRELESS",
    "upgrade": "NULL_NA",
    "gnaf_pid": "GANSW704027289",
    "tech_change_status": "Not Planned",
    "program_type": "Fixed Wireless and Satellite Upgrade Program",
    "target_eligibility_quarter": "NA"
   }
  },
  {
   "type": "Feature",
   "geometry": {
    "type": "Point",
    "coordinates": [
     150.52978565,
     -34.71323318
    ]
   },
   "properties": {
    "name": "2240 MOSS VALE ROAD BARRENGARRY 2577",
    "locID": "LOC000031224433",
    "tech": "WIRELESS",
    "upgrade": "NULL_NA",
    "gnaf_pid": "GANSW704027290",
    "tech_change_status": "Not Planned",
    "program_type": "Fixed Wireless and Satellite Upgrade Program",
    "target_eligibility_quarter": "NA"
   }
  },
  {
   "type": "Feature",
   "geometry": {
    "type": "Point",
    "coordinates": [
     150.53198271,
     -34.71257017
    ]
   },
   "properties": {
    "name": "2250 MOSS VALE ROAD BARRENGARRY 2577",
    "locID": "LOC000061253206",
    "tech": "WIRELESS",
    "upgrade": "NULL_NA",
    "gnaf_pid": "GANSW704027291",
    "tech_change_status": "Not Planned",
    "program_type": "Fixed Wireless and Satellite Upgrade Program",
    "target_eligibility_quarter": "NA"
   }
  },
  {
   "type": "Feature",
   "geometry": {
    "type": "Point",
    "coordinates": [
     150.52700729,
     -34.71127471
    ]
   },
   "properties": {
    "name": "2255 MOSS VALE ROAD BARRENGARRY 2577",
    "locID": "LOC000057352625",
    "tech": "WIRELESS",
    "upgrade": "NULL_NA",
    "gnaf_pid": "GANSW704027292",
    "tech_change_status": "Not Planned",
    "program_type": "Fixed Wireless and Satellite Upgrade Program",
    "target_eligibility_quarter": "NA"
   }
  },
  {
   "type": "Feature",
   "geometry": {
    "type": "Point",
    "coordinates": [
     150.53680752,
     -34.71196933
    ]
   },
   "properties": {
    "name": "2286A MOSS VALE ROAD BARRENGARRY 2577",
    "locID": "LOC000088713660",
    "tech": "WIRELESS",
    "upgrade": "NULL_NA",
    "gnaf_pid": "GANSW704027293",
    "tech_change_status": "Not Planned",
    "program_type": "Fixed Wireless and Satellite Upgrade Program",
    "target_eligibility_quarter": "NA"
   }
  },
  {
   "type": "Feature",
   "geometry": {
    "type": "Point",
    "coordinates": [
     150.53632826,
     -34.7127865
    ]
   },
   "properties": {
    "name": "2286B MOSS VALE ROAD BARRENGARRY 2577",
    "locID": "LOC000088226351",
    "tech": "WIRELESS",
    "upgrade": "NULL_NA",
    "gnaf_pid": "GANSW704027294",
    "tech_change_status": "Not Planned",
    "program_type": "Fixed Wireless and Satellite Upgrade Program",
    "target_eligibility_quarter": "NA"
   }
  },
  {
   "type": "Feature",
   "geometry": {
    "type": "Point",
    "coordinates": [
     150.53562633,
     -34.71154094
    ]
   },
   "properties": {
    "name": "2286C MOSS VALE ROAD BARRENGARRY 2577",
    "locID": "LOC000088262004",
    "tech": "WIRELESS",
    "upgrade": "NULL_NA",
    "gnaf_pid": "GANSW704027295",
    "tech_change_status": "Not Planned",
    "program_type": "Fixed Wireless and Satellite Upgrade Program",
    "target_eligibility_quarter": "NA"
   }
  },
  {
   "type": "Feature",
   "geometry": {
    "type": "Point",
    "coordinates": [
     150.53280611,
     -34.70830666
    ]
   },
   "properties": {
    "name": "2286 MOSS VALE ROAD BARRENGARRY 2577",
    "locID": "LOC000088306766",
    "tech": "WIRELESS",
    "upgrade": "NULL_NA",
    "gnaf_pid": "GANSW704027296",
    "tech_change_status": "Not Planned",
    "program_type": "Fixed Wireless and Satellite Upgrade Program",
    "target_eligibility_quarter": "NA"
   }
  },
  {
   "type": "Feature",
   "geometry": {
    "type": "Point",
    "coordinates": [
     150.52549371,
     -34.70374465
    ]
   },
   "properties": {
    "name": "2351 MOSS VALE ROAD BARRENGARRY 2577",
    "locID": "LOC000080531000",
    "tech": "WIRELESS",
    "upgrade": "NULL_NA",
    "gnaf_pid": "GANSW704027297",
    "tech_change_status": "Not Planned",
    "program_type": "Fixed Wireless and Satellite Upgrade Program",
    "target_eligibility_quarter": "NA"
   }
  },
  {
   "type": "Feature",
   "geometry": {
    "type": "Point",
    "coordinates": [
     150.53444228,
     -34.70279548
    ]
   },
   "properties": {
    "name": "2370 MOSS VALE ROAD BARRENGARRY 2577",
    "locID": "LOC000106298528",
    "tech": "WIRELESS",
    "upgrade": "NULL_NA",
    "gnaf_pid": "GANSW704027298",
    "tech_change_status": "Not Planned",
    "program_type": "Fixed Wireless and Satellite Upgrade Program",
    "target_eligibility_quarter": "NA"
   }
  },
  {
   "type": "Feature",
   "geometry": {
    "type": "Point",
    "coordinates": [
     150.52637052,
     -34.69204258
    ]
   },
   "properties": {
    "name": "2501 MOSS VALE ROAD BARRENGARRY 2577",
    "locID": "LOC000023311046",
    "tech": "WIRELESS",
    "upgrade": "NULL_NA",
    "gnaf_pid": "GANSW704027299",
    "tech_change_status": "Not Planned",
    "program_type": "Fixed Wireless and Satellite Upgrade Program",
    "target_eligibility_quarter": "NA"
   }
  },
  {
   "type": "Feature",
   "geometry": {
    "type": "Point",
    "coordinates": [
     150.52813336,
     -34.69003624
    ]
   },
   "properties": {
    "name": "2526 MOSS VALE ROAD BARRENGARRY 2577",
    "locID": "LOC000063944839",
    "tech": "WIRELESS",
    "upgrade": "NULL_NA",
    "gnaf_pid": "GANSW704027300",
    "tech_change_status": "Not Planned",
    "program_type": "Fixed Wireless and Satellite Upgrade Program",
    "target_eligibility_quarter": "NA"
   }
  },
  {
   "type": "Feature",
   "geometry": {
    "type": "Point",
    "coordinates": [
     150.52529509,
     -34.68669724
    ]
   },
   "properties": {
    "name": "2565 MOSS VALE ROAD BARRENGARRY 2577",
    "locID": "LOC000002285979",
    "tech": "WIRELESS",
    "upgrade": "NULL_NA",
    "gnaf_pid": "GANSW704027301",
    "tech_change_status": "Not Planned",
    "program_type": "Fixed Wireless and Satellite Upgrade Program",
    "target_eligibility_quarter": "NA"
   }
  },
  {
   "type": "Feature",
   "geometry": {
    "type": "Point",
    "coordinates": [
     150.52491233,
     -34.68587065
    ]
   },
   "properties": {
    "name": "2585 MOSS VALE ROAD BARRENGARRY 2577",
    "locID": "LOC000075266422",
    "tech": "WIRELESS",
    "upgrade": "NULL_NA",
    "gnaf_pid": "GANSW704027302",
    "tech_change_status": "Not Planned",
    "program_type": "Fixed Wireless and Satellite Upgrade Program",
    "target_eligibility_quarter": "NA"
   }
  },
  {
   "type": "Feature",
   "geometry": {
    "type": "Point",
    "coordinates": [
     150.5082505,
     -34.68623703
    ]
   },
   "properties": {
    "name": "2819 MOSS VALE ROAD BARRENGARRY 2577",
    "locID": "LOC000044077454",
    "tech": "WIRELESS",
    "upgrade": "NULL_NA",
    "gnaf_pid": "GANSW704027303",
    "tech_change_status": "Not Planned",
    "program_type": "Fixed Wireless and Satellite Upgrade Program",
    "target_eligibility_quarter": "NA"
   }
  },
  {
   "type": "Feature",
   "geometry": {
    "type": "Point",
    "coordinates": [
     150.51103576,
     -34.68249199
    ]
   },
   "properties": {
    "name": "2840 MOSS VALE ROAD BARRENGARRY 2577",
    "locID": "LOC000020591666",
    "tech": "WIRELESS",
    "upgrade": "NULL_NA",
    "gnaf_pid": "GANSW704027304",
    "tech_change_status": "Not Planned",
    "program_type": "Fixed Wireless and Satellite Upgrade Program",
    "target_eligibility_quarter": "NA"
   }
  },
  {
   "type": "Feature",
   "geometry": {
    "type": "Point",
    "coordinates": [
     150.51036017,
     -34.6786579
    ]
   },
   "properties": {
    "name": "2866 MOSS VALE ROAD BARRENGARRY 2577",
    "locID": "LOC000079131566",
    "tech": "WIRELESS",
    "upgrade": "NULL_NA",
    "gnaf_pid": "GANSW704027305",
    "tech_change_status": "Not Planned",
    "program_type": "Fixed Wireless and Satellite Upgrade Program",
    "target_eligibility_quarter": "NA"
   }
  },
  {
   "type": "Feature",
   "geometry": {
    "type": "Point",
    "coordinates": [
     150.50261016,
     -34.69501118
    ]
   },
   "properties": {
    "name": "2999 MOSS VALE ROAD BARRENGARRY 2577",
    "locID": "LOC000142300417",
    "tech": "SATELLITE",
    "upgrade": "WIRELESS",
    "gnaf_pid": "GANSW704027306",
    "tech_change_status": "Eligible to Order",
    "program_type": "Fixed Wireless and Satellite Upgrade Program",
    "target_eligibility_quarter": "NA"
   }
  },
  {
   "type": "Feature",
   "geometry": {
    "type": "Point",
    "coordinates": [
     150.5494544,
     -34.72377811
    ]
   },
   "properties": {
    "name": "262 UPPER KANGAROO RIVER ROAD BARRENGARRY 2577",
    "locID": "LOC000001498184",
    "tech": "WIRELESS",
    "upgrade": "NULL_NA",
    "gnaf_pid": "GANSW704027744",
    "tech_change_status": "Not Planned",
    "program_type": "Fixed Wireless and Satellite Upgrade Program",
    "target_eligibility_quarter": "NA"
   }
  },
  {
   "type": "Feature",
   "geometry": {
    "type": "Point",
    "coordinates": [
     150.52937188,
     -34.72082035
    ]
   },
   "properties": {
    "name": "49 UPPER KANGAROO RIVER ROAD BARRENGARRY 2577",
    "locID": "LOC000083128256",
    "tech": "WIRELESS",
    "upgrade": "NULL_NA",
    "gnaf_pid": "GANSW704027745",
    "tech_change_status": "Not Planned",
    "program_type": "Fixed Wireless and Satellite Upgrade Program",
    "target_eligibility_quarter": "NA"
   }
  },
  {
   "type": "Feature",
   "geometry": {
    "type": "Point",
    "coordinates": [
     150.5304866,
     -34.72282153
    ]
   },
   "properties": {
    "name": "89 UPPER KANGAROO RIVER ROAD BARRENGARRY 2577",
    "locID": "LOC000053517342",
    "tech": "WIRELESS",
    "upgrade": "NULL_NA",
    "gnaf_pid": "GANSW704027746",
    "tech_change_status": "Not Planned",
    "program_type": "Fixed Wireless and Satellite Upgrade Program",
    "target_eligibility_quarter": "NA"
   }
  },
  {
   "type": "Feature",
   "geometry": {
    "type": "Point",
    "coordinates": [
     150.5325286,
     -34.72315456
    ]
   },
   "properties": {
    "name": "95 UPPER KANGAROO RIVER ROAD BARRENGARRY 2577",
    "locID": "LOC000093304694",
    "tech": "WIRELESS",
    "upgrade": "NULL_NA",
    "gnaf_pid": "GANSW704027747",
    "tech_change_status": "Not Planned",
    "program_type": "Fixed Wireless and Satellite Upgrade Program",
    "target_eligibility_quarter": "NA"
   }
  },
  {
   "type": "Feature",
   "geometry": {
    "type": "Point",
    "coordinates": [
     150.5241853,
     -34.68918994
    ]
   },
   "properties": {
    "name": "3 WILLOWGLEN ROAD BARRENGARRY 2577",
    "locID": "LOC000018964464",
    "tech": "WIRELESS",
    "upgrade": "NULL_NA",
    "gnaf_pid": "GANSW704027748",
    "tech_change_status": "Not Planned",
    "program_type": "Fixed Wireless and Satellite Upgrade Program",
    "target_eligibility_quarter": "NA"
   }
  },
  {
   "type": "Feature",
   "geometry": {
    "type": "Point",
    "coordinates": [
     150.51782322,
     -34.68605795
    ]
   },
   "properties": {
    "name": "56B WILLOWGLEN ROAD BARRENGARRY 2577",
    "locID": "LOC000104534999",
    "tech": "WIRELESS",
    "upgrade": "NULL_NA",
    "gnaf_pid": "GANSW704027749",
    "tech_change_status": "Not Planned",
    "program_type": "Fixed Wireless and Satellite Upgrade Program",
    "target_eligibility_quarter": "NA"
   }
  },
  {
   "type": "Feature",
   "geometry": {
    "type": "Point",
    "coordinates": [
     150.51682969,
     -34.68748718
    ]
   },
   "properties": {
    "name": "95A WILLOWGLEN ROAD BARRENGARRY 2577",
    "locID": "LOC000067855414",
    "tech": "SATELLITE",
    "upgrade": "NULL_NA",
    "gnaf_pid": "GANSW704027750",
    "tech_change_status": "Not Planned"
   }
  },
  {
   "type": "Feature",
   "geometry": {
    "type": "Point",
    "coordinates": [
     150.51451486,
     -34.68898805
    ]
   },
   "properties": {
    "name": "97 WILLOWGLEN ROAD BARRENGARRY 2577",
    "locID": "LOC000087914845",
    "tech": "SATELLITE",
    "upgrade": "WIRELESS",
    "gnaf_pid": "GANSW704027752",
    "tech_change_status": "Eligible to Order"
   }
  },
  {
   "type": "Feature",
   "geometry": {
    "type": "Point",
    "coordinates": [
     150.51175793,
     -34.67205686
    ]
   },
   "properties": {
    "name": "105 TIMELONG ROAD BARRENGARRY 2577",
    "locID": "LOC000057986251",
    "tech": "WIRELESS",
    "upgrade": "NULL_NA",
    "gnaf_pid": "GANSW704027947",
    "tech_change_status": "Not Planned",
    "program_type": "Fixed Wireless and Satellite Upgrade Program",
    "target_eligibility_quarter": "NA"
   }
  },
  {
   "type": "Feature",
   "geometry": {
    "type": "Point",
    "coordinates": [
     150.51599482,
     -34.67813882
    ]
   },
   "properties": {
    "name": "24 TIMELONG ROAD BARRENGARRY 2577",
    "locID": "LOC000081776325",
    "tech": "SATELLITE",
    "upgrade": "WIRELESS",
    "gnaf_pid": "GANSW704027948",
    "tech_change_status": "Eligible to Order",
    "program_type": "Fixed Wireless and Satellite Upgrade Program",
    "target_eligibility_quarter": "NA"
   }
  },
  {
   "type": "Feature",
   "geometry": {
    "type": "Point",
    "coordinates": [
     150.51268541,
     -34.6783792
    ]
   },
   "properties": {
    "name": "76 TIMELONG ROAD BARRENGARRY 2577",
    "locID": "LOC000078437607",
    "tech": "WIRELESS",
    "upgrade": "NULL_NA",
    "gnaf_pid": "GANSW704027949",
    "tech_change_status": "Eligible to Order",
    "program_type": "Fixed Wireless and Satellite Upgrade Program",
    "target_eligibility_quarter": "NA"
   }
  },
  {
   "type": "Feature",
   "geometry": {
    "type": "Point",
    "coordinates": [
     150.52570751,
     -34.72161034
    ]
   },
   "properties": {
    "name": "14 UPPER KANGAROO RIVER ROAD BARRENGARRY 2577",
    "locID": "LOC000044286046",
    "tech": "WIRELESS",
    "upgrade": "NULL_NA",
    "gnaf_pid": "GANSW704028087",
    "tech_change_status": "Not Planned",
    "program_type": "Fixed Wireless and Satellite Upgrade Program",
    "target_eligibility_quarter": "NA"
   }
  },
  {
   "type": "Feature",
   "geometry": {
    "type": "Point",
    "coordinates": [
     150.54056286,
     -34.72201514
    ]
   },
   "properties": {
    "name": "171 UPPER KANGAROO RIVER ROAD BARRENGARRY 2577",
    "locID": "LOC000058061133",
    "tech": "WIRELESS",
    "upgrade": "NULL_NA",
    "gnaf_pid": "GANSW704028088",
    "tech_change_status": "Not Planned",
    "program_type": "Fixed Wireless and Satellite Upgrade Program",
    "target_eligibility_quarter": "NA"
   }
  },
  {
   "type": "Feature",
   "geometry": {
    "type": "Point",
    "coordinates": [
     150.54322484,
     -34.72579193
    ]
   },
   "properties": {
    "name": "204 UPPER KANGAROO RIVER ROAD BARRENGARRY 2577",
    "locID": "LOC000019668243",
    "tech": "WIRELESS",
    "upgrade": "NULL_NA",
    "gnaf_pid": "GANSW704028089",
    "tech_change_status": "Not Planned",
    "program_type": "Fixed Wireless and Satellite Upgrade Program",
    "target_eligibility_quarter": "NA"
   }
  },
  {
   "type": "Feature",
   "geometry": {
    "type": "Point",
    "coordinates": [
     150.5460492,
     -34.72374896
    ]
   },
   "properties": {
    "name": "234 UPPER KANGAROO RIVER ROAD BARRENGARRY 2577",
    "locID": "LOC000056011862",
    "tech": "WIRELESS",
    "upgrade": "NULL_NA",
    "gnaf_pid": "GANSW704028091",
    "tech_change_status": "Not Planned",
    "program_type": "Fixed Wireless and Satellite Upgrade Program",
    "target_eligibility_quarter": "NA"
   }
  },
  {
   "type": "Feature",
   "geometry": {
    "type": "Point",
    "coordinates": [
     150.54698314,
     -34.72189893
    ]
   },
   "properties": {
    "name": "235 UPPER KANGAROO RIVER ROAD BARRENGARRY 2577",
    "locID": "LOC000086567711",
    "tech": "WIRELESS",
    "upgrade": "NULL_NA",
    "gnaf_pid": "GANSW704028092",
    "tech_change_status": "Not Planned",
    "program_type": "Fixed Wireless and Satellite Upgrade Program",
    "target_eligibility_quarter": "NA"
   }
  },
  {
   "type": "Feature",
   "geometry": {
    "type": "Point",
    "coordinates": [
     150.54807174,
     -34.72396906
    ]
   },
   "properties": {
    "name": "256 UPPER KANGAROO RIVER ROAD BARRENGARRY 2577",
    "locID": "LOC000065036390",
    "tech": "WIRELESS",
    "upgrade": "NULL_NA",
    "gnaf_pid": "GANSW704028093",
    "tech_change_status": "Not Planned",
    "program_type": "Fixed Wireless and Satellite Upgrade Program",
    "target_eligibility_quarter": "NA"
   }
  },
  {
   "type": "Feature",
   "geometry": {
    "type": "Point",
    "coordinates": [
     150.53218516,
     -34.68668197
    ]
   },
   "properties": {
    "name": "120 BUNKERS HILL ROAD BARRENGARRY 2577",
    "locID": "LOC000028770116",
    "tech": "WIRELESS",
    "upgrade": "NULL_NA",
    "gnaf_pid": "GANSW704029729",
    "tech_change_status": "Not Planned",
    "program_type": "Fixed Wireless and Satellite Upgrade Program",
    "target_eligibility_quarter": "NA"
   }
  },
  {
   "type": "Feature",
   "geometry": {
    "type": "Point",
    "coordinates": [
     150.53473956,
     -34.68823292
    ]
   },
   "properties": {
    "name": "136 BUNKERS HILL ROAD BARRENGARRY 2577",
    "locID": "LOC000005398266",
    "tech": "WIRELESS",
    "upgrade": "NULL_NA",
    "gnaf_pid": "GANSW704029730",
    "tech_change_status": "Not Planned",
    "program_type": "Fixed Wireless and Satellite Upgrade Program",
    "target_eligibility_quarter": "NA"
   }
  },
  {
   "type": "Feature",
   "geometry": {
    "type": "Point",
    "coordinates": [
     150.54875661,
     -34.66669845
    ]
   },
   "properties": {
    "name": "408 BUNKERS HILL ROAD BARRENGARRY 2577",
    "locID": "LOC000069042348",
    "tech": "SATELLITE",
    "upgrade": "NULL_NA",
    "gnaf_pid": "GANSW704030508",
    "tech_change_status": "Not Planned"
   }
  },
  {
   "type": "Feature",
   "geometry": {
    "type": "Point",
    "coordinates": [
     150.54684069,
     -34.66092267
    ]
   },
   "properties": {
    "name": "468 BUNKERS HILL ROAD BARRENGARRY 2577",
    "locID": "LOC000091956987",
    "tech": "SATELLITE",
    "upgrade": "NULL_NA",
    "gnaf_pid": "GANSW704030509",
    "tech_change_status": "Not Planned"
   }
  },
  {
   "type": "Feature",
   "geometry": {
    "type": "Point",
    "coordinates": [
     150.52979779,
     -34.67207871
    ]
   },
   "properties": {
    "name": "100 CARTERS ROAD BARRENGARRY 2577",
    "locID": "LOC000020353237",
    "tech": "SATELLITE",
    "upgrade": "NULL_NA",
    "gnaf_pid": "GANSW704030510",
    "tech_change_status": "Not Planned"
   }
  },
  {
   "type": "Feature",
   "geometry": {
    "type": "Point",
    "coordinates": [
     150.52562456,
     -34.67317342
    ]
   },
   "properties": {
    "name": "89A CARTERS ROAD BARRENGARRY 2577",
    "locID": "LOC000101668205",
    "tech": "WIRELESS",
    "upgrade": "NULL_NA",
    "gnaf_pid": "GANSW704030511",
    "tech_change_status": "Not Planned",
    "program_type": "Fixed Wireless and Satellite Upgrade Program",
    "target_eligibility_quarter": "NA"
   }
  },
  {
   "type": "Feature",
   "geometry": {
    "type": "Point",
    "coordinates": [
     150.52615587,
     -34.67175911
    ]
   },
   "properties": {
    "name": "89B CARTERS ROAD BARRENGARRY 2577",
    "locID": "LOC000101630823",
    "tech": "WIRELESS",
    "upgrade": "NULL_NA",
    "gnaf_pid": "GANSW704030512",
    "tech_change_status": "Not Planned",
    "program_type": "Fixed Wireless and Satellite Upgrade Program",
    "target_eligibility_quarter": "NA"
   }
  },
  {
   "type": "Feature",
   "geometry": {
    "type": "Point",
    "coordinates": [
     150.51775005,
     -34.7089759
    ]
   },
   "properties": {
    "name": "165 CAVAN ROAD BARRENGARRY 2577",
    "locID": "LOC000034467905",
    "tech": "WIRELESS",
    "upgrade": "NULL_NA",
    "gnaf_pid": "GANSW704030513",
    "tech_change_status": "Not Planned",
    "program_type": "Fixed Wireless and Satellite Upgrade Program",
    "target_eligibility_quarter": "NA"
   }
  },
  {
   "type": "Feature",
   "geometry": {
    "type": "Point",
    "coordinates": [
     150.52324979,
     -34.71662945
    ]
   },
   "properties": {
    "name": "26A CAVAN ROAD BARRENGARRY 2577",
    "locID": "LOC000096194735",
    "tech": "WIRELESS",
    "upgrade": "NULL_NA",
    "gnaf_pid": "GANSW704030514",
    "tech_change_status": "Not Planned",
    "program_type": "Fixed Wireless and Satellite Upgrade Program",
    "target_eligibility_quarter": "NA"
   }
  },
  {
   "type": "Feature",
   "geometry": {
    "type": "Point",
    "coordinates": [
     150.52342053,
     -34.71587474
    ]
   },
   "properties": {
    "name": "26B CAVAN ROAD BARRENGARRY 2577",
    "locID": "LOC000095880320",
    "tech": "WIRELESS",
    "upgrade": "NULL_NA",
    "gnaf_pid": "GANSW704030515",
    "tech_change_status": "Not Planned",
    "program_type": "Fixed Wireless and Satellite Upgrade Program",
    "target_eligibility_quarter": "NA"
   }
  },
  {
   "type": "Feature",
   "geometry": {
    "type": "Point",
    "coordinates": [
     150.53939228,
     -34.70376493
    ]
   },
   "properties": {
    "name": "198 GRAHAMS ROAD BARRENGARRY 2577",
    "locID": "LOC000053524842",
    "tech": "WIRELESS",
    "upgrade": "NULL_NA",
    "gnaf_pid": "GANSW704030520",
    "tech_change_status": "Not Planned",
    "program_type": "Fixed Wireless and Satellite Upgrade Program",
    "target_eligibility_quarter": "NA"
   }
  },
  {
   "type": "Feature",
   "geometry": {
    "type": "Point",
    "coordinates": [
     150.54142445,
     -34.70333906
    ]
   },
   "properties": {
    "name": "202 GRAHAMS ROAD BARRENGARRY 2577",
    "locID": "LOC000093433440",
    "tech": "WIRELESS",
    "upgrade": "NULL_NA",
    "gnaf_pid": "GANSW704030521",
    "tech_change_status": "Not Planned",
    "program_type": "Fixed Wireless and Satellite Upgrade Program",
    "target_eligibility_quarter": "NA"
   }
  },
  {
   "type": "Feature",
   "geometry": {
    "type": "Point",
    "coordinates": [
     150.54252082,
     -34.70254157
    ]
   },
   "properties": {
    "name": "212 GRAHAMS ROAD BARRENGARRY 2577",
    "locID": "LOC000008195447",
    "tech": "WIRELESS",
    "upgrade": "NULL_NA",
    "gnaf_pid": "GANSW704030522",
    "tech_change_status": "Not Planned",
    "program_type": "Fixed Wireless and Satellite Upgrade Program",
    "target_eligibility_quarter": "NA"
   }
  },
  {
   "type": "Feature",
   "geometry": {
    "type": "Point",
    "coordinates": [
     150.51835081,
     -34.67329658
    ]
   },
   "properties": {
    "name": "127 KELVIN ROAD BARRENGARRY 2577",
    "locID": "LOC000052323497",
    "tech": "WIRELESS",
    "upgrade": "NULL_NA",
    "gnaf_pid": "GANSW704030523",
    "tech_change_status": "Not Planned",
    "program_type": "Fixed Wireless and Satellite Upgrade Program",
    "target_eligibility_quarter": "NA"
   }
  },
  {
   "type": "Feature",
   "geometry": {
    "type": "Point",
    "coordinates": [
     150.52313323,
     -34.67873311
    ]
   },
   "properties": {
    "name": "20 KELVIN ROAD BARRENGARRY 2577",
    "locID": "LOC000042831435",
    "tech": "WIRELESS",
    "upgrade": "NULL_NA",
    "gnaf_pid": "GANSW704030524",
    "tech_change_status": "Not Planned",
    "program_type": "Fixed Wireless and Satellite Upgrade Program",
    "target_eligibility_quarter": "NA"
   }
  },
  {
   "type": "Feature",
   "geometry": {
    "type": "Point",
    "coordinates": [
     150.52051832,
     -34.67010922
    ]
   },
   "properties": {
    "name": "200 KELVIN ROAD BARRENGARRY 2577",
    "locID": "LOC000089078156",
    "tech": "WIRELESS",
    "upgrade": "NULL_NA",
    "gnaf_pid": "GANSW704030525",
    "tech_change_status": "Not Planned",
    "program_type": "Fixed Wireless and Satellite Upgrade Program",
    "target_eligibility_quarter": "NA"
   }
  },
  {
   "type": "Feature",
   "geometry": {
    "type": "Point",
    "coordinates": [
     150.52653667,
     -34.69450394
    ]
   },
   "properties": {
    "name": "2 PADDINGTON LANE BARRENGARRY 2577",
    "locID": "LOC000037170093",
    "tech": "WIRELESS",
    "upgrade": "NULL_NA",
    "gnaf_pid": "GANSW706511951",
    "tech_change_status": "Not Planned",
    "program_type": "Fixed Wireless and Satellite Upgrade Program",
    "target_eligibility_quarter": "NA"
   }
  },
  {
   "type": "Feature",
   "geometry": {
    "type": "Point",
    "coordinates": [
     150.52556842,
     -34.69493206
    ]
   },
   "properties": {
    "name": "10 PADDINGTON LANE BARRENGARRY 2577",
    "locID": "LOC000039000646",
    "tech": "WIRELESS",
    "upgrade": "NULL_NA",
    "gnaf_pid": "GANSW706511952",
    "tech_change_status": "Not Planned",
    "program_type": "Fixed Wireless and Satellite Upgrade Program",
    "target_eligibility_quarter": "NA"
   }
  },
  {
   "type": "Feature",
   "geometry": {
    "type": "Point",
    "coordinates": [
     150.51921419,
     -34.69886415
    ]
   },
   "properties": {
    "name": "94 PADDINGTON LANE BARRENGARRY 2577",
    "locID": "LOC000101609819",
    "tech": "WIRELESS",
    "upgrade": "NULL_NA",
    "gnaf_pid": "GANSW706512093",
    "tech_change_status": "Not Planned",
    "program_type": "Fixed Wireless and Satellite Upgrade Program",
    "target_eligibility_quarter": "NA"
   }
  },
  {
   "type": "Feature",
   "geometry": {
    "type": "Point",
    "coordinates": [
     150.52496938,
     -34.67884523
    ]
   },
   "properties": {
    "name": "39 CARTERS ROAD BARRENGARRY 2577",
    "locID": "LOC000059018349",
    "tech": "WIRELESS",
    "upgrade": "NULL_NA",
    "gnaf_pid": "GANSW706522233",
    "tech_change_status": "Not Planned",
    "program_type": "Fixed Wireless and Satellite Upgrade Program",
    "target_eligibility_quarter": "NA"
   }
  },
  {
   "type": "Feature",
   "geometry": {
    "type": "Point",
    "coordinates": [
     150.52011835,
     -34.69768227
    ]
   },
   "properties": {
    "name": "84 PADDINGTON LANE BARRENGARRY 2577",
    "locID": "LOC000003141284",
    "tech": "WIRELESS",
    "upgrade": "NULL_NA",
    "gnaf_pid": "GANSW706522303",
    "tech_change_status": "Not Planned",
    "program_type": "Fixed Wireless and Satellite Upgrade Program",
    "target_eligibility_quarter": "NA"
   }
  },
  {
   "type": "Feature",
   "geometry": {
    "type": "Point",
    "coordinates": [
     150.52121362,
     -34.69752116
    ]
   },
   "properties": {
    "name": "64 PADDINGTON LANE BARRENGARRY 2577",
    "locID": "LOC000080833363",
    "tech": "WIRELESS",
    "upgrade": "NULL_NA",
    "gnaf_pid": "GANSW706522304",
    "tech_change_status": "Not Planned",
    "program_type": "Fixed Wireless and Satellite Upgrade Program",
    "target_eligibility_quarter": "NA"
   }
  },
  {
   "type": "Feature",
   "geometry": {
    "type": "Point",
    "coordinates": [
     150.52448602,
     -34.69558364
    ]
   },
   "properties": {
    "name": "22 PADDINGTON LANE BARRENGARRY 2577",
    "locID": "LOC000055844596",
    "tech": "WIRELESS",
    "upgrade": "NULL_NA",
    "gnaf_pid": "GANSW706563070",
    "tech_change_status": "Not Planned",
    "program_type": "Fixed Wireless and Satellite Upgrade Program",
    "target_eligibility_quarter": "NA"
   }
  },
  {
   "type": "Feature",
   "geometry": {
    "type": "Point",
    "coordinates": [
     150.5451254,
     -34.70565397
    ]
   },
   "properties": {
    "name": "210 GRAHAMS ROAD BARRENGARRY 2577",
    "locID": "LOC000065332347",
    "tech": "NULL",
    "upgrade": "NULL_NA",
    "gnaf_pid": "GANSW706571414",
    "tech_change_status": "Not Planned"
   }
  },
  {
   "type": "Feature",
   "geometry": {
    "type": "Point",
    "coordinates": [
     150.50999216,
     -34.68429484
    ]
   },
   "properties": {
    "name": "LOT 2 MOSS VALE ROAD BARRENGARRY 2577",
    "locID": "LOC000108583665",
    "tech": "WIRELESS",
    "upgrade": "NULL_NA",
    "gnaf_pid": "GANSW708526961",
    "tech_change_status": "Not Planned",
    "program_type": "Fixed Wireless and Satellite Upgrade Program",
    "target_eligibility_quarter": "NA"
   }
  },
  {
   "type": "Feature",
   "geometry": {
    "type": "Point",
    "coordinates": [
     150.52351694,
     -34.69705569
    ]
   },
   "properties": {
    "name": "LOT 3 PADDINGTON LANE BARRENGARRY 2577",
    "locID": "LOC000101609819",
    "tech": "WIRELESS",
    "upgrade": "NULL_NA",
    "gnaf_pid": "GANSW708534133",
    "tech_change_status": "Not Planned",
    "program_type": "Fixed Wireless and Satellite Upgrade Program",
    "target_eligibility_quarter": "NA"
   }
  },
  {
   "type": "Feature",
   "geometry": {
    "type": "Point",
    "coordinates": [
     150.5498472,
     -34.69610172
    ]
   },
   "properties": {
    "name": "73 SMARTS ROAD BARRENGARRY 2577",
    "locID": "LOC000091171842",
    "tech": "SATELLITE",
    "upgrade": "NULL_NA",
    "gnaf_pid": "GANSW708539025",
    "tech_change_status": "Not Planned"
   }
  },
  {
   "type": "Feature",
   "geometry": {
    "type": "Point",
    "coordinates": [
     150.55065355,
     -34.68865963
    ]
   },
   "properties": {
    "name": "200 ALLANS ROAD BARRENGARRY 2577",
    "locID": "LOC000088202934",
    "tech": "SATELLITE",
    "upgrade": "NULL_NA",
    "gnaf_pid": "GANSW712593027",
    "tech_change_status": "Not Planned"
   }
  },
  {
   "type": "Feature",
   "geometry": {
    "type": "Point",
    "coordinates": [
     150.55197333,
     -34.68729844
    ]
   },
   "properties": {
    "name": "210 ALLANS ROAD BARRENGARRY 2577",
    "locID": "LOC000049165853",
    "tech": "SATELLITE",
    "upgrade": "NULL_NA",
    "gnaf_pid": "GANSW712593028",
    "tech_change_status": "Not Planned"
   }
  },
  {
   "type": "Feature",
   "geometry": {
    "type": "Point",
    "coordinates": [
     150.5484384,
     -34.686077
    ]
   },
   "properties": {
    "name": "214 ALLANS ROAD BARRENGARRY 2577",
    "locID": "LOC000074957033",
    "tech": "SATELLITE",
    "upgrade": "NULL_NA",
    "gnaf_pid": "GANSW712593029",
    "tech_change_status": "Not Planned"
   }
  },
  {
   "type": "Feature",
   "geometry": {
    "type": "Point",
    "coordinates": [
     150.54875737,
     -34.68370575
    ]
   },
   "properties": {
    "name": "230 ALLANS ROAD BARRENGARRY 2577",
    "locID": "LOC000023261312",
    "tech": "SATELLITE",
    "upgrade": "NULL_NA",
    "gnaf_pid": "GANSW712593030",
    "tech_change_status": "Not Planned"
   }
  },
  {
   "type": "Feature",
   "geometry": {
    "type": "Point",
    "coordinates": [
     150.5272195,
     -34.67895734
    ]
   },
   "properties": {
    "name": "17 BASSETT ROAD BARRENGARRY 2577",
    "locID": "LOC000017972625",
    "tech": "WIRELESS",
    "upgrade": "NULL_NA",
    "gnaf_pid": "GANSW712593031",
    "tech_change_status": "Not Planned",
    "program_type": "Fixed Wireless and Satellite Upgrade Program",
    "target_eligibility_quarter": "NA"
   }
  },
  {
   "type": "Feature",
   "geometry": {
    "type": "Point",
    "coordinates": [
     150.52667582,
     -34.70718051
    ]
   },
   "properties": {
    "name": "2319 MOSS VALE ROAD BARRENGARRY 2577",
    "locID": "LOC000054728805",
    "tech": "WIRELESS",
    "upgrade": "NULL_NA",
    "gnaf_pid": "GANSW712596245",
    "tech_change_status": "Not Planned",
    "program_type": "Fixed Wireless and Satellite Upgrade Program",
    "target_eligibility_quarter": "NA"
   }
  },
  {
   "type": "Feature",
   "geometry": {
    "type": "Point",
    "coordinates": [
     150.53880739,
     -34.6795767
    ]
   },
   "properties": {
    "name": "237 BUNKERS HILL ROAD BARRENGARRY 2577",
    "locID": "LOC000071560506",
    "tech": "WIRELESS",
    "upgrade": "NULL_NA",
    "gnaf_pid": "GANSW712613377",
    "tech_change_status": "Not Planned",
    "program_type": "Fixed Wireless and Satellite Upgrade Program",
    "target_eligibility_quarter": "NA"
   }
  },
  {
   "type": "Feature",
   "geometry": {
    "type": "Point",
    "coordinates": [
     150.54273489,
     -34.69369031
    ]
   },
   "properties": {
    "name": "131 ALLANS ROAD BARRENGARRY 2577",
    "locID": "LOC000028104946",
    "tech": "SATELLITE",
    "upgrade": "NULL_NA",
    "gnaf_pid": "GANSW712630204",
    "tech_change_status": "Not Planned"
   }
  },
  {
   "type": "Feature",
   "geometry": {
    "type": "Point",
    "coordinates": [
     150.54806057,
     -34.6898966
    ]
   },
   "properties": {
    "name": "186 ALLANS ROAD BARRENGARRY 2577",
    "locID": "LOC000008108136",
    "tech": "SATELLITE",
    "upgrade": "NULL_NA",
    "gnaf_pid": "GANSW712630205",
    "tech_change_status": "Not Planned"
   }
  },
  {
   "type": "Feature",
   "geometry": {
    "type": "Point",
    "coordinates": [
     150.52562735,
     -34.67317621
    ]
   },
   "properties": {
    "name": "89 CARTERS ROAD BARRENGARRY 2577",
    "locID": "LOC000101668205",
    "tech": "WIRELESS",
    "upgrade": "NULL_NA",
    "gnaf_pid": "GANSW715597437",
    "tech_change_status": "Not Planned",
    "program_type": "Fixed Wireless and Satellite Upgrade Program",
    "target_eligibility_quarter": "NA"
   }
  },
  {
   "type": "Feature",
   "geometry": {
    "type": "Point",
    "coordinates": [
     150.51588916,
     -34.68727289
    ]
   },
   "properties": {
    "name": "95 WILLOWGLEN ROAD BARRENGARRY 2577",
    "locID": "LOC000067855414",
    "tech": "SATELLITE",
    "upgrade": "NULL_NA",
    "gnaf_pid": "GANSW715692530",
    "tech_change_status": "Not Planned"
   }
  },
  {
   "type": "Feature",
   "geometry": {
    "type": "Point",
    "coordinates": [
     150.53227412,
     -34.70155007
    ]
   },
   "properties": {
    "name": "LOT 3 GRAHAMS ROAD BARRENGARRY 2577",
    "locID": "LOC000053524842",
    "tech": "WIRELESS",
    "upgrade": "NULL_NA",
    "gnaf_pid": "GANSW715879469",
    "tech_change_status": "Not Planned",
    "program_type": "Fixed Wireless and Satellite Upgrade Program",
    "target_eligibility_quarter": "NA"
   }
  },
  {
   "type": "Feature",
   "geometry": {
    "type": "Point",
    "coordinates": [
     150.52271855,
     -34.67918084
    ]
   },
   "properties": {
    "name": "21 KELVIN ROAD BARRENGARRY 2577",
    "locID": "LOC000018071794",
    "tech": "WIRELESS",
    "upgrade": "NULL_NA",
    "gnaf_pid": "GANSW716512807",
    "tech_change_status": "Not Planned",
    "program_type": "Fixed Wireless and Satellite Upgrade Program",
    "target_eligibility_quarter": "NA"
   }
  },
  {
   "type": "Feature",
   "geometry": {
    "type": "Point",
    "coordinates": [
     150.52326972,
     -34.71528575
    ]
   },
   "properties": {
    "name": "30 CAVAN ROAD BARRENGARRY 2577",
    "locID": "LOC000044113636",
    "tech": "WIRELESS",
    "upgrade": "NULL_NA",
    "gnaf_pid": "GANSW716628556",
    "tech_change_status": "Not Planned",
    "program_type": "Fixed Wireless and Satellite Upgrade Program",
    "target_eligibility_quarter": "NA"
   }
  },
  {
   "type": "Feature",
   "geometry": {
    "type": "Point",
    "coordinates": [
     150.51991809,
     -34.68869756
    ]
   },
   "properties": {
    "name": "28 GLENAYAR ROAD BARRENGARRY 2577",
    "locID": "LOC000171718652",
    "tech": "WIRELESS",
    "upgrade": "NULL_NA",
    "gnaf_pid": "GANSW717065089",
    "tech_change_status": "Not Planned",
    "program_type": "Fixed Wireless and Satellite Upgrade Program",
    "target_eligibility_quarter": "NA"
   }
  },
  {
   "type": "Feature",
   "geometry": {
    "type": "Point",
    "coordinates": [
     150.51958227,
     -34.68444142
    ]
   },
   "properties": {
    "name": "56C WILLOWGLEN ROAD BARRENGARRY 2577",
    "locID": "LOC000105013287",
    "tech": "WIRELESS",
    "upgrade": "NULL_NA",
    "gnaf_pid": "GANSW717291941",
    "tech_change_status": "Not Planned",
    "program_type": "Fixed Wireless and Satellite Upgrade Program",
    "target_eligibility_quarter": "NA"
   }
  },
  {
   "type": "Feature",
   "geometry": {
    "type": "Point",
    "coordinates": [
     150.53313638,
     -34.68647783
    ]
   },
   "properties": {
    "name": "126 BUNKERS HILL ROAD BARRENGARRY 2577",
    "locID": "LOC000081695450",
    "tech": "SATELLITE",
    "upgrade": "NULL_NA",
    "gnaf_pid": "GANSW717550221",
    "tech_change_status": "Not Planned"
   }
  },
  {
   "type": "Feature",
   "geometry": {
    "type": "Point",
    "coordinates": [
     150.5490846,
     -34.69592494
    ]
   },
   "properties": {
    "name": "69 SMARTS ROAD BARRENGARRY 2577",
    "locID": "LOC000031291738",
    "tech": "NULL",
    "upgrade": "NULL_NA",
    "gnaf_pid": "GANSW717588712",
    "tech_change_status": "Not Planned"
   }
  },
  {
   "type": "Feature",
   "geometry": {
    "type": "Point",
    "coordinates": [
     150.54822024,
     -34.69658231
    ]
   },
   "properties": {
    "name": "43 SMARTS ROAD BARRENGARRY 2577",
    "locID": "LOC000086064490",
    "tech": "NULL",
    "upgrade": "NULL_NA",
    "gnaf_pid": "GANSW717621229",
    "tech_change_status": "Not Planned"
   }
  },
  {
   "type": "Feature",
   "geometry": {
    "type": "Point",
    "coordinates": [
     150.52588295,
     -34.67992524
    ]
   },
   "properties": {
    "name": "28 CARTERS ROAD BARRENGARRY 2577",
    "locID": "LOC000121361153",
    "tech": "WIRELESS",
    "upgrade": "NULL_NA",
    "gnaf_pid": "GANSW718282205",
    "tech_change_status": "Not Planned",
    "program_type": "Fixed Wireless and Satellite Upgrade Program",
    "target_eligibility_quarter": "NA"
   }
  },
  {
   "type": "Feature",
   "geometry": {
    "type": "Point",
    "coordinates": [
     150.55045133,
     -34.70035066
    ]
   },
   "properties": {
    "name": "32 SMARTS ROAD BARRENGARRY 2577",
    "locID": "LOC000121365950",
    "tech": "SATELLITE",
    "upgrade": "NULL_NA",
    "gnaf_pid": "GANSW718287641",
    "tech_change_status": "Not Planned"
   }
  },
  {
   "type": "Feature",
   "geometry": {
    "type": "Point",
    "coordinates": [
     150.54886636,
     -34.69789405
    ]
   },
   "properties": {
    "name": "44 SMARTS ROAD BARRENGARRY 2577",
    "locID": "LOC000121377196",
    "tech": "NULL",
    "upgrade": "NULL_NA",
    "gnaf_pid": "GANSW718287642",
    "tech_change_status": "Not Planned"
   }
  },
  {
   "type": "Feature",
   "geometry": {
    "type": "Point",
    "coordinates": [
     150.53817768,
     -34.68037208
    ]
   },
   "properties": {
    "name": "223 BUNKERS HILL ROAD BARRENGARRY 2577",
    "locID": "LOC000121355243",
    "tech": "SATELLITE",
    "upgrade": "NULL_NA",
    "gnaf_pid": "GANSW718307491",
    "tech_change_status": "Not Planned"
   }
  },
  {
   "type": "Feature",
   "geometry": {
    "type": "Point",
    "coordinates": [
     150.52537322,
     -34.67797781
    ]
   },
   "properties": {
    "name": "LOT 3 CARTERS ROAD BARRENGARRY 2577",
    "locID": "LOC000059018349",
    "tech": "WIRELESS",
    "upgrade": "NULL_NA",
    "gnaf_pid": "GANSW718430891",
    "tech_change_status": "Not Planned",
    "program_type": "Fixed Wireless and Satellite Upgrade Program",
    "target_eligibility_quarter": "NA"
   }
  },
  {
   "type": "Feature",
   "geometry": {
    "type": "Point",
    "coordinates": [
     150.54439272,
     -34.67460126
    ]
   },
   "properties": {
    "name": "368A BUNKERS HILL ROAD BARRENGARRY 2577",
    "locID": "LOC000150741609",
    "tech": "SATELLITE",
    "upgrade": "NULL_NA",
    "gnaf_pid": "GANSW718503501",
    "tech_change_status": "Not Planned"
   }
  },
  {
   "type": "Feature",
   "geometry": {
    "type": "Point",
    "coordinates": [
     150.54561468,
     -34.67081007
    ]
   },
   "properties": {
    "name": "368B BUNKERS HILL ROAD BARRENGARRY 2577",
    "locID": "LOC000150741613",
    "tech": "WIRELESS",
    "upgrade": "NULL_NA",
    "gnaf_pid": "GANSW718503502",
    "tech_change_status": "Not Planned",
    "program_type": "Fixed Wireless and Satellite Upgrade Program",
    "target_eligibility_quarter": "NA"
   }
  },
  {
   "type": "Feature",
   "geometry": {
    "type": "Point",
    "coordinates": [
     150.54804155,
     -34.67256269
    ]
   },
   "properties": {
    "name": "368D BUNKERS HILL ROAD BARRENGARRY 2577",
    "locID": "LOC000187427549",
    "tech": "SATELLITE",
    "upgrade": "NULL_NA",
    "gnaf_pid": "GANSW718503504",
    "tech_change_status": "Not Planned"
   }
  },
  {
   "type": "Feature",
   "geometry": {
    "type": "Point",
    "coordinates": [
     150.52600668,
     -34.68157183
    ]
   },
   "properties": {
    "name": "18 CARTERS ROAD BARRENGARRY 2577",
    "locID": "LOC000150741621",
    "tech": "WIRELESS",
    "upgrade": "NULL_NA",
    "gnaf_pid": "GANSW718503723",
    "tech_change_status": "Not Planned",
    "program_type": "Fixed Wireless and Satellite Upgrade Program",
    "target_eligibility_quarter": "NA"
   }
  },
  {
   "type": "Feature",
   "geometry": {
    "type": "Point",
    "coordinates": [
     150.51948171,
     -34.68933106
    ]
   },
   "properties": {
    "name": "30 GLENAYAR ROAD BARRENGARRY 2577",
    "locID": "LOC000150741632",
    "tech": "WIRELESS",
    "upgrade": "NULL_NA",
    "gnaf_pid": "GANSW718505085",
    "tech_change_status": "Not Planned",
    "program_type": "Fixed Wireless and Satellite Upgrade Program",
    "target_eligibility_quarter": "NA"
   }
  },
  {
   "type": "Feature",
   "geometry": {
    "type": "Point",
    "coordinates": [
     150.53836904,
     -34.67854485
    ]
   },
   "properties": {
    "name": "255 BUNKERS HILL ROAD BARRENGARRY 2577",
    "locID": "LOC000150741943",
    "tech": "SATELLITE",
    "upgrade": "NULL_NA",
    "gnaf_pid": "GANSW718541285",
    "tech_change_status": "Not Planned"
   }
  },
  {
   "type": "Feature",
   "geometry": {
    "type": "Point",
    "coordinates": [
     150.52959128,
     -34.71710323
    ]
   },
   "properties": {
    "name": "2180 MOSS VALE ROAD BARRENGARRY 2577",
    "locID": "LOC100072004243",
    "tech": "WIRELESS",
    "upgrade": "NULL_NA",
    "gnaf_pid": "GANSW718563598",
    "tech_change_status": "Not Planned",
    "program_type": "Fixed Wireless and Satellite Upgrade Program",
    "target_eligibility_quarter": "NA"
   }
  },
  {
   "type": "Feature",
   "geometry": {
    "type": "Point",
    "coordinates": [
     150.54055915,
     -34.68475596
    ]
   },
   "properties": {
    "name": "200 BUNKERS HILL ROAD BARRENGARRY 2577",
    "locID": "LOC000153126615",
    "tech": "WIRELESS",
    "upgrade": "NULL_NA",
    "gnaf_pid": "GANSW718962850",
    "tech_change_status": "Not Planned",
    "program_type": "Fixed Wireless and Satellite Upgrade Program",
    "target_eligibility_quarter": "NA"
   }
  },
  {
   "type": "Feature",
   "geometry": {
    "type": "Point",
    "coordinates": [
     150.54421477,
     -34.67870054
    ]
   },
   "properties": {
    "name": "260 BUNKERS HILL ROAD BARRENGARRY 2577",
    "locID": "LOC000171242940",
    "tech": "WIRELESS",
    "upgrade": "NULL_NA",
    "gnaf_pid": "GANSW719698080",
    "tech_change_status": "Not Planned",
    "program_type": "Fixed Wireless and Satellite Upgrade Program",
    "target_eligibility_quarter": "NA"
   }
  },
  {
   "type": "Feature",
   "geometry": {
    "type": "Point",
    "coordinates": [
     150.52079036,
     -34.68806261
    ]
   },
   "properties": {
    "name": "16 GLENAYAR ROAD BARRENGARRY 2577",
    "locID": "LOC100072003921",
    "tech": "WIRELESS",
    "upgrade": "NULL_NA",
    "gnaf_pid": "GANSW719870106",
    "tech_change_status": "Not Planned",
    "program_type": "Fixed Wireless and Satellite Upgrade Program",
    "target_eligibility_quarter": "NA"
   }
  },
  {
   "type": "Feature",
   "geometry": {
    "type": "Point",
    "coordinates": [
     150.5209497,
     -34.68687507
    ]
   },
   "properties": {
    "name": "10 GLENAYAR ROAD BARRENGARRY 2577",
    "locID": "LOC000180447418",
    "tech": "WIRELESS",
    "upgrade": "NULL_NA",
    "gnaf_pid": "GANSW719895665",
    "tech_change_status": "Not Planned",
    "program_type": "Fixed Wireless and Satellite Upgrade Program",
    "target_eligibility_quarter": "NA"
   }
  },
  {
   "type": "Feature",
   "geometry": {
    "type": "Point",
    "coordinates": [
     150.52626796,
     -34.67732102
    ]
   },
   "properties": {
    "name": "3 BASSETT ROAD BARRENGARRY 2577",
    "locID": "LOC000183040080",
    "tech": "WIRELESS",
    "upgrade": "NULL_NA",
    "gnaf_pid": "GANSW720261407",
    "tech_change_status": "Not Planned",
    "program_type": "Fixed Wireless and Satellite Upgrade Program",
    "target_eligibility_quarter": "NA"
   }
  },
  {
   "type": "Feature",
   "geometry": {
    "type": "Point",
    "coordinates": [
     150.51903941,
     -34.69720046
    ]
   },
   "properties": {
    "name": "90 PADDINGTON LANE BARRENGARRY 2577",
    "locID": "LOC000180416940",
    "tech": "WIRELESS",
    "upgrade": "NULL_NA",
    "gnaf_pid": "GANSW720790199",
    "tech_change_status": "Not Planned",
    "program_type": "Fixed Wireless and Satellite Upgrade Program",
    "target_eligibility_quarter": "NA"
   }
  },
  {
   "type": "Feature",
   "geometry": {
    "type": "Point",
    "coordinates": [
     150.52297575,
     -34.71653269
    ]
   },
   "properties": {
    "name": "26 CAVAN ROAD BARRENGARRY 2577",
    "locID": "LOC000095880320",
    "tech": "WIRELESS",
    "upgrade": "NULL_NA",
    "gnaf_pid": "GANSW721129007",
    "tech_change_status": "Not Planned",
    "program_type": "Fixed Wireless and Satellite Upgrade Program",
    "target_eligibility_quarter": "NA"
   }
  }
 ]
}