{
 "type": "FeatureCollection",
 "generated": "2026-05-05T23:04:29.679477",
 "suburb": "BINGEEBEEBRA CREEK",
 "features": [
  {
   "type": "Feature",
   "geometry": {
    "type": "Point",
    "coordinates": [
     152.79459675,
     -28.83618673
    ]
   },
   "properties": {
    "name": "175 BINGEEBEEBRA ROAD BINGEEBEEBRA CREEK 2469",
    "locID": "LOC000043865480",
    "tech": "WIRELESS",
    "upgrade": "NULL_NA",
    "gnaf_pid": "GANSW708627812",
    "tech_change_status": "Not Planned",
    "program_type": "Fixed Wireless and Satellite Upgrade Program",
    "target_eligibility_quarter": "NA"
   }
  },
  {
   "type": "Feature",
   "geometry": {
    "type": "Point",
    "coordinates": [
     152.76393544,
     -28.80311404
    ]
   },
   "properties": {
    "name": "293 RYANS CREEK ROAD BINGEEBEEBRA CREEK 2469",
    "locID": "LOC000028942802",
    "tech": "NULL",
    "upgrade": "NULL_NA",
    "gnaf_pid": "GANSW708627815",
    "tech_change_status": "Not Planned"
   }
  },
  {
   "type": "Feature",
   "geometry": {
    "type": "Point",
    "coordinates": [
     152.79816687,
     -28.8307923
    ]
   },
   "properties": {
    "name": "87 NOLANS ROAD BINGEEBEEBRA CREEK 2469",
    "locID": "LOC000099252591",
    "tech": "WIRELESS",
    "upgrade": "NULL_NA",
    "gnaf_pid": "GANSW708627816",
    "tech_change_status": "Not Planned",
    "program_type": "Fixed Wireless and Satellite Upgrade Program",
    "target_eligibility_quarter": "NA"
   }
  },
  {
   "type": "Feature",
   "geometry": {
    "type": "Point",
    "coordinates": [
     152.79690789,
     -28.83858448
    ]
   },
   "properties": {
    "name": "139 BINGEEBEEBRA ROAD BINGEEBEEBRA CREEK 2469",
    "locID": "LOC000047931888",
    "tech": "SATELLITE",
    "upgrade": "NULL_NA",
    "gnaf_pid": "GANSW708627817",
    "tech_change_status": "Not Planned"
   }
  },
  {
   "type": "Feature",
   "geometry": {
    "type": "Point",
    "coordinates": [
     152.79332258,
     -28.83287889
    ]
   },
   "properties": {
    "name": "221 BINGEEBEEBRA ROAD BINGEEBEEBRA CREEK 2469",
    "locID": "LOC100087586418",
    "tech": "WIRELESS",
    "upgrade": "NULL_NA",
    "gnaf_pid": "GANSW708631115",
    "tech_change_status": "Not Planned",
    "program_type": "Fixed Wireless and Satellite Upgrade Program",
    "target_eligibility_quarter": "NA"
   }
  },
  {
   "type": "Feature",
   "geometry": {
    "type": "Point",
    "coordinates": [
     152.79457478,
     -28.82296022
    ]
   },
   "properties": {
    "name": "334 BINGEEBEEBRA ROAD BINGEEBEEBRA CREEK 2469",
    "locID": "LOC000001419537",
    "tech": "SATELLITE",
    "upgrade": "WIRELESS",
    "gnaf_pid": "GANSW708631116",
    "tech_change_status": "Eligible to Order",
    "program_type": "Fixed Wireless and Satellite Upgrade Program",
    "target_eligibility_quarter": "NA"
   }
  },
  {
   "type": "Feature",
   "geometry": {
    "type": "Point",
    "coordinates": [
     152.79175398,
     -28.82865449
    ]
   },
   "properties": {
    "name": "271 BINGEEBEEBRA ROAD BINGEEBEEBRA CREEK 2469",
    "locID": "LOC000057365715",
    "tech": "WIRELESS",
    "upgrade": "NULL_NA",
    "gnaf_pid": "GANSW708631118",
    "tech_change_status": "Not Planned",
    "program_type": "Fixed Wireless and Satellite Upgrade Program",
    "target_eligibility_quarter": "NA"
   }
  },
  {
   "type": "Feature",
   "geometry": {
    "type": "Point",
    "coordinates": [
     152.75547837,
     -28.79453429
    ]
   },
   "properties": {
    "name": "79 RYANS CREEK ROAD BINGEEBEEBRA CREEK 2469",
    "locID": "LOC000061241396",
    "tech": "NULL",
    "upgrade": "NULL_NA",
    "gnaf_pid": "GANSW716599018",
    "tech_change_status": "Not Planned"
   }
  },
  {
   "type": "Feature",
   "geometry": {
    "type": "Point",
    "coordinates": [
     152.78620196,
     -28.82323478
    ]
   },
   "properties": {
    "name": "323 BINGEEBEEBRA ROAD BINGEEBEEBRA CREEK 2469",
    "locID": "LOC000077156422",
    "tech": "WIRELESS",
    "upgrade": "NULL_NA",
    "gnaf_pid": "GANSW716626881",
    "tech_change_status": "Not Planned",
    "program_type": "Fixed Wireless and Satellite Upgrade Program",
    "target_eligibility_quarter": "NA"
   }
  },
  {
   "type": "Feature",
   "geometry": {
    "type": "Point",
    "coordinates": [
     152.75515887,
     -28.79462691
    ]
   },
   "properties": {
    "name": "375 BINGEEBEEBRA ROAD BINGEEBEEBRA CREEK 2469",
    "locID": "LOC000143075680",
    "tech": "WIRELESS",
    "upgrade": "NULL_NA",
    "gnaf_pid": "GANSW716647343",
    "tech_change_status": "Not Planned",
    "program_type": "Fixed Wireless and Satellite Upgrade Program",
    "target_eligibility_quarter": "NA"
   }
  },
  {
   "type": "Feature",
   "geometry": {
    "type": "Point",
    "coordinates": [
     152.79532596,
     -28.84319865
    ]
   },
   "properties": {
    "name": "77 BINGEEBEEBRA ROAD BINGEEBEEBRA CREEK 2469",
    "locID": "LOC000052206518",
    "tech": "WIRELESS",
    "upgrade": "NULL_NA",
    "gnaf_pid": "GANSW716647344",
    "tech_change_status": "Not Planned",
    "program_type": "Fixed Wireless and Satellite Upgrade Program",
    "target_eligibility_quarter": "NA"
   }
  },
  {
   "type": "Feature",
   "geometry": {
    "type": "Point",
    "coordinates": [
     152.76620114,
     -28.78602662
    ]
   },
   "properties": {
    "name": "863 BINGEEBEEBRA ROAD BINGEEBEEBRA CREEK 2469",
    "locID": "LOC000103523244",
    "tech": "NULL",
    "upgrade": "NULL_NA",
    "gnaf_pid": "GANSW716647345",
    "tech_change_status": "Not Planned"
   }
  },
  {
   "type": "Feature",
   "geometry": {
    "type": "Point",
    "coordinates": [
     152.80897364,
     -28.83981214
    ]
   },
   "properties": {
    "name": "142 HISCOCKES ROAD BINGEEBEEBRA CREEK 2469",
    "locID": "LOC000028942106",
    "tech": "WIRELESS",
    "upgrade": "NULL_NA",
    "gnaf_pid": "GANSW716666001",
    "tech_change_status": "Not Planned",
    "program_type": "Fixed Wireless and Satellite Upgrade Program",
    "target_eligibility_quarter": "NA"
   }
  },
  {
   "type": "Feature",
   "geometry": {
    "type": "Point",
    "coordinates": [
     152.76570371,
     -28.77833956
    ]
   },
   "properties": {
    "name": "43 PIRLOS ROAD BINGEEBEEBRA CREEK 2469",
    "locID": "LOC000027131777",
    "tech": "NULL",
    "upgrade": "NULL_NA",
    "gnaf_pid": "GANSW716682333",
    "tech_change_status": "Not Planned"
   }
  },
  {
   "type": "Feature",
   "geometry": {
    "type": "Point",
    "coordinates": [
     152.7734327,
     -28.8095032
    ]
   },
   "properties": {
    "name": "165 RYANS CREEK ROAD BINGEEBEEBRA CREEK 2469",
    "locID": "LOC000099650604",
    "tech": "SATELLITE",
    "upgrade": "NULL_NA",
    "gnaf_pid": "GANSW716686837",
    "tech_change_status": "Not Planned"
   }
  },
  {
   "type": "Feature",
   "geometry": {
    "type": "Point",
    "coordinates": [
     152.78511977,
     -28.80891757
    ]
   },
   "properties": {
    "name": "28 RYANS CREEK ROAD BINGEEBEEBRA CREEK 2469",
    "locID": "LOC000011311314",
    "tech": "SATELLITE",
    "upgrade": "WIRELESS",
    "gnaf_pid": "GANSW716686838",
    "tech_change_status": "Eligible to Order",
    "program_type": "Fixed Wireless and Satellite Upgrade Program",
    "target_eligibility_quarter": "NA"
   }
  },
  {
   "type": "Feature",
   "geometry": {
    "type": "Point",
    "coordinates": [
     152.76048782,
     -28.79990998
    ]
   },
   "properties": {
    "name": "337 RYANS CREEK ROAD BINGEEBEEBRA CREEK 2469",
    "locID": "LOC000107428415",
    "tech": "SATELLITE",
    "upgrade": "NULL_NA",
    "gnaf_pid": "GANSW716686840",
    "tech_change_status": "Not Planned"
   }
  },
  {
   "type": "Feature",
   "geometry": {
    "type": "Point",
    "coordinates": [
     152.79798313,
     -28.84000972
    ]
   },
   "properties": {
    "name": "122-139 BINGEEBEEBRA ROAD BINGEEBEEBRA CREEK 2469",
    "locID": "LOC000150738528",
    "tech": "WIRELESS",
    "upgrade": "NULL_NA",
    "gnaf_pid": "GANSW718400936",
    "tech_change_status": "Not Planned",
    "program_type": "Fixed Wireless and Satellite Upgrade Program",
    "target_eligibility_quarter": "NA"
   }
  }
 ]
}