{
 "type": "FeatureCollection",
 "generated": "2026-06-09T23:37:43.157250",
 "suburb": "BOBIN",
 "features": [
  {
   "type": "Feature",
   "geometry": {
    "type": "Point",
    "coordinates": [
     152.28840269,
     -31.67954616
    ]
   },
   "properties": {
    "name": "2954 BULGA ROAD BOBIN 2429",
    "locID": "LOC000142559510",
    "tech": "NULL",
    "upgrade": "NULL_NA",
    "gnaf_pid": "GANSW704152403",
    "tech_change_status": "Not Planned"
   }
  },
  {
   "type": "Feature",
   "geometry": {
    "type": "Point",
    "coordinates": [
     152.28639763,
     -31.67464416
    ]
   },
   "properties": {
    "name": "2989 BULGA ROAD BOBIN 2429",
    "locID": "LOC000003071678",
    "tech": "SATELLITE",
    "upgrade": "NULL_NA",
    "gnaf_pid": "GANSW704152404",
    "tech_change_status": "Not Planned"
   }
  },
  {
   "type": "Feature",
   "geometry": {
    "type": "Point",
    "coordinates": [
     152.29276684,
     -31.70520694
    ]
   },
   "properties": {
    "name": "147 MILLERS ROAD BOBIN 2429",
    "locID": "LOC000189942789",
    "tech": "SATELLITE",
    "upgrade": "NULL_NA",
    "gnaf_pid": "GANSW704152411",
    "tech_change_status": "Not Planned"
   }
  },
  {
   "type": "Feature",
   "geometry": {
    "type": "Point",
    "coordinates": [
     152.29332035,
     -31.69927497
    ]
   },
   "properties": {
    "name": "167 MILLERS ROAD BOBIN 2429",
    "locID": "LOC000054905892",
    "tech": "SATELLITE",
    "upgrade": "NULL_NA",
    "gnaf_pid": "GANSW704152412",
    "tech_change_status": "Not Planned"
   }
  },
  {
   "type": "Feature",
   "geometry": {
    "type": "Point",
    "coordinates": [
     152.2884954,
     -31.71013633
    ]
   },
   "properties": {
    "name": "34 MILLERS ROAD BOBIN 2429",
    "locID": "LOC000008810705",
    "tech": "SATELLITE",
    "upgrade": "NULL_NA",
    "gnaf_pid": "GANSW704152413",
    "tech_change_status": "Not Planned"
   }
  },
  {
   "type": "Feature",
   "geometry": {
    "type": "Point",
    "coordinates": [
     152.29586299,
     -31.66842717
    ]
   },
   "properties": {
    "name": "28 SWANS ROAD BOBIN 2429",
    "locID": "LOC000052203963",
    "tech": "SATELLITE",
    "upgrade": "NULL_NA",
    "gnaf_pid": "GANSW704152414",
    "tech_change_status": "Not Planned"
   }
  },
  {
   "type": "Feature",
   "geometry": {
    "type": "Point",
    "coordinates": [
     152.26200296,
     -31.69927635
    ]
   },
   "properties": {
    "name": "183 BOBIN CREEK ROAD BOBIN 2429",
    "locID": "LOC000010447929",
    "tech": "SATELLITE",
    "upgrade": "NULL_NA",
    "gnaf_pid": "GANSW704164064",
    "tech_change_status": "Not Planned"
   }
  },
  {
   "type": "Feature",
   "geometry": {
    "type": "Point",
    "coordinates": [
     152.26277013,
     -31.69349285
    ]
   },
   "properties": {
    "name": "221 BOBIN CREEK ROAD BOBIN 2429",
    "locID": "LOC000041112607",
    "tech": "SATELLITE",
    "upgrade": "NULL_NA",
    "gnaf_pid": "GANSW704164065",
    "tech_change_status": "Not Planned"
   }
  },
  {
   "type": "Feature",
   "geometry": {
    "type": "Point",
    "coordinates": [
     152.2646459,
     -31.69188175
    ]
   },
   "properties": {
    "name": "245 BOBIN CREEK ROAD BOBIN 2429",
    "locID": "LOC000107308776",
    "tech": "SATELLITE",
    "upgrade": "NULL_NA",
    "gnaf_pid": "GANSW704164066",
    "tech_change_status": "Not Planned"
   }
  },
  {
   "type": "Feature",
   "geometry": {
    "type": "Point",
    "coordinates": [
     152.26830616,
     -31.6900446
    ]
   },
   "properties": {
    "name": "278 BOBIN CREEK ROAD BOBIN 2429",
    "locID": "LOC000028137851",
    "tech": "SATELLITE",
    "upgrade": "NULL_NA",
    "gnaf_pid": "GANSW704165846",
    "tech_change_status": "Not Planned"
   }
  },
  {
   "type": "Feature",
   "geometry": {
    "type": "Point",
    "coordinates": [
     152.26876941,
     -31.6877967
    ]
   },
   "properties": {
    "name": "304 BOBIN CREEK ROAD BOBIN 2429",
    "locID": "LOC000069529260",
    "tech": "SATELLITE",
    "upgrade": "NULL_NA",
    "gnaf_pid": "GANSW704165847",
    "tech_change_status": "Not Planned"
   }
  },
  {
   "type": "Feature",
   "geometry": {
    "type": "Point",
    "coordinates": [
     152.26730696,
     -31.68416433
    ]
   },
   "properties": {
    "name": "382 BOBIN CREEK ROAD BOBIN 2429",
    "locID": "LOC000012211517",
    "tech": "SATELLITE",
    "upgrade": "NULL_NA",
    "gnaf_pid": "GANSW704165849",
    "tech_change_status": "Not Planned"
   }
  },
  {
   "type": "Feature",
   "geometry": {
    "type": "Point",
    "coordinates": [
     152.27285779,
     -31.70157131
    ]
   },
   "properties": {
    "name": "65 BOBIN CREEK ROAD BOBIN 2429",
    "locID": "LOC000032185085",
    "tech": "SATELLITE",
    "upgrade": "NULL_NA",
    "gnaf_pid": "GANSW704165850",
    "tech_change_status": "Not Planned"
   }
  },
  {
   "type": "Feature",
   "geometry": {
    "type": "Point",
    "coordinates": [
     152.2718898,
     -31.70273115
    ]
   },
   "properties": {
    "name": "67 BOBIN CREEK ROAD BOBIN 2429",
    "locID": "LOC000081837425",
    "tech": "SATELLITE",
    "upgrade": "NULL_NA",
    "gnaf_pid": "GANSW704165851",
    "tech_change_status": "Not Planned"
   }
  },
  {
   "type": "Feature",
   "geometry": {
    "type": "Point",
    "coordinates": [
     152.28302477,
     -31.71162363
    ]
   },
   "properties": {
    "name": "2518 BULGA ROAD BOBIN 2429",
    "locID": "LOC100074753687",
    "tech": "SATELLITE",
    "upgrade": "NULL_NA",
    "gnaf_pid": "GANSW704165852",
    "tech_change_status": "Not Planned"
   }
  },
  {
   "type": "Feature",
   "geometry": {
    "type": "Point",
    "coordinates": [
     152.28128349,
     -31.70886572
    ]
   },
   "properties": {
    "name": "2556 BULGA ROAD BOBIN 2429",
    "locID": "LOC000027408654",
    "tech": "SATELLITE",
    "upgrade": "NULL_NA",
    "gnaf_pid": "GANSW704165853",
    "tech_change_status": "Not Planned"
   }
  },
  {
   "type": "Feature",
   "geometry": {
    "type": "Point",
    "coordinates": [
     152.28096685,
     -31.70871387
    ]
   },
   "properties": {
    "name": "2558 BULGA ROAD BOBIN 2429",
    "locID": "LOC000108340574",
    "tech": "SATELLITE",
    "upgrade": "NULL_NA",
    "gnaf_pid": "GANSW704165854",
    "tech_change_status": "Not Planned"
   }
  },
  {
   "type": "Feature",
   "geometry": {
    "type": "Point",
    "coordinates": [
     152.27834284,
     -31.69302629
    ]
   },
   "properties": {
    "name": "2755 BULGA ROAD BOBIN 2429",
    "locID": "LOC000034763745",
    "tech": "SATELLITE",
    "upgrade": "NULL_NA",
    "gnaf_pid": "GANSW704165855",
    "tech_change_status": "Not Planned"
   }
  },
  {
   "type": "Feature",
   "geometry": {
    "type": "Point",
    "coordinates": [
     152.28556003,
     -31.69007668
    ]
   },
   "properties": {
    "name": "2932 BULGA ROAD BOBIN 2429",
    "locID": "LOC000078351704",
    "tech": "SATELLITE",
    "upgrade": "NULL_NA",
    "gnaf_pid": "GANSW704165856",
    "tech_change_status": "Not Planned"
   }
  },
  {
   "type": "Feature",
   "geometry": {
    "type": "Point",
    "coordinates": [
     152.2618015,
     -31.70126504
    ]
   },
   "properties": {
    "name": "161 BOBIN CREEK ROAD BOBIN 2429",
    "locID": "LOC000055907361",
    "tech": "SATELLITE",
    "upgrade": "NULL_NA",
    "gnaf_pid": "GANSW708661127",
    "tech_change_status": "Not Planned"
   }
  },
  {
   "type": "Feature",
   "geometry": {
    "type": "Point",
    "coordinates": [
     152.28727846,
     -31.7487795
    ]
   },
   "properties": {
    "name": "57 RIVENDELL LANE BOBIN 2429",
    "locID": "LOC000075336931",
    "tech": "NULL",
    "upgrade": "NULL_NA",
    "gnaf_pid": "GANSW708661129",
    "tech_change_status": "Not Planned"
   }
  },
  {
   "type": "Feature",
   "geometry": {
    "type": "Point",
    "coordinates": [
     152.26127031,
     -31.69648931
    ]
   },
   "properties": {
    "name": "193 BOBIN CREEK ROAD BOBIN 2429",
    "locID": "LOC000037382249",
    "tech": "SATELLITE",
    "upgrade": "NULL_NA",
    "gnaf_pid": "GANSW708663487",
    "tech_change_status": "Not Planned"
   }
  },
  {
   "type": "Feature",
   "geometry": {
    "type": "Point",
    "coordinates": [
     152.27706025,
     -31.700207
    ]
   },
   "properties": {
    "name": "8 BOBIN CREEK ROAD BOBIN 2429",
    "locID": "LOC000064027775",
    "tech": "SATELLITE",
    "upgrade": "NULL_NA",
    "gnaf_pid": "GANSW708665046",
    "tech_change_status": "Not Planned"
   }
  },
  {
   "type": "Feature",
   "geometry": {
    "type": "Point",
    "coordinates": [
     152.28781095,
     -31.68115887
    ]
   },
   "properties": {
    "name": "2934 BULGA ROAD BOBIN 2429",
    "locID": "LOC000098860731",
    "tech": "SATELLITE",
    "upgrade": "NULL_NA",
    "gnaf_pid": "GANSW708665047",
    "tech_change_status": "Not Planned"
   }
  },
  {
   "type": "Feature",
   "geometry": {
    "type": "Point",
    "coordinates": [
     152.29124709,
     -31.65917861
    ]
   },
   "properties": {
    "name": "190 SWANS ROAD BOBIN 2429",
    "locID": "LOC000042615843",
    "tech": "SATELLITE",
    "upgrade": "NULL_NA",
    "gnaf_pid": "GANSW708665049",
    "tech_change_status": "Not Planned"
   }
  },
  {
   "type": "Feature",
   "geometry": {
    "type": "Point",
    "coordinates": [
     152.29313761,
     -31.74413736
    ]
   },
   "properties": {
    "name": "2050 BULGA ROAD BOBIN 2429",
    "locID": "LOC000030432668",
    "tech": "NULL",
    "upgrade": "NULL_NA",
    "gnaf_pid": "GANSW708669434",
    "tech_change_status": "Not Planned"
   }
  },
  {
   "type": "Feature",
   "geometry": {
    "type": "Point",
    "coordinates": [
     152.28111682,
     -31.7315331
    ]
   },
   "properties": {
    "name": "2281 BULGA ROAD BOBIN 2429",
    "locID": "LOC100078059085",
    "tech": "NULL",
    "upgrade": "NULL_NA",
    "gnaf_pid": "GANSW708669440",
    "tech_change_status": "Not Planned"
   }
  },
  {
   "type": "Feature",
   "geometry": {
    "type": "Point",
    "coordinates": [
     152.27545418,
     -31.70099294
    ]
   },
   "properties": {
    "name": "25 BOBIN CREEK ROAD BOBIN 2429",
    "locID": "LOC000040275350",
    "tech": "SATELLITE",
    "upgrade": "NULL_NA",
    "gnaf_pid": "GANSW708670257",
    "tech_change_status": "Not Planned"
   }
  },
  {
   "type": "Feature",
   "geometry": {
    "type": "Point",
    "coordinates": [
     152.28202641,
     -31.70613572
    ]
   },
   "properties": {
    "name": "2624 BULGA ROAD BOBIN 2429",
    "locID": "LOC000121060191",
    "tech": "NULL",
    "upgrade": "NULL_NA",
    "gnaf_pid": "GANSW708670262",
    "tech_change_status": "Not Planned"
   }
  },
  {
   "type": "Feature",
   "geometry": {
    "type": "Point",
    "coordinates": [
     152.28083445,
     -31.70855155
    ]
   },
   "properties": {
    "name": "2562 BULGA ROAD BOBIN 2429",
    "locID": "LOC000002302526",
    "tech": "NULL",
    "upgrade": "NULL_NA",
    "gnaf_pid": "GANSW708673832",
    "tech_change_status": "Not Planned"
   }
  },
  {
   "type": "Feature",
   "geometry": {
    "type": "Point",
    "coordinates": [
     152.29313194,
     -31.74059891
    ]
   },
   "properties": {
    "name": "60 KOOCUMBAT LANE BOBIN 2429",
    "locID": "LOC000040175271",
    "tech": "SATELLITE",
    "upgrade": "NULL_NA",
    "gnaf_pid": "GANSW712113537",
    "tech_change_status": "Not Planned"
   }
  },
  {
   "type": "Feature",
   "geometry": {
    "type": "Point",
    "coordinates": [
     152.29690101,
     -31.73791488
    ]
   },
   "properties": {
    "name": "91 KOOCUMBAT LANE BOBIN 2429",
    "locID": "LOC000061526206",
    "tech": "NULL",
    "upgrade": "NULL_NA",
    "gnaf_pid": "GANSW712113538",
    "tech_change_status": "Not Planned"
   }
  },
  {
   "type": "Feature",
   "geometry": {
    "type": "Point",
    "coordinates": [
     152.28667764,
     -31.69584872
    ]
   },
   "properties": {
    "name": "57 SCHNEIDERS ROAD BOBIN 2429",
    "locID": "LOC000142491023",
    "tech": "SATELLITE",
    "upgrade": "NULL_NA",
    "gnaf_pid": "GANSW712113539",
    "tech_change_status": "Not Planned"
   }
  },
  {
   "type": "Feature",
   "geometry": {
    "type": "Point",
    "coordinates": [
     152.28689947,
     -31.69979685
    ]
   },
   "properties": {
    "name": "82 SCHNEIDERS ROAD BOBIN 2429",
    "locID": "LOC000001503963",
    "tech": "SATELLITE",
    "upgrade": "NULL_NA",
    "gnaf_pid": "GANSW712113540",
    "tech_change_status": "Not Planned"
   }
  },
  {
   "type": "Feature",
   "geometry": {
    "type": "Point",
    "coordinates": [
     152.29019354,
     -31.70162301
    ]
   },
   "properties": {
    "name": "85 SCHNEIDERS ROAD BOBIN 2429",
    "locID": "LOC000036348625",
    "tech": "SATELLITE",
    "upgrade": "NULL_NA",
    "gnaf_pid": "GANSW712113541",
    "tech_change_status": "Not Planned"
   }
  },
  {
   "type": "Feature",
   "geometry": {
    "type": "Point",
    "coordinates": [
     152.26201348,
     -31.68531107
    ]
   },
   "properties": {
    "name": "37 SNOWY VIEW LANE BOBIN 2429",
    "locID": "LOC000142554574",
    "tech": "SATELLITE",
    "upgrade": "NULL_NA",
    "gnaf_pid": "GANSW712113542",
    "tech_change_status": "Not Planned"
   }
  },
  {
   "type": "Feature",
   "geometry": {
    "type": "Point",
    "coordinates": [
     152.25453973,
     -31.68404111
    ]
   },
   "properties": {
    "name": "62 SNOWY VIEW LANE BOBIN 2429",
    "locID": "LOC000077277185",
    "tech": "SATELLITE",
    "upgrade": "NULL_NA",
    "gnaf_pid": "GANSW712113543",
    "tech_change_status": "Not Planned"
   }
  },
  {
   "type": "Feature",
   "geometry": {
    "type": "Point",
    "coordinates": [
     152.29609348,
     -31.66159679
    ]
   },
   "properties": {
    "name": "116 SWANS ROAD BOBIN 2429",
    "locID": "LOC000019826904",
    "tech": "SATELLITE",
    "upgrade": "NULL_NA",
    "gnaf_pid": "GANSW712113545",
    "tech_change_status": "Not Planned"
   }
  },
  {
   "type": "Feature",
   "geometry": {
    "type": "Point",
    "coordinates": [
     152.28618195,
     -31.65325073
    ]
   },
   "properties": {
    "name": "211 SWANS ROAD BOBIN 2429",
    "locID": "LOC000100073898",
    "tech": "SATELLITE",
    "upgrade": "NULL_NA",
    "gnaf_pid": "GANSW712113546",
    "tech_change_status": "Not Planned"
   }
  },
  {
   "type": "Feature",
   "geometry": {
    "type": "Point",
    "coordinates": [
     152.28589888,
     -31.73482028
    ]
   },
   "properties": {
    "name": "2240 BULGA ROAD BOBIN 2429",
    "locID": "LOC000083374805",
    "tech": "SATELLITE",
    "upgrade": "NULL_NA",
    "gnaf_pid": "GANSW712162542",
    "tech_change_status": "Not Planned"
   }
  },
  {
   "type": "Feature",
   "geometry": {
    "type": "Point",
    "coordinates": [
     152.2830169,
     -31.71218252
    ]
   },
   "properties": {
    "name": "2512 BULGA ROAD BOBIN 2429",
    "locID": "LOC000057840208",
    "tech": "NULL",
    "upgrade": "NULL_NA",
    "gnaf_pid": "GANSW712162543",
    "tech_change_status": "Not Planned"
   }
  },
  {
   "type": "Feature",
   "geometry": {
    "type": "Point",
    "coordinates": [
     152.29324349,
     -31.74793552
    ]
   },
   "properties": {
    "name": "2053 BULGA ROAD BOBIN 2429",
    "locID": "LOC000097951942",
    "tech": "NULL",
    "upgrade": "NULL_NA",
    "gnaf_pid": "GANSW712162544",
    "tech_change_status": "Not Planned"
   }
  },
  {
   "type": "Feature",
   "geometry": {
    "type": "Point",
    "coordinates": [
     152.2906356,
     -31.74898248
    ]
   },
   "properties": {
    "name": "2057 BULGA ROAD BOBIN 2429",
    "locID": "LOC000018784665",
    "tech": "NULL",
    "upgrade": "NULL_NA",
    "gnaf_pid": "GANSW712162545",
    "tech_change_status": "Not Planned"
   }
  },
  {
   "type": "Feature",
   "geometry": {
    "type": "Point",
    "coordinates": [
     152.28435949,
     -31.72666232
    ]
   },
   "properties": {
    "name": "2334 BULGA ROAD BOBIN 2429",
    "locID": "LOC000049529266",
    "tech": "SATELLITE",
    "upgrade": "NULL_NA",
    "gnaf_pid": "GANSW712162546",
    "tech_change_status": "Not Planned"
   }
  },
  {
   "type": "Feature",
   "geometry": {
    "type": "Point",
    "coordinates": [
     152.28411134,
     -31.71991864
    ]
   },
   "properties": {
    "name": "2421 BULGA ROAD BOBIN 2429",
    "locID": "LOC000060952534",
    "tech": "SATELLITE",
    "upgrade": "NULL_NA",
    "gnaf_pid": "GANSW712162547",
    "tech_change_status": "Not Planned"
   }
  },
  {
   "type": "Feature",
   "geometry": {
    "type": "Point",
    "coordinates": [
     152.28215306,
     -31.71021033
    ]
   },
   "properties": {
    "name": "2533 BULGA ROAD BOBIN 2429",
    "locID": "LOC000063825459",
    "tech": "SATELLITE",
    "upgrade": "NULL_NA",
    "gnaf_pid": "GANSW712162550",
    "tech_change_status": "Not Planned"
   }
  },
  {
   "type": "Feature",
   "geometry": {
    "type": "Point",
    "coordinates": [
     152.27337023,
     -31.70778982
    ]
   },
   "properties": {
    "name": "2569 BULGA ROAD BOBIN 2429",
    "locID": "LOC000010889153",
    "tech": "NULL",
    "upgrade": "NULL_NA",
    "gnaf_pid": "GANSW712162553",
    "tech_change_status": "Not Planned"
   }
  },
  {
   "type": "Feature",
   "geometry": {
    "type": "Point",
    "coordinates": [
     152.30268828,
     -31.69429335
    ]
   },
   "properties": {
    "name": "200 MILLERS ROAD BOBIN 2429",
    "locID": "LOC000071350559",
    "tech": "NULL",
    "upgrade": "NULL_NA",
    "gnaf_pid": "GANSW712162555",
    "tech_change_status": "Not Planned"
   }
  },
  {
   "type": "Feature",
   "geometry": {
    "type": "Point",
    "coordinates": [
     152.26406876,
     -31.68384771
    ]
   },
   "properties": {
    "name": "1 BOBIN CREEK ROAD BOBIN 2429",
    "locID": "LOC000107308776",
    "tech": "SATELLITE",
    "upgrade": "NULL_NA",
    "gnaf_pid": "GANSW712165760",
    "tech_change_status": "Not Planned"
   }
  },
  {
   "type": "Feature",
   "geometry": {
    "type": "Point",
    "coordinates": [
     152.26406876,
     -31.68384771
    ]
   },
   "properties": {
    "name": "3 BOBIN CREEK ROAD BOBIN 2429",
    "locID": "LOC000191366650",
    "tech": "SATELLITE",
    "upgrade": "NULL_NA",
    "gnaf_pid": "GANSW712165767",
    "tech_change_status": "Not Planned"
   }
  },
  {
   "type": "Feature",
   "geometry": {
    "type": "Point",
    "coordinates": [
     152.27487327,
     -31.70066831
    ]
   },
   "properties": {
    "name": "26 BOBIN CREEK ROAD BOBIN 2429",
    "locID": "LOC000074826508",
    "tech": "NULL",
    "upgrade": "NULL_NA",
    "gnaf_pid": "GANSW712165771",
    "tech_change_status": "Not Planned"
   }
  },
  {
   "type": "Feature",
   "geometry": {
    "type": "Point",
    "coordinates": [
     152.27010802,
     -31.70373453
    ]
   },
   "properties": {
    "name": "103 BOBIN CREEK ROAD BOBIN 2429",
    "locID": "LOC000078958374",
    "tech": "SATELLITE",
    "upgrade": "NULL_NA",
    "gnaf_pid": "GANSW712165773",
    "tech_change_status": "Not Planned"
   }
  },
  {
   "type": "Feature",
   "geometry": {
    "type": "Point",
    "coordinates": [
     152.26479199,
     -31.70422273
    ]
   },
   "properties": {
    "name": "111 BOBIN CREEK ROAD BOBIN 2429",
    "locID": "LOC000036378523",
    "tech": "SATELLITE",
    "upgrade": "NULL_NA",
    "gnaf_pid": "GANSW712165774",
    "tech_change_status": "Not Planned"
   }
  },
  {
   "type": "Feature",
   "geometry": {
    "type": "Point",
    "coordinates": [
     152.26820621,
     -31.69789615
    ]
   },
   "properties": {
    "name": "160 BOBIN CREEK ROAD BOBIN 2429",
    "locID": "LOC000021392360",
    "tech": "SATELLITE",
    "upgrade": "NULL_NA",
    "gnaf_pid": "GANSW712165775",
    "tech_change_status": "Not Planned"
   }
  },
  {
   "type": "Feature",
   "geometry": {
    "type": "Point",
    "coordinates": [
     152.2633899,
     -31.67912239
    ]
   },
   "properties": {
    "name": "385 BOBIN CREEK ROAD BOBIN 2429",
    "locID": "LOC000004629170",
    "tech": "SATELLITE",
    "upgrade": "NULL_NA",
    "gnaf_pid": "GANSW712182602",
    "tech_change_status": "Not Planned"
   }
  },
  {
   "type": "Feature",
   "geometry": {
    "type": "Point",
    "coordinates": [
     152.26515742,
     -31.67604499
    ]
   },
   "properties": {
    "name": "444 BOBIN CREEK ROAD BOBIN 2429",
    "locID": "LOC000001492568",
    "tech": "SATELLITE",
    "upgrade": "NULL_NA",
    "gnaf_pid": "GANSW712182603",
    "tech_change_status": "Not Planned"
   }
  },
  {
   "type": "Feature",
   "geometry": {
    "type": "Point",
    "coordinates": [
     152.25624025,
     -31.67410763
    ]
   },
   "properties": {
    "name": "537 BOBIN CREEK ROAD BOBIN 2429",
    "locID": "LOC000083841338",
    "tech": "SATELLITE",
    "upgrade": "NULL_NA",
    "gnaf_pid": "GANSW712182604",
    "tech_change_status": "Not Planned"
   }
  },
  {
   "type": "Feature",
   "geometry": {
    "type": "Point",
    "coordinates": [
     152.25322886,
     -31.67466594
    ]
   },
   "properties": {
    "name": "547 BOBIN CREEK ROAD BOBIN 2429",
    "locID": "LOC000032338705",
    "tech": "SATELLITE",
    "upgrade": "NULL_NA",
    "gnaf_pid": "GANSW712182605",
    "tech_change_status": "Not Planned"
   }
  },
  {
   "type": "Feature",
   "geometry": {
    "type": "Point",
    "coordinates": [
     152.24974985,
     -31.67549817
    ]
   },
   "properties": {
    "name": "555 BOBIN CREEK ROAD BOBIN 2429",
    "locID": "LOC000031305666",
    "tech": "SATELLITE",
    "upgrade": "NULL_NA",
    "gnaf_pid": "GANSW712182606",
    "tech_change_status": "Not Planned"
   }
  },
  {
   "type": "Feature",
   "geometry": {
    "type": "Point",
    "coordinates": [
     152.28025708,
     -31.70585879
    ]
   },
   "properties": {
    "name": "2588 BULGA ROAD BOBIN 2429",
    "locID": "LOC000102065952",
    "tech": "SATELLITE",
    "upgrade": "NULL_NA",
    "gnaf_pid": "GANSW712182888",
    "tech_change_status": "Not Planned"
   }
  },
  {
   "type": "Feature",
   "geometry": {
    "type": "Point",
    "coordinates": [
     152.27669438,
     -31.70536734
    ]
   },
   "properties": {
    "name": "2621 BULGA ROAD BOBIN 2429",
    "locID": "LOC000090610219",
    "tech": "SATELLITE",
    "upgrade": "NULL_NA",
    "gnaf_pid": "GANSW712182889",
    "tech_change_status": "Not Planned"
   }
  },
  {
   "type": "Feature",
   "geometry": {
    "type": "Point",
    "coordinates": [
     152.28220209,
     -31.6921477
    ]
   },
   "properties": {
    "name": "2750 BULGA ROAD BOBIN 2429",
    "locID": "LOC000084658454",
    "tech": "SATELLITE",
    "upgrade": "NULL_NA",
    "gnaf_pid": "GANSW712182891",
    "tech_change_status": "Not Planned"
   }
  },
  {
   "type": "Feature",
   "geometry": {
    "type": "Point",
    "coordinates": [
     152.27870867,
     -31.69246978
    ]
   },
   "properties": {
    "name": "2756 BULGA ROAD BOBIN 2429",
    "locID": "LOC000049608637",
    "tech": "SATELLITE",
    "upgrade": "NULL_NA",
    "gnaf_pid": "GANSW712182892",
    "tech_change_status": "Not Planned"
   }
  },
  {
   "type": "Feature",
   "geometry": {
    "type": "Point",
    "coordinates": [
     152.27728959,
     -31.68925978
    ]
   },
   "properties": {
    "name": "2809 BULGA ROAD BOBIN 2429",
    "locID": "LOC000068551198",
    "tech": "SATELLITE",
    "upgrade": "NULL_NA",
    "gnaf_pid": "GANSW712182893",
    "tech_change_status": "Not Planned"
   }
  },
  {
   "type": "Feature",
   "geometry": {
    "type": "Point",
    "coordinates": [
     152.28530406,
     -31.67633678
    ]
   },
   "properties": {
    "name": "2985 BULGA ROAD BOBIN 2429",
    "locID": "LOC000014594510",
    "tech": "SATELLITE",
    "upgrade": "NULL_NA",
    "gnaf_pid": "GANSW712182894",
    "tech_change_status": "Not Planned"
   }
  },
  {
   "type": "Feature",
   "geometry": {
    "type": "Point",
    "coordinates": [
     152.28276503,
     -31.66927131
    ]
   },
   "properties": {
    "name": "3043 BULGA ROAD BOBIN 2429",
    "locID": "LOC000074905597",
    "tech": "SATELLITE",
    "upgrade": "NULL_NA",
    "gnaf_pid": "GANSW712182895",
    "tech_change_status": "Not Planned"
   }
  },
  {
   "type": "Feature",
   "geometry": {
    "type": "Point",
    "coordinates": [
     152.28942488,
     -31.70644973
    ]
   },
   "properties": {
    "name": "64 MILLERS ROAD BOBIN 2429",
    "locID": "LOC000022876005",
    "tech": "SATELLITE",
    "upgrade": "NULL_NA",
    "gnaf_pid": "GANSW713143217",
    "tech_change_status": "Not Planned"
   }
  },
  {
   "type": "Feature",
   "geometry": {
    "type": "Point",
    "coordinates": [
     152.28041752,
     -31.70827511
    ]
   },
   "properties": {
    "name": "2566 BULGA ROAD BOBIN 2429",
    "locID": "LOC000035087779",
    "tech": "NULL",
    "upgrade": "NULL_NA",
    "gnaf_pid": "GANSW715360593",
    "tech_change_status": "Not Planned"
   }
  },
  {
   "type": "Feature",
   "geometry": {
    "type": "Point",
    "coordinates": [
     152.26477044,
     -31.69692586
    ]
   },
   "properties": {
    "name": "196 BOBIN CREEK ROAD BOBIN 2429",
    "locID": "LOC000091699299",
    "tech": "SATELLITE",
    "upgrade": "NULL_NA",
    "gnaf_pid": "GANSW716384765",
    "tech_change_status": "Not Planned"
   }
  },
  {
   "type": "Feature",
   "geometry": {
    "type": "Point",
    "coordinates": [
     152.27880479,
     -31.6912404
    ]
   },
   "properties": {
    "name": "2754 BULGA ROAD BOBIN 2429",
    "locID": "LOC000035477836",
    "tech": "SATELLITE",
    "upgrade": "NULL_NA",
    "gnaf_pid": "GANSW716466406",
    "tech_change_status": "Not Planned"
   }
  },
  {
   "type": "Feature",
   "geometry": {
    "type": "Point",
    "coordinates": [
     152.28615032,
     -31.73017046
    ]
   },
   "properties": {
    "name": "2280-2281 BULGA ROAD BOBIN 2429",
    "locID": "LOC100078059085",
    "tech": "NULL",
    "upgrade": "NULL_NA",
    "gnaf_pid": "GANSW716728848",
    "tech_change_status": "Not Planned"
   }
  },
  {
   "type": "Feature",
   "geometry": {
    "type": "Point",
    "coordinates": [
     152.28215103,
     -31.71270203
    ]
   },
   "properties": {
    "name": "2509 BULGA ROAD BOBIN 2429",
    "locID": "LOC000032381345",
    "tech": "SATELLITE",
    "upgrade": "NULL_NA",
    "gnaf_pid": "GANSW716728850",
    "tech_change_status": "Not Planned"
   }
  },
  {
   "type": "Feature",
   "geometry": {
    "type": "Point",
    "coordinates": [
     152.26121249,
     -31.71495749
    ]
   },
   "properties": {
    "name": "2567 BULGA ROAD BOBIN 2429",
    "locID": "LOC000054476561",
    "tech": "NULL",
    "upgrade": "NULL_NA",
    "gnaf_pid": "GANSW716728852",
    "tech_change_status": "Not Planned"
   }
  },
  {
   "type": "Feature",
   "geometry": {
    "type": "Point",
    "coordinates": [
     152.28878792,
     -31.71696376
    ]
   },
   "properties": {
    "name": "45 GUNYAH ROAD BOBIN 2429",
    "locID": "LOC100078058818",
    "tech": "NULL",
    "upgrade": "NULL_NA",
    "gnaf_pid": "GANSW716733637",
    "tech_change_status": "Not Planned"
   }
  },
  {
   "type": "Feature",
   "geometry": {
    "type": "Point",
    "coordinates": [
     152.2888438,
     -31.68006636
    ]
   },
   "properties": {
    "name": "66 KIPPAX ROAD BOBIN 2429",
    "locID": "LOC000121018220",
    "tech": "SATELLITE",
    "upgrade": "NULL_NA",
    "gnaf_pid": "GANSW716735604",
    "tech_change_status": "Not Planned"
   }
  },
  {
   "type": "Feature",
   "geometry": {
    "type": "Point",
    "coordinates": [
     152.28299941,
     -31.74584761
    ]
   },
   "properties": {
    "name": "64 RIVENDELL LANE BOBIN 2429",
    "locID": "LOC000014869781",
    "tech": "NULL",
    "upgrade": "NULL_NA",
    "gnaf_pid": "GANSW716741494",
    "tech_change_status": "Not Planned"
   }
  },
  {
   "type": "Feature",
   "geometry": {
    "type": "Point",
    "coordinates": [
     152.29188617,
     -31.66607611
    ]
   },
   "properties": {
    "name": "63 SWANS ROAD BOBIN 2429",
    "locID": "LOC000025549272",
    "tech": "SATELLITE",
    "upgrade": "NULL_NA",
    "gnaf_pid": "GANSW716743055",
    "tech_change_status": "Not Planned"
   }
  },
  {
   "type": "Feature",
   "geometry": {
    "type": "Point",
    "coordinates": [
     152.28138436,
     -31.6938541
    ]
   },
   "properties": {
    "name": "7 SCHNEIDERS ROAD BOBIN 2429",
    "locID": "LOC000007363518",
    "tech": "NULL",
    "upgrade": "NULL_NA",
    "gnaf_pid": "GANSW716934889",
    "tech_change_status": "Not Planned"
   }
  },
  {
   "type": "Feature",
   "geometry": {
    "type": "Point",
    "coordinates": [
     152.31305273,
     -31.70280987
    ]
   },
   "properties": {
    "name": "279 GUNYAH ROAD BOBIN 2429",
    "locID": "LOC000029734235",
    "tech": "SATELLITE",
    "upgrade": "NULL_NA",
    "gnaf_pid": "GANSW717065360",
    "tech_change_status": "Not Planned"
   }
  },
  {
   "type": "Feature",
   "geometry": {
    "type": "Point",
    "coordinates": [
     152.2906766,
     -31.72220727
    ]
   },
   "properties": {
    "name": "2 GUNYAH ROAD BOBIN 2429",
    "locID": "LOC000142497196",
    "tech": "SATELLITE",
    "upgrade": "NULL_NA",
    "gnaf_pid": "GANSW717953293",
    "tech_change_status": "Not Planned"
   }
  },
  {
   "type": "Feature",
   "geometry": {
    "type": "Point",
    "coordinates": [
     152.29515268,
     -31.71804723
    ]
   },
   "properties": {
    "name": "88 GUNYAH ROAD BOBIN 2429",
    "locID": "LOC000150092801",
    "tech": "SATELLITE",
    "upgrade": "NULL_NA",
    "gnaf_pid": "GANSW718410564",
    "tech_change_status": "Not Planned"
   }
  },
  {
   "type": "Feature",
   "geometry": {
    "type": "Point",
    "coordinates": [
     152.29847706,
     -31.70324608
    ]
   },
   "properties": {
    "name": "161 MILLERS ROAD BOBIN 2429",
    "locID": "LOC000164957989",
    "tech": "SATELLITE",
    "upgrade": "NULL_NA",
    "gnaf_pid": "GANSW719254843",
    "tech_change_status": "Not Planned"
   }
  }
 ]
}