{
 "type": "FeatureCollection",
 "generated": "2026-06-29T20:05:47.723853",
 "suburb": "BOONAL",
 "features": [
  {
   "type": "Feature",
   "geometry": {
    "type": "Point",
    "coordinates": [
     150.61257466,
     -28.74625627
    ]
   },
   "properties": {
    "name": "1399 TUCKA TUCKA ROAD BOONAL 2409",
    "locID": "LOC000060982573",
    "tech": "NULL",
    "upgrade": "NULL_NA",
    "gnaf_pid": "GANSW717968709",
    "tech_change_status": "Not Planned"
   }
  },
  {
   "type": "Feature",
   "geometry": {
    "type": "Point",
    "coordinates": [
     150.64044739,
     -28.74139742
    ]
   },
   "properties": {
    "name": "1562 TUCKA TUCKA ROAD BOONAL 2409",
    "locID": "LOC000053381639",
    "tech": "NULL",
    "upgrade": "NULL_NA",
    "gnaf_pid": "GANSW717968710",
    "tech_change_status": "Not Planned"
   }
  },
  {
   "type": "Feature",
   "geometry": {
    "type": "Point",
    "coordinates": [
     150.57759882,
     -28.75535399
    ]
   },
   "properties": {
    "name": "2015 TUCKA TUCKA ROAD BOONAL 2409",
    "locID": "LOC000056715176",
    "tech": "NULL",
    "upgrade": "NULL_NA",
    "gnaf_pid": "GANSW717968711",
    "tech_change_status": "Not Planned"
   }
  },
  {
   "type": "Feature",
   "geometry": {
    "type": "Point",
    "coordinates": [
     150.553417,
     -28.72267456
    ]
   },
   "properties": {
    "name": "2402 TUCKA TUCKA ROAD BOONAL 2409",
    "locID": "LOC000148074757",
    "tech": "NULL",
    "upgrade": "NULL_NA",
    "gnaf_pid": "GANSW718501501",
    "tech_change_status": "Not Planned"
   }
  },
  {
   "type": "Feature",
   "geometry": {
    "type": "Point",
    "coordinates": [
     150.64911703,
     -28.73875738
    ]
   },
   "properties": {
    "name": "1420 TUCKA TUCKA ROAD BOONAL 2409",
    "locID": "LOC000148061118",
    "tech": "NULL",
    "upgrade": "NULL_NA",
    "gnaf_pid": "GANSW718702829",
    "tech_change_status": "Not Planned"
   }
  },
  {
   "type": "Feature",
   "geometry": {
    "type": "Point",
    "coordinates": [
     150.66866654,
     -28.79405952
    ]
   },
   "properties": {
    "name": "19216 BRUXNER WAY BOONAL 2409",
    "locID": "LOC000148069019",
    "tech": "SATELLITE",
    "upgrade": "NULL_NA",
    "gnaf_pid": "GANSW718721126",
    "tech_change_status": "Not Planned"
   }
  },
  {
   "type": "Feature",
   "geometry": {
    "type": "Point",
    "coordinates": [
     150.64066922,
     -28.79941433
    ]
   },
   "properties": {
    "name": "19312 BRUXNER WAY BOONAL 2409",
    "locID": "LOC000148069090",
    "tech": "NULL",
    "upgrade": "NULL_NA",
    "gnaf_pid": "GANSW718721127",
    "tech_change_status": "Not Planned"
   }
  },
  {
   "type": "Feature",
   "geometry": {
    "type": "Point",
    "coordinates": [
     150.61680069,
     -28.83068075
    ]
   },
   "properties": {
    "name": "19551 BRUXNER WAY BOONAL 2409",
    "locID": "LOC000168612958",
    "tech": "SATELLITE",
    "upgrade": "NULL_NA",
    "gnaf_pid": "GANSW718721128",
    "tech_change_status": "Not Planned"
   }
  },
  {
   "type": "Feature",
   "geometry": {
    "type": "Point",
    "coordinates": [
     150.58249032,
     -28.79408528
    ]
   },
   "properties": {
    "name": "19910 BRUXNER WAY BOONAL 2409",
    "locID": "LOC000148069821",
    "tech": "NULL",
    "upgrade": "NULL_NA",
    "gnaf_pid": "GANSW718721129",
    "tech_change_status": "Not Planned"
   }
  },
  {
   "type": "Feature",
   "geometry": {
    "type": "Point",
    "coordinates": [
     150.56660635,
     -28.81748974
    ]
   },
   "properties": {
    "name": "19911 BRUXNER WAY BOONAL 2409",
    "locID": "LOC000148069832",
    "tech": "NULL",
    "upgrade": "NULL_NA",
    "gnaf_pid": "GANSW718721130",
    "tech_change_status": "Not Planned"
   }
  },
  {
   "type": "Feature",
   "geometry": {
    "type": "Point",
    "coordinates": [
     150.50677929,
     -28.76086758
    ]
   },
   "properties": {
    "name": "20746 BRUXNER WAY BOONAL 2409",
    "locID": "LOC000148071061",
    "tech": "WIRELESS",
    "upgrade": "NULL_NA",
    "gnaf_pid": "GANSW718721131",
    "tech_change_status": "Not Planned"
   }
  },
  {
   "type": "Feature",
   "geometry": {
    "type": "Point",
    "coordinates": [
     150.47087857,
     -28.72996696
    ]
   },
   "properties": {
    "name": "3319 TUCKA TUCKA ROAD BOONAL 2409",
    "locID": "LOC100078035794",
    "tech": "WIRELESS",
    "upgrade": "NULL_NA",
    "gnaf_pid": "GANSW720320213",
    "tech_change_status": "Not Planned"
   }
  },
  {
   "type": "Feature",
   "geometry": {
    "type": "Point",
    "coordinates": [
     150.55102622,
     -28.76102808
    ]
   },
   "properties": {
    "name": "20416 BRUXNER WAY BOONAL 2409",
    "locID": "LOC100080082942",
    "tech": "SATELLITE",
    "upgrade": "NULL_NA",
    "gnaf_pid": "GANSW720679256",
    "tech_change_status": "Not Planned"
   }
  }
 ]
}