{
 "type": "FeatureCollection",
 "generated": "2025-01-27T03:35:27.443782",
 "suburb": "BOOYONG",
 "features": [
  {
   "type": "Feature",
   "geometry": {
    "type": "Point",
    "coordinates": [
     153.44575761,
     -28.75955325
    ]
   },
   "properties": {
    "name": "2 PEARCE ROAD BOOYONG 2480",
    "locID": "LOC000005604102",
    "tech": "WIRELESS",
    "upgrade": "NULL_NA",
    "gnaf_pid": "GANSW704198088",
    "tech_change_status": "Not Planned",
    "program_type": "Fixed Wireless and Satellite Upgrade Program",
    "target_eligibility_quarter": "NA"
   }
  },
  {
   "type": "Feature",
   "geometry": {
    "type": "Point",
    "coordinates": [
     153.44122681,
     -28.75833616
    ]
   },
   "properties": {
    "name": "39 PEARCE ROAD BOOYONG 2480",
    "locID": "LOC000062645809",
    "tech": "WIRELESS",
    "upgrade": "NULL_NA",
    "gnaf_pid": "GANSW704198089",
    "tech_change_status": "Not Planned",
    "program_type": "Fixed Wireless and Satellite Upgrade Program",
    "target_eligibility_quarter": "NA"
   }
  },
  {
   "type": "Feature",
   "geometry": {
    "type": "Point",
    "coordinates": [
     153.4341813,
     -28.76038096
    ]
   },
   "properties": {
    "name": "863 ELTHAM ROAD BOOYONG 2480",
    "locID": "LOC000087974785",
    "tech": "WIRELESS",
    "upgrade": "NULL_NA",
    "gnaf_pid": "GANSW704202464",
    "tech_change_status": "Not Planned",
    "program_type": "Fixed Wireless and Satellite Upgrade Program",
    "target_eligibility_quarter": "NA"
   }
  },
  {
   "type": "Feature",
   "geometry": {
    "type": "Point",
    "coordinates": [
     153.4360819,
     -28.75885845
    ]
   },
   "properties": {
    "name": "870 ELTHAM ROAD BOOYONG 2480",
    "locID": "LOC000037238446",
    "tech": "WIRELESS",
    "upgrade": "NULL_NA",
    "gnaf_pid": "GANSW704202465",
    "tech_change_status": "Not Planned",
    "program_type": "Fixed Wireless and Satellite Upgrade Program",
    "target_eligibility_quarter": "NA"
   }
  },
  {
   "type": "Feature",
   "geometry": {
    "type": "Point",
    "coordinates": [
     153.43931797,
     -28.75255681
    ]
   },
   "properties": {
    "name": "882 ELTHAM ROAD BOOYONG 2480",
    "locID": "LOC000062126068",
    "tech": "WIRELESS",
    "upgrade": "NULL_NA",
    "gnaf_pid": "GANSW704202466",
    "tech_change_status": "Not Planned",
    "program_type": "Fixed Wireless and Satellite Upgrade Program",
    "target_eligibility_quarter": "NA"
   }
  },
  {
   "type": "Feature",
   "geometry": {
    "type": "Point",
    "coordinates": [
     153.44054443,
     -28.75996262
    ]
   },
   "properties": {
    "name": "1 PEARCE ROAD BOOYONG 2480",
    "locID": "LOC000029147359",
    "tech": "WIRELESS",
    "upgrade": "NULL_NA",
    "gnaf_pid": "GANSW704204290",
    "tech_change_status": "Not Planned",
    "program_type": "Fixed Wireless and Satellite Upgrade Program",
    "target_eligibility_quarter": "NA"
   }
  },
  {
   "type": "Feature",
   "geometry": {
    "type": "Point",
    "coordinates": [
     153.44444675,
     -28.75103351
    ]
   },
   "properties": {
    "name": "101 PEARCE ROAD BOOYONG 2480",
    "locID": "LOC000056115688",
    "tech": "WIRELESS",
    "upgrade": "NULL_NA",
    "gnaf_pid": "GANSW704204291",
    "tech_change_status": "Not Planned",
    "program_type": "Fixed Wireless and Satellite Upgrade Program",
    "target_eligibility_quarter": "NA"
   }
  },
  {
   "type": "Feature",
   "geometry": {
    "type": "Point",
    "coordinates": [
     153.45059261,
     -28.74701127
    ]
   },
   "properties": {
    "name": "643 BOOYONG ROAD BOOYONG 2480",
    "locID": "LOC000035417142",
    "tech": "WIRELESS",
    "upgrade": "NULL_NA",
    "gnaf_pid": "GANSW708682795",
    "tech_change_status": "Not Planned",
    "program_type": "Fixed Wireless and Satellite Upgrade Program",
    "target_eligibility_quarter": "NA"
   }
  },
  {
   "type": "Feature",
   "geometry": {
    "type": "Point",
    "coordinates": [
     153.43972101,
     -28.76212759
    ]
   },
   "properties": {
    "name": "922 ELTHAM ROAD BOOYONG 2480",
    "locID": "LOC000089872602",
    "tech": "WIRELESS",
    "upgrade": "NULL_NA",
    "gnaf_pid": "GANSW708698692",
    "tech_change_status": "Not Planned",
    "program_type": "Fixed Wireless and Satellite Upgrade Program",
    "target_eligibility_quarter": "NA"
   }
  },
  {
   "type": "Feature",
   "geometry": {
    "type": "Point",
    "coordinates": [
     153.44114357,
     -28.76470933
    ]
   },
   "properties": {
    "name": "930 ELTHAM ROAD BOOYONG 2480",
    "locID": "LOC000035251332",
    "tech": "WIRELESS",
    "upgrade": "NULL_NA",
    "gnaf_pid": "GANSW712311277",
    "tech_change_status": "Not Planned",
    "program_type": "Fixed Wireless and Satellite Upgrade Program",
    "target_eligibility_quarter": "NA"
   }
  },
  {
   "type": "Feature",
   "geometry": {
    "type": "Point",
    "coordinates": [
     153.45267535,
     -28.7509428
    ]
   },
   "properties": {
    "name": "592 BOOYONG ROAD BOOYONG 2480",
    "locID": "LOC000023261907",
    "tech": "WIRELESS",
    "upgrade": "NULL_NA",
    "gnaf_pid": "GANSW715358536",
    "tech_change_status": "Not Planned",
    "program_type": "Fixed Wireless and Satellite Upgrade Program",
    "target_eligibility_quarter": "NA"
   }
  },
  {
   "type": "Feature",
   "geometry": {
    "type": "Point",
    "coordinates": [
     153.45214714,
     -28.74930574
    ]
   },
   "properties": {
    "name": "595 BOOYONG ROAD BOOYONG 2480",
    "locID": "LOC000011855588",
    "tech": "WIRELESS",
    "upgrade": "NULL_NA",
    "gnaf_pid": "GANSW715358537",
    "tech_change_status": "Not Planned",
    "program_type": "Fixed Wireless and Satellite Upgrade Program",
    "target_eligibility_quarter": "NA"
   }
  },
  {
   "type": "Feature",
   "geometry": {
    "type": "Point",
    "coordinates": [
     153.44236635,
     -28.74249328
    ]
   },
   "properties": {
    "name": "760 BOOYONG ROAD BOOYONG 2480",
    "locID": "LOC000028076443",
    "tech": "WIRELESS",
    "upgrade": "NULL_NA",
    "gnaf_pid": "GANSW715358538",
    "tech_change_status": "Not Planned",
    "program_type": "Fixed Wireless and Satellite Upgrade Program",
    "target_eligibility_quarter": "NA"
   }
  },
  {
   "type": "Feature",
   "geometry": {
    "type": "Point",
    "coordinates": [
     153.4609891,
     -28.74849837
    ]
   },
   "properties": {
    "name": "470 BOOYONG ROAD BOOYONG 2480",
    "locID": "LOC000008674116",
    "tech": "WIRELESS",
    "upgrade": "NULL_NA",
    "gnaf_pid": "GANSW715755339",
    "tech_change_status": "Not Planned",
    "program_type": "Fixed Wireless and Satellite Upgrade Program",
    "target_eligibility_quarter": "NA"
   }
  },
  {
   "type": "Feature",
   "geometry": {
    "type": "Point",
    "coordinates": [
     153.46015879,
     -28.7525624
    ]
   },
   "properties": {
    "name": "480 BOOYONG ROAD BOOYONG 2480",
    "locID": "LOC000065498924",
    "tech": "WIRELESS",
    "upgrade": "NULL_NA",
    "gnaf_pid": "GANSW715755340",
    "tech_change_status": "Not Planned",
    "program_type": "Fixed Wireless and Satellite Upgrade Program",
    "target_eligibility_quarter": "NA"
   }
  },
  {
   "type": "Feature",
   "geometry": {
    "type": "Point",
    "coordinates": [
     153.46056022,
     -28.75534603
    ]
   },
   "properties": {
    "name": "501 BOOYONG ROAD BOOYONG 2480",
    "locID": "LOC000109820646",
    "tech": "WIRELESS",
    "upgrade": "NULL_NA",
    "gnaf_pid": "GANSW715755341",
    "tech_change_status": "Not Planned",
    "program_type": "Fixed Wireless and Satellite Upgrade Program",
    "target_eligibility_quarter": "NA"
   }
  },
  {
   "type": "Feature",
   "geometry": {
    "type": "Point",
    "coordinates": [
     153.45644049,
     -28.7524246
    ]
   },
   "properties": {
    "name": "588 BOOYONG ROAD BOOYONG 2480",
    "locID": "LOC000019705747",
    "tech": "WIRELESS",
    "upgrade": "NULL_NA",
    "gnaf_pid": "GANSW715755343",
    "tech_change_status": "Not Planned",
    "program_type": "Fixed Wireless and Satellite Upgrade Program",
    "target_eligibility_quarter": "NA"
   }
  },
  {
   "type": "Feature",
   "geometry": {
    "type": "Point",
    "coordinates": [
     153.449065,
     -28.74620092
    ]
   },
   "properties": {
    "name": "677 BOOYONG ROAD BOOYONG 2480",
    "locID": "LOC000060878753",
    "tech": "WIRELESS",
    "upgrade": "NULL_NA",
    "gnaf_pid": "GANSW715755344",
    "tech_change_status": "Not Planned",
    "program_type": "Fixed Wireless and Satellite Upgrade Program",
    "target_eligibility_quarter": "NA"
   }
  },
  {
   "type": "Feature",
   "geometry": {
    "type": "Point",
    "coordinates": [
     153.4352405,
     -28.74240227
    ]
   },
   "properties": {
    "name": "813 BOOYONG ROAD BOOYONG 2480",
    "locID": "LOC000068916985",
    "tech": "WIRELESS",
    "upgrade": "NULL_NA",
    "gnaf_pid": "GANSW715755346",
    "tech_change_status": "Not Planned",
    "program_type": "Fixed Wireless and Satellite Upgrade Program",
    "target_eligibility_quarter": "NA"
   }
  },
  {
   "type": "Feature",
   "geometry": {
    "type": "Point",
    "coordinates": [
     153.45632989,
     -28.75180091
    ]
   },
   "properties": {
    "name": "590 BOOYONG ROAD BOOYONG 2480",
    "locID": "LOC000074525041",
    "tech": "WIRELESS",
    "upgrade": "NULL_NA",
    "gnaf_pid": "GANSW716573199",
    "tech_change_status": "Not Planned",
    "program_type": "Fixed Wireless and Satellite Upgrade Program",
    "target_eligibility_quarter": "NA"
   }
  },
  {
   "type": "Feature",
   "geometry": {
    "type": "Point",
    "coordinates": [
     153.45260725,
     -28.75340975
    ]
   },
   "properties": {
    "name": "569 BOOYONG ROAD BOOYONG 2480",
    "locID": "LOC000014745120",
    "tech": "WIRELESS",
    "upgrade": "NULL_NA",
    "gnaf_pid": "GANSW716603648",
    "tech_change_status": "Not Planned",
    "program_type": "Fixed Wireless and Satellite Upgrade Program",
    "target_eligibility_quarter": "NA"
   }
  },
  {
   "type": "Feature",
   "geometry": {
    "type": "Point",
    "coordinates": [
     153.44783681,
     -28.74441902
    ]
   },
   "properties": {
    "name": "LOT 1 BOOYONG ROAD BOOYONG 2480",
    "locID": "LOC000065498924",
    "tech": "WIRELESS",
    "upgrade": "NULL_NA",
    "gnaf_pid": "GANSW716603649",
    "tech_change_status": "Not Planned",
    "program_type": "Fixed Wireless and Satellite Upgrade Program",
    "target_eligibility_quarter": "NA"
   }
  },
  {
   "type": "Feature",
   "geometry": {
    "type": "Point",
    "coordinates": [
     153.44438353,
     -28.75702993
    ]
   },
   "properties": {
    "name": "63 PEARCE ROAD BOOYONG 2480",
    "locID": "LOC100078036010",
    "tech": "WIRELESS",
    "upgrade": "NULL_NA",
    "gnaf_pid": "GANSW716931861",
    "tech_change_status": "Not Planned",
    "program_type": "Fixed Wireless and Satellite Upgrade Program",
    "target_eligibility_quarter": "NA"
   }
  },
  {
   "type": "Feature",
   "geometry": {
    "type": "Point",
    "coordinates": [
     153.44687645,
     -28.75566564
    ]
   },
   "properties": {
    "name": "LOT 30 PEARCE ROAD BOOYONG 2480",
    "locID": "LOC000056115688",
    "tech": "WIRELESS",
    "upgrade": "NULL_NA",
    "gnaf_pid": "GANSW717727586",
    "tech_change_status": "Not Planned",
    "program_type": "Fixed Wireless and Satellite Upgrade Program",
    "target_eligibility_quarter": "NA"
   }
  },
  {
   "type": "Feature",
   "geometry": {
    "type": "Point",
    "coordinates": [
     153.45603095,
     -28.75494333
    ]
   },
   "properties": {
    "name": "549 BOOYONG ROAD BOOYONG 2480",
    "locID": "LOC000009904467",
    "tech": "WIRELESS",
    "upgrade": "NULL_NA",
    "gnaf_pid": "GANSW717999895",
    "tech_change_status": "Not Planned",
    "program_type": "Fixed Wireless and Satellite Upgrade Program",
    "target_eligibility_quarter": "NA"
   }
  },
  {
   "type": "Feature",
   "geometry": {
    "type": "Point",
    "coordinates": [
     153.45219861,
     -28.75197952
    ]
   },
   "properties": {
    "name": "575 BOOYONG ROAD BOOYONG 2480",
    "locID": "LOC000113382046",
    "tech": "WIRELESS",
    "upgrade": "NULL_NA",
    "gnaf_pid": "GANSW718147527",
    "tech_change_status": "Not Planned",
    "program_type": "Fixed Wireless and Satellite Upgrade Program",
    "target_eligibility_quarter": "NA"
   }
  },
  {
   "type": "Feature",
   "geometry": {
    "type": "Point",
    "coordinates": [
     153.45035259,
     -28.74685711
    ]
   },
   "properties": {
    "name": "645 BOOYONG ROAD BOOYONG 2480",
    "locID": "LOC100071931084",
    "tech": "WIRELESS",
    "upgrade": "NULL_NA",
    "gnaf_pid": "GANSW718684996",
    "tech_change_status": "Not Planned",
    "program_type": "Fixed Wireless and Satellite Upgrade Program",
    "target_eligibility_quarter": "NA"
   }
  },
  {
   "type": "Feature",
   "geometry": {
    "type": "Point",
    "coordinates": [
     153.4407581,
     -28.73897889
    ]
   },
   "properties": {
    "name": "822 BOOYONG ROAD BOOYONG 2480",
    "locID": "LOC000178574892",
    "tech": "WIRELESS",
    "upgrade": "NULL_NA",
    "gnaf_pid": "GANSW718839374",
    "tech_change_status": "Not Planned",
    "program_type": "Fixed Wireless and Satellite Upgrade Program",
    "target_eligibility_quarter": "NA"
   }
  },
  {
   "type": "Feature",
   "geometry": {
    "type": "Point",
    "coordinates": [
     153.46331515,
     -28.75835946
    ]
   },
   "properties": {
    "name": "501A BOOYONG ROAD BOOYONG 2480",
    "locID": "LOC000109820646",
    "tech": "WIRELESS",
    "upgrade": "NULL_NA",
    "gnaf_pid": "GANSW718881479",
    "tech_change_status": "Not Planned",
    "program_type": "Fixed Wireless and Satellite Upgrade Program",
    "target_eligibility_quarter": "NA"
   }
  },
  {
   "type": "Feature",
   "geometry": {
    "type": "Point",
    "coordinates": [
     153.44957925,
     -28.74500524
    ]
   },
   "properties": {
    "name": "676 BOOYONG ROAD BOOYONG 2480",
    "locID": "LOC100071931078",
    "tech": "WIRELESS",
    "upgrade": "NULL_NA",
    "gnaf_pid": "GANSW718918987",
    "tech_change_status": "Not Planned",
    "program_type": "Fixed Wireless and Satellite Upgrade Program",
    "target_eligibility_quarter": "NA"
   }
  },
  {
   "type": "Feature",
   "geometry": {
    "type": "Point",
    "coordinates": [
     153.43885315,
     -28.75025284
    ]
   },
   "properties": {
    "name": "880 ELTHAM ROAD BOOYONG 2480",
    "locID": "LOC100071931124",
    "tech": "WIRELESS",
    "upgrade": "NULL_NA",
    "gnaf_pid": "GANSW719362829",
    "tech_change_status": "Not Planned",
    "program_type": "Fixed Wireless and Satellite Upgrade Program",
    "target_eligibility_quarter": "NA"
   }
  },
  {
   "type": "Feature",
   "geometry": {
    "type": "Point",
    "coordinates": [
     153.45070839,
     -28.74619077
    ]
   },
   "properties": {
    "name": "644 BOOYONG ROAD BOOYONG 2480",
    "locID": "LOC100071931050",
    "tech": "WIRELESS",
    "upgrade": "NULL_NA",
    "gnaf_pid": "GANSW719471514",
    "tech_change_status": "Not Planned",
    "program_type": "Fixed Wireless and Satellite Upgrade Program",
    "target_eligibility_quarter": "NA"
   }
  },
  {
   "type": "Feature",
   "geometry": {
    "type": "Point",
    "coordinates": [
     153.45158854,
     -28.74667372
    ]
   },
   "properties": {
    "name": "640 BOOYONG ROAD BOOYONG 2480",
    "locID": "LOC000121104960",
    "tech": "WIRELESS",
    "upgrade": "NULL_NA",
    "gnaf_pid": "GANSW719575871",
    "tech_change_status": "Not Planned",
    "program_type": "Fixed Wireless and Satellite Upgrade Program",
    "target_eligibility_quarter": "NA"
   }
  },
  {
   "type": "Feature",
   "geometry": {
    "type": "Point",
    "coordinates": [
     153.44885525,
     -28.74440246
    ]
   },
   "properties": {
    "name": "686 BOOYONG ROAD BOOYONG 2480",
    "locID": "LOC100078035929",
    "tech": "WIRELESS",
    "upgrade": "NULL_NA",
    "gnaf_pid": "GANSW720251333",
    "tech_change_status": "Not Planned",
    "program_type": "Fixed Wireless and Satellite Upgrade Program",
    "target_eligibility_quarter": "NA"
   }
  },
  {
   "type": "Feature",
   "geometry": {
    "type": "Point",
    "coordinates": [
     153.4550074,
     -28.75227813
    ]
   },
   "properties": {
    "name": "585 BOOYONG ROAD BOOYONG 2480",
    "locID": "LOC000183547171",
    "tech": "WIRELESS",
    "upgrade": "NULL_NA",
    "gnaf_pid": "GANSW720327430",
    "tech_change_status": "Not Planned",
    "program_type": "Fixed Wireless and Satellite Upgrade Program",
    "target_eligibility_quarter": "NA"
   }
  },
  {
   "type": "Feature",
   "geometry": {
    "type": "Point",
    "coordinates": [
     153.45095867,
     -28.74744379
    ]
   },
   "properties": {
    "name": "637 BOOYONG ROAD BOOYONG 2480",
    "locID": "LOC000183547163",
    "tech": "WIRELESS",
    "upgrade": "NULL_NA",
    "gnaf_pid": "GANSW720327532",
    "tech_change_status": "Not Planned",
    "program_type": "Fixed Wireless and Satellite Upgrade Program",
    "target_eligibility_quarter": "NA"
   }
  },
  {
   "type": "Feature",
   "geometry": {
    "type": "Point",
    "coordinates": [
     153.45034472,
     -28.74752056
    ]
   },
   "properties": {
    "name": "1 BOOYONG ROAD BOOYONG 2480",
    "locID": "LOC000065498924",
    "tech": "WIRELESS",
    "upgrade": "NULL_NA",
    "gnaf_pid": "GANSW720601957",
    "tech_change_status": "Not Planned",
    "program_type": "Fixed Wireless and Satellite Upgrade Program",
    "target_eligibility_quarter": "NA"
   }
  },
  {
   "type": "Feature",
   "geometry": {
    "type": "Point",
    "coordinates": [
     153.45084539,
     -28.74700352
    ]
   },
   "properties": {
    "name": "641 BOOYONG ROAD BOOYONG 2480",
    "locID": "LOC100085277294",
    "tech": "WIRELESS",
    "upgrade": "NULL_NA",
    "gnaf_pid": "GANSW721121655",
    "tech_change_status": "Not Planned",
    "program_type": "Fixed Wireless and Satellite Upgrade Program",
    "target_eligibility_quarter": "NA"
   }
  },
  {
   "type": "Feature",
   "geometry": {
    "type": "Point",
    "coordinates": [
     153.45632989,
     -28.75180091
    ]
   },
   "properties": {
    "name": "590A BOOYONG ROAD BOOYONG 2480",
    "locID": "LOC100080597733",
    "tech": "WIRELESS",
    "upgrade": "NULL_NA",
    "gnaf_pid": "GANSW721183379",
    "tech_change_status": "Not Planned",
    "program_type": "Fixed Wireless and Satellite Upgrade Program",
    "target_eligibility_quarter": "NA"
   }
  },
  {
   "type": "Feature",
   "geometry": {
    "type": "Point",
    "coordinates": [
     153.46152338,
     -28.75796071
    ]
   },
   "properties": {
    "name": "501-501A BOOYONG ROAD BOOYONG 2480",
    "locID": "LOC000109820646",
    "tech": "WIRELESS",
    "upgrade": "NULL_NA",
    "gnaf_pid": "GANSW721317491",
    "tech_change_status": "Not Planned",
    "program_type": "Fixed Wireless and Satellite Upgrade Program",
    "target_eligibility_quarter": "NA"
   }
  }
 ]
}