{
 "type": "FeatureCollection",
 "generated": "2024-10-14T22:34:06.173774",
 "suburb": "BREAKFAST CREEK",
 "features": [
  {
   "type": "Feature",
   "geometry": {
    "type": "Point",
    "coordinates": [
     150.00939728,
     -32.66484826
    ]
   },
   "properties": {
    "name": "4081 BYLONG VALLEY WAY BREAKFAST CREEK 2849",
    "locID": "LOC000122452373",
    "tech": "NULL",
    "upgrade": "NULL_NA",
    "gnaf_pid": "GANSW706425421",
    "tech_change_status": "Not Planned"
   }
  },
  {
   "type": "Feature",
   "geometry": {
    "type": "Point",
    "coordinates": [
     150.01041425,
     -32.67207753
    ]
   },
   "properties": {
    "name": "4037 BYLONG VALLEY WAY BREAKFAST CREEK 2849",
    "locID": "LOC000102569833",
    "tech": "NULL",
    "upgrade": "NULL_NA",
    "gnaf_pid": "GANSW706425423",
    "tech_change_status": "Not Planned"
   }
  },
  {
   "type": "Feature",
   "geometry": {
    "type": "Point",
    "coordinates": [
     150.01176314,
     -32.67451552
    ]
   },
   "properties": {
    "name": "3999 BYLONG VALLEY WAY BREAKFAST CREEK 2849",
    "locID": "LOC000063890415",
    "tech": "NULL",
    "upgrade": "NULL_NA",
    "gnaf_pid": "GANSW706425424",
    "tech_change_status": "Not Planned"
   }
  },
  {
   "type": "Feature",
   "geometry": {
    "type": "Point",
    "coordinates": [
     150.00620358,
     -32.67840542
    ]
   },
   "properties": {
    "name": "46 BREAKFAST CREEK ROAD BREAKFAST CREEK 2849",
    "locID": "LOC000072713674",
    "tech": "SATELLITE",
    "upgrade": "NULL_NA",
    "gnaf_pid": "GANSW706463816",
    "tech_change_status": "Not Planned"
   }
  },
  {
   "type": "Feature",
   "geometry": {
    "type": "Point",
    "coordinates": [
     149.98491556,
     -32.66728536
    ]
   },
   "properties": {
    "name": "320 BREAKFAST CREEK ROAD BREAKFAST CREEK 2849",
    "locID": "LOC000067367250",
    "tech": "SATELLITE",
    "upgrade": "NULL_NA",
    "gnaf_pid": "GANSW706463817",
    "tech_change_status": "Not Planned"
   }
  },
  {
   "type": "Feature",
   "geometry": {
    "type": "Point",
    "coordinates": [
     149.99257894,
     -32.67056114
    ]
   },
   "properties": {
    "name": "209 BREAKFAST CREEK ROAD BREAKFAST CREEK 2849",
    "locID": "LOC000086110016",
    "tech": "SATELLITE",
    "upgrade": "NULL_NA",
    "gnaf_pid": "GANSW706463818",
    "tech_change_status": "Not Planned"
   }
  },
  {
   "type": "Feature",
   "geometry": {
    "type": "Point",
    "coordinates": [
     150.00597039,
     -32.68054694
    ]
   },
   "properties": {
    "name": "45 BREAKFAST CREEK ROAD BREAKFAST CREEK 2849",
    "locID": "LOC000068824085",
    "tech": "SATELLITE",
    "upgrade": "NULL_NA",
    "gnaf_pid": "GANSW708707745",
    "tech_change_status": "Not Planned"
   }
  },
  {
   "type": "Feature",
   "geometry": {
    "type": "Point",
    "coordinates": [
     150.01110644,
     -32.67931161
    ]
   },
   "properties": {
    "name": "4255 BYLONG VALLEY WAY BREAKFAST CREEK 2849",
    "locID": "LOC000106048633",
    "tech": "SATELLITE",
    "upgrade": "NULL_NA",
    "gnaf_pid": "GANSW715361174",
    "tech_change_status": "Not Planned"
   }
  },
  {
   "type": "Feature",
   "geometry": {
    "type": "Point",
    "coordinates": [
     150.01027246,
     -32.67893842
    ]
   },
   "properties": {
    "name": "2 BREAKFAST CREEK ROAD BREAKFAST CREEK 2849",
    "locID": "LOC000068122753",
    "tech": "SATELLITE",
    "upgrade": "NULL_NA",
    "gnaf_pid": "GANSW716533783",
    "tech_change_status": "Not Planned"
   }
  },
  {
   "type": "Feature",
   "geometry": {
    "type": "Point",
    "coordinates": [
     150.00469754,
     -32.68339412
    ]
   },
   "properties": {
    "name": "3875 BYLONG VALLEY WAY BREAKFAST CREEK 2849",
    "locID": "LOC000122446289",
    "tech": "NULL",
    "upgrade": "NULL_NA",
    "gnaf_pid": "GANSW717592122",
    "tech_change_status": "Not Planned"
   }
  },
  {
   "type": "Feature",
   "geometry": {
    "type": "Point",
    "coordinates": [
     149.94351899,
     -32.64939048
    ]
   },
   "properties": {
    "name": "938 PYANGLE ROAD BREAKFAST CREEK 2849",
    "locID": "LOC000065289571",
    "tech": "SATELLITE",
    "upgrade": "NULL_NA",
    "gnaf_pid": "GANSW717866607",
    "tech_change_status": "Not Planned"
   }
  },
  {
   "type": "Feature",
   "geometry": {
    "type": "Point",
    "coordinates": [
     149.96708546,
     -32.66332136
    ]
   },
   "properties": {
    "name": "605 BREAKFAST CREEK ROAD BREAKFAST CREEK 2849",
    "locID": "LOC000122437875",
    "tech": "SATELLITE",
    "upgrade": "NULL_NA",
    "gnaf_pid": "GANSW717944638",
    "tech_change_status": "Not Planned"
   }
  },
  {
   "type": "Feature",
   "geometry": {
    "type": "Point",
    "coordinates": [
     150.00960329,
     -32.6788241
    ]
   },
   "properties": {
    "name": "10 BREAKFAST CREEK ROAD BREAKFAST CREEK 2849",
    "locID": "LOC000142832956",
    "tech": "SATELLITE",
    "upgrade": "NULL_NA",
    "gnaf_pid": "GANSW718175815",
    "tech_change_status": "Not Planned"
   }
  },
  {
   "type": "Feature",
   "geometry": {
    "type": "Point",
    "coordinates": [
     149.97934578,
     -32.63862373
    ]
   },
   "properties": {
    "name": "482 BREAKFAST CREEK ROAD BREAKFAST CREEK 2849",
    "locID": "LOC000142498139",
    "tech": "SATELLITE",
    "upgrade": "NULL_NA",
    "gnaf_pid": "GANSW720324945",
    "tech_change_status": "Not Planned"
   }
  }
 ]
}