{
 "type": "FeatureCollection",
 "generated": "2025-02-19T03:17:28.674753",
 "suburb": "BROWNS MOUNTAIN",
 "features": [
  {
   "type": "Feature",
   "geometry": {
    "type": "Point",
    "coordinates": [
     150.52454989,
     -34.80607032
    ]
   },
   "properties": {
    "name": "350A BROWNS MOUNTAIN ROAD BROWNS MOUNTAIN 2540",
    "locID": "LOC000009070455",
    "tech": "WIRELESS",
    "upgrade": "NULL_NA",
    "gnaf_pid": "GANSW704244483",
    "tech_change_status": "Not Planned",
    "program_type": "Fixed Wireless and Satellite Upgrade Program",
    "target_eligibility_quarter": "NA"
   }
  },
  {
   "type": "Feature",
   "geometry": {
    "type": "Point",
    "coordinates": [
     150.52507093,
     -34.80687664
    ]
   },
   "properties": {
    "name": "350B BROWNS MOUNTAIN ROAD BROWNS MOUNTAIN 2540",
    "locID": "LOC000008968636",
    "tech": "WIRELESS",
    "upgrade": "NULL_NA",
    "gnaf_pid": "GANSW704244484",
    "tech_change_status": "Not Planned",
    "program_type": "Fixed Wireless and Satellite Upgrade Program",
    "target_eligibility_quarter": "NA"
   }
  },
  {
   "type": "Feature",
   "geometry": {
    "type": "Point",
    "coordinates": [
     150.52705351,
     -34.80430969
    ]
   },
   "properties": {
    "name": "350 BROWNS MOUNTAIN ROAD BROWNS MOUNTAIN 2540",
    "locID": "LOC000009040524",
    "tech": "WIRELESS",
    "upgrade": "NULL_NA",
    "gnaf_pid": "GANSW704244485",
    "tech_change_status": "Not Planned",
    "program_type": "Fixed Wireless and Satellite Upgrade Program",
    "target_eligibility_quarter": "NA"
   }
  },
  {
   "type": "Feature",
   "geometry": {
    "type": "Point",
    "coordinates": [
     150.52283619,
     -34.80518169
    ]
   },
   "properties": {
    "name": "356 BROWNS MOUNTAIN ROAD BROWNS MOUNTAIN 2540",
    "locID": "LOC000121370341",
    "tech": "SATELLITE",
    "upgrade": "WIRELESS",
    "gnaf_pid": "GANSW704246087",
    "tech_change_status": "Eligible to Order",
    "program_type": "Fixed Wireless and Satellite Upgrade Program",
    "target_eligibility_quarter": "NA"
   }
  },
  {
   "type": "Feature",
   "geometry": {
    "type": "Point",
    "coordinates": [
     150.51906816,
     -34.80361054
    ]
   },
   "properties": {
    "name": "420 BROWNS MOUNTAIN ROAD BROWNS MOUNTAIN 2540",
    "locID": "LOC000050163052",
    "tech": "WIRELESS",
    "upgrade": "NULL_NA",
    "gnaf_pid": "GANSW704246088",
    "tech_change_status": "Not Planned",
    "program_type": "Fixed Wireless and Satellite Upgrade Program",
    "target_eligibility_quarter": "NA"
   }
  },
  {
   "type": "Feature",
   "geometry": {
    "type": "Point",
    "coordinates": [
     150.5231392,
     -34.80068403
    ]
   },
   "properties": {
    "name": "510 BROWNS MOUNTAIN ROAD BROWNS MOUNTAIN 2540",
    "locID": "LOC000041626778",
    "tech": "WIRELESS",
    "upgrade": "NULL_NA",
    "gnaf_pid": "GANSW704246089",
    "tech_change_status": "Not Planned",
    "program_type": "Fixed Wireless and Satellite Upgrade Program",
    "target_eligibility_quarter": "NA"
   }
  },
  {
   "type": "Feature",
   "geometry": {
    "type": "Point",
    "coordinates": [
     150.51335493,
     -34.79918981
    ]
   },
   "properties": {
    "name": "511 BROWNS MOUNTAIN ROAD BROWNS MOUNTAIN 2540",
    "locID": "LOC000092798487",
    "tech": "SATELLITE",
    "upgrade": "WIRELESS",
    "gnaf_pid": "GANSW704246090",
    "tech_change_status": "Eligible to Order",
    "program_type": "Fixed Wireless and Satellite Upgrade Program",
    "target_eligibility_quarter": "NA"
   }
  },
  {
   "type": "Feature",
   "geometry": {
    "type": "Point",
    "coordinates": [
     150.5142825,
     -34.79649373
    ]
   },
   "properties": {
    "name": "545 BROWNS MOUNTAIN ROAD BROWNS MOUNTAIN 2540",
    "locID": "LOC000047689461",
    "tech": "SATELLITE",
    "upgrade": "NULL_NA",
    "gnaf_pid": "GANSW704246091",
    "tech_change_status": "Not Planned"
   }
  },
  {
   "type": "Feature",
   "geometry": {
    "type": "Point",
    "coordinates": [
     150.51420166,
     -34.79536905
    ]
   },
   "properties": {
    "name": "557 BROWNS MOUNTAIN ROAD BROWNS MOUNTAIN 2540",
    "locID": "LOC000056142625",
    "tech": "NULL",
    "upgrade": "NULL_NA",
    "gnaf_pid": "GANSW704246092",
    "tech_change_status": "Not Planned"
   }
  },
  {
   "type": "Feature",
   "geometry": {
    "type": "Point",
    "coordinates": [
     150.52196046,
     -34.78465219
    ]
   },
   "properties": {
    "name": "730 BROWNS MOUNTAIN ROAD BROWNS MOUNTAIN 2540",
    "locID": "LOC000007220541",
    "tech": "SATELLITE",
    "upgrade": "NULL_NA",
    "gnaf_pid": "GANSW704246094",
    "tech_change_status": "Not Planned"
   }
  },
  {
   "type": "Feature",
   "geometry": {
    "type": "Point",
    "coordinates": [
     150.51756156,
     -34.77797079
    ]
   },
   "properties": {
    "name": "507 LEEBOLD HILL ROAD BROWNS MOUNTAIN 2540",
    "locID": "LOC000077888428",
    "tech": "NULL",
    "upgrade": "NULL_NA",
    "gnaf_pid": "GANSW704246095",
    "tech_change_status": "Not Planned"
   }
  },
  {
   "type": "Feature",
   "geometry": {
    "type": "Point",
    "coordinates": [
     150.50579465,
     -34.77663292
    ]
   },
   "properties": {
    "name": "642 LEEBOLD HILL ROAD BROWNS MOUNTAIN 2540",
    "locID": "LOC000081789539",
    "tech": "WIRELESS",
    "upgrade": "NULL_NA",
    "gnaf_pid": "GANSW704246097",
    "tech_change_status": "Not Planned",
    "program_type": "Fixed Wireless and Satellite Upgrade Program",
    "target_eligibility_quarter": "NA"
   }
  },
  {
   "type": "Feature",
   "geometry": {
    "type": "Point",
    "coordinates": [
     150.48858101,
     -34.78187688
    ]
   },
   "properties": {
    "name": "870 LEEBOLD HILL ROAD BROWNS MOUNTAIN 2540",
    "locID": "LOC000041182266",
    "tech": "NULL",
    "upgrade": "NULL_NA",
    "gnaf_pid": "GANSW704246099",
    "tech_change_status": "Not Planned"
   }
  },
  {
   "type": "Feature",
   "geometry": {
    "type": "Point",
    "coordinates": [
     150.52744759,
     -34.80699059
    ]
   },
   "properties": {
    "name": "350C BROWNS MOUNTAIN ROAD BROWNS MOUNTAIN 2540",
    "locID": "LOC000009178077",
    "tech": "WIRELESS",
    "upgrade": "NULL_NA",
    "gnaf_pid": "GANSW716989281",
    "tech_change_status": "Not Planned",
    "program_type": "Fixed Wireless and Satellite Upgrade Program",
    "target_eligibility_quarter": "NA"
   }
  },
  {
   "type": "Feature",
   "geometry": {
    "type": "Point",
    "coordinates": [
     150.5159704,
     -34.80154314
    ]
   },
   "properties": {
    "name": "461A BROWNS MOUNTAIN ROAD BROWNS MOUNTAIN 2540",
    "locID": "LOC000058732627",
    "tech": "WIRELESS",
    "upgrade": "NULL_NA",
    "gnaf_pid": "GANSW717281738",
    "tech_change_status": "Not Planned",
    "program_type": "Fixed Wireless and Satellite Upgrade Program",
    "target_eligibility_quarter": "NA"
   }
  },
  {
   "type": "Feature",
   "geometry": {
    "type": "Point",
    "coordinates": [
     150.5162017,
     -34.80225528
    ]
   },
   "properties": {
    "name": "461 BROWNS MOUNTAIN ROAD BROWNS MOUNTAIN 2540",
    "locID": "LOC000058732627",
    "tech": "WIRELESS",
    "upgrade": "NULL_NA",
    "gnaf_pid": "GANSW717917421",
    "tech_change_status": "Not Planned",
    "program_type": "Fixed Wireless and Satellite Upgrade Program",
    "target_eligibility_quarter": "NA"
   }
  },
  {
   "type": "Feature",
   "geometry": {
    "type": "Point",
    "coordinates": [
     150.5162017,
     -34.80225528
    ]
   },
   "properties": {
    "name": "461B BROWNS MOUNTAIN ROAD BROWNS MOUNTAIN 2540",
    "locID": "LOC000058764791",
    "tech": "WIRELESS",
    "upgrade": "NULL_NA",
    "gnaf_pid": "GANSW717917422",
    "tech_change_status": "Not Planned",
    "program_type": "Fixed Wireless and Satellite Upgrade Program",
    "target_eligibility_quarter": "NA"
   }
  },
  {
   "type": "Feature",
   "geometry": {
    "type": "Point",
    "coordinates": [
     150.49168054,
     -34.77460293
    ]
   },
   "properties": {
    "name": "834 LEEBOLD HILL ROAD BROWNS MOUNTAIN 2540",
    "locID": "LOC000121368472",
    "tech": "SATELLITE",
    "upgrade": "NULL_NA",
    "gnaf_pid": "GANSW717957137",
    "tech_change_status": "Not Planned"
   }
  },
  {
   "type": "Feature",
   "geometry": {
    "type": "Point",
    "coordinates": [
     150.54171567,
     -34.79789218
    ]
   },
   "properties": {
    "name": "167 CARRINGTON ROAD BROWNS MOUNTAIN 2540",
    "locID": "LOC100078115551",
    "tech": "WIRELESS",
    "upgrade": "NULL_NA",
    "gnaf_pid": "GANSW719597193",
    "tech_change_status": "Not Planned",
    "program_type": "Fixed Wireless and Satellite Upgrade Program",
    "target_eligibility_quarter": "NA"
   }
  },
  {
   "type": "Feature",
   "geometry": {
    "type": "Point",
    "coordinates": [
     150.53419432,
     -34.80431896
    ]
   },
   "properties": {
    "name": "167B CARRINGTON ROAD BROWNS MOUNTAIN 2540",
    "locID": "LOC100078115551",
    "tech": "WIRELESS",
    "upgrade": "NULL_NA",
    "gnaf_pid": "GANSW720157899",
    "tech_change_status": "Not Planned",
    "program_type": "Fixed Wireless and Satellite Upgrade Program",
    "target_eligibility_quarter": "NA"
   }
  },
  {
   "type": "Feature",
   "geometry": {
    "type": "Point",
    "coordinates": [
     150.53539619,
     -34.79897883
    ]
   },
   "properties": {
    "name": "167A CARRINGTON ROAD BROWNS MOUNTAIN 2540",
    "locID": "LOC100078115551",
    "tech": "WIRELESS",
    "upgrade": "NULL_NA",
    "gnaf_pid": "GANSW721237565",
    "tech_change_status": "Not Planned",
    "program_type": "Fixed Wireless and Satellite Upgrade Program",
    "target_eligibility_quarter": "NA"
   }
  },
  {
   "type": "Feature",
   "geometry": {
    "type": "Point",
    "coordinates": [
     150.54249421,
     -34.78854154
    ]
   },
   "properties": {
    "name": "291 LEEBOLD HILL ROAD BROWNS MOUNTAIN 2540",
    "locID": "LOC000077888428",
    "tech": "NULL",
    "upgrade": "NULL_NA",
    "gnaf_pid": "GANSW721248345",
    "tech_change_status": "Not Planned"
   }
  }
 ]
}