{
 "type": "FeatureCollection",
 "generated": "2024-12-11T12:06:28.914198",
 "suburb": "BUMBALDRY",
 "features": [
  {
   "type": "Feature",
   "geometry": {
    "type": "Point",
    "coordinates": [
     148.43798311,
     -33.9115277
    ]
   },
   "properties": {
    "name": "2677 MID WESTERN HIGHWAY BUMBALDRY 2794",
    "locID": "LOC000092016066",
    "tech": "SATELLITE",
    "upgrade": "NULL_NA",
    "gnaf_pid": "GANSW704248183",
    "tech_change_status": "Not Planned"
   }
  },
  {
   "type": "Feature",
   "geometry": {
    "type": "Point",
    "coordinates": [
     148.4344104,
     -33.91407378
    ]
   },
   "properties": {
    "name": "2715 MID WESTERN HIGHWAY BUMBALDRY 2794",
    "locID": "LOC000114068819",
    "tech": "SATELLITE",
    "upgrade": "NULL_NA",
    "gnaf_pid": "GANSW704248184",
    "tech_change_status": "Not Planned"
   }
  },
  {
   "type": "Feature",
   "geometry": {
    "type": "Point",
    "coordinates": [
     148.40440707,
     -33.92398892
    ]
   },
   "properties": {
    "name": "3006 MID WESTERN HIGHWAY BUMBALDRY 2794",
    "locID": "LOC000013295775",
    "tech": "NULL",
    "upgrade": "NULL_NA",
    "gnaf_pid": "GANSW704248185",
    "tech_change_status": "Not Planned"
   }
  },
  {
   "type": "Feature",
   "geometry": {
    "type": "Point",
    "coordinates": [
     148.39997771,
     -33.92540419
    ]
   },
   "properties": {
    "name": "3134 MID WESTERN HIGHWAY BUMBALDRY 2794",
    "locID": "LOC000090056878",
    "tech": "SATELLITE",
    "upgrade": "NULL_NA",
    "gnaf_pid": "GANSW704248186",
    "tech_change_status": "Not Planned"
   }
  },
  {
   "type": "Feature",
   "geometry": {
    "type": "Point",
    "coordinates": [
     148.40033847,
     -33.93454289
    ]
   },
   "properties": {
    "name": "3157 MID WESTERN HIGHWAY BUMBALDRY 2794",
    "locID": "LOC000055565076",
    "tech": "NULL",
    "upgrade": "NULL_NA",
    "gnaf_pid": "GANSW704248187",
    "tech_change_status": "Not Planned"
   }
  },
  {
   "type": "Feature",
   "geometry": {
    "type": "Point",
    "coordinates": [
     148.34987332,
     -33.92898135
    ]
   },
   "properties": {
    "name": "3608 MID WESTERN HIGHWAY BUMBALDRY 2794",
    "locID": "LOC000067593131",
    "tech": "NULL",
    "upgrade": "NULL_NA",
    "gnaf_pid": "GANSW704248828",
    "tech_change_status": "Not Planned"
   }
  },
  {
   "type": "Feature",
   "geometry": {
    "type": "Point",
    "coordinates": [
     148.38691249,
     -33.83074626
    ]
   },
   "properties": {
    "name": "71 WARRUMBA ROAD BUMBALDRY 2794",
    "locID": "LOC100078088418",
    "tech": "NULL",
    "upgrade": "NULL_NA",
    "gnaf_pid": "GANSW704248834",
    "tech_change_status": "Not Planned"
   }
  },
  {
   "type": "Feature",
   "geometry": {
    "type": "Point",
    "coordinates": [
     148.36974265,
     -33.95129841
    ]
   },
   "properties": {
    "name": "151 BROWNS LANE BUMBALDRY 2794",
    "locID": "LOC000080554239",
    "tech": "SATELLITE",
    "upgrade": "NULL_NA",
    "gnaf_pid": "GANSW704258100",
    "tech_change_status": "Not Planned"
   }
  },
  {
   "type": "Feature",
   "geometry": {
    "type": "Point",
    "coordinates": [
     148.45011652,
     -33.88070377
    ]
   },
   "properties": {
    "name": "280 KANGAROOBY ROAD BUMBALDRY 2794",
    "locID": "LOC000099214473",
    "tech": "SATELLITE",
    "upgrade": "NULL_NA",
    "gnaf_pid": "GANSW704258109",
    "tech_change_status": "Not Planned"
   }
  },
  {
   "type": "Feature",
   "geometry": {
    "type": "Point",
    "coordinates": [
     148.39954065,
     -33.85130034
    ]
   },
   "properties": {
    "name": "722 MAJOR WEST ROAD BUMBALDRY 2794",
    "locID": "LOC000149355657",
    "tech": "SATELLITE",
    "upgrade": "NULL_NA",
    "gnaf_pid": "GANSW704258122",
    "tech_change_status": "Not Planned"
   }
  },
  {
   "type": "Feature",
   "geometry": {
    "type": "Point",
    "coordinates": [
     148.39143456,
     -33.85559634
    ]
   },
   "properties": {
    "name": "880 MAJOR WEST ROAD BUMBALDRY 2794",
    "locID": "LOC000051956539",
    "tech": "SATELLITE",
    "upgrade": "NULL_NA",
    "gnaf_pid": "GANSW704258123",
    "tech_change_status": "Not Planned"
   }
  },
  {
   "type": "Feature",
   "geometry": {
    "type": "Point",
    "coordinates": [
     148.3888564,
     -33.8512914
    ]
   },
   "properties": {
    "name": "930 MAJOR WEST ROAD BUMBALDRY 2794",
    "locID": "LOC000092949866",
    "tech": "NULL",
    "upgrade": "NULL_NA",
    "gnaf_pid": "GANSW704258124",
    "tech_change_status": "Not Planned"
   }
  },
  {
   "type": "Feature",
   "geometry": {
    "type": "Point",
    "coordinates": [
     148.39290992,
     -33.84506636
    ]
   },
   "properties": {
    "name": "945 MAJOR WEST ROAD BUMBALDRY 2794",
    "locID": "LOC000038308283",
    "tech": "NULL",
    "upgrade": "NULL_NA",
    "gnaf_pid": "GANSW704258125",
    "tech_change_status": "Not Planned"
   }
  },
  {
   "type": "Feature",
   "geometry": {
    "type": "Point",
    "coordinates": [
     148.47050804,
     -33.89903957
    ]
   },
   "properties": {
    "name": "2328 MID WESTERN HIGHWAY BUMBALDRY 2794",
    "locID": "LOC000010064268",
    "tech": "SATELLITE",
    "upgrade": "NULL_NA",
    "gnaf_pid": "GANSW704258128",
    "tech_change_status": "Not Planned"
   }
  },
  {
   "type": "Feature",
   "geometry": {
    "type": "Point",
    "coordinates": [
     148.47456191,
     -33.91036852
    ]
   },
   "properties": {
    "name": "2349 MID WESTERN HIGHWAY BUMBALDRY 2794",
    "locID": "LOC000050116937",
    "tech": "NULL",
    "upgrade": "NULL_NA",
    "gnaf_pid": "GANSW704258129",
    "tech_change_status": "Not Planned"
   }
  },
  {
   "type": "Feature",
   "geometry": {
    "type": "Point",
    "coordinates": [
     148.46309604,
     -33.91627335
    ]
   },
   "properties": {
    "name": "2351 MID WESTERN HIGHWAY BUMBALDRY 2794",
    "locID": "LOC000018025821",
    "tech": "NULL",
    "upgrade": "NULL_NA",
    "gnaf_pid": "GANSW704258130",
    "tech_change_status": "Not Planned"
   }
  },
  {
   "type": "Feature",
   "geometry": {
    "type": "Point",
    "coordinates": [
     148.46225208,
     -33.89894423
    ]
   },
   "properties": {
    "name": "2390 MID WESTERN HIGHWAY BUMBALDRY 2794",
    "locID": "LOC000086991249",
    "tech": "SATELLITE",
    "upgrade": "NULL_NA",
    "gnaf_pid": "GANSW704258131",
    "tech_change_status": "Not Planned"
   }
  },
  {
   "type": "Feature",
   "geometry": {
    "type": "Point",
    "coordinates": [
     148.44507123,
     -33.90806513
    ]
   },
   "properties": {
    "name": "2616 MID WESTERN HIGHWAY BUMBALDRY 2794",
    "locID": "LOC000020642098",
    "tech": "NULL",
    "upgrade": "NULL_NA",
    "gnaf_pid": "GANSW704258132",
    "tech_change_status": "Not Planned"
   }
  },
  {
   "type": "Feature",
   "geometry": {
    "type": "Point",
    "coordinates": [
     148.44256979,
     -33.90921906
    ]
   },
   "properties": {
    "name": "2625 MID WESTERN HIGHWAY BUMBALDRY 2794",
    "locID": "LOC000113053305",
    "tech": "SATELLITE",
    "upgrade": "NULL_NA",
    "gnaf_pid": "GANSW704258133",
    "tech_change_status": "Not Planned"
   }
  },
  {
   "type": "Feature",
   "geometry": {
    "type": "Point",
    "coordinates": [
     148.44240406,
     -33.9060221
    ]
   },
   "properties": {
    "name": "2626 MID WESTERN HIGHWAY BUMBALDRY 2794",
    "locID": "LOC000142998200",
    "tech": "NULL",
    "upgrade": "NULL_NA",
    "gnaf_pid": "GANSW704258134",
    "tech_change_status": "Not Planned"
   }
  },
  {
   "type": "Feature",
   "geometry": {
    "type": "Point",
    "coordinates": [
     148.45066608,
     -33.86743835
    ]
   },
   "properties": {
    "name": "440 KANGAROOBY ROAD BUMBALDRY 2794",
    "locID": "LOC000082475469",
    "tech": "NULL",
    "upgrade": "NULL_NA",
    "gnaf_pid": "GANSW704266901",
    "tech_change_status": "Not Planned"
   }
  },
  {
   "type": "Feature",
   "geometry": {
    "type": "Point",
    "coordinates": [
     148.45024312,
     -33.86016101
    ]
   },
   "properties": {
    "name": "519 KANGAROOBY ROAD BUMBALDRY 2794",
    "locID": "LOC000055920790",
    "tech": "NULL",
    "upgrade": "NULL_NA",
    "gnaf_pid": "GANSW704266902",
    "tech_change_status": "Not Planned"
   }
  },
  {
   "type": "Feature",
   "geometry": {
    "type": "Point",
    "coordinates": [
     148.45701387,
     -33.90479706
    ]
   },
   "properties": {
    "name": "7 KANGAROOBY ROAD BUMBALDRY 2794",
    "locID": "LOC000078352540",
    "tech": "NULL",
    "upgrade": "NULL_NA",
    "gnaf_pid": "GANSW704266903",
    "tech_change_status": "Not Planned"
   }
  },
  {
   "type": "Feature",
   "geometry": {
    "type": "Point",
    "coordinates": [
     148.38428704,
     -33.84414784
    ]
   },
   "properties": {
    "name": "1044 MAJOR WEST ROAD BUMBALDRY 2794",
    "locID": "LOC000185261391",
    "tech": "SATELLITE",
    "upgrade": "NULL_NA",
    "gnaf_pid": "GANSW704266905",
    "tech_change_status": "Not Planned"
   }
  },
  {
   "type": "Feature",
   "geometry": {
    "type": "Point",
    "coordinates": [
     148.36254074,
     -33.78411091
    ]
   },
   "properties": {
    "name": "2442 MAJOR WEST ROAD BUMBALDRY 2794",
    "locID": "LOC000053870886",
    "tech": "NULL",
    "upgrade": "NULL_NA",
    "gnaf_pid": "GANSW704266911",
    "tech_change_status": "Not Planned"
   }
  },
  {
   "type": "Feature",
   "geometry": {
    "type": "Point",
    "coordinates": [
     148.38047787,
     -33.82464026
    ]
   },
   "properties": {
    "name": "1224 MAJOR WEST ROAD BUMBALDRY 2794",
    "locID": "LOC000035428492",
    "tech": "SATELLITE",
    "upgrade": "NULL_NA",
    "gnaf_pid": "GANSW704272772",
    "tech_change_status": "Not Planned"
   }
  },
  {
   "type": "Feature",
   "geometry": {
    "type": "Point",
    "coordinates": [
     148.37180186,
     -33.82331665
    ]
   },
   "properties": {
    "name": "1232 MAJOR WEST ROAD BUMBALDRY 2794",
    "locID": "LOC000013300399",
    "tech": "NULL",
    "upgrade": "NULL_NA",
    "gnaf_pid": "GANSW704272773",
    "tech_change_status": "Not Planned"
   }
  },
  {
   "type": "Feature",
   "geometry": {
    "type": "Point",
    "coordinates": [
     148.41705904,
     -33.79844992
    ]
   },
   "properties": {
    "name": "2200 KANGAROOBY ROAD BUMBALDRY 2794",
    "locID": "LOC000122134866",
    "tech": "SATELLITE",
    "upgrade": "NULL_NA",
    "gnaf_pid": "GANSW706526217",
    "tech_change_status": "Not Planned"
   }
  },
  {
   "type": "Feature",
   "geometry": {
    "type": "Point",
    "coordinates": [
     148.35036002,
     -33.96531884
    ]
   },
   "properties": {
    "name": "343 BARKERS ROAD BUMBALDRY 2794",
    "locID": "LOC000109385105",
    "tech": "NULL",
    "upgrade": "NULL_NA",
    "gnaf_pid": "GANSW707468385",
    "tech_change_status": "Not Planned"
   }
  },
  {
   "type": "Feature",
   "geometry": {
    "type": "Point",
    "coordinates": [
     148.4381419,
     -33.90979838
    ]
   },
   "properties": {
    "name": "24 CLAY PIT ROAD BUMBALDRY 2794",
    "locID": "LOC000114823324",
    "tech": "NULL",
    "upgrade": "NULL_NA",
    "gnaf_pid": "GANSW715798004",
    "tech_change_status": "Not Planned"
   }
  },
  {
   "type": "Feature",
   "geometry": {
    "type": "Point",
    "coordinates": [
     148.43765079,
     -33.90670863
    ]
   },
   "properties": {
    "name": "32 CLAY PIT ROAD BUMBALDRY 2794",
    "locID": "LOC000142555038",
    "tech": "SATELLITE",
    "upgrade": "NULL_NA",
    "gnaf_pid": "GANSW715798005",
    "tech_change_status": "Not Planned"
   }
  },
  {
   "type": "Feature",
   "geometry": {
    "type": "Point",
    "coordinates": [
     148.40435898,
     -33.81421565
    ]
   },
   "properties": {
    "name": "LOT 4 WARRUMBA ROAD BUMBALDRY 2794",
    "locID": "LOC100078088418",
    "tech": "NULL",
    "upgrade": "NULL_NA",
    "gnaf_pid": "GANSW716169216",
    "tech_change_status": "Not Planned"
   }
  },
  {
   "type": "Feature",
   "geometry": {
    "type": "Point",
    "coordinates": [
     148.38211097,
     -33.85336964
    ]
   },
   "properties": {
    "name": "917 MAJOR WEST ROAD BUMBALDRY 2794",
    "locID": "LOC000030668890",
    "tech": "NULL",
    "upgrade": "NULL_NA",
    "gnaf_pid": "GANSW716408328",
    "tech_change_status": "Not Planned"
   }
  },
  {
   "type": "Feature",
   "geometry": {
    "type": "Point",
    "coordinates": [
     148.38595695,
     -33.88234227
    ]
   },
   "properties": {
    "name": "525 MAJOR WEST ROAD BUMBALDRY 2794",
    "locID": "LOC000070848622",
    "tech": "SATELLITE",
    "upgrade": "NULL_NA",
    "gnaf_pid": "GANSW716470242",
    "tech_change_status": "Not Planned"
   }
  },
  {
   "type": "Feature",
   "geometry": {
    "type": "Point",
    "coordinates": [
     148.43505696,
     -33.909666
    ]
   },
   "properties": {
    "name": "25 CLAY PIT ROAD BUMBALDRY 2794",
    "locID": "LOC000018230451",
    "tech": "SATELLITE",
    "upgrade": "NULL_NA",
    "gnaf_pid": "GANSW716751618",
    "tech_change_status": "Not Planned"
   }
  },
  {
   "type": "Feature",
   "geometry": {
    "type": "Point",
    "coordinates": [
     148.45235637,
     -33.83866265
    ]
   },
   "properties": {
    "name": "768 KANGAROOBY ROAD BUMBALDRY 2794",
    "locID": "LOC000006831465",
    "tech": "SATELLITE",
    "upgrade": "NULL_NA",
    "gnaf_pid": "GANSW716756015",
    "tech_change_status": "Not Planned"
   }
  },
  {
   "type": "Feature",
   "geometry": {
    "type": "Point",
    "coordinates": [
     148.390211,
     -33.8655067
    ]
   },
   "properties": {
    "name": "655 MAJOR WEST ROAD BUMBALDRY 2794",
    "locID": "LOC000004089541",
    "tech": "SATELLITE",
    "upgrade": "NULL_NA",
    "gnaf_pid": "GANSW716757078",
    "tech_change_status": "Not Planned"
   }
  },
  {
   "type": "Feature",
   "geometry": {
    "type": "Point",
    "coordinates": [
     148.3913854,
     -33.89072183
    ]
   },
   "properties": {
    "name": "1 MAJOR WEST ROAD BUMBALDRY 2794",
    "locID": "LOC000013300399",
    "tech": "NULL",
    "upgrade": "NULL_NA",
    "gnaf_pid": "GANSW717193949",
    "tech_change_status": "Not Planned"
   }
  },
  {
   "type": "Feature",
   "geometry": {
    "type": "Point",
    "coordinates": [
     148.42281238,
     -33.9188034
    ]
   },
   "properties": {
    "name": "39-51 MID WESTERN HIGHWAY BUMBALDRY 2794",
    "locID": "LOC000076141944",
    "tech": "SATELLITE",
    "upgrade": "NULL_NA",
    "gnaf_pid": "GANSW717359371",
    "tech_change_status": "Not Planned"
   }
  },
  {
   "type": "Feature",
   "geometry": {
    "type": "Point",
    "coordinates": [
     148.42724436,
     -33.79301238
    ]
   },
   "properties": {
    "name": "2193 KANGAROOBY ROAD BUMBALDRY 2794",
    "locID": "LOC000122134850",
    "tech": "SATELLITE",
    "upgrade": "NULL_NA",
    "gnaf_pid": "GANSW717955481",
    "tech_change_status": "Not Planned"
   }
  },
  {
   "type": "Feature",
   "geometry": {
    "type": "Point",
    "coordinates": [
     148.37571819,
     -33.88452218
    ]
   },
   "properties": {
    "name": "317 MAJOR WEST ROAD BUMBALDRY 2794",
    "locID": "LOC000113149822",
    "tech": "SATELLITE",
    "upgrade": "NULL_NA",
    "gnaf_pid": "GANSW718080841",
    "tech_change_status": "Not Planned"
   }
  },
  {
   "type": "Feature",
   "geometry": {
    "type": "Point",
    "coordinates": [
     148.43450218,
     -33.91132761
    ]
   },
   "properties": {
    "name": "2700 MID WESTERN HIGHWAY BUMBALDRY 2794",
    "locID": "LOC000076141944",
    "tech": "SATELLITE",
    "upgrade": "NULL_NA",
    "gnaf_pid": "GANSW718103214",
    "tech_change_status": "Not Planned"
   }
  },
  {
   "type": "Feature",
   "geometry": {
    "type": "Point",
    "coordinates": [
     148.39457993,
     -33.94765687
    ]
   },
   "properties": {
    "name": "149 GAMBARRA ROAD BUMBALDRY 2794",
    "locID": "LOC000114225485",
    "tech": "WIRELESS",
    "upgrade": "NULL_NA",
    "gnaf_pid": "GANSW718131647",
    "tech_change_status": "Not Planned",
    "program_type": "Fixed Wireless and Satellite Upgrade Program",
    "target_eligibility_quarter": "NA"
   }
  },
  {
   "type": "Feature",
   "geometry": {
    "type": "Point",
    "coordinates": [
     148.38677334,
     -33.87100215
    ]
   },
   "properties": {
    "name": "683 MAJOR WEST ROAD BUMBALDRY 2794",
    "locID": "LOC000114113645",
    "tech": "NULL",
    "upgrade": "NULL_NA",
    "gnaf_pid": "GANSW718133928",
    "tech_change_status": "Not Planned"
   }
  },
  {
   "type": "Feature",
   "geometry": {
    "type": "Point",
    "coordinates": [
     148.38767834,
     -33.86731766
    ]
   },
   "properties": {
    "name": "771 MAJOR WEST ROAD BUMBALDRY 2794",
    "locID": "LOC000114979587",
    "tech": "SATELLITE",
    "upgrade": "NULL_NA",
    "gnaf_pid": "GANSW718133929",
    "tech_change_status": "Not Planned"
   }
  },
  {
   "type": "Feature",
   "geometry": {
    "type": "Point",
    "coordinates": [
     148.37243945,
     -33.86050114
    ]
   },
   "properties": {
    "name": "775 MAJOR WEST ROAD BUMBALDRY 2794",
    "locID": "LOC000108875956",
    "tech": "SATELLITE",
    "upgrade": "NULL_NA",
    "gnaf_pid": "GANSW718133930",
    "tech_change_status": "Not Planned"
   }
  },
  {
   "type": "Feature",
   "geometry": {
    "type": "Point",
    "coordinates": [
     148.38056857,
     -33.85981927
    ]
   },
   "properties": {
    "name": "887 MAJOR WEST ROAD BUMBALDRY 2794",
    "locID": "LOC000113203187",
    "tech": "SATELLITE",
    "upgrade": "NULL_NA",
    "gnaf_pid": "GANSW718133931",
    "tech_change_status": "Not Planned"
   }
  },
  {
   "type": "Feature",
   "geometry": {
    "type": "Point",
    "coordinates": [
     148.41725782,
     -33.86247528
    ]
   },
   "properties": {
    "name": "1297 KEMPS ROAD BUMBALDRY 2794",
    "locID": "LOC000115613947",
    "tech": "NULL",
    "upgrade": "NULL_NA",
    "gnaf_pid": "GANSW718227883",
    "tech_change_status": "Not Planned"
   }
  },
  {
   "type": "Feature",
   "geometry": {
    "type": "Point",
    "coordinates": [
     148.45399952,
     -33.91942696
    ]
   },
   "properties": {
    "name": "100 GREENETHORPE BUMBALDRY ROAD BUMBALDRY 2794",
    "locID": "LOC000148052643",
    "tech": "NULL",
    "upgrade": "NULL_NA",
    "gnaf_pid": "GANSW718768905",
    "tech_change_status": "Not Planned"
   }
  },
  {
   "type": "Feature",
   "geometry": {
    "type": "Point",
    "coordinates": [
     148.44743459,
     -33.93171419
    ]
   },
   "properties": {
    "name": "282 GREENETHORPE BUMBALDRY ROAD BUMBALDRY 2794",
    "locID": "LOC000148078256",
    "tech": "NULL",
    "upgrade": "NULL_NA",
    "gnaf_pid": "GANSW718768907",
    "tech_change_status": "Not Planned"
   }
  },
  {
   "type": "Feature",
   "geometry": {
    "type": "Point",
    "coordinates": [
     148.43696403,
     -33.95080592
    ]
   },
   "properties": {
    "name": "577 GREENETHORPE BUMBALDRY ROAD BUMBALDRY 2794",
    "locID": "LOC000148094640",
    "tech": "SATELLITE",
    "upgrade": "NULL_NA",
    "gnaf_pid": "GANSW718768908",
    "tech_change_status": "Not Planned"
   }
  },
  {
   "type": "Feature",
   "geometry": {
    "type": "Point",
    "coordinates": [
     148.390211,
     -33.8655067
    ]
   },
   "properties": {
    "name": "LOT 47 MAJOR WEST ROAD BUMBALDRY 2794",
    "locID": "LOC000114113645",
    "tech": "NULL",
    "upgrade": "NULL_NA",
    "gnaf_pid": "GANSW719063748",
    "tech_change_status": "Not Planned"
   }
  },
  {
   "type": "Feature",
   "geometry": {
    "type": "Point",
    "coordinates": [
     148.38982684,
     -33.94777359
    ]
   },
   "properties": {
    "name": "92 GAMBARRA ROAD BUMBALDRY 2794",
    "locID": "LOC100071990053",
    "tech": "WIRELESS",
    "upgrade": "NULL_NA",
    "gnaf_pid": "GANSW719468379",
    "tech_change_status": "Not Planned",
    "program_type": "Fixed Wireless and Satellite Upgrade Program",
    "target_eligibility_quarter": "NA"
   }
  },
  {
   "type": "Feature",
   "geometry": {
    "type": "Point",
    "coordinates": [
     148.46225208,
     -33.89894423
    ]
   },
   "properties": {
    "name": "COTTAGE 2, 2390 MID WESTERN HIGHWAY BUMBALDRY 2794",
    "locID": "LOC000086991249",
    "tech": "SATELLITE",
    "upgrade": "NULL_NA",
    "gnaf_pid": "GANSW719904336",
    "tech_change_status": "Not Planned"
   }
  },
  {
   "type": "Feature",
   "geometry": {
    "type": "Point",
    "coordinates": [
     148.42281238,
     -33.9188034
    ]
   },
   "properties": {
    "name": "LOT 180 MID WESTERN HIGHWAY BUMBALDRY 2794",
    "locID": "LOC000147707771",
    "tech": "SATELLITE",
    "upgrade": "NULL_NA",
    "gnaf_pid": "GANSW719905943",
    "tech_change_status": "Not Planned"
   }
  },
  {
   "type": "Feature",
   "geometry": {
    "type": "Point",
    "coordinates": [
     148.42120535,
     -33.78956952
    ]
   },
   "properties": {
    "name": "2 KANGAROOBY ROAD BUMBALDRY 2794",
    "locID": "LOC000142543292",
    "tech": "SATELLITE",
    "upgrade": "NULL_NA",
    "gnaf_pid": "GANSW720078844",
    "tech_change_status": "Not Planned"
   }
  },
  {
   "type": "Feature",
   "geometry": {
    "type": "Point",
    "coordinates": [
     148.3326136,
     -33.95571658
    ]
   },
   "properties": {
    "name": "331 BRUNDAH HALL ROAD BUMBALDRY 2794",
    "locID": "LOC000103229183",
    "tech": "SATELLITE",
    "upgrade": "NULL_NA",
    "gnaf_pid": "GANSW720256324",
    "tech_change_status": "Not Planned"
   }
  },
  {
   "type": "Feature",
   "geometry": {
    "type": "Point",
    "coordinates": [
     148.44484493,
     -33.90934931
    ]
   },
   "properties": {
    "name": "1 MID WESTERN HIGHWAY BUMBALDRY 2794",
    "locID": "LOC000180688023",
    "tech": "WIRELESS",
    "upgrade": "NULL_NA",
    "gnaf_pid": "GANSW720384981",
    "tech_change_status": "Not Planned",
    "program_type": "Fixed Wireless and Satellite Upgrade Program",
    "target_eligibility_quarter": "NA"
   }
  },
  {
   "type": "Feature",
   "geometry": {
    "type": "Point",
    "coordinates": [
     148.39390213,
     -33.82947853
    ]
   },
   "properties": {
    "name": "148 WARRUMBA ROAD BUMBALDRY 2794",
    "locID": "LOC100086132840",
    "tech": "NULL",
    "upgrade": "NULL_NA",
    "gnaf_pid": "GANSW720802926",
    "tech_change_status": "Not Planned"
   }
  },
  {
   "type": "Feature",
   "geometry": {
    "type": "Point",
    "coordinates": [
     148.3888564,
     -33.8512914
    ]
   },
   "properties": {
    "name": "UNIT 2, 930 MAJOR WEST ROAD BUMBALDRY 2794",
    "locID": "LOC000092949866",
    "tech": "NULL",
    "upgrade": "NULL_NA",
    "gnaf_pid": "GANSW721130886",
    "tech_change_status": "Not Planned"
   }
  }
 ]
}