{
 "type": "FeatureCollection",
 "generated": "2026-06-28T06:30:08.171337",
 "suburb": "CARINDA",
 "features": [
  {
   "type": "Feature",
   "geometry": {
    "type": "Point",
    "coordinates": [
     147.69161518,
     -30.46231645
    ]
   },
   "properties": {
    "name": "9 COLIN STREET CARINDA 2831",
    "locID": "LOC000053672778",
    "tech": "NULL",
    "upgrade": "NULL_NA",
    "gnaf_pid": "GANSW713053636",
    "tech_change_status": "Not Planned"
   }
  },
  {
   "type": "Feature",
   "geometry": {
    "type": "Point",
    "coordinates": [
     147.6925039,
     -30.46352132
    ]
   },
   "properties": {
    "name": "1 WILGA STREET CARINDA 2831",
    "locID": "LOC000122089854",
    "tech": "SATELLITE",
    "upgrade": "NULL_NA",
    "gnaf_pid": "GANSW713053637",
    "tech_change_status": "Not Planned"
   }
  },
  {
   "type": "Feature",
   "geometry": {
    "type": "Point",
    "coordinates": [
     147.34592943,
     -30.44359653
    ]
   },
   "properties": {
    "name": "1706 BILLYBINGBONE ROAD CARINDA 2831",
    "locID": "LOC000049145096",
    "tech": "NULL",
    "upgrade": "NULL_NA",
    "gnaf_pid": "GANSW717654264",
    "tech_change_status": "Not Planned"
   }
  },
  {
   "type": "Feature",
   "geometry": {
    "type": "Point",
    "coordinates": [
     147.38645511,
     -30.4378161
    ]
   },
   "properties": {
    "name": "190 MANNIX ROAD CARINDA 2831",
    "locID": "LOC000064537544",
    "tech": "SATELLITE",
    "upgrade": "NULL_NA",
    "gnaf_pid": "GANSW717659346",
    "tech_change_status": "Not Planned"
   }
  },
  {
   "type": "Feature",
   "geometry": {
    "type": "Point",
    "coordinates": [
     147.40019006,
     -30.46696254
    ]
   },
   "properties": {
    "name": "474 MANNIX ROAD CARINDA 2831",
    "locID": "LOC000018413609",
    "tech": "NULL",
    "upgrade": "NULL_NA",
    "gnaf_pid": "GANSW717659347",
    "tech_change_status": "Not Planned"
   }
  },
  {
   "type": "Feature",
   "geometry": {
    "type": "Point",
    "coordinates": [
     147.44729845,
     -30.44919299
    ]
   },
   "properties": {
    "name": "484 MANNIX ROAD CARINDA 2831",
    "locID": "LOC000096984883",
    "tech": "SATELLITE",
    "upgrade": "NULL_NA",
    "gnaf_pid": "GANSW717659348",
    "tech_change_status": "Not Planned"
   }
  },
  {
   "type": "Feature",
   "geometry": {
    "type": "Point",
    "coordinates": [
     147.28557195,
     -30.49495824
    ]
   },
   "properties": {
    "name": "4336 BOOKA ROAD CARINDA 2831",
    "locID": "LOC000063504168",
    "tech": "NULL",
    "upgrade": "NULL_NA",
    "gnaf_pid": "GANSW717692059",
    "tech_change_status": "Not Planned"
   }
  },
  {
   "type": "Feature",
   "geometry": {
    "type": "Point",
    "coordinates": [
     147.38139155,
     -30.58798871
    ]
   },
   "properties": {
    "name": "1615 CATONS ROAD CARINDA 2831",
    "locID": "LOC000112921733",
    "tech": "SATELLITE",
    "upgrade": "NULL_NA",
    "gnaf_pid": "GANSW717695396",
    "tech_change_status": "Not Planned"
   }
  },
  {
   "type": "Feature",
   "geometry": {
    "type": "Point",
    "coordinates": [
     147.85798508,
     -30.58619268
    ]
   },
   "properties": {
    "name": "1600 KEEWONG LANE CARINDA 2831",
    "locID": "LOC000154351458",
    "tech": "SATELLITE",
    "upgrade": "NULL_NA",
    "gnaf_pid": "GANSW717705383",
    "tech_change_status": "Not Planned"
   }
  },
  {
   "type": "Feature",
   "geometry": {
    "type": "Point",
    "coordinates": [
     147.5455516,
     -30.42020028
    ]
   },
   "properties": {
    "name": "16345 CARINDA ROAD CARINDA 2831",
    "locID": "LOC000089442375",
    "tech": "SATELLITE",
    "upgrade": "NULL_NA",
    "gnaf_pid": "GANSW717871075",
    "tech_change_status": "Not Planned"
   }
  },
  {
   "type": "Feature",
   "geometry": {
    "type": "Point",
    "coordinates": [
     147.55908048,
     -30.42827102
    ]
   },
   "properties": {
    "name": "16611 CARINDA ROAD CARINDA 2831",
    "locID": "LOC000086583822",
    "tech": "SATELLITE",
    "upgrade": "NULL_NA",
    "gnaf_pid": "GANSW717871076",
    "tech_change_status": "Not Planned"
   }
  },
  {
   "type": "Feature",
   "geometry": {
    "type": "Point",
    "coordinates": [
     147.66106251,
     -30.4482934
    ]
   },
   "properties": {
    "name": "17460 CARINDA ROAD CARINDA 2831",
    "locID": "LOC000015533647",
    "tech": "SATELLITE",
    "upgrade": "NULL_NA",
    "gnaf_pid": "GANSW717871078",
    "tech_change_status": "Not Planned"
   }
  },
  {
   "type": "Feature",
   "geometry": {
    "type": "Point",
    "coordinates": [
     147.70194895,
     -30.1992605
    ]
   },
   "properties": {
    "name": "2608 ABERFOYLE ROAD CARINDA 2831",
    "locID": "LOC000110009514",
    "tech": "NULL",
    "upgrade": "NULL_NA",
    "gnaf_pid": "GANSW717914703",
    "tech_change_status": "Not Planned"
   }
  },
  {
   "type": "Feature",
   "geometry": {
    "type": "Point",
    "coordinates": [
     147.23870062,
     -30.442259
    ]
   },
   "properties": {
    "name": "2867 BILLYBINGBONE ROAD CARINDA 2831",
    "locID": "LOC000041091190",
    "tech": "NULL",
    "upgrade": "NULL_NA",
    "gnaf_pid": "GANSW717916889",
    "tech_change_status": "Not Planned"
   }
  },
  {
   "type": "Feature",
   "geometry": {
    "type": "Point",
    "coordinates": [
     147.53750936,
     -30.23924479
    ]
   },
   "properties": {
    "name": "1667 BINGHI ROAD CARINDA 2831",
    "locID": "LOC000172616564",
    "tech": "SATELLITE",
    "upgrade": "NULL_NA",
    "gnaf_pid": "GANSW717916895",
    "tech_change_status": "Not Planned"
   }
  },
  {
   "type": "Feature",
   "geometry": {
    "type": "Point",
    "coordinates": [
     147.70338994,
     -30.21603073
    ]
   },
   "properties": {
    "name": "2070 BOGEWONG ROAD CARINDA 2831",
    "locID": "LOC000087816852",
    "tech": "NULL",
    "upgrade": "NULL_NA",
    "gnaf_pid": "GANSW717917036",
    "tech_change_status": "Not Planned"
   }
  },
  {
   "type": "Feature",
   "geometry": {
    "type": "Point",
    "coordinates": [
     147.70920418,
     -30.2617847
    ]
   },
   "properties": {
    "name": "2601 BOGEWONG ROAD CARINDA 2831",
    "locID": "LOC000017390476",
    "tech": "NULL",
    "upgrade": "NULL_NA",
    "gnaf_pid": "GANSW717917037",
    "tech_change_status": "Not Planned"
   }
  },
  {
   "type": "Feature",
   "geometry": {
    "type": "Point",
    "coordinates": [
     147.73208153,
     -30.38381438
    ]
   },
   "properties": {
    "name": "302 BOWRA LANE CARINDA 2831",
    "locID": "LOC000091171826",
    "tech": "SATELLITE",
    "upgrade": "NULL_NA",
    "gnaf_pid": "GANSW717917220",
    "tech_change_status": "Not Planned"
   }
  },
  {
   "type": "Feature",
   "geometry": {
    "type": "Point",
    "coordinates": [
     147.79223722,
     -30.2543988
    ]
   },
   "properties": {
    "name": "3918 CUMBERDOON WAY CARINDA 2831",
    "locID": "LOC000025414206",
    "tech": "SATELLITE",
    "upgrade": "NULL_NA",
    "gnaf_pid": "GANSW717919293",
    "tech_change_status": "Not Planned"
   }
  },
  {
   "type": "Feature",
   "geometry": {
    "type": "Point",
    "coordinates": [
     147.86606245,
     -30.27772308
    ]
   },
   "properties": {
    "name": "3974 CUMBERDOON WAY CARINDA 2831",
    "locID": "LOC000073451182",
    "tech": "NULL",
    "upgrade": "NULL_NA",
    "gnaf_pid": "GANSW717919294",
    "tech_change_status": "Not Planned"
   }
  },
  {
   "type": "Feature",
   "geometry": {
    "type": "Point",
    "coordinates": [
     147.83738942,
     -30.31525051
    ]
   },
   "properties": {
    "name": "4496 CUMBERDOON WAY CARINDA 2831",
    "locID": "LOC000003121325",
    "tech": "SATELLITE",
    "upgrade": "NULL_NA",
    "gnaf_pid": "GANSW717919295",
    "tech_change_status": "Not Planned"
   }
  },
  {
   "type": "Feature",
   "geometry": {
    "type": "Point",
    "coordinates": [
     147.80116531,
     -30.37571486
    ]
   },
   "properties": {
    "name": "5245 CUMBERDOON WAY CARINDA 2831",
    "locID": "LOC000007221209",
    "tech": "SATELLITE",
    "upgrade": "NULL_NA",
    "gnaf_pid": "GANSW717919296",
    "tech_change_status": "Not Planned"
   }
  },
  {
   "type": "Feature",
   "geometry": {
    "type": "Point",
    "coordinates": [
     147.71425894,
     -30.44292202
    ]
   },
   "properties": {
    "name": "6328 CUMBERDOON WAY CARINDA 2831",
    "locID": "LOC000023125473",
    "tech": "SATELLITE",
    "upgrade": "NULL_NA",
    "gnaf_pid": "GANSW717919298",
    "tech_change_status": "Not Planned"
   }
  },
  {
   "type": "Feature",
   "geometry": {
    "type": "Point",
    "coordinates": [
     147.43155056,
     -30.28989889
    ]
   },
   "properties": {
    "name": "1186 GINGHET ROAD CARINDA 2831",
    "locID": "LOC000122098332",
    "tech": "SATELLITE",
    "upgrade": "NULL_NA",
    "gnaf_pid": "GANSW717921179",
    "tech_change_status": "Not Planned"
   }
  },
  {
   "type": "Feature",
   "geometry": {
    "type": "Point",
    "coordinates": [
     147.48235938,
     -30.31268416
    ]
   },
   "properties": {
    "name": "1127 GREEN AND BRANDERS ROAD CARINDA 2831",
    "locID": "LOC000080935043",
    "tech": "SATELLITE",
    "upgrade": "NULL_NA",
    "gnaf_pid": "GANSW717921524",
    "tech_change_status": "Not Planned"
   }
  },
  {
   "type": "Feature",
   "geometry": {
    "type": "Point",
    "coordinates": [
     147.52060679,
     -30.35469089
    ]
   },
   "properties": {
    "name": "836 GREEN AND BRANDERS ROAD CARINDA 2831",
    "locID": "LOC000066390309",
    "tech": "NULL",
    "upgrade": "NULL_NA",
    "gnaf_pid": "GANSW717921526",
    "tech_change_status": "Not Planned"
   }
  },
  {
   "type": "Feature",
   "geometry": {
    "type": "Point",
    "coordinates": [
     147.4179265,
     -30.33168059
    ]
   },
   "properties": {
    "name": "981 GREEN AND BRANDERS ROAD CARINDA 2831",
    "locID": "LOC000090541796",
    "tech": "NULL",
    "upgrade": "NULL_NA",
    "gnaf_pid": "GANSW717921527",
    "tech_change_status": "Not Planned"
   }
  },
  {
   "type": "Feature",
   "geometry": {
    "type": "Point",
    "coordinates": [
     147.99948278,
     -30.33793794
    ]
   },
   "properties": {
    "name": "1623 GUNGALMAN ROAD CARINDA 2831",
    "locID": "LOC000037314653",
    "tech": "NULL",
    "upgrade": "NULL_NA",
    "gnaf_pid": "GANSW717921666",
    "tech_change_status": "Not Planned"
   }
  },
  {
   "type": "Feature",
   "geometry": {
    "type": "Point",
    "coordinates": [
     147.9372563,
     -30.28279157
    ]
   },
   "properties": {
    "name": "1858 GUNGALMAN ROAD CARINDA 2831",
    "locID": "LOC000023249757",
    "tech": "NULL",
    "upgrade": "NULL_NA",
    "gnaf_pid": "GANSW717921667",
    "tech_change_status": "Not Planned"
   }
  },
  {
   "type": "Feature",
   "geometry": {
    "type": "Point",
    "coordinates": [
     147.94831658,
     -30.35906872
    ]
   },
   "properties": {
    "name": "2088 GUNGALMAN ROAD CARINDA 2831",
    "locID": "LOC000017088367",
    "tech": "SATELLITE",
    "upgrade": "NULL_NA",
    "gnaf_pid": "GANSW717921668",
    "tech_change_status": "Not Planned"
   }
  },
  {
   "type": "Feature",
   "geometry": {
    "type": "Point",
    "coordinates": [
     147.9628148,
     -30.38404218
    ]
   },
   "properties": {
    "name": "2370 GUNGALMAN ROAD CARINDA 2831",
    "locID": "LOC000095687845",
    "tech": "SATELLITE",
    "upgrade": "NULL_NA",
    "gnaf_pid": "GANSW717921669",
    "tech_change_status": "Not Planned"
   }
  },
  {
   "type": "Feature",
   "geometry": {
    "type": "Point",
    "coordinates": [
     147.93052759,
     -30.39658978
    ]
   },
   "properties": {
    "name": "2859 GUNGALMAN ROAD CARINDA 2831",
    "locID": "LOC000097998833",
    "tech": "NULL",
    "upgrade": "NULL_NA",
    "gnaf_pid": "GANSW717921670",
    "tech_change_status": "Not Planned"
   }
  },
  {
   "type": "Feature",
   "geometry": {
    "type": "Point",
    "coordinates": [
     147.90010123,
     -30.41857153
    ]
   },
   "properties": {
    "name": "3282 GUNGALMAN ROAD CARINDA 2831",
    "locID": "LOC000022980368",
    "tech": "NULL",
    "upgrade": "NULL_NA",
    "gnaf_pid": "GANSW717921671",
    "tech_change_status": "Not Planned"
   }
  },
  {
   "type": "Feature",
   "geometry": {
    "type": "Point",
    "coordinates": [
     147.8503799,
     -30.34049142
    ]
   },
   "properties": {
    "name": "3911 GUNGALMAN ROAD CARINDA 2831",
    "locID": "LOC000086453132",
    "tech": "NULL",
    "upgrade": "NULL_NA",
    "gnaf_pid": "GANSW717921672",
    "tech_change_status": "Not Planned"
   }
  },
  {
   "type": "Feature",
   "geometry": {
    "type": "Point",
    "coordinates": [
     147.67117397,
     -30.49027482
    ]
   },
   "properties": {
    "name": "439 MAC MASMAN ROAD CARINDA 2831",
    "locID": "LOC000043007628",
    "tech": "SATELLITE",
    "upgrade": "NULL_NA",
    "gnaf_pid": "GANSW717924437",
    "tech_change_status": "Not Planned"
   }
  },
  {
   "type": "Feature",
   "geometry": {
    "type": "Point",
    "coordinates": [
     147.80897213,
     -30.48802801
    ]
   },
   "properties": {
    "name": "286 MAROUBRA ROAD CARINDA 2831",
    "locID": "LOC000002350472",
    "tech": "SATELLITE",
    "upgrade": "NULL_NA",
    "gnaf_pid": "GANSW717924807",
    "tech_change_status": "Not Planned"
   }
  },
  {
   "type": "Feature",
   "geometry": {
    "type": "Point",
    "coordinates": [
     147.81812492,
     -30.51550613
    ]
   },
   "properties": {
    "name": "518 MAROUBRA ROAD CARINDA 2831",
    "locID": "LOC000052296737",
    "tech": "SATELLITE",
    "upgrade": "NULL_NA",
    "gnaf_pid": "GANSW717924808",
    "tech_change_status": "Not Planned"
   }
  },
  {
   "type": "Feature",
   "geometry": {
    "type": "Point",
    "coordinates": [
     147.20953046,
     -30.28406534
    ]
   },
   "properties": {
    "name": "1619 MARRA CREEK ROAD CARINDA 2831",
    "locID": "LOC000018118048",
    "tech": "NULL",
    "upgrade": "NULL_NA",
    "gnaf_pid": "GANSW717924812",
    "tech_change_status": "Not Planned"
   }
  },
  {
   "type": "Feature",
   "geometry": {
    "type": "Point",
    "coordinates": [
     147.34261912,
     -30.30272005
    ]
   },
   "properties": {
    "name": "245 MARRA CREEK ROAD CARINDA 2831",
    "locID": "LOC000090464881",
    "tech": "SATELLITE",
    "upgrade": "NULL_NA",
    "gnaf_pid": "GANSW717924813",
    "tech_change_status": "Not Planned"
   }
  },
  {
   "type": "Feature",
   "geometry": {
    "type": "Point",
    "coordinates": [
     147.37104691,
     -30.24777566
    ]
   },
   "properties": {
    "name": "358 MARRA CREEK ROAD CARINDA 2831",
    "locID": "LOC000042096176",
    "tech": "NULL",
    "upgrade": "NULL_NA",
    "gnaf_pid": "GANSW717924814",
    "tech_change_status": "Not Planned"
   }
  },
  {
   "type": "Feature",
   "geometry": {
    "type": "Point",
    "coordinates": [
     147.74588405,
     -30.46211665
    ]
   },
   "properties": {
    "name": "182 TERANYAN ROAD CARINDA 2831",
    "locID": "LOC000093580130",
    "tech": "SATELLITE",
    "upgrade": "NULL_NA",
    "gnaf_pid": "GANSW717930485",
    "tech_change_status": "Not Planned"
   }
  },
  {
   "type": "Feature",
   "geometry": {
    "type": "Point",
    "coordinates": [
     147.81685437,
     -30.43143361
    ]
   },
   "properties": {
    "name": "779 TERANYAN ROAD CARINDA 2831",
    "locID": "LOC000065515750",
    "tech": "SATELLITE",
    "upgrade": "NULL_NA",
    "gnaf_pid": "GANSW717930486",
    "tech_change_status": "Not Planned"
   }
  },
  {
   "type": "Feature",
   "geometry": {
    "type": "Point",
    "coordinates": [
     147.81315675,
     -30.46316967
    ]
   },
   "properties": {
    "name": "800 TERANYAN ROAD CARINDA 2831",
    "locID": "LOC000079920778",
    "tech": "NULL",
    "upgrade": "NULL_NA",
    "gnaf_pid": "GANSW717930487",
    "tech_change_status": "Not Planned"
   }
  },
  {
   "type": "Feature",
   "geometry": {
    "type": "Point",
    "coordinates": [
     147.2355109,
     -30.43215953
    ]
   },
   "properties": {
    "name": "720 BILLYBINGBONE ROAD CARINDA 2831",
    "locID": "LOC000122091652",
    "tech": "SATELLITE",
    "upgrade": "NULL_NA",
    "gnaf_pid": "GANSW717943538",
    "tech_change_status": "Not Planned"
   }
  },
  {
   "type": "Feature",
   "geometry": {
    "type": "Point",
    "coordinates": [
     147.65429204,
     -30.44697615
    ]
   },
   "properties": {
    "name": "17400 CARINDA ROAD CARINDA 2831",
    "locID": "LOC000122092911",
    "tech": "NULL",
    "upgrade": "NULL_NA",
    "gnaf_pid": "GANSW717992892",
    "tech_change_status": "Not Planned"
   }
  },
  {
   "type": "Feature",
   "geometry": {
    "type": "Point",
    "coordinates": [
     147.69748905,
     -30.46288787
    ]
   },
   "properties": {
    "name": "6789 CUMBERDOON WAY CARINDA 2831",
    "locID": "LOC000122107017",
    "tech": "SATELLITE",
    "upgrade": "NULL_NA",
    "gnaf_pid": "GANSW717993350",
    "tech_change_status": "Not Planned"
   }
  },
  {
   "type": "Feature",
   "geometry": {
    "type": "Point",
    "coordinates": [
     147.41808354,
     -30.33154091
    ]
   },
   "properties": {
    "name": "3219 GINGHET ROAD CARINDA 2831",
    "locID": "LOC000122098332",
    "tech": "SATELLITE",
    "upgrade": "NULL_NA",
    "gnaf_pid": "GANSW717994324",
    "tech_change_status": "Not Planned"
   }
  },
  {
   "type": "Feature",
   "geometry": {
    "type": "Point",
    "coordinates": [
     147.41492389,
     -30.2762381
    ]
   },
   "properties": {
    "name": "3232 GINGHET ROAD CARINDA 2831",
    "locID": "LOC000002174241",
    "tech": "NULL",
    "upgrade": "NULL_NA",
    "gnaf_pid": "GANSW717994325",
    "tech_change_status": "Not Planned"
   }
  },
  {
   "type": "Feature",
   "geometry": {
    "type": "Point",
    "coordinates": [
     147.32120237,
     -30.35864853
    ]
   },
   "properties": {
    "name": "4406 GINGHET ROAD CARINDA 2831",
    "locID": "LOC000072458717",
    "tech": "SATELLITE",
    "upgrade": "NULL_NA",
    "gnaf_pid": "GANSW717994326",
    "tech_change_status": "Not Planned"
   }
  },
  {
   "type": "Feature",
   "geometry": {
    "type": "Point",
    "coordinates": [
     147.40951174,
     -30.25962713
    ]
   },
   "properties": {
    "name": "438 MIRALWYN ROAD CARINDA 2831",
    "locID": "LOC000078777910",
    "tech": "SATELLITE",
    "upgrade": "NULL_NA",
    "gnaf_pid": "GANSW717996792",
    "tech_change_status": "Not Planned"
   }
  },
  {
   "type": "Feature",
   "geometry": {
    "type": "Point",
    "coordinates": [
     147.99666305,
     -30.37110782
    ]
   },
   "properties": {
    "name": "142 NEDGERA ROAD CARINDA 2831",
    "locID": "LOC000109356560",
    "tech": "SATELLITE",
    "upgrade": "NULL_NA",
    "gnaf_pid": "GANSW717997158",
    "tech_change_status": "Not Planned"
   }
  },
  {
   "type": "Feature",
   "geometry": {
    "type": "Point",
    "coordinates": [
     148.0269949,
     -30.37249727
    ]
   },
   "properties": {
    "name": "560 NEDGERA ROAD CARINDA 2831",
    "locID": "LOC000112894170",
    "tech": "SATELLITE",
    "upgrade": "NULL_NA",
    "gnaf_pid": "GANSW717997159",
    "tech_change_status": "Not Planned"
   }
  },
  {
   "type": "Feature",
   "geometry": {
    "type": "Point",
    "coordinates": [
     147.65217432,
     -30.44332368
    ]
   },
   "properties": {
    "name": "17403 CARINDA ROAD CARINDA 2831",
    "locID": "LOC000122092924",
    "tech": "SATELLITE",
    "upgrade": "NULL_NA",
    "gnaf_pid": "GANSW718025490",
    "tech_change_status": "Not Planned"
   }
  },
  {
   "type": "Feature",
   "geometry": {
    "type": "Point",
    "coordinates": [
     147.52758749,
     -30.23801746
    ]
   },
   "properties": {
    "name": "1924 GINGHET ROAD CARINDA 2831",
    "locID": "LOC000122093012",
    "tech": "SATELLITE",
    "upgrade": "NULL_NA",
    "gnaf_pid": "GANSW718028924",
    "tech_change_status": "Not Planned"
   }
  },
  {
   "type": "Feature",
   "geometry": {
    "type": "Point",
    "coordinates": [
     147.39692889,
     -30.37165797
    ]
   },
   "properties": {
    "name": "2363 BILLYBINGBONE ROAD CARINDA 2831",
    "locID": "LOC000081529853",
    "tech": "NULL",
    "upgrade": "NULL_NA",
    "gnaf_pid": "GANSW718049140",
    "tech_change_status": "Not Planned"
   }
  },
  {
   "type": "Feature",
   "geometry": {
    "type": "Point",
    "coordinates": [
     147.71408658,
     -30.39053161
    ]
   },
   "properties": {
    "name": "398 BOWRA LANE CARINDA 2831",
    "locID": "LOC000093583291",
    "tech": "SATELLITE",
    "upgrade": "NULL_NA",
    "gnaf_pid": "GANSW718049395",
    "tech_change_status": "Not Planned"
   }
  },
  {
   "type": "Feature",
   "geometry": {
    "type": "Point",
    "coordinates": [
     147.35100491,
     -30.35131641
    ]
   },
   "properties": {
    "name": "4144 GINGHET ROAD CARINDA 2831",
    "locID": "LOC000020875615",
    "tech": "NULL",
    "upgrade": "NULL_NA",
    "gnaf_pid": "GANSW718052846",
    "tech_change_status": "Not Planned"
   }
  },
  {
   "type": "Feature",
   "geometry": {
    "type": "Point",
    "coordinates": [
     147.49725205,
     -30.3184913
    ]
   },
   "properties": {
    "name": "1125 GREEN AND BRANDERS ROAD CARINDA 2831",
    "locID": "LOC000052630076",
    "tech": "SATELLITE",
    "upgrade": "NULL_NA",
    "gnaf_pid": "GANSW718053059",
    "tech_change_status": "Not Planned"
   }
  },
  {
   "type": "Feature",
   "geometry": {
    "type": "Point",
    "coordinates": [
     147.67235809,
     -30.46099946
    ]
   },
   "properties": {
    "name": "173 MAC MASMAN ROAD CARINDA 2831",
    "locID": "LOC000009073853",
    "tech": "NULL",
    "upgrade": "NULL_NA",
    "gnaf_pid": "GANSW718055008",
    "tech_change_status": "Not Planned"
   }
  },
  {
   "type": "Feature",
   "geometry": {
    "type": "Point",
    "coordinates": [
     147.34587216,
     -30.13394677
    ]
   },
   "properties": {
    "name": "1503 MIRALWYN ROAD CARINDA 2831",
    "locID": "LOC000003930806",
    "tech": "SATELLITE",
    "upgrade": "NULL_NA",
    "gnaf_pid": "GANSW718055602",
    "tech_change_status": "Not Planned"
   }
  },
  {
   "type": "Feature",
   "geometry": {
    "type": "Point",
    "coordinates": [
     147.66138254,
     -30.40908837
    ]
   },
   "properties": {
    "name": "340 REGANS ROAD CARINDA 2831",
    "locID": "LOC000070261745",
    "tech": "NULL",
    "upgrade": "NULL_NA",
    "gnaf_pid": "GANSW718058475",
    "tech_change_status": "Not Planned"
   }
  },
  {
   "type": "Feature",
   "geometry": {
    "type": "Point",
    "coordinates": [
     147.59569569,
     -30.43786907
    ]
   },
   "properties": {
    "name": "12955 CARINDA ROAD CARINDA 2831",
    "locID": "LOC000122110841",
    "tech": "SATELLITE",
    "upgrade": "NULL_NA",
    "gnaf_pid": "GANSW718129867",
    "tech_change_status": "Not Planned"
   }
  },
  {
   "type": "Feature",
   "geometry": {
    "type": "Point",
    "coordinates": [
     147.5337788,
     -30.62297774
    ]
   },
   "properties": {
    "name": "13566 CARINDA ROAD CARINDA 2831",
    "locID": "LOC000114832765",
    "tech": "SATELLITE",
    "upgrade": "NULL_NA",
    "gnaf_pid": "GANSW718129869",
    "tech_change_status": "Not Planned"
   }
  },
  {
   "type": "Feature",
   "geometry": {
    "type": "Point",
    "coordinates": [
     147.59569569,
     -30.43786907
    ]
   },
   "properties": {
    "name": "13808 CARINDA ROAD CARINDA 2831",
    "locID": "LOC000115049540",
    "tech": "SATELLITE",
    "upgrade": "NULL_NA",
    "gnaf_pid": "GANSW718129870",
    "tech_change_status": "Not Planned"
   }
  },
  {
   "type": "Feature",
   "geometry": {
    "type": "Point",
    "coordinates": [
     147.50449877,
     -30.59022166
    ]
   },
   "properties": {
    "name": "14068 CARINDA ROAD CARINDA 2831",
    "locID": "LOC000142494128",
    "tech": "SATELLITE",
    "upgrade": "NULL_NA",
    "gnaf_pid": "GANSW718129871",
    "tech_change_status": "Not Planned"
   }
  },
  {
   "type": "Feature",
   "geometry": {
    "type": "Point",
    "coordinates": [
     147.49144431,
     -30.50924656
    ]
   },
   "properties": {
    "name": "14580 CARINDA ROAD CARINDA 2831",
    "locID": "LOC000113185418",
    "tech": "NULL",
    "upgrade": "NULL_NA",
    "gnaf_pid": "GANSW718129872",
    "tech_change_status": "Not Planned"
   }
  },
  {
   "type": "Feature",
   "geometry": {
    "type": "Point",
    "coordinates": [
     147.49632213,
     -30.50247839
    ]
   },
   "properties": {
    "name": "15040 CARINDA ROAD CARINDA 2831",
    "locID": "LOC000114282323",
    "tech": "SATELLITE",
    "upgrade": "NULL_NA",
    "gnaf_pid": "GANSW718129873",
    "tech_change_status": "Not Planned"
   }
  },
  {
   "type": "Feature",
   "geometry": {
    "type": "Point",
    "coordinates": [
     147.45842229,
     -30.58116698
    ]
   },
   "properties": {
    "name": "14030 CARINDA ROAD CARINDA 2831",
    "locID": "LOC000122113131",
    "tech": "SATELLITE",
    "upgrade": "NULL_NA",
    "gnaf_pid": "GANSW718259348",
    "tech_change_status": "Not Planned"
   }
  },
  {
   "type": "Feature",
   "geometry": {
    "type": "Point",
    "coordinates": [
     147.57433228,
     -30.45354137
    ]
   },
   "properties": {
    "name": "15847 CARINDA ROAD CARINDA 2831",
    "locID": "LOC000122113288",
    "tech": "NULL",
    "upgrade": "NULL_NA",
    "gnaf_pid": "GANSW718259353",
    "tech_change_status": "Not Planned"
   }
  },
  {
   "type": "Feature",
   "geometry": {
    "type": "Point",
    "coordinates": [
     147.69057036,
     -30.4626346
    ]
   },
   "properties": {
    "name": "16 COLIN STREET CARINDA 2831",
    "locID": "LOC000122092809",
    "tech": "NULL",
    "upgrade": "NULL_NA",
    "gnaf_pid": "GANSW718323753",
    "tech_change_status": "Not Planned"
   }
  },
  {
   "type": "Feature",
   "geometry": {
    "type": "Point",
    "coordinates": [
     147.69040109,
     -30.46390908
    ]
   },
   "properties": {
    "name": "28 COLIN STREET CARINDA 2831",
    "locID": "LOC000150098006",
    "tech": "SATELLITE",
    "upgrade": "NULL_NA",
    "gnaf_pid": "GANSW718431038",
    "tech_change_status": "Not Planned"
   }
  },
  {
   "type": "Feature",
   "geometry": {
    "type": "Point",
    "coordinates": [
     147.69650878,
     -30.56793832
    ]
   },
   "properties": {
    "name": "13377 MERRI MERRI ROAD CARINDA 2831",
    "locID": "LOC000148059793",
    "tech": "SATELLITE",
    "upgrade": "NULL_NA",
    "gnaf_pid": "GANSW718471556",
    "tech_change_status": "Not Planned"
   }
  },
  {
   "type": "Feature",
   "geometry": {
    "type": "Point",
    "coordinates": [
     147.70550749,
     -30.52668318
    ]
   },
   "properties": {
    "name": "13870 MERRI MERRI ROAD CARINDA 2831",
    "locID": "LOC000148060544",
    "tech": "NULL",
    "upgrade": "NULL_NA",
    "gnaf_pid": "GANSW718471557",
    "tech_change_status": "Not Planned"
   }
  },
  {
   "type": "Feature",
   "geometry": {
    "type": "Point",
    "coordinates": [
     147.66732879,
     -30.52346896
    ]
   },
   "properties": {
    "name": "13883 MERRI MERRI ROAD CARINDA 2831",
    "locID": "LOC000148060571",
    "tech": "SATELLITE",
    "upgrade": "NULL_NA",
    "gnaf_pid": "GANSW718471558",
    "tech_change_status": "Not Planned"
   }
  },
  {
   "type": "Feature",
   "geometry": {
    "type": "Point",
    "coordinates": [
     147.69075037,
     -30.46257811
    ]
   },
   "properties": {
    "name": "14 COLIN STREET CARINDA 2831",
    "locID": "LOC000150098023",
    "tech": "SATELLITE",
    "upgrade": "NULL_NA",
    "gnaf_pid": "GANSW718528144",
    "tech_change_status": "Not Planned"
   }
  },
  {
   "type": "Feature",
   "geometry": {
    "type": "Point",
    "coordinates": [
     147.69141104,
     -30.46366743
    ]
   },
   "properties": {
    "name": "21 COLIN STREET CARINDA 2831",
    "locID": "LOC100078047635",
    "tech": "NULL",
    "upgrade": "NULL_NA",
    "gnaf_pid": "GANSW718528146",
    "tech_change_status": "Not Planned"
   }
  },
  {
   "type": "Feature",
   "geometry": {
    "type": "Point",
    "coordinates": [
     147.69068801,
     -30.46359371
    ]
   },
   "properties": {
    "name": "22 COLIN STREET CARINDA 2831",
    "locID": "LOC000150098047",
    "tech": "SATELLITE",
    "upgrade": "NULL_NA",
    "gnaf_pid": "GANSW718528147",
    "tech_change_status": "Not Planned"
   }
  },
  {
   "type": "Feature",
   "geometry": {
    "type": "Point",
    "coordinates": [
     147.68801723,
     -30.46548034
    ]
   },
   "properties": {
    "name": "2 HARE STREET CARINDA 2831",
    "locID": "LOC000186946667",
    "tech": "NULL",
    "upgrade": "NULL_NA",
    "gnaf_pid": "GANSW718530627",
    "tech_change_status": "Not Planned"
   }
  },
  {
   "type": "Feature",
   "geometry": {
    "type": "Point",
    "coordinates": [
     147.68833329,
     -30.47010537
    ]
   },
   "properties": {
    "name": "10 KIDGAR STREET CARINDA 2831",
    "locID": "LOC100078047674",
    "tech": "NULL",
    "upgrade": "NULL_NA",
    "gnaf_pid": "GANSW718531690",
    "tech_change_status": "Not Planned"
   }
  },
  {
   "type": "Feature",
   "geometry": {
    "type": "Point",
    "coordinates": [
     147.69186193,
     -30.46170473
    ]
   },
   "properties": {
    "name": "28 MCNAMARA STREET CARINDA 2831",
    "locID": "LOC000150098150",
    "tech": "NULL",
    "upgrade": "NULL_NA",
    "gnaf_pid": "GANSW718532718",
    "tech_change_status": "Not Planned"
   }
  },
  {
   "type": "Feature",
   "geometry": {
    "type": "Point",
    "coordinates": [
     147.68754401,
     -30.46188035
    ]
   },
   "properties": {
    "name": "2 MCNAMARA STREET CARINDA 2831",
    "locID": "LOC000150098166",
    "tech": "NULL",
    "upgrade": "NULL_NA",
    "gnaf_pid": "GANSW718532719",
    "tech_change_status": "Not Planned"
   }
  },
  {
   "type": "Feature",
   "geometry": {
    "type": "Point",
    "coordinates": [
     147.68900967,
     -30.46358495
    ]
   },
   "properties": {
    "name": "22-26 OLIVER STREET CARINDA 2831",
    "locID": "LOC000150098197",
    "tech": "SATELLITE",
    "upgrade": "NULL_NA",
    "gnaf_pid": "GANSW718533430",
    "tech_change_status": "Not Planned"
   }
  },
  {
   "type": "Feature",
   "geometry": {
    "type": "Point",
    "coordinates": [
     147.68893648,
     -30.46412695
    ]
   },
   "properties": {
    "name": "30 OLIVER STREET CARINDA 2831",
    "locID": "LOC100071938799",
    "tech": "NULL",
    "upgrade": "NULL_NA",
    "gnaf_pid": "GANSW718533433",
    "tech_change_status": "Not Planned"
   }
  },
  {
   "type": "Feature",
   "geometry": {
    "type": "Point",
    "coordinates": [
     147.68986146,
     -30.46358322
    ]
   },
   "properties": {
    "name": "28 SHAKESPEAR STREET CARINDA 2831",
    "locID": "LOC000150098243",
    "tech": "SATELLITE",
    "upgrade": "NULL_NA",
    "gnaf_pid": "GANSW718534995",
    "tech_change_status": "Not Planned"
   }
  },
  {
   "type": "Feature",
   "geometry": {
    "type": "Point",
    "coordinates": [
     147.69012116,
     -30.46361267
    ]
   },
   "properties": {
    "name": "30 SHAKESPEAR STREET CARINDA 2831",
    "locID": "LOC000150098258",
    "tech": "NULL",
    "upgrade": "NULL_NA",
    "gnaf_pid": "GANSW718534996",
    "tech_change_status": "Not Planned"
   }
  },
  {
   "type": "Feature",
   "geometry": {
    "type": "Point",
    "coordinates": [
     147.68853602,
     -30.46271343
    ]
   },
   "properties": {
    "name": "19 WARREN STREET CARINDA 2831",
    "locID": "LOC000150098289",
    "tech": "NULL",
    "upgrade": "NULL_NA",
    "gnaf_pid": "GANSW718536528",
    "tech_change_status": "Not Planned"
   }
  },
  {
   "type": "Feature",
   "geometry": {
    "type": "Point",
    "coordinates": [
     147.6887068,
     -30.4614488
    ]
   },
   "properties": {
    "name": "1-5 WARREN STREET CARINDA 2831",
    "locID": "LOC000087924496",
    "tech": "FTTC",
    "upgrade": "FTTP_SA",
    "gnaf_pid": "GANSW718536529",
    "tech_change_status": "Eligible to Order"
   }
  },
  {
   "type": "Feature",
   "geometry": {
    "type": "Point",
    "coordinates": [
     147.69209654,
     -30.46201066
    ]
   },
   "properties": {
    "name": "6 WILGA STREET CARINDA 2831",
    "locID": "LOC000150098329",
    "tech": "SATELLITE",
    "upgrade": "NULL_NA",
    "gnaf_pid": "GANSW718536841",
    "tech_change_status": "Not Planned"
   }
  },
  {
   "type": "Feature",
   "geometry": {
    "type": "Point",
    "coordinates": [
     147.71226354,
     -30.61264945
    ]
   },
   "properties": {
    "name": "12905 MERRI MERRI ROAD CARINDA 2831",
    "locID": "LOC000148058876",
    "tech": "NULL",
    "upgrade": "NULL_NA",
    "gnaf_pid": "GANSW718563299",
    "tech_change_status": "Not Planned"
   }
  },
  {
   "type": "Feature",
   "geometry": {
    "type": "Point",
    "coordinates": [
     147.68916816,
     -30.46241122
    ]
   },
   "properties": {
    "name": "14-16 OLIVER STREET CARINDA 2831",
    "locID": "LOC000150098178",
    "tech": "NULL",
    "upgrade": "NULL_NA",
    "gnaf_pid": "GANSW718701088",
    "tech_change_status": "Not Planned"
   }
  },
  {
   "type": "Feature",
   "geometry": {
    "type": "Point",
    "coordinates": [
     147.68995183,
     -30.46285689
    ]
   },
   "properties": {
    "name": "17-19 OLIVER STREET CARINDA 2831",
    "locID": "LOC000150098184",
    "tech": "NULL",
    "upgrade": "NULL_NA",
    "gnaf_pid": "GANSW718701089",
    "tech_change_status": "Not Planned"
   }
  },
  {
   "type": "Feature",
   "geometry": {
    "type": "Point",
    "coordinates": [
     147.69195099,
     -30.46305945
    ]
   },
   "properties": {
    "name": "39-41 SHAKESPEAR STREET CARINDA 2831",
    "locID": "LOC100078854009",
    "tech": "NULL",
    "upgrade": "NULL_NA",
    "gnaf_pid": "GANSW718702357",
    "tech_change_status": "Not Planned"
   }
  },
  {
   "type": "Feature",
   "geometry": {
    "type": "Point",
    "coordinates": [
     147.69991846,
     -30.5600698
    ]
   },
   "properties": {
    "name": "12505 MERRI MERRI ROAD CARINDA 2831",
    "locID": "LOC000148058876",
    "tech": "NULL",
    "upgrade": "NULL_NA",
    "gnaf_pid": "GANSW718748325",
    "tech_change_status": "Not Planned"
   }
  },
  {
   "type": "Feature",
   "geometry": {
    "type": "Point",
    "coordinates": [
     147.66379199,
     -30.39308568
    ]
   },
   "properties": {
    "name": "4192 BOGEWONG ROAD CARINDA 2831",
    "locID": "LOC000150098340",
    "tech": "NULL",
    "upgrade": "NULL_NA",
    "gnaf_pid": "GANSW718776339",
    "tech_change_status": "Not Planned"
   }
  },
  {
   "type": "Feature",
   "geometry": {
    "type": "Point",
    "coordinates": [
     147.68865599,
     -30.46620399
    ]
   },
   "properties": {
    "name": "6 HARE STREET CARINDA 2831",
    "locID": "LOC000178154479",
    "tech": "SATELLITE",
    "upgrade": "NULL_NA",
    "gnaf_pid": "GANSW718777882",
    "tech_change_status": "Not Planned"
   }
  },
  {
   "type": "Feature",
   "geometry": {
    "type": "Point",
    "coordinates": [
     147.66087575,
     -30.48174585
    ]
   },
   "properties": {
    "name": "LOT 33 MAC MASMAN ROAD CARINDA 2831",
    "locID": "LOC000169645734",
    "tech": "SATELLITE",
    "upgrade": "NULL_NA",
    "gnaf_pid": "GANSW718778377",
    "tech_change_status": "Not Planned"
   }
  },
  {
   "type": "Feature",
   "geometry": {
    "type": "Point",
    "coordinates": [
     147.69275543,
     -30.45491186
    ]
   },
   "properties": {
    "name": "4799 BOGEWONG ROAD CARINDA 2831",
    "locID": "LOC000150098355",
    "tech": "NULL",
    "upgrade": "NULL_NA",
    "gnaf_pid": "GANSW718839293",
    "tech_change_status": "Not Planned"
   }
  },
  {
   "type": "Feature",
   "geometry": {
    "type": "Point",
    "coordinates": [
     147.69063276,
     -30.46219335
    ]
   },
   "properties": {
    "name": "10-12 COLIN STREET CARINDA 2831",
    "locID": "LOC000150098010",
    "tech": "SATELLITE",
    "upgrade": "NULL_NA",
    "gnaf_pid": "GANSW718920573",
    "tech_change_status": "Not Planned"
   }
  },
  {
   "type": "Feature",
   "geometry": {
    "type": "Point",
    "coordinates": [
     147.69142864,
     -30.4625485
    ]
   },
   "properties": {
    "name": "11 COLIN STREET CARINDA 2831",
    "locID": "LOC100079107280",
    "tech": "NULL",
    "upgrade": "NULL_NA",
    "gnaf_pid": "GANSW718920574",
    "tech_change_status": "Not Planned"
   }
  },
  {
   "type": "Feature",
   "geometry": {
    "type": "Point",
    "coordinates": [
     147.69136764,
     -30.46300035
    ]
   },
   "properties": {
    "name": "17-19 COLIN STREET CARINDA 2831",
    "locID": "LOC000150097998",
    "tech": "SATELLITE",
    "upgrade": "NULL_NA",
    "gnaf_pid": "GANSW718920575",
    "tech_change_status": "Not Planned"
   }
  },
  {
   "type": "Feature",
   "geometry": {
    "type": "Point",
    "coordinates": [
     147.69075439,
     -30.46312314
    ]
   },
   "properties": {
    "name": "18-20 COLIN STREET CARINDA 2831",
    "locID": "LOC000150098034",
    "tech": "SATELLITE",
    "upgrade": "NULL_NA",
    "gnaf_pid": "GANSW718920576",
    "tech_change_status": "Not Planned"
   }
  },
  {
   "type": "Feature",
   "geometry": {
    "type": "Point",
    "coordinates": [
     147.69160223,
     -30.46167529
    ]
   },
   "properties": {
    "name": "1-3 COLIN STREET CARINDA 2831",
    "locID": "LOC000150097998",
    "tech": "SATELLITE",
    "upgrade": "NULL_NA",
    "gnaf_pid": "GANSW718920577",
    "tech_change_status": "Not Planned"
   }
  },
  {
   "type": "Feature",
   "geometry": {
    "type": "Point",
    "coordinates": [
     147.69123356,
     -30.46399343
    ]
   },
   "properties": {
    "name": "25-27 COLIN STREET CARINDA 2831",
    "locID": "LOC000150098052",
    "tech": "NULL",
    "upgrade": "NULL_NA",
    "gnaf_pid": "GANSW718920578",
    "tech_change_status": "Not Planned"
   }
  },
  {
   "type": "Feature",
   "geometry": {
    "type": "Point",
    "coordinates": [
     147.69073033,
     -30.4614707
    ]
   },
   "properties": {
    "name": "2-4 COLIN STREET CARINDA 2831",
    "locID": "LOC000150098075",
    "tech": "SATELLITE",
    "upgrade": "NULL_NA",
    "gnaf_pid": "GANSW718920579",
    "tech_change_status": "Not Planned"
   }
  },
  {
   "type": "Feature",
   "geometry": {
    "type": "Point",
    "coordinates": [
     147.6903523,
     -30.46427041
    ]
   },
   "properties": {
    "name": "30-32 COLIN STREET CARINDA 2831",
    "locID": "LOC000150098081",
    "tech": "NULL",
    "upgrade": "NULL_NA",
    "gnaf_pid": "GANSW718920580",
    "tech_change_status": "Not Planned"
   }
  },
  {
   "type": "Feature",
   "geometry": {
    "type": "Point",
    "coordinates": [
     147.68951089,
     -30.47050156
    ]
   },
   "properties": {
    "name": "82-84 COLIN STREET CARINDA 2831",
    "locID": "LOC100078047674",
    "tech": "NULL",
    "upgrade": "NULL_NA",
    "gnaf_pid": "GANSW718920591",
    "tech_change_status": "Not Planned"
   }
  },
  {
   "type": "Feature",
   "geometry": {
    "type": "Point",
    "coordinates": [
     147.68825554,
     -30.46479048
    ]
   },
   "properties": {
    "name": "1-3 HARE STREET CARINDA 2831",
    "locID": "LOC000150098121",
    "tech": "NULL",
    "upgrade": "NULL_NA",
    "gnaf_pid": "GANSW718923841",
    "tech_change_status": "Not Planned"
   }
  },
  {
   "type": "Feature",
   "geometry": {
    "type": "Point",
    "coordinates": [
     147.690441,
     -30.46986327
    ]
   },
   "properties": {
    "name": "18-20 KIDGAR STREET CARINDA 2831",
    "locID": "LOC100076484251",
    "tech": "SATELLITE",
    "upgrade": "NULL_NA",
    "gnaf_pid": "GANSW718924952",
    "tech_change_status": "Not Planned"
   }
  },
  {
   "type": "Feature",
   "geometry": {
    "type": "Point",
    "coordinates": [
     147.68900967,
     -30.46358495
    ]
   },
   "properties": {
    "name": "26-28 OLIVER STREET CARINDA 2831",
    "locID": "LOC000150098197",
    "tech": "SATELLITE",
    "upgrade": "NULL_NA",
    "gnaf_pid": "GANSW718928197",
    "tech_change_status": "Not Planned"
   }
  },
  {
   "type": "Feature",
   "geometry": {
    "type": "Point",
    "coordinates": [
     147.68931453,
     -30.46132724
    ]
   },
   "properties": {
    "name": "2-4 OLIVER STREET CARINDA 2831",
    "locID": "LOC000115585052",
    "tech": "SATELLITE",
    "upgrade": "NULL_NA",
    "gnaf_pid": "GANSW718928199",
    "tech_change_status": "Not Planned"
   }
  },
  {
   "type": "Feature",
   "geometry": {
    "type": "Point",
    "coordinates": [
     147.68888769,
     -30.46448827
    ]
   },
   "properties": {
    "name": "34-36 OLIVER STREET CARINDA 2831",
    "locID": "LOC000150098215",
    "tech": "NULL",
    "upgrade": "NULL_NA",
    "gnaf_pid": "GANSW718928201",
    "tech_change_status": "Not Planned"
   }
  },
  {
   "type": "Feature",
   "geometry": {
    "type": "Point",
    "coordinates": [
     147.6888389,
     -30.46484959
    ]
   },
   "properties": {
    "name": "38-40 OLIVER STREET CARINDA 2831",
    "locID": "LOC000115585052",
    "tech": "SATELLITE",
    "upgrade": "NULL_NA",
    "gnaf_pid": "GANSW718928203",
    "tech_change_status": "Not Planned"
   }
  },
  {
   "type": "Feature",
   "geometry": {
    "type": "Point",
    "coordinates": [
     147.69009819,
     -30.46177291
    ]
   },
   "properties": {
    "name": "5-7 OLIVER STREET CARINDA 2831",
    "locID": "LOC000122103968",
    "tech": "SATELLITE",
    "upgrade": "NULL_NA",
    "gnaf_pid": "GANSW718928204",
    "tech_change_status": "Not Planned"
   }
  },
  {
   "type": "Feature",
   "geometry": {
    "type": "Point",
    "coordinates": [
     147.68924135,
     -30.46186922
    ]
   },
   "properties": {
    "name": "6-8 OLIVER STREET CARINDA 2831",
    "locID": "LOC000150098236",
    "tech": "NULL",
    "upgrade": "NULL_NA",
    "gnaf_pid": "GANSW718928205",
    "tech_change_status": "Not Planned"
   }
  },
  {
   "type": "Feature",
   "geometry": {
    "type": "Point",
    "coordinates": [
     147.68632839,
     -30.46175715
    ]
   },
   "properties": {
    "name": "1-9 SHAKESPEAR STREET CARINDA 2831",
    "locID": "LOC000005939896",
    "tech": "NULL",
    "upgrade": "NULL_NA",
    "gnaf_pid": "GANSW718930891",
    "tech_change_status": "Not Planned"
   }
  },
  {
   "type": "Feature",
   "geometry": {
    "type": "Point",
    "coordinates": [
     147.69184131,
     -30.46387187
    ]
   },
   "properties": {
    "name": "40-42 SHAKESPEAR STREET CARINDA 2831",
    "locID": "LOC000150098262",
    "tech": "SATELLITE",
    "upgrade": "NULL_NA",
    "gnaf_pid": "GANSW718930892",
    "tech_change_status": "Not Planned"
   }
  },
  {
   "type": "Feature",
   "geometry": {
    "type": "Point",
    "coordinates": [
     147.68863361,
     -30.46199078
    ]
   },
   "properties": {
    "name": "11 WARREN STREET CARINDA 2831",
    "locID": "LOC000061054707",
    "tech": "FTTP",
    "upgrade": "NULL_NA",
    "gnaf_pid": "GANSW718933398",
    "tech_change_status": "Eligible to Order"
   }
  },
  {
   "type": "Feature",
   "geometry": {
    "type": "Point",
    "coordinates": [
     147.68858482,
     -30.4623521
    ]
   },
   "properties": {
    "name": "13-15 WARREN STREET CARINDA 2831",
    "locID": "LOC000150098270",
    "tech": "SATELLITE",
    "upgrade": "NULL_NA",
    "gnaf_pid": "GANSW718933399",
    "tech_change_status": "Not Planned"
   }
  },
  {
   "type": "Feature",
   "geometry": {
    "type": "Point",
    "coordinates": [
     147.6887068,
     -30.4614488
    ]
   },
   "properties": {
    "name": "1-3 WARREN STREET CARINDA 2831",
    "locID": "LOC000150098270",
    "tech": "SATELLITE",
    "upgrade": "NULL_NA",
    "gnaf_pid": "GANSW718933400",
    "tech_change_status": "Not Planned"
   }
  },
  {
   "type": "Feature",
   "geometry": {
    "type": "Point",
    "coordinates": [
     147.69202417,
     -30.46251746
    ]
   },
   "properties": {
    "name": "14-16 WILGA STREET CARINDA 2831",
    "locID": "LOC000122089854",
    "tech": "SATELLITE",
    "upgrade": "NULL_NA",
    "gnaf_pid": "GANSW718934014",
    "tech_change_status": "Not Planned"
   }
  },
  {
   "type": "Feature",
   "geometry": {
    "type": "Point",
    "coordinates": [
     147.69212172,
     -30.4617948
    ]
   },
   "properties": {
    "name": "2-4 WILGA STREET CARINDA 2831",
    "locID": "LOC000150098329",
    "tech": "SATELLITE",
    "upgrade": "NULL_NA",
    "gnaf_pid": "GANSW718934015",
    "tech_change_status": "Not Planned"
   }
  },
  {
   "type": "Feature",
   "geometry": {
    "type": "Point",
    "coordinates": [
     147.68900967,
     -30.46358495
    ]
   },
   "properties": {
    "name": "22 OLIVER STREET CARINDA 2831",
    "locID": "LOC000150098197",
    "tech": "SATELLITE",
    "upgrade": "NULL_NA",
    "gnaf_pid": "GANSW719255772",
    "tech_change_status": "Not Planned"
   }
  },
  {
   "type": "Feature",
   "geometry": {
    "type": "Point",
    "coordinates": [
     147.75436299,
     -30.54524078
    ]
   },
   "properties": {
    "name": "1 KEEWONG LANE CARINDA 2831",
    "locID": "LOC000154351458",
    "tech": "SATELLITE",
    "upgrade": "NULL_NA",
    "gnaf_pid": "GANSW719881462",
    "tech_change_status": "Not Planned"
   }
  },
  {
   "type": "Feature",
   "geometry": {
    "type": "Point",
    "coordinates": [
     147.69652835,
     -30.56801799
    ]
   },
   "properties": {
    "name": "1337 MERRI MERRI ROAD CARINDA 2831",
    "locID": "LOC000148059793",
    "tech": "SATELLITE",
    "upgrade": "NULL_NA",
    "gnaf_pid": "GANSW720087235",
    "tech_change_status": "Not Planned"
   }
  },
  {
   "type": "Feature",
   "geometry": {
    "type": "Point",
    "coordinates": [
     147.68865599,
     -30.466204
    ]
   },
   "properties": {
    "name": "8 HARE STREET CARINDA 2831",
    "locID": "LOC000178154479",
    "tech": "SATELLITE",
    "upgrade": "NULL_NA",
    "gnaf_pid": "GANSW720421781",
    "tech_change_status": "Not Planned"
   }
  },
  {
   "type": "Feature",
   "geometry": {
    "type": "Point",
    "coordinates": [
     147.70194126,
     -30.1992605
    ]
   },
   "properties": {
    "name": "2608 BOGEWONG ROAD CARINDA 2831",
    "locID": "LOC000110009514",
    "tech": "NULL",
    "upgrade": "NULL_NA",
    "gnaf_pid": "GANSW720530165",
    "tech_change_status": "Not Planned"
   }
  },
  {
   "type": "Feature",
   "geometry": {
    "type": "Point",
    "coordinates": [
     147.69056162,
     -30.46299611
    ]
   },
   "properties": {
    "name": "31-33 SHAKESPEAR STREET CARINDA 2831",
    "locID": "LOC000150098034",
    "tech": "SATELLITE",
    "upgrade": "NULL_NA",
    "gnaf_pid": "GANSW720683038",
    "tech_change_status": "Not Planned"
   }
  }
 ]
}