{
 "type": "FeatureCollection",
 "generated": "2026-04-24T03:47:19.811632",
 "suburb": "CARRS ISLAND",
 "features": [
  {
   "type": "Feature",
   "geometry": {
    "type": "Point",
    "coordinates": [
     152.90972609,
     -29.67137432
    ]
   },
   "properties": {
    "name": "63 CARRS ISLAND ROAD CARRS ISLAND 2460",
    "locID": "LOC000050784261",
    "tech": "WIRELESS",
    "upgrade": "NULL_NA",
    "gnaf_pid": "GANSW706601795",
    "tech_change_status": "Not Planned",
    "program_type": "Fixed Wireless and Satellite Upgrade Program",
    "target_eligibility_quarter": "NA"
   }
  },
  {
   "type": "Feature",
   "geometry": {
    "type": "Point",
    "coordinates": [
     152.91311683,
     -29.673266
    ]
   },
   "properties": {
    "name": "43 CARRS ISLAND ROAD CARRS ISLAND 2460",
    "locID": "LOC100078042328",
    "tech": "WIRELESS",
    "upgrade": "NULL_NA",
    "gnaf_pid": "GANSW706601796",
    "tech_change_status": "Not Planned",
    "program_type": "Fixed Wireless and Satellite Upgrade Program",
    "target_eligibility_quarter": "NA"
   }
  },
  {
   "type": "Feature",
   "geometry": {
    "type": "Point",
    "coordinates": [
     152.91544539,
     -29.66720438
    ]
   },
   "properties": {
    "name": "18 CARRS ISLAND ROAD CARRS ISLAND 2460",
    "locID": "LOC000054441456",
    "tech": "WIRELESS",
    "upgrade": "NULL_NA",
    "gnaf_pid": "GANSW706601797",
    "tech_change_status": "Not Planned",
    "program_type": "Fixed Wireless and Satellite Upgrade Program",
    "target_eligibility_quarter": "NA"
   }
  },
  {
   "type": "Feature",
   "geometry": {
    "type": "Point",
    "coordinates": [
     152.90887097,
     -29.66549487
    ]
   },
   "properties": {
    "name": "127 CARRS ISLAND ROAD CARRS ISLAND 2460",
    "locID": "LOC000002415484",
    "tech": "WIRELESS",
    "upgrade": "NULL_NA",
    "gnaf_pid": "GANSW706601798",
    "tech_change_status": "Not Planned",
    "program_type": "Fixed Wireless and Satellite Upgrade Program",
    "target_eligibility_quarter": "NA"
   }
  },
  {
   "type": "Feature",
   "geometry": {
    "type": "Point",
    "coordinates": [
     152.91089019,
     -29.66436586
    ]
   },
   "properties": {
    "name": "126 CARRS ISLAND ROAD CARRS ISLAND 2460",
    "locID": "LOC000088211073",
    "tech": "WIRELESS",
    "upgrade": "NULL_NA",
    "gnaf_pid": "GANSW706601799",
    "tech_change_status": "Not Planned",
    "program_type": "Fixed Wireless and Satellite Upgrade Program",
    "target_eligibility_quarter": "NA"
   }
  },
  {
   "type": "Feature",
   "geometry": {
    "type": "Point",
    "coordinates": [
     152.91507364,
     -29.66621521
    ]
   },
   "properties": {
    "name": "106 CARRS ISLAND ROAD CARRS ISLAND 2460",
    "locID": "LOC000028280591",
    "tech": "WIRELESS",
    "upgrade": "NULL_NA",
    "gnaf_pid": "GANSW706601800",
    "tech_change_status": "Not Planned",
    "program_type": "Fixed Wireless and Satellite Upgrade Program",
    "target_eligibility_quarter": "NA"
   }
  }
 ]
}