{
 "type": "FeatureCollection",
 "generated": "2026-06-11T04:31:56.877497",
 "suburb": "CORANGULA",
 "features": [
  {
   "type": "Feature",
   "geometry": {
    "type": "Point",
    "coordinates": [
     152.66958455,
     -30.99841454
    ]
   },
   "properties": {
    "name": "184 CORANGULA ROAD CORANGULA 2440",
    "locID": "LOC000084849714",
    "tech": "WIRELESS",
    "upgrade": "NULL_NA",
    "gnaf_pid": "GANSW704475232",
    "tech_change_status": "Not Planned",
    "program_type": "Fixed Wireless and Satellite Upgrade Program",
    "target_eligibility_quarter": "NA"
   }
  },
  {
   "type": "Feature",
   "geometry": {
    "type": "Point",
    "coordinates": [
     152.67534835,
     -30.98845812
    ]
   },
   "properties": {
    "name": "50 CORANGULA ROAD CORANGULA 2440",
    "locID": "LOC000003860551",
    "tech": "SATELLITE",
    "upgrade": "NULL_NA",
    "gnaf_pid": "GANSW704475233",
    "tech_change_status": "Not Planned"
   }
  },
  {
   "type": "Feature",
   "geometry": {
    "type": "Point",
    "coordinates": [
     152.68447641,
     -30.9901218
    ]
   },
   "properties": {
    "name": "51 CORANGULA ROAD CORANGULA 2440",
    "locID": "LOC000003089971",
    "tech": "SATELLITE",
    "upgrade": "NULL_NA",
    "gnaf_pid": "GANSW704475234",
    "tech_change_status": "Not Planned"
   }
  },
  {
   "type": "Feature",
   "geometry": {
    "type": "Point",
    "coordinates": [
     152.68093282,
     -30.98699887
    ]
   },
   "properties": {
    "name": "6 CORANGULA ROAD CORANGULA 2440",
    "locID": "LOC000112504626",
    "tech": "WIRELESS",
    "upgrade": "NULL_NA",
    "gnaf_pid": "GANSW704475235",
    "tech_change_status": "Not Planned",
    "program_type": "Fixed Wireless and Satellite Upgrade Program",
    "target_eligibility_quarter": "NA"
   }
  },
  {
   "type": "Feature",
   "geometry": {
    "type": "Point",
    "coordinates": [
     152.67877971,
     -30.99270533
    ]
   },
   "properties": {
    "name": "68 CORANGULA ROAD CORANGULA 2440",
    "locID": "LOC000102969598",
    "tech": "WIRELESS",
    "upgrade": "NULL_NA",
    "gnaf_pid": "GANSW704475236",
    "tech_change_status": "Not Planned",
    "program_type": "Fixed Wireless and Satellite Upgrade Program",
    "target_eligibility_quarter": "NA"
   }
  },
  {
   "type": "Feature",
   "geometry": {
    "type": "Point",
    "coordinates": [
     152.69377439,
     -31.00442687
    ]
   },
   "properties": {
    "name": "113 FISCHERS ROAD CORANGULA 2440",
    "locID": "LOC000043047238",
    "tech": "WIRELESS",
    "upgrade": "NULL_NA",
    "gnaf_pid": "GANSW704475237",
    "tech_change_status": "Not Planned",
    "program_type": "Fixed Wireless and Satellite Upgrade Program",
    "target_eligibility_quarter": "NA"
   }
  },
  {
   "type": "Feature",
   "geometry": {
    "type": "Point",
    "coordinates": [
     152.6870543,
     -30.99330025
    ]
   },
   "properties": {
    "name": "7 FISCHERS ROAD CORANGULA 2440",
    "locID": "LOC000020980255",
    "tech": "WIRELESS",
    "upgrade": "NULL_NA",
    "gnaf_pid": "GANSW704475238",
    "tech_change_status": "Not Planned",
    "program_type": "Fixed Wireless and Satellite Upgrade Program",
    "target_eligibility_quarter": "NA"
   }
  },
  {
   "type": "Feature",
   "geometry": {
    "type": "Point",
    "coordinates": [
     152.66606822,
     -30.99009737
    ]
   },
   "properties": {
    "name": "160 AINSWORTH LANE CORANGULA 2440",
    "locID": "LOC000038221465",
    "tech": "SATELLITE",
    "upgrade": "WIRELESS",
    "gnaf_pid": "GANSW704486044",
    "tech_change_status": "Eligible to Order",
    "program_type": "Fixed Wireless and Satellite Upgrade Program",
    "target_eligibility_quarter": "NA"
   }
  },
  {
   "type": "Feature",
   "geometry": {
    "type": "Point",
    "coordinates": [
     152.67312935,
     -30.99122223
    ]
   },
   "properties": {
    "name": "46 AINSWORTH LANE CORANGULA 2440",
    "locID": "LOC000142486545",
    "tech": "SATELLITE",
    "upgrade": "NULL_NA",
    "gnaf_pid": "GANSW715670962",
    "tech_change_status": "Not Planned"
   }
  },
  {
   "type": "Feature",
   "geometry": {
    "type": "Point",
    "coordinates": [
     152.67979571,
     -30.98623234
    ]
   },
   "properties": {
    "name": "1443 ARMIDALE ROAD CORANGULA 2440",
    "locID": "LOC000089893796",
    "tech": "WIRELESS",
    "upgrade": "NULL_NA",
    "gnaf_pid": "GANSW716512913",
    "tech_change_status": "Not Planned",
    "program_type": "Fixed Wireless and Satellite Upgrade Program",
    "target_eligibility_quarter": "NA"
   }
  },
  {
   "type": "Feature",
   "geometry": {
    "type": "Point",
    "coordinates": [
     152.67770476,
     -30.98227276
    ]
   },
   "properties": {
    "name": "1493 ARMIDALE ROAD CORANGULA 2440",
    "locID": "LOC000092275301",
    "tech": "WIRELESS",
    "upgrade": "NULL_NA",
    "gnaf_pid": "GANSW716602538",
    "tech_change_status": "Not Planned",
    "program_type": "Fixed Wireless and Satellite Upgrade Program",
    "target_eligibility_quarter": "NA"
   }
  },
  {
   "type": "Feature",
   "geometry": {
    "type": "Point",
    "coordinates": [
     152.68799281,
     -30.98851524
    ]
   },
   "properties": {
    "name": "1391 ARMIDALE ROAD CORANGULA 2440",
    "locID": "LOC000033149607",
    "tech": "WIRELESS",
    "upgrade": "NULL_NA",
    "gnaf_pid": "GANSW716602539",
    "tech_change_status": "Not Planned",
    "program_type": "Fixed Wireless and Satellite Upgrade Program",
    "target_eligibility_quarter": "NA"
   }
  },
  {
   "type": "Feature",
   "geometry": {
    "type": "Point",
    "coordinates": [
     152.68021219,
     -30.98426988
    ]
   },
   "properties": {
    "name": "1447 ARMIDALE ROAD CORANGULA 2440",
    "locID": "LOC000013950560",
    "tech": "SATELLITE",
    "upgrade": "NULL_NA",
    "gnaf_pid": "GANSW716602543",
    "tech_change_status": "Not Planned"
   }
  },
  {
   "type": "Feature",
   "geometry": {
    "type": "Point",
    "coordinates": [
     152.67312935,
     -30.99122223
    ]
   },
   "properties": {
    "name": "LOT 46 AINSWORTH LANE CORANGULA 2440",
    "locID": "LOC000142486545",
    "tech": "SATELLITE",
    "upgrade": "NULL_NA",
    "gnaf_pid": "GANSW719481100",
    "tech_change_status": "Not Planned"
   }
  }
 ]
}