{
 "type": "FeatureCollection",
 "generated": "2025-02-16T21:20:34.641050",
 "suburb": "CRAWNEY",
 "features": [
  {
   "type": "Feature",
   "geometry": {
    "type": "Point",
    "coordinates": [
     151.08027984,
     -31.65896998
    ]
   },
   "properties": {
    "name": "1475 TIMOR CRAWNEY ROAD CRAWNEY 2338",
    "locID": "LOC000063899921",
    "tech": "NULL",
    "upgrade": "NULL_NA",
    "gnaf_pid": "GANSW716127049",
    "tech_change_status": "Not Planned"
   }
  },
  {
   "type": "Feature",
   "geometry": {
    "type": "Point",
    "coordinates": [
     151.07782453,
     -31.65223908
    ]
   },
   "properties": {
    "name": "1530 TIMOR CRAWNEY ROAD CRAWNEY 2338",
    "locID": "LOC000032824914",
    "tech": "NULL",
    "upgrade": "NULL_NA",
    "gnaf_pid": "GANSW716127050",
    "tech_change_status": "Not Planned"
   }
  },
  {
   "type": "Feature",
   "geometry": {
    "type": "Point",
    "coordinates": [
     151.05850656,
     -31.63488091
    ]
   },
   "properties": {
    "name": "1843 TIMOR CRAWNEY ROAD CRAWNEY 2338",
    "locID": "LOC000053730420",
    "tech": "SATELLITE",
    "upgrade": "NULL_NA",
    "gnaf_pid": "GANSW716127051",
    "tech_change_status": "Not Planned"
   }
  },
  {
   "type": "Feature",
   "geometry": {
    "type": "Point",
    "coordinates": [
     151.04838672,
     -31.6272476
    ]
   },
   "properties": {
    "name": "1969 TIMOR CRAWNEY ROAD CRAWNEY 2338",
    "locID": "LOC000009572064",
    "tech": "NULL",
    "upgrade": "NULL_NA",
    "gnaf_pid": "GANSW716127052",
    "tech_change_status": "Not Planned"
   }
  },
  {
   "type": "Feature",
   "geometry": {
    "type": "Point",
    "coordinates": [
     151.11259356,
     -31.65305173
    ]
   },
   "properties": {
    "name": "209 MOUNTAIN VIEW ROAD CRAWNEY 2338",
    "locID": "LOC000035677945",
    "tech": "SATELLITE",
    "upgrade": "NULL_NA",
    "gnaf_pid": "GANSW716411511",
    "tech_change_status": "Not Planned"
   }
  },
  {
   "type": "Feature",
   "geometry": {
    "type": "Point",
    "coordinates": [
     151.10009951,
     -31.6488348
    ]
   },
   "properties": {
    "name": "239 MOUNTAIN VIEW ROAD CRAWNEY 2338",
    "locID": "LOC000045865411",
    "tech": "SATELLITE",
    "upgrade": "NULL_NA",
    "gnaf_pid": "GANSW716411512",
    "tech_change_status": "Not Planned"
   }
  },
  {
   "type": "Feature",
   "geometry": {
    "type": "Point",
    "coordinates": [
     150.97059538,
     -31.51111343
    ]
   },
   "properties": {
    "name": "161 RANGERS VALLEY ROAD CRAWNEY 2338",
    "locID": "LOC000088174774",
    "tech": "NULL",
    "upgrade": "NULL_NA",
    "gnaf_pid": "GANSW717468766",
    "tech_change_status": "Not Planned"
   }
  },
  {
   "type": "Feature",
   "geometry": {
    "type": "Point",
    "coordinates": [
     151.0536729,
     -31.55978665
    ]
   },
   "properties": {
    "name": "1170 CRAWNEY ROAD CRAWNEY 2338",
    "locID": "LOC100078058414",
    "tech": "NULL",
    "upgrade": "NULL_NA",
    "gnaf_pid": "GANSW717543182",
    "tech_change_status": "Not Planned"
   }
  },
  {
   "type": "Feature",
   "geometry": {
    "type": "Point",
    "coordinates": [
     151.0536729,
     -31.55978665
    ]
   },
   "properties": {
    "name": "1669 CRAWNEY ROAD CRAWNEY 2338",
    "locID": "LOC000120850809",
    "tech": "SATELLITE",
    "upgrade": "NULL_NA",
    "gnaf_pid": "GANSW717543183",
    "tech_change_status": "Not Planned"
   }
  },
  {
   "type": "Feature",
   "geometry": {
    "type": "Point",
    "coordinates": [
     151.0536729,
     -31.55978665
    ]
   },
   "properties": {
    "name": "1843 CRAWNEY ROAD CRAWNEY 2338",
    "locID": "LOC000053730420",
    "tech": "SATELLITE",
    "upgrade": "NULL_NA",
    "gnaf_pid": "GANSW717543184",
    "tech_change_status": "Not Planned"
   }
  },
  {
   "type": "Feature",
   "geometry": {
    "type": "Point",
    "coordinates": [
     151.0536729,
     -31.55978665
    ]
   },
   "properties": {
    "name": "1969 CRAWNEY ROAD CRAWNEY 2338",
    "locID": "LOC000101750962",
    "tech": "SATELLITE",
    "upgrade": "NULL_NA",
    "gnaf_pid": "GANSW717543185",
    "tech_change_status": "Not Planned"
   }
  },
  {
   "type": "Feature",
   "geometry": {
    "type": "Point",
    "coordinates": [
     151.0536729,
     -31.55978665
    ]
   },
   "properties": {
    "name": "20 CRAWNEY ROAD CRAWNEY 2338",
    "locID": "LOC000142496017",
    "tech": "SATELLITE",
    "upgrade": "NULL_NA",
    "gnaf_pid": "GANSW717543186",
    "tech_change_status": "Not Planned"
   }
  },
  {
   "type": "Feature",
   "geometry": {
    "type": "Point",
    "coordinates": [
     151.04892456,
     -31.53127473
    ]
   },
   "properties": {
    "name": "236 BACK CREEK ROAD CRAWNEY 2338",
    "locID": "LOC000064134996",
    "tech": "SATELLITE",
    "upgrade": "NULL_NA",
    "gnaf_pid": "GANSW717861136",
    "tech_change_status": "Not Planned"
   }
  },
  {
   "type": "Feature",
   "geometry": {
    "type": "Point",
    "coordinates": [
     151.00337978,
     -31.56437588
    ]
   },
   "properties": {
    "name": "424 BACK CREEK ROAD CRAWNEY 2338",
    "locID": "LOC000107534496",
    "tech": "SATELLITE",
    "upgrade": "NULL_NA",
    "gnaf_pid": "GANSW717861137",
    "tech_change_status": "Not Planned"
   }
  },
  {
   "type": "Feature",
   "geometry": {
    "type": "Point",
    "coordinates": [
     151.04711409,
     -31.57033364
    ]
   },
   "properties": {
    "name": "1532 CRAWNEY ROAD CRAWNEY 2338",
    "locID": "LOC000120857966",
    "tech": "SATELLITE",
    "upgrade": "NULL_NA",
    "gnaf_pid": "GANSW717948424",
    "tech_change_status": "Not Planned"
   }
  },
  {
   "type": "Feature",
   "geometry": {
    "type": "Point",
    "coordinates": [
     151.05255902,
     -31.55474481
    ]
   },
   "properties": {
    "name": "1306 CRAWNEY ROAD CRAWNEY 2338",
    "locID": "LOC000120844609",
    "tech": "SATELLITE",
    "upgrade": "NULL_NA",
    "gnaf_pid": "GANSW718026638",
    "tech_change_status": "Not Planned"
   }
  },
  {
   "type": "Feature",
   "geometry": {
    "type": "Point",
    "coordinates": [
     150.9749522,
     -31.5138165
    ]
   },
   "properties": {
    "name": "159 RANGERS VALLEY ROAD CRAWNEY 2338",
    "locID": "LOC000120859952",
    "tech": "NULL",
    "upgrade": "NULL_NA",
    "gnaf_pid": "GANSW718268849",
    "tech_change_status": "Not Planned"
   }
  },
  {
   "type": "Feature",
   "geometry": {
    "type": "Point",
    "coordinates": [
     150.97757736,
     -31.51112876
    ]
   },
   "properties": {
    "name": "1311 OLD WALLABADAH ROAD CRAWNEY 2338",
    "locID": "LOC000148059370",
    "tech": "SATELLITE",
    "upgrade": "NULL_NA",
    "gnaf_pid": "GANSW718604444",
    "tech_change_status": "Not Planned"
   }
  },
  {
   "type": "Feature",
   "geometry": {
    "type": "Point",
    "coordinates": [
     151.02668829,
     -31.50103112
    ]
   },
   "properties": {
    "name": "621 OLD WALLABADAH ROAD CRAWNEY 2338",
    "locID": "LOC000148096604",
    "tech": "SATELLITE",
    "upgrade": "NULL_NA",
    "gnaf_pid": "GANSW718804836",
    "tech_change_status": "Not Planned"
   }
  },
  {
   "type": "Feature",
   "geometry": {
    "type": "Point",
    "coordinates": [
     151.0536729,
     -31.55978665
    ]
   },
   "properties": {
    "name": "1066 CRAWNEY ROAD CRAWNEY 2338",
    "locID": "LOC000142504199",
    "tech": "SATELLITE",
    "upgrade": "NULL_NA",
    "gnaf_pid": "GANSW718863508",
    "tech_change_status": "Not Planned"
   }
  },
  {
   "type": "Feature",
   "geometry": {
    "type": "Point",
    "coordinates": [
     151.0536729,
     -31.55978665
    ]
   },
   "properties": {
    "name": "1475 CRAWNEY ROAD CRAWNEY 2338",
    "locID": "LOC000063899921",
    "tech": "NULL",
    "upgrade": "NULL_NA",
    "gnaf_pid": "GANSW718863510",
    "tech_change_status": "Not Planned"
   }
  },
  {
   "type": "Feature",
   "geometry": {
    "type": "Point",
    "coordinates": [
     151.0536729,
     -31.55978665
    ]
   },
   "properties": {
    "name": "1530 CRAWNEY ROAD CRAWNEY 2338",
    "locID": "LOC000152238940",
    "tech": "SATELLITE",
    "upgrade": "NULL_NA",
    "gnaf_pid": "GANSW718863511",
    "tech_change_status": "Not Planned"
   }
  },
  {
   "type": "Feature",
   "geometry": {
    "type": "Point",
    "coordinates": [
     151.0536729,
     -31.55978665
    ]
   },
   "properties": {
    "name": "1906 CRAWNEY ROAD CRAWNEY 2338",
    "locID": "LOC000152241600",
    "tech": "SATELLITE",
    "upgrade": "NULL_NA",
    "gnaf_pid": "GANSW718863512",
    "tech_change_status": "Not Planned"
   }
  },
  {
   "type": "Feature",
   "geometry": {
    "type": "Point",
    "coordinates": [
     151.06490284,
     -31.57663444
    ]
   },
   "properties": {
    "name": "331 CRAWNEY ROAD CRAWNEY 2338",
    "locID": "LOC000101750962",
    "tech": "SATELLITE",
    "upgrade": "NULL_NA",
    "gnaf_pid": "GANSW719661346",
    "tech_change_status": "Not Planned"
   }
  },
  {
   "type": "Feature",
   "geometry": {
    "type": "Point",
    "coordinates": [
     151.09831572,
     -31.65008938
    ]
   },
   "properties": {
    "name": "281 MOUNTAIN VIEW ROAD CRAWNEY 2338",
    "locID": "LOC100071946655",
    "tech": "SATELLITE",
    "upgrade": "NULL_NA",
    "gnaf_pid": "GANSW719869279",
    "tech_change_status": "Not Planned"
   }
  },
  {
   "type": "Feature",
   "geometry": {
    "type": "Point",
    "coordinates": [
     151.04789274,
     -31.61676593
    ]
   },
   "properties": {
    "name": "1906 TIMOR CRAWNEY ROAD CRAWNEY 2338",
    "locID": "LOC000152241600",
    "tech": "SATELLITE",
    "upgrade": "NULL_NA",
    "gnaf_pid": "GANSW720161147",
    "tech_change_status": "Not Planned"
   }
  },
  {
   "type": "Feature",
   "geometry": {
    "type": "Point",
    "coordinates": [
     150.983568,
     -31.49530705
    ]
   },
   "properties": {
    "name": "1165 OLD WALLABADAH ROAD CRAWNEY 2338",
    "locID": "LOC000186126687",
    "tech": "WIRELESS",
    "upgrade": "NULL_NA",
    "gnaf_pid": "GANSW720262745",
    "tech_change_status": "Not Planned",
    "program_type": "Fixed Wireless and Satellite Upgrade Program",
    "target_eligibility_quarter": "NA"
   }
  }
 ]
}