{
 "type": "FeatureCollection",
 "generated": "2024-10-13T08:40:10.684961",
 "suburb": "FALCONER",
 "features": [
  {
   "type": "Feature",
   "geometry": {
    "type": "Point",
    "coordinates": [
     151.70518325,
     -30.16588559
    ]
   },
   "properties": {
    "name": "219 RIXONS ROAD FALCONER 2365",
    "locID": "LOC000036970940",
    "tech": "WIRELESS",
    "upgrade": "NULL_NA",
    "gnaf_pid": "GANSW704730649",
    "tech_change_status": "Not Planned",
    "program_type": "Fixed Wireless and Satellite Upgrade Program",
    "target_eligibility_quarter": "NA"
   }
  },
  {
   "type": "Feature",
   "geometry": {
    "type": "Point",
    "coordinates": [
     151.70348973,
     -30.18643357
    ]
   },
   "properties": {
    "name": "5 RIXONS ROAD FALCONER 2365",
    "locID": "LOC000095363936",
    "tech": "WIRELESS",
    "upgrade": "NULL_NA",
    "gnaf_pid": "GANSW704730650",
    "tech_change_status": "Not Planned",
    "program_type": "Fixed Wireless and Satellite Upgrade Program",
    "target_eligibility_quarter": "NA"
   }
  },
  {
   "type": "Feature",
   "geometry": {
    "type": "Point",
    "coordinates": [
     151.72494462,
     -30.19782533
    ]
   },
   "properties": {
    "name": "200 WARDS MISTAKE ROAD FALCONER 2365",
    "locID": "LOC000033350163",
    "tech": "SATELLITE",
    "upgrade": "NULL_NA",
    "gnaf_pid": "GANSW704730651",
    "tech_change_status": "Not Planned"
   }
  },
  {
   "type": "Feature",
   "geometry": {
    "type": "Point",
    "coordinates": [
     151.72355177,
     -30.19292994
    ]
   },
   "properties": {
    "name": "257 WARDS MISTAKE ROAD FALCONER 2365",
    "locID": "LOC000012393035",
    "tech": "NULL",
    "upgrade": "NULL_NA",
    "gnaf_pid": "GANSW704730652",
    "tech_change_status": "Not Planned"
   }
  },
  {
   "type": "Feature",
   "geometry": {
    "type": "Point",
    "coordinates": [
     151.7530194,
     -30.17834182
    ]
   },
   "properties": {
    "name": "557 WARDS MISTAKE ROAD FALCONER 2365",
    "locID": "LOC000060335348",
    "tech": "WIRELESS",
    "upgrade": "NULL_NA",
    "gnaf_pid": "GANSW704730655",
    "tech_change_status": "Not Planned",
    "program_type": "Fixed Wireless and Satellite Upgrade Program",
    "target_eligibility_quarter": "NA"
   }
  },
  {
   "type": "Feature",
   "geometry": {
    "type": "Point",
    "coordinates": [
     151.72219969,
     -30.1409918
    ]
   },
   "properties": {
    "name": "249 EVERETTS ROAD FALCONER 2365",
    "locID": "LOC000015864540",
    "tech": "WIRELESS",
    "upgrade": "NULL_NA",
    "gnaf_pid": "GANSW704747913",
    "tech_change_status": "Not Planned"
   }
  },
  {
   "type": "Feature",
   "geometry": {
    "type": "Point",
    "coordinates": [
     151.70233394,
     -30.19008948
    ]
   },
   "properties": {
    "name": "347 FALCONER ROAD FALCONER 2365",
    "locID": "LOC000120893116",
    "tech": "WIRELESS",
    "upgrade": "NULL_NA",
    "gnaf_pid": "GANSW704747915",
    "tech_change_status": "Not Planned",
    "program_type": "Fixed Wireless and Satellite Upgrade Program",
    "target_eligibility_quarter": "NA"
   }
  },
  {
   "type": "Feature",
   "geometry": {
    "type": "Point",
    "coordinates": [
     151.76585762,
     -30.16730613
    ]
   },
   "properties": {
    "name": "202 HALLSBROOK ROAD FALCONER 2365",
    "locID": "LOC000095836042",
    "tech": "WIRELESS",
    "upgrade": "NULL_NA",
    "gnaf_pid": "GANSW704747918",
    "tech_change_status": "Not Planned",
    "program_type": "Fixed Wireless and Satellite Upgrade Program",
    "target_eligibility_quarter": "NA"
   }
  },
  {
   "type": "Feature",
   "geometry": {
    "type": "Point",
    "coordinates": [
     151.76401925,
     -30.18016051
    ]
   },
   "properties": {
    "name": "264 HALLSBROOK ROAD FALCONER 2365",
    "locID": "LOC000050855394",
    "tech": "WIRELESS",
    "upgrade": "NULL_NA",
    "gnaf_pid": "GANSW704747919",
    "tech_change_status": "Not Planned",
    "program_type": "Fixed Wireless and Satellite Upgrade Program",
    "target_eligibility_quarter": "NA"
   }
  },
  {
   "type": "Feature",
   "geometry": {
    "type": "Point",
    "coordinates": [
     151.70985079,
     -30.17248834
    ]
   },
   "properties": {
    "name": "150 RIXONS ROAD FALCONER 2365",
    "locID": "LOC000097516202",
    "tech": "SATELLITE",
    "upgrade": "NULL_NA",
    "gnaf_pid": "GANSW704747921",
    "tech_change_status": "Not Planned"
   }
  },
  {
   "type": "Feature",
   "geometry": {
    "type": "Point",
    "coordinates": [
     151.73905478,
     -30.1916362
    ]
   },
   "properties": {
    "name": "428 WARDS MISTAKE ROAD FALCONER 2365",
    "locID": "LOC000078396966",
    "tech": "WIRELESS",
    "upgrade": "NULL_NA",
    "gnaf_pid": "GANSW707526330",
    "tech_change_status": "Not Planned",
    "program_type": "Fixed Wireless and Satellite Upgrade Program",
    "target_eligibility_quarter": "NA"
   }
  },
  {
   "type": "Feature",
   "geometry": {
    "type": "Point",
    "coordinates": [
     151.68558401,
     -30.15719541
    ]
   },
   "properties": {
    "name": "4906 NEW ENGLAND HIGHWAY FALCONER 2365",
    "locID": "LOC000029812059",
    "tech": "WIRELESS",
    "upgrade": "NULL_NA",
    "gnaf_pid": "GANSW716006812",
    "tech_change_status": "Not Planned",
    "program_type": "Fixed Wireless and Satellite Upgrade Program",
    "target_eligibility_quarter": "NA"
   }
  },
  {
   "type": "Feature",
   "geometry": {
    "type": "Point",
    "coordinates": [
     151.69063925,
     -30.17806224
    ]
   },
   "properties": {
    "name": "4690 NEW ENGLAND HIGHWAY FALCONER 2365",
    "locID": "LOC000084800225",
    "tech": "WIRELESS",
    "upgrade": "NULL_NA",
    "gnaf_pid": "GANSW716341101",
    "tech_change_status": "Not Planned",
    "program_type": "Fixed Wireless and Satellite Upgrade Program",
    "target_eligibility_quarter": "NA"
   }
  },
  {
   "type": "Feature",
   "geometry": {
    "type": "Point",
    "coordinates": [
     151.74852451,
     -30.16885573
    ]
   },
   "properties": {
    "name": "63 BUREYS ROAD FALCONER 2365",
    "locID": "LOC000120905782",
    "tech": "WIRELESS",
    "upgrade": "NULL_NA",
    "gnaf_pid": "GANSW717421010",
    "tech_change_status": "Not Planned",
    "program_type": "Fixed Wireless and Satellite Upgrade Program",
    "target_eligibility_quarter": "NA"
   }
  },
  {
   "type": "Feature",
   "geometry": {
    "type": "Point",
    "coordinates": [
     151.71949493,
     -30.17743046
    ]
   },
   "properties": {
    "name": "2 ALBERT STREET FALCONER 2365",
    "locID": "LOC000120905439",
    "tech": "SATELLITE",
    "upgrade": "WIRELESS",
    "gnaf_pid": "GANSW718021819",
    "tech_change_status": "Eligible to Order"
   }
  },
  {
   "type": "Feature",
   "geometry": {
    "type": "Point",
    "coordinates": [
     151.70542365,
     -30.18376944
    ]
   },
   "properties": {
    "name": "26 RIXONS ROAD FALCONER 2365",
    "locID": "LOC000112972145",
    "tech": "WIRELESS",
    "upgrade": "NULL_NA",
    "gnaf_pid": "GANSW718136513",
    "tech_change_status": "Not Planned",
    "program_type": "Fixed Wireless and Satellite Upgrade Program",
    "target_eligibility_quarter": "NA"
   }
  },
  {
   "type": "Feature",
   "geometry": {
    "type": "Point",
    "coordinates": [
     151.72161586,
     -30.17573187
    ]
   },
   "properties": {
    "name": "1 ALBERT STREET FALCONER 2365",
    "locID": "LOC000120905439",
    "tech": "SATELLITE",
    "upgrade": "WIRELESS",
    "gnaf_pid": "GANSW718256817",
    "tech_change_status": "Eligible to Order"
   }
  },
  {
   "type": "Feature",
   "geometry": {
    "type": "Point",
    "coordinates": [
     151.70951525,
     -30.17540656
    ]
   },
   "properties": {
    "name": "106 RIXONS ROAD FALCONER 2365",
    "locID": "LOC000139561977",
    "tech": "WIRELESS",
    "upgrade": "NULL_NA",
    "gnaf_pid": "GANSW718422299",
    "tech_change_status": "Not Planned",
    "program_type": "Fixed Wireless and Satellite Upgrade Program",
    "target_eligibility_quarter": "NA"
   }
  },
  {
   "type": "Feature",
   "geometry": {
    "type": "Point",
    "coordinates": [
     151.73517605,
     -30.17791251
    ]
   },
   "properties": {
    "name": "87 TARA ROAD FALCONER 2365",
    "locID": "LOC000138838398",
    "tech": "WIRELESS",
    "upgrade": "NULL_NA",
    "gnaf_pid": "GANSW718535777",
    "tech_change_status": "Not Planned",
    "program_type": "Fixed Wireless and Satellite Upgrade Program",
    "target_eligibility_quarter": "NA"
   }
  },
  {
   "type": "Feature",
   "geometry": {
    "type": "Point",
    "coordinates": [
     151.69858497,
     -30.1651249
    ]
   },
   "properties": {
    "name": "4850 NEW ENGLAND HIGHWAY FALCONER 2365",
    "locID": "LOC000173164382",
    "tech": "WIRELESS",
    "upgrade": "NULL_NA",
    "gnaf_pid": "GANSW718647144",
    "tech_change_status": "Not Planned",
    "program_type": "Fixed Wireless and Satellite Upgrade Program",
    "target_eligibility_quarter": "NA"
   }
  },
  {
   "type": "Feature",
   "geometry": {
    "type": "Point",
    "coordinates": [
     151.72639607,
     -30.20571948
    ]
   },
   "properties": {
    "name": "7096 GUYRA ROAD FALCONER 2365",
    "locID": "LOC000143995670",
    "tech": "WIRELESS",
    "upgrade": "NULL_NA",
    "gnaf_pid": "GANSW718688613",
    "tech_change_status": "Not Planned"
   }
  },
  {
   "type": "Feature",
   "geometry": {
    "type": "Point",
    "coordinates": [
     151.69172921,
     -30.16552678
    ]
   },
   "properties": {
    "name": "4774 NEW ENGLAND HIGHWAY FALCONER 2365",
    "locID": "LOC100031054180",
    "tech": "WIRELESS",
    "upgrade": "FTTP",
    "gnaf_pid": "GANSW718729354",
    "tech_change_status": "Eligible to Order",
    "program_type": "Regional Area Flip",
    "target_eligibility_quarter": "NA"
   }
  },
  {
   "type": "Feature",
   "geometry": {
    "type": "Point",
    "coordinates": [
     151.76435699,
     -30.15136184
    ]
   },
   "properties": {
    "name": "203A HALLSBROOK ROAD FALCONER 2365",
    "locID": "LOC000148070722",
    "tech": "NULL",
    "upgrade": "NULL_NA",
    "gnaf_pid": "GANSW718769091",
    "tech_change_status": "Not Planned"
   }
  },
  {
   "type": "Feature",
   "geometry": {
    "type": "Point",
    "coordinates": [
     151.72360081,
     -30.18691259
    ]
   },
   "properties": {
    "name": "27 TARA ROAD FALCONER 2365",
    "locID": "LOC000150110444",
    "tech": "WIRELESS",
    "upgrade": "NULL_NA",
    "gnaf_pid": "GANSW718774217",
    "tech_change_status": "Not Planned",
    "program_type": "Fixed Wireless and Satellite Upgrade Program",
    "target_eligibility_quarter": "NA"
   }
  },
  {
   "type": "Feature",
   "geometry": {
    "type": "Point",
    "coordinates": [
     151.71618532,
     -30.14187816
    ]
   },
   "properties": {
    "name": "305 EVERETTS ROAD FALCONER 2365",
    "locID": "LOC100071937168",
    "tech": "WIRELESS",
    "upgrade": "NULL_NA",
    "gnaf_pid": "GANSW718953211",
    "tech_change_status": "Not Planned",
    "program_type": "Fixed Wireless and Satellite Upgrade Program",
    "target_eligibility_quarter": "NA"
   }
  },
  {
   "type": "Feature",
   "geometry": {
    "type": "Point",
    "coordinates": [
     151.70380355,
     -30.1862287
    ]
   },
   "properties": {
    "name": "389 FALCONER ROAD FALCONER 2365",
    "locID": "LOC100055375114",
    "tech": "WIRELESS",
    "upgrade": "NULL_NA",
    "gnaf_pid": "GANSW718953236",
    "tech_change_status": "Not Planned",
    "program_type": "Fixed Wireless and Satellite Upgrade Program",
    "target_eligibility_quarter": "NA"
   }
  }
 ]
}