{
 "type": "FeatureCollection",
 "generated": "2024-10-15T17:32:22.297827",
 "suburb": "ILLABO",
 "features": [
  {
   "type": "Feature",
   "geometry": {
    "type": "Point",
    "coordinates": [
     147.79273142,
     -34.77700052
    ]
   },
   "properties": {
    "name": "2242 OLD SYDNEY ROAD ILLABO 2590",
    "locID": "LOC000090033151",
    "tech": "NULL",
    "upgrade": "NULL_NA",
    "gnaf_pid": "GANSW705004269",
    "tech_change_status": "Not Planned"
   }
  },
  {
   "type": "Feature",
   "geometry": {
    "type": "Point",
    "coordinates": [
     147.73854548,
     -34.81577911
    ]
   },
   "properties": {
    "name": "1251 OLYMPIC HIGHWAY ILLABO 2590",
    "locID": "LOC000090226592",
    "tech": "SATELLITE",
    "upgrade": "NULL_NA",
    "gnaf_pid": "GANSW705004270",
    "tech_change_status": "Not Planned"
   }
  },
  {
   "type": "Feature",
   "geometry": {
    "type": "Point",
    "coordinates": [
     147.78878195,
     -34.81316983
    ]
   },
   "properties": {
    "name": "173 ALLAWAH ROAD ILLABO 2590",
    "locID": "LOC000011281152",
    "tech": "SATELLITE",
    "upgrade": "NULL_NA",
    "gnaf_pid": "GANSW705022210",
    "tech_change_status": "Not Planned"
   }
  },
  {
   "type": "Feature",
   "geometry": {
    "type": "Point",
    "coordinates": [
     147.80371196,
     -34.83860602
    ]
   },
   "properties": {
    "name": "340 ALLAWAH ROAD ILLABO 2590",
    "locID": "LOC000025383314",
    "tech": "SATELLITE",
    "upgrade": "NULL_NA",
    "gnaf_pid": "GANSW705022211",
    "tech_change_status": "Not Planned"
   }
  },
  {
   "type": "Feature",
   "geometry": {
    "type": "Point",
    "coordinates": [
     147.76913616,
     -34.82408823
    ]
   },
   "properties": {
    "name": "9 ALLAWAH ROAD ILLABO 2590",
    "locID": "LOC000107162695",
    "tech": "NULL",
    "upgrade": "NULL_NA",
    "gnaf_pid": "GANSW705022212",
    "tech_change_status": "Not Planned"
   }
  },
  {
   "type": "Feature",
   "geometry": {
    "type": "Point",
    "coordinates": [
     147.705384,
     -34.79516008
    ]
   },
   "properties": {
    "name": "132 GREGORYS LANE ILLABO 2590",
    "locID": "LOC000008814317",
    "tech": "NULL",
    "upgrade": "NULL_NA",
    "gnaf_pid": "GANSW705022214",
    "tech_change_status": "Not Planned"
   }
  },
  {
   "type": "Feature",
   "geometry": {
    "type": "Point",
    "coordinates": [
     147.74306819,
     -34.81338001
    ]
   },
   "properties": {
    "name": "81 WOOD STREET ILLABO 2590",
    "locID": "LOC000015445027",
    "tech": "NULL",
    "upgrade": "NULL_NA",
    "gnaf_pid": "GANSW709373702",
    "tech_change_status": "Not Planned"
   }
  },
  {
   "type": "Feature",
   "geometry": {
    "type": "Point",
    "coordinates": [
     147.7404465,
     -34.81313044
    ]
   },
   "properties": {
    "name": "LOT 9 LAYTON STREET ILLABO 2590",
    "locID": "LOC000053212171",
    "tech": "NULL",
    "upgrade": "NULL_NA",
    "gnaf_pid": "GANSW709375054",
    "tech_change_status": "Not Planned"
   }
  },
  {
   "type": "Feature",
   "geometry": {
    "type": "Point",
    "coordinates": [
     147.73584536,
     -34.81614229
    ]
   },
   "properties": {
    "name": "2 COMMINS STREET ILLABO 2590",
    "locID": "LOC000106120236",
    "tech": "NULL",
    "upgrade": "NULL_NA",
    "gnaf_pid": "GANSW712652670",
    "tech_change_status": "Not Planned"
   }
  },
  {
   "type": "Feature",
   "geometry": {
    "type": "Point",
    "coordinates": [
     147.73860936,
     -34.81383639
    ]
   },
   "properties": {
    "name": "1 CROWTHER STREET ILLABO 2590",
    "locID": "LOC000015681227",
    "tech": "NULL",
    "upgrade": "NULL_NA",
    "gnaf_pid": "GANSW712652671",
    "tech_change_status": "Not Planned"
   }
  },
  {
   "type": "Feature",
   "geometry": {
    "type": "Point",
    "coordinates": [
     147.74158106,
     -34.81263582
    ]
   },
   "properties": {
    "name": "8 HOWELL STREET ILLABO 2590",
    "locID": "LOC000072597908",
    "tech": "SATELLITE",
    "upgrade": "NULL_NA",
    "gnaf_pid": "GANSW712652673",
    "tech_change_status": "Not Planned"
   }
  },
  {
   "type": "Feature",
   "geometry": {
    "type": "Point",
    "coordinates": [
     147.7404465,
     -34.81313044
    ]
   },
   "properties": {
    "name": "1 LAYTON STREET ILLABO 2590",
    "locID": "LOC000053212171",
    "tech": "NULL",
    "upgrade": "NULL_NA",
    "gnaf_pid": "GANSW712652676",
    "tech_change_status": "Not Planned"
   }
  },
  {
   "type": "Feature",
   "geometry": {
    "type": "Point",
    "coordinates": [
     147.74077457,
     -34.81322596
    ]
   },
   "properties": {
    "name": "21 LAYTON STREET ILLABO 2590",
    "locID": "LOC000095554623",
    "tech": "NULL",
    "upgrade": "NULL_NA",
    "gnaf_pid": "GANSW712655873",
    "tech_change_status": "Not Planned"
   }
  },
  {
   "type": "Feature",
   "geometry": {
    "type": "Point",
    "coordinates": [
     147.72326655,
     -34.79133795
    ]
   },
   "properties": {
    "name": "187 STOREYS LANE ILLABO 2590",
    "locID": "LOC000014962887",
    "tech": "NULL",
    "upgrade": "NULL_NA",
    "gnaf_pid": "GANSW716105765",
    "tech_change_status": "Not Planned"
   }
  },
  {
   "type": "Feature",
   "geometry": {
    "type": "Point",
    "coordinates": [
     147.73918378,
     -34.81259075
    ]
   },
   "properties": {
    "name": "35 CROWTHER STREET ILLABO 2590",
    "locID": "LOC000086199417",
    "tech": "NULL",
    "upgrade": "NULL_NA",
    "gnaf_pid": "GANSW716629392",
    "tech_change_status": "Not Planned"
   }
  },
  {
   "type": "Feature",
   "geometry": {
    "type": "Point",
    "coordinates": [
     147.70869136,
     -34.84272632
    ]
   },
   "properties": {
    "name": "1272 OLYMPIC HIGHWAY ILLABO 2590",
    "locID": "LOC000099862378",
    "tech": "NULL",
    "upgrade": "NULL_NA",
    "gnaf_pid": "GANSW716739434",
    "tech_change_status": "Not Planned"
   }
  },
  {
   "type": "Feature",
   "geometry": {
    "type": "Point",
    "coordinates": [
     147.80379257,
     -34.82679146
    ]
   },
   "properties": {
    "name": "471 WALBRIDGE LANE ILLABO 2590",
    "locID": "LOC000094220529",
    "tech": "NULL",
    "upgrade": "NULL_NA",
    "gnaf_pid": "GANSW716765446",
    "tech_change_status": "Not Planned"
   }
  },
  {
   "type": "Feature",
   "geometry": {
    "type": "Point",
    "coordinates": [
     147.7872663,
     -34.79563234
    ]
   },
   "properties": {
    "name": "2184 OLYMPIC HIGHWAY ILLABO 2590",
    "locID": "LOC000090226592",
    "tech": "SATELLITE",
    "upgrade": "NULL_NA",
    "gnaf_pid": "GANSW717001037",
    "tech_change_status": "Not Planned"
   }
  },
  {
   "type": "Feature",
   "geometry": {
    "type": "Point",
    "coordinates": [
     147.7404465,
     -34.81313044
    ]
   },
   "properties": {
    "name": "LOT 8 LAYTON STREET ILLABO 2590",
    "locID": "LOC000150119220",
    "tech": "SATELLITE",
    "upgrade": "NULL_NA",
    "gnaf_pid": "GANSW717083216",
    "tech_change_status": "Not Planned"
   }
  },
  {
   "type": "Feature",
   "geometry": {
    "type": "Point",
    "coordinates": [
     147.70775755,
     -34.80791637
    ]
   },
   "properties": {
    "name": "118 STANYER ROAD ILLABO 2590",
    "locID": "LOC000099130092",
    "tech": "SATELLITE",
    "upgrade": "NULL_NA",
    "gnaf_pid": "GANSW717089028",
    "tech_change_status": "Not Planned"
   }
  },
  {
   "type": "Feature",
   "geometry": {
    "type": "Point",
    "coordinates": [
     147.71613411,
     -34.81167267
    ]
   },
   "properties": {
    "name": "245 STANYER ROAD ILLABO 2590",
    "locID": "LOC000096215693",
    "tech": "SATELLITE",
    "upgrade": "NULL_NA",
    "gnaf_pid": "GANSW717089029",
    "tech_change_status": "Not Planned"
   }
  },
  {
   "type": "Feature",
   "geometry": {
    "type": "Point",
    "coordinates": [
     147.70687659,
     -34.80909514
    ]
   },
   "properties": {
    "name": "333 STANYER ROAD ILLABO 2590",
    "locID": "LOC000055702857",
    "tech": "SATELLITE",
    "upgrade": "NULL_NA",
    "gnaf_pid": "GANSW717089030",
    "tech_change_status": "Not Planned"
   }
  },
  {
   "type": "Feature",
   "geometry": {
    "type": "Point",
    "coordinates": [
     147.6944508,
     -34.80353433
    ]
   },
   "properties": {
    "name": "454 STANYER ROAD ILLABO 2590",
    "locID": "LOC000024003949",
    "tech": "SATELLITE",
    "upgrade": "NULL_NA",
    "gnaf_pid": "GANSW717089031",
    "tech_change_status": "Not Planned"
   }
  },
  {
   "type": "Feature",
   "geometry": {
    "type": "Point",
    "coordinates": [
     147.6848408,
     -34.80634765
    ]
   },
   "properties": {
    "name": "549 STANYER ROAD ILLABO 2590",
    "locID": "LOC000096168127",
    "tech": "SATELLITE",
    "upgrade": "NULL_NA",
    "gnaf_pid": "GANSW717089032",
    "tech_change_status": "Not Planned"
   }
  },
  {
   "type": "Feature",
   "geometry": {
    "type": "Point",
    "coordinates": [
     147.76269411,
     -34.7685049
    ]
   },
   "properties": {
    "name": "60 EULOMO SETTLEMENT ROAD ILLABO 2590",
    "locID": "LOC000086948372",
    "tech": "NULL",
    "upgrade": "NULL_NA",
    "gnaf_pid": "GANSW717127619",
    "tech_change_status": "Not Planned"
   }
  },
  {
   "type": "Feature",
   "geometry": {
    "type": "Point",
    "coordinates": [
     147.75759604,
     -34.81894543
    ]
   },
   "properties": {
    "name": "167 EURONGILLY ROAD ILLABO 2590",
    "locID": "LOC000033833893",
    "tech": "NULL",
    "upgrade": "NULL_NA",
    "gnaf_pid": "GANSW717330727",
    "tech_change_status": "Not Planned"
   }
  },
  {
   "type": "Feature",
   "geometry": {
    "type": "Point",
    "coordinates": [
     147.74108468,
     -34.8114711
    ]
   },
   "properties": {
    "name": "41-45 LAYTON STREET ILLABO 2590",
    "locID": "LOC000099345214",
    "tech": "SATELLITE",
    "upgrade": "NULL_NA",
    "gnaf_pid": "GANSW717337424",
    "tech_change_status": "Not Planned"
   }
  },
  {
   "type": "Feature",
   "geometry": {
    "type": "Point",
    "coordinates": [
     147.80543652,
     -34.81258567
    ]
   },
   "properties": {
    "name": "308 WALBRIDGE LANE ILLABO 2590",
    "locID": "LOC000064487904",
    "tech": "SATELLITE",
    "upgrade": "NULL_NA",
    "gnaf_pid": "GANSW717350193",
    "tech_change_status": "Not Planned"
   }
  },
  {
   "type": "Feature",
   "geometry": {
    "type": "Point",
    "coordinates": [
     147.75130581,
     -34.81915541
    ]
   },
   "properties": {
    "name": "109 EURONGILLY ROAD ILLABO 2590",
    "locID": "LOC000087755067",
    "tech": "SATELLITE",
    "upgrade": "NULL_NA",
    "gnaf_pid": "GANSW717356029",
    "tech_change_status": "Not Planned"
   }
  },
  {
   "type": "Feature",
   "geometry": {
    "type": "Point",
    "coordinates": [
     147.76254195,
     -34.85880307
    ]
   },
   "properties": {
    "name": "612 EURONGILLY ROAD ILLABO 2590",
    "locID": "LOC000121713439",
    "tech": "SATELLITE",
    "upgrade": "NULL_NA",
    "gnaf_pid": "GANSW717356032",
    "tech_change_status": "Not Planned"
   }
  },
  {
   "type": "Feature",
   "geometry": {
    "type": "Point",
    "coordinates": [
     147.78516466,
     -34.8748702
    ]
   },
   "properties": {
    "name": "939 EURONGILLY ROAD ILLABO 2590",
    "locID": "LOC000021841338",
    "tech": "NULL",
    "upgrade": "NULL_NA",
    "gnaf_pid": "GANSW717356033",
    "tech_change_status": "Not Planned"
   }
  },
  {
   "type": "Feature",
   "geometry": {
    "type": "Point",
    "coordinates": [
     147.73068613,
     -34.82713632
    ]
   },
   "properties": {
    "name": "128 BRABINS ROAD ILLABO 2590",
    "locID": "LOC100078116263",
    "tech": "NULL",
    "upgrade": "NULL_NA",
    "gnaf_pid": "GANSW717617932",
    "tech_change_status": "Not Planned"
   }
  },
  {
   "type": "Feature",
   "geometry": {
    "type": "Point",
    "coordinates": [
     147.73674533,
     -34.83035454
    ]
   },
   "properties": {
    "name": "139 BRABINS ROAD ILLABO 2590",
    "locID": "LOC000042603204",
    "tech": "NULL",
    "upgrade": "NULL_NA",
    "gnaf_pid": "GANSW717617933",
    "tech_change_status": "Not Planned"
   }
  },
  {
   "type": "Feature",
   "geometry": {
    "type": "Point",
    "coordinates": [
     147.77338921,
     -34.84465045
    ]
   },
   "properties": {
    "name": "509 EURONGILLY ROAD ILLABO 2590",
    "locID": "LOC000102058699",
    "tech": "SATELLITE",
    "upgrade": "NULL_NA",
    "gnaf_pid": "GANSW717618707",
    "tech_change_status": "Not Planned"
   }
  },
  {
   "type": "Feature",
   "geometry": {
    "type": "Point",
    "coordinates": [
     147.74279503,
     -34.87852417
    ]
   },
   "properties": {
    "name": "667 BRABINS ROAD ILLABO 2590",
    "locID": "LOC100078117061",
    "tech": "NULL",
    "upgrade": "NULL_NA",
    "gnaf_pid": "GANSW717623991",
    "tech_change_status": "Not Planned"
   }
  },
  {
   "type": "Feature",
   "geometry": {
    "type": "Point",
    "coordinates": [
     147.74246531,
     -34.81268858
    ]
   },
   "properties": {
    "name": "9-11 HOWELL STREET ILLABO 2590",
    "locID": "LOC000056519380",
    "tech": "SATELLITE",
    "upgrade": "NULL_NA",
    "gnaf_pid": "GANSW717726704",
    "tech_change_status": "Not Planned"
   }
  },
  {
   "type": "Feature",
   "geometry": {
    "type": "Point",
    "coordinates": [
     147.76006573,
     -34.79720818
    ]
   },
   "properties": {
    "name": "37 WARRENS LANE ILLABO 2590",
    "locID": "LOC000010741112",
    "tech": "SATELLITE",
    "upgrade": "NULL_NA",
    "gnaf_pid": "GANSW717728688",
    "tech_change_status": "Not Planned"
   }
  },
  {
   "type": "Feature",
   "geometry": {
    "type": "Point",
    "coordinates": [
     147.73586493,
     -34.83503613
    ]
   },
   "properties": {
    "name": "233 BRABINS ROAD ILLABO 2590",
    "locID": "LOC000084740681",
    "tech": "SATELLITE",
    "upgrade": "NULL_NA",
    "gnaf_pid": "GANSW717977838",
    "tech_change_status": "Not Planned"
   }
  },
  {
   "type": "Feature",
   "geometry": {
    "type": "Point",
    "coordinates": [
     147.70923897,
     -34.86533793
    ]
   },
   "properties": {
    "name": "594 BRABINS ROAD ILLABO 2590",
    "locID": "LOC100079390629",
    "tech": "WIRELESS",
    "upgrade": "NULL_NA",
    "gnaf_pid": "GANSW717977839",
    "tech_change_status": "Not Planned",
    "program_type": "Fixed Wireless and Satellite Upgrade Program",
    "target_eligibility_quarter": "Dec 2024"
   }
  },
  {
   "type": "Feature",
   "geometry": {
    "type": "Point",
    "coordinates": [
     147.7370223,
     -34.81512393
    ]
   },
   "properties": {
    "name": "17 COMMINS STREET ILLABO 2590",
    "locID": "LOC000056594452",
    "tech": "NULL",
    "upgrade": "NULL_NA",
    "gnaf_pid": "GANSW717978728",
    "tech_change_status": "Not Planned"
   }
  },
  {
   "type": "Feature",
   "geometry": {
    "type": "Point",
    "coordinates": [
     147.73723162,
     -34.81414002
    ]
   },
   "properties": {
    "name": "29 COMMINS STREET ILLABO 2590",
    "locID": "LOC000106120236",
    "tech": "NULL",
    "upgrade": "NULL_NA",
    "gnaf_pid": "GANSW717978729",
    "tech_change_status": "Not Planned"
   }
  },
  {
   "type": "Feature",
   "geometry": {
    "type": "Point",
    "coordinates": [
     147.7373275,
     -34.81368924
    ]
   },
   "properties": {
    "name": "33 COMMINS STREET ILLABO 2590",
    "locID": "LOC000017339698",
    "tech": "NULL",
    "upgrade": "NULL_NA",
    "gnaf_pid": "GANSW717978730",
    "tech_change_status": "Not Planned"
   }
  },
  {
   "type": "Feature",
   "geometry": {
    "type": "Point",
    "coordinates": [
     147.73775458,
     -34.81485797
    ]
   },
   "properties": {
    "name": "10 CROWTHER STREET ILLABO 2590",
    "locID": "LOC000024852296",
    "tech": "NULL",
    "upgrade": "NULL_NA",
    "gnaf_pid": "GANSW717979030",
    "tech_change_status": "Not Planned"
   }
  },
  {
   "type": "Feature",
   "geometry": {
    "type": "Point",
    "coordinates": [
     147.73788679,
     -34.81423454
    ]
   },
   "properties": {
    "name": "18 CROWTHER STREET ILLABO 2590",
    "locID": "LOC000015681227",
    "tech": "NULL",
    "upgrade": "NULL_NA",
    "gnaf_pid": "GANSW717979034",
    "tech_change_status": "Not Planned"
   }
  },
  {
   "type": "Feature",
   "geometry": {
    "type": "Point",
    "coordinates": [
     147.73805798,
     -34.8134276
    ]
   },
   "properties": {
    "name": "20 CROWTHER STREET ILLABO 2590",
    "locID": "LOC100078115761",
    "tech": "NULL",
    "upgrade": "NULL_NA",
    "gnaf_pid": "GANSW717979035",
    "tech_change_status": "Not Planned"
   }
  },
  {
   "type": "Feature",
   "geometry": {
    "type": "Point",
    "coordinates": [
     147.73765947,
     -34.81530645
    ]
   },
   "properties": {
    "name": "2 CROWTHER STREET ILLABO 2590",
    "locID": "LOC100078115816",
    "tech": "NULL",
    "upgrade": "NULL_NA",
    "gnaf_pid": "GANSW717979036",
    "tech_change_status": "Not Planned"
   }
  },
  {
   "type": "Feature",
   "geometry": {
    "type": "Point",
    "coordinates": [
     147.76202005,
     -34.82299468
    ]
   },
   "properties": {
    "name": "154 EURONGILLY ROAD ILLABO 2590",
    "locID": "LOC000053821759",
    "tech": "NULL",
    "upgrade": "NULL_NA",
    "gnaf_pid": "GANSW717980714",
    "tech_change_status": "Not Planned"
   }
  },
  {
   "type": "Feature",
   "geometry": {
    "type": "Point",
    "coordinates": [
     147.74440822,
     -34.81746952
    ]
   },
   "properties": {
    "name": "47 EURONGILLY ROAD ILLABO 2590",
    "locID": "LOC000021914968",
    "tech": "NULL",
    "upgrade": "NULL_NA",
    "gnaf_pid": "GANSW717980715",
    "tech_change_status": "Not Planned"
   }
  },
  {
   "type": "Feature",
   "geometry": {
    "type": "Point",
    "coordinates": [
     147.74070261,
     -34.81400481
    ]
   },
   "properties": {
    "name": "11 LAYTON STREET ILLABO 2590",
    "locID": "LOC000053212171",
    "tech": "NULL",
    "upgrade": "NULL_NA",
    "gnaf_pid": "GANSW717982656",
    "tech_change_status": "Not Planned"
   }
  },
  {
   "type": "Feature",
   "geometry": {
    "type": "Point",
    "coordinates": [
     147.73987684,
     -34.81291743
    ]
   },
   "properties": {
    "name": "24-26 LAYTON STREET ILLABO 2590",
    "locID": "LOC000032595629",
    "tech": "NULL",
    "upgrade": "NULL_NA",
    "gnaf_pid": "GANSW717982657",
    "tech_change_status": "Not Planned"
   }
  },
  {
   "type": "Feature",
   "geometry": {
    "type": "Point",
    "coordinates": [
     147.7408887,
     -34.81238555
    ]
   },
   "properties": {
    "name": "33 LAYTON STREET ILLABO 2590",
    "locID": "LOC000062842266",
    "tech": "NULL",
    "upgrade": "NULL_NA",
    "gnaf_pid": "GANSW717982658",
    "tech_change_status": "Not Planned"
   }
  },
  {
   "type": "Feature",
   "geometry": {
    "type": "Point",
    "coordinates": [
     147.71989251,
     -34.78220791
    ]
   },
   "properties": {
    "name": "1586 OLD SYDNEY ROAD ILLABO 2590",
    "locID": "LOC100078115006",
    "tech": "NULL",
    "upgrade": "NULL_NA",
    "gnaf_pid": "GANSW717984253",
    "tech_change_status": "Not Planned"
   }
  },
  {
   "type": "Feature",
   "geometry": {
    "type": "Point",
    "coordinates": [
     147.7319824,
     -34.77731843
    ]
   },
   "properties": {
    "name": "1715 OLD SYDNEY ROAD ILLABO 2590",
    "locID": "LOC000026689473",
    "tech": "SATELLITE",
    "upgrade": "NULL_NA",
    "gnaf_pid": "GANSW717984254",
    "tech_change_status": "Not Planned"
   }
  },
  {
   "type": "Feature",
   "geometry": {
    "type": "Point",
    "coordinates": [
     147.74580864,
     -34.81210396
    ]
   },
   "properties": {
    "name": "17 TOOHEYS LANE ILLABO 2590",
    "locID": "LOC000098566461",
    "tech": "SATELLITE",
    "upgrade": "NULL_NA",
    "gnaf_pid": "GANSW717986601",
    "tech_change_status": "Not Planned"
   }
  },
  {
   "type": "Feature",
   "geometry": {
    "type": "Point",
    "coordinates": [
     147.74453631,
     -34.81263865
    ]
   },
   "properties": {
    "name": "7 TOOHEYS LANE ILLABO 2590",
    "locID": "LOC000003297579",
    "tech": "NULL",
    "upgrade": "NULL_NA",
    "gnaf_pid": "GANSW717986603",
    "tech_change_status": "Not Planned"
   }
  },
  {
   "type": "Feature",
   "geometry": {
    "type": "Point",
    "coordinates": [
     147.74472361,
     -34.81254458
    ]
   },
   "properties": {
    "name": "9 TOOHEYS LANE ILLABO 2590",
    "locID": "LOC000084130350",
    "tech": "SATELLITE",
    "upgrade": "NULL_NA",
    "gnaf_pid": "GANSW717986604",
    "tech_change_status": "Not Planned"
   }
  },
  {
   "type": "Feature",
   "geometry": {
    "type": "Point",
    "coordinates": [
     147.77139068,
     -34.79665764
    ]
   },
   "properties": {
    "name": "72 WARRENS LANE ILLABO 2590",
    "locID": "LOC000074922988",
    "tech": "NULL",
    "upgrade": "NULL_NA",
    "gnaf_pid": "GANSW717987129",
    "tech_change_status": "Not Planned"
   }
  },
  {
   "type": "Feature",
   "geometry": {
    "type": "Point",
    "coordinates": [
     147.75319166,
     -34.81691635
    ]
   },
   "properties": {
    "name": "14 ILLABO SHOWGROUND ROAD ILLABO 2590",
    "locID": "LOC000056456505",
    "tech": "SATELLITE",
    "upgrade": "NULL_NA",
    "gnaf_pid": "GANSW718887639",
    "tech_change_status": "Not Planned"
   }
  },
  {
   "type": "Feature",
   "geometry": {
    "type": "Point",
    "coordinates": [
     147.74837986,
     -34.81572305
    ]
   },
   "properties": {
    "name": "81 ILLABO SHOWGROUND ROAD ILLABO 2590",
    "locID": "LOC000056456505",
    "tech": "SATELLITE",
    "upgrade": "NULL_NA",
    "gnaf_pid": "GANSW718887640",
    "tech_change_status": "Not Planned"
   }
  },
  {
   "type": "Feature",
   "geometry": {
    "type": "Point",
    "coordinates": [
     147.73932797,
     -34.81505268
    ]
   },
   "properties": {
    "name": "14 TURLAND STREET ILLABO 2590",
    "locID": "LOC000096914229",
    "tech": "SATELLITE",
    "upgrade": "NULL_NA",
    "gnaf_pid": "GANSW718894981",
    "tech_change_status": "Not Planned"
   }
  },
  {
   "type": "Feature",
   "geometry": {
    "type": "Point",
    "coordinates": [
     147.74148816,
     -34.81307534
    ]
   },
   "properties": {
    "name": "2 HOWELL STREET ILLABO 2590",
    "locID": "LOC100072006012",
    "tech": "NULL",
    "upgrade": "NULL_NA",
    "gnaf_pid": "GANSW718924224",
    "tech_change_status": "Not Planned"
   }
  },
  {
   "type": "Feature",
   "geometry": {
    "type": "Point",
    "coordinates": [
     147.74076347,
     -34.81297255
    ]
   },
   "properties": {
    "name": "25 LAYTON STREET ILLABO 2590",
    "locID": "LOC100072006008",
    "tech": "NULL",
    "upgrade": "NULL_NA",
    "gnaf_pid": "GANSW718925561",
    "tech_change_status": "Not Planned"
   }
  },
  {
   "type": "Feature",
   "geometry": {
    "type": "Point",
    "coordinates": [
     147.73964827,
     -34.81497474
    ]
   },
   "properties": {
    "name": "18 TURLAND STREET ILLABO 2590",
    "locID": "LOC000096914229",
    "tech": "SATELLITE",
    "upgrade": "NULL_NA",
    "gnaf_pid": "GANSW718958594",
    "tech_change_status": "Not Planned"
   }
  },
  {
   "type": "Feature",
   "geometry": {
    "type": "Point",
    "coordinates": [
     147.73698725,
     -34.8160564
    ]
   },
   "properties": {
    "name": "2-4 TURLAND STREET ILLABO 2590",
    "locID": "LOC000150119231",
    "tech": "NULL",
    "upgrade": "NULL_NA",
    "gnaf_pid": "GANSW719572202",
    "tech_change_status": "Not Planned"
   }
  },
  {
   "type": "Feature",
   "geometry": {
    "type": "Point",
    "coordinates": [
     147.69897038,
     -34.82023658
    ]
   },
   "properties": {
    "name": "1 STANYER ROAD ILLABO 2590",
    "locID": "LOC000099130092",
    "tech": "SATELLITE",
    "upgrade": "NULL_NA",
    "gnaf_pid": "GANSW719693279",
    "tech_change_status": "Not Planned"
   }
  },
  {
   "type": "Feature",
   "geometry": {
    "type": "Point",
    "coordinates": [
     147.74193675,
     -34.81375447
    ]
   },
   "properties": {
    "name": "21 WOOD STREET ILLABO 2590",
    "locID": "LOC100072006031",
    "tech": "NULL",
    "upgrade": "NULL_NA",
    "gnaf_pid": "GANSW719874558",
    "tech_change_status": "Not Planned"
   }
  },
  {
   "type": "Feature",
   "geometry": {
    "type": "Point",
    "coordinates": [
     147.7417918,
     -34.81165153
    ]
   },
   "properties": {
    "name": "16 HOWELL STREET ILLABO 2590",
    "locID": "LOC100086086094",
    "tech": "NULL",
    "upgrade": "NULL_NA",
    "gnaf_pid": "GANSW720600328",
    "tech_change_status": "Not Planned"
   }
  },
  {
   "type": "Feature",
   "geometry": {
    "type": "Point",
    "coordinates": [
     147.74246531,
     -34.81268858
    ]
   },
   "properties": {
    "name": "11 HOWELL STREET ILLABO 2590",
    "locID": "LOC000056519380",
    "tech": "SATELLITE",
    "upgrade": "NULL_NA",
    "gnaf_pid": "GANSW720602691",
    "tech_change_status": "Not Planned"
   }
  },
  {
   "type": "Feature",
   "geometry": {
    "type": "Point",
    "coordinates": [
     147.74246531,
     -34.81268858
    ]
   },
   "properties": {
    "name": "9 HOWELL STREET ILLABO 2590",
    "locID": "LOC000056519380",
    "tech": "SATELLITE",
    "upgrade": "NULL_NA",
    "gnaf_pid": "GANSW720617678",
    "tech_change_status": "Not Planned"
   }
  },
  {
   "type": "Feature",
   "geometry": {
    "type": "Point",
    "coordinates": [
     147.74256741,
     -34.81221377
    ]
   },
   "properties": {
    "name": "13 HOWELL STREET ILLABO 2590",
    "locID": "LOC100079661161",
    "tech": "NULL",
    "upgrade": "NULL_NA",
    "gnaf_pid": "GANSW720789850",
    "tech_change_status": "Not Planned"
   }
  },
  {
   "type": "Feature",
   "geometry": {
    "type": "Point",
    "coordinates": [
     147.73921519,
     -34.81244318
    ]
   },
   "properties": {
    "name": "37 CROWTHER STREET ILLABO 2590",
    "locID": "LOC100086133369",
    "tech": "NULL",
    "upgrade": "NULL_NA",
    "gnaf_pid": "GANSW720802421",
    "tech_change_status": "Not Planned"
   }
  },
  {
   "type": "Feature",
   "geometry": {
    "type": "Point",
    "coordinates": [
     147.73948734,
     -34.81473402
    ]
   },
   "properties": {
    "name": "2 LAYTON STREET ILLABO 2590",
    "locID": "LOC000053212171",
    "tech": "NULL",
    "upgrade": "NULL_NA",
    "gnaf_pid": "GANSW721236878",
    "tech_change_status": "Not Planned"
   }
  },
  {
   "type": "Feature",
   "geometry": {
    "type": "Point",
    "coordinates": [
     147.73713638,
     -34.81458679
    ]
   },
   "properties": {
    "name": "23 COMMINS STREET ILLABO 2590",
    "locID": "LOC100086133492",
    "tech": "NULL",
    "upgrade": "NULL_NA",
    "gnaf_pid": "GANSW721320113",
    "tech_change_status": "Not Planned"
   }
  },
  {
   "type": "Feature",
   "geometry": {
    "type": "Point",
    "coordinates": [
     147.73335483,
     -34.88793278
    ]
   },
   "properties": {
    "name": "137 WAROO LANE ILLABO 2590",
    "locID": "LOC000178030296",
    "tech": "NULL",
    "upgrade": "NULL_NA",
    "gnaf_pid": "GANSW721437288",
    "tech_change_status": "Not Planned"
   }
  },
  {
   "type": "Feature",
   "geometry": {
    "type": "Point",
    "coordinates": [
     147.73696354,
     -34.81411966
    ]
   },
   "properties": {
    "name": "1 COMMINS STREET ILLABO 2590",
    "locID": "LOC000056594452",
    "tech": "NULL",
    "upgrade": "NULL_NA",
    "gnaf_pid": "GANSW721524295",
    "tech_change_status": "Not Planned"
   }
  }
 ]
}