{
 "type": "FeatureCollection",
 "generated": "2026-06-27T15:42:52.333982",
 "suburb": "JASPERS BRUSH",
 "features": [
  {
   "type": "Feature",
   "geometry": {
    "type": "Point",
    "coordinates": [
     150.63905452,
     -34.78415581
    ]
   },
   "properties": {
    "name": "246A STRONGS ROAD JASPERS BRUSH 2535",
    "locID": "LOC000038057475",
    "tech": "WIRELESS",
    "upgrade": "NULL_NA",
    "gnaf_pid": "GANSW705027800",
    "tech_change_status": "Eligible to Order",
    "program_type": "Fixed Wireless and Satellite Upgrade Program",
    "target_eligibility_quarter": "NA"
   }
  },
  {
   "type": "Feature",
   "geometry": {
    "type": "Point",
    "coordinates": [
     150.63658909,
     -34.79214217
    ]
   },
   "properties": {
    "name": "273 STRONGS ROAD JASPERS BRUSH 2535",
    "locID": "LOC000016272231",
    "tech": "WIRELESS",
    "upgrade": "NULL_NA",
    "gnaf_pid": "GANSW705027801",
    "tech_change_status": "Not Planned",
    "program_type": "Fixed Wireless and Satellite Upgrade Program",
    "target_eligibility_quarter": "NA"
   }
  },
  {
   "type": "Feature",
   "geometry": {
    "type": "Point",
    "coordinates": [
     150.6333656,
     -34.79191758
    ]
   },
   "properties": {
    "name": "279 STRONGS ROAD JASPERS BRUSH 2535",
    "locID": "LOC000055239959",
    "tech": "WIRELESS",
    "upgrade": "NULL_NA",
    "gnaf_pid": "GANSW705027802",
    "tech_change_status": "Not Planned",
    "program_type": "Fixed Wireless and Satellite Upgrade Program",
    "target_eligibility_quarter": "NA"
   }
  },
  {
   "type": "Feature",
   "geometry": {
    "type": "Point",
    "coordinates": [
     150.63736147,
     -34.78660425
    ]
   },
   "properties": {
    "name": "280 STRONGS ROAD JASPERS BRUSH 2535",
    "locID": "LOC000094560982",
    "tech": "WIRELESS",
    "upgrade": "NULL_NA",
    "gnaf_pid": "GANSW705027803",
    "tech_change_status": "Not Planned",
    "program_type": "Fixed Wireless and Satellite Upgrade Program",
    "target_eligibility_quarter": "NA"
   }
  },
  {
   "type": "Feature",
   "geometry": {
    "type": "Point",
    "coordinates": [
     150.65592335,
     -34.80111799
    ]
   },
   "properties": {
    "name": "29 STRONGS ROAD JASPERS BRUSH 2535",
    "locID": "LOC000080477837",
    "tech": "WIRELESS",
    "upgrade": "NULL_NA",
    "gnaf_pid": "GANSW705027804",
    "tech_change_status": "Not Planned",
    "program_type": "Fixed Wireless and Satellite Upgrade Program",
    "target_eligibility_quarter": "NA"
   }
  },
  {
   "type": "Feature",
   "geometry": {
    "type": "Point",
    "coordinates": [
     150.63647606,
     -34.78634645
    ]
   },
   "properties": {
    "name": "290A STRONGS ROAD JASPERS BRUSH 2535",
    "locID": "LOC000027324717",
    "tech": "WIRELESS",
    "upgrade": "NULL_NA",
    "gnaf_pid": "GANSW705027805",
    "tech_change_status": "Not Planned",
    "program_type": "Fixed Wireless and Satellite Upgrade Program",
    "target_eligibility_quarter": "NA"
   }
  },
  {
   "type": "Feature",
   "geometry": {
    "type": "Point",
    "coordinates": [
     150.6338627,
     -34.78797599
    ]
   },
   "properties": {
    "name": "308 STRONGS ROAD JASPERS BRUSH 2535",
    "locID": "LOC000037678512",
    "tech": "WIRELESS",
    "upgrade": "NULL_NA",
    "gnaf_pid": "GANSW705027806",
    "tech_change_status": "Not Planned",
    "program_type": "Fixed Wireless and Satellite Upgrade Program",
    "target_eligibility_quarter": "NA"
   }
  },
  {
   "type": "Feature",
   "geometry": {
    "type": "Point",
    "coordinates": [
     150.6505565,
     -34.78267238
    ]
   },
   "properties": {
    "name": "225 CROZIERS ROAD JASPERS BRUSH 2535",
    "locID": "LOC000121221742",
    "tech": "WIRELESS",
    "upgrade": "NULL_NA",
    "gnaf_pid": "GANSW705030012",
    "tech_change_status": "Not Planned",
    "program_type": "Fixed Wireless and Satellite Upgrade Program",
    "target_eligibility_quarter": "NA"
   }
  },
  {
   "type": "Feature",
   "geometry": {
    "type": "Point",
    "coordinates": [
     150.66815408,
     -34.79173328
    ]
   },
   "properties": {
    "name": "23 CROZIERS ROAD JASPERS BRUSH 2535",
    "locID": "LOC000044510550",
    "tech": "WIRELESS",
    "upgrade": "NULL_NA",
    "gnaf_pid": "GANSW705030013",
    "tech_change_status": "Not Planned",
    "program_type": "Fixed Wireless and Satellite Upgrade Program",
    "target_eligibility_quarter": "NA"
   }
  },
  {
   "type": "Feature",
   "geometry": {
    "type": "Point",
    "coordinates": [
     150.63182522,
     -34.78804315
    ]
   },
   "properties": {
    "name": "330 STRONGS ROAD JASPERS BRUSH 2535",
    "locID": "LOC000008311052",
    "tech": "WIRELESS",
    "upgrade": "NULL_NA",
    "gnaf_pid": "GANSW705030419",
    "tech_change_status": "Not Planned",
    "program_type": "Fixed Wireless and Satellite Upgrade Program",
    "target_eligibility_quarter": "NA"
   }
  },
  {
   "type": "Feature",
   "geometry": {
    "type": "Point",
    "coordinates": [
     150.63146473,
     -34.78994644
    ]
   },
   "properties": {
    "name": "335 STRONGS ROAD JASPERS BRUSH 2535",
    "locID": "LOC000087767048",
    "tech": "WIRELESS",
    "upgrade": "NULL_NA",
    "gnaf_pid": "GANSW705030420",
    "tech_change_status": "Not Planned",
    "program_type": "Fixed Wireless and Satellite Upgrade Program",
    "target_eligibility_quarter": "NA"
   }
  },
  {
   "type": "Feature",
   "geometry": {
    "type": "Point",
    "coordinates": [
     150.62691546,
     -34.79094365
    ]
   },
   "properties": {
    "name": "400 STRONGS ROAD JASPERS BRUSH 2535",
    "locID": "LOC000029609415",
    "tech": "WIRELESS",
    "upgrade": "NULL_NA",
    "gnaf_pid": "GANSW705030421",
    "tech_change_status": "Not Planned",
    "program_type": "Fixed Wireless and Satellite Upgrade Program",
    "target_eligibility_quarter": "NA"
   }
  },
  {
   "type": "Feature",
   "geometry": {
    "type": "Point",
    "coordinates": [
     150.62381147,
     -34.79305216
    ]
   },
   "properties": {
    "name": "421 STRONGS ROAD JASPERS BRUSH 2535",
    "locID": "LOC000056052594",
    "tech": "WIRELESS",
    "upgrade": "NULL_NA",
    "gnaf_pid": "GANSW705030422",
    "tech_change_status": "Not Planned",
    "program_type": "Fixed Wireless and Satellite Upgrade Program",
    "target_eligibility_quarter": "NA"
   }
  },
  {
   "type": "Feature",
   "geometry": {
    "type": "Point",
    "coordinates": [
     150.62256253,
     -34.79254156
    ]
   },
   "properties": {
    "name": "423 STRONGS ROAD JASPERS BRUSH 2535",
    "locID": "LOC000051939857",
    "tech": "WIRELESS",
    "upgrade": "NULL_NA",
    "gnaf_pid": "GANSW705030423",
    "tech_change_status": "Not Planned",
    "program_type": "Fixed Wireless and Satellite Upgrade Program",
    "target_eligibility_quarter": "NA"
   }
  },
  {
   "type": "Feature",
   "geometry": {
    "type": "Point",
    "coordinates": [
     150.62199683,
     -34.79095467
    ]
   },
   "properties": {
    "name": "440 STRONGS ROAD JASPERS BRUSH 2535",
    "locID": "LOC000056077044",
    "tech": "WIRELESS",
    "upgrade": "NULL_NA",
    "gnaf_pid": "GANSW705030424",
    "tech_change_status": "Not Planned",
    "program_type": "Fixed Wireless and Satellite Upgrade Program",
    "target_eligibility_quarter": "NA"
   }
  },
  {
   "type": "Feature",
   "geometry": {
    "type": "Point",
    "coordinates": [
     150.62097527,
     -34.79136247
    ]
   },
   "properties": {
    "name": "454 STRONGS ROAD JASPERS BRUSH 2535",
    "locID": "LOC000044009183",
    "tech": "WIRELESS",
    "upgrade": "NULL_NA",
    "gnaf_pid": "GANSW705030425",
    "tech_change_status": "Not Planned",
    "program_type": "Fixed Wireless and Satellite Upgrade Program",
    "target_eligibility_quarter": "NA"
   }
  },
  {
   "type": "Feature",
   "geometry": {
    "type": "Point",
    "coordinates": [
     150.62024359,
     -34.78874505
    ]
   },
   "properties": {
    "name": "464 STRONGS ROAD JASPERS BRUSH 2535",
    "locID": "LOC000072561152",
    "tech": "WIRELESS",
    "upgrade": "NULL_NA",
    "gnaf_pid": "GANSW705030426",
    "tech_change_status": "Not Planned",
    "program_type": "Fixed Wireless and Satellite Upgrade Program",
    "target_eligibility_quarter": "NA"
   }
  },
  {
   "type": "Feature",
   "geometry": {
    "type": "Point",
    "coordinates": [
     150.62009771,
     -34.79302277
    ]
   },
   "properties": {
    "name": "465 STRONGS ROAD JASPERS BRUSH 2535",
    "locID": "LOC000027145010",
    "tech": "WIRELESS",
    "upgrade": "NULL_NA",
    "gnaf_pid": "GANSW705030427",
    "tech_change_status": "Not Planned",
    "program_type": "Fixed Wireless and Satellite Upgrade Program",
    "target_eligibility_quarter": "NA"
   }
  },
  {
   "type": "Feature",
   "geometry": {
    "type": "Point",
    "coordinates": [
     150.61694964,
     -34.79207504
    ]
   },
   "properties": {
    "name": "480 STRONGS ROAD JASPERS BRUSH 2535",
    "locID": "LOC000093793542",
    "tech": "WIRELESS",
    "upgrade": "NULL_NA",
    "gnaf_pid": "GANSW705030428",
    "tech_change_status": "Not Planned",
    "program_type": "Fixed Wireless and Satellite Upgrade Program",
    "target_eligibility_quarter": "NA"
   }
  },
  {
   "type": "Feature",
   "geometry": {
    "type": "Point",
    "coordinates": [
     150.65205534,
     -34.80052333
    ]
   },
   "properties": {
    "name": "49A STRONGS ROAD JASPERS BRUSH 2535",
    "locID": "LOC000023862898",
    "tech": "WIRELESS",
    "upgrade": "NULL_NA",
    "gnaf_pid": "GANSW705030429",
    "tech_change_status": "Not Planned",
    "program_type": "Fixed Wireless and Satellite Upgrade Program",
    "target_eligibility_quarter": "NA"
   }
  },
  {
   "type": "Feature",
   "geometry": {
    "type": "Point",
    "coordinates": [
     150.65348265,
     -34.80052323
    ]
   },
   "properties": {
    "name": "49B STRONGS ROAD JASPERS BRUSH 2535",
    "locID": "LOC000023669242",
    "tech": "WIRELESS",
    "upgrade": "NULL_NA",
    "gnaf_pid": "GANSW705030430",
    "tech_change_status": "Not Planned",
    "program_type": "Fixed Wireless and Satellite Upgrade Program",
    "target_eligibility_quarter": "NA"
   }
  },
  {
   "type": "Feature",
   "geometry": {
    "type": "Point",
    "coordinates": [
     150.65506298,
     -34.79950016
    ]
   },
   "properties": {
    "name": "50 STRONGS ROAD JASPERS BRUSH 2535",
    "locID": "LOC000020636215",
    "tech": "WIRELESS",
    "upgrade": "NULL_NA",
    "gnaf_pid": "GANSW705030431",
    "tech_change_status": "Not Planned",
    "program_type": "Fixed Wireless and Satellite Upgrade Program",
    "target_eligibility_quarter": "NA"
   }
  },
  {
   "type": "Feature",
   "geometry": {
    "type": "Point",
    "coordinates": [
     150.65401283,
     -34.79844407
    ]
   },
   "properties": {
    "name": "60 STRONGS ROAD JASPERS BRUSH 2535",
    "locID": "LOC000004574298",
    "tech": "WIRELESS",
    "upgrade": "NULL_NA",
    "gnaf_pid": "GANSW705030432",
    "tech_change_status": "Not Planned",
    "program_type": "Fixed Wireless and Satellite Upgrade Program",
    "target_eligibility_quarter": "NA"
   }
  },
  {
   "type": "Feature",
   "geometry": {
    "type": "Point",
    "coordinates": [
     150.67074834,
     -34.78637452
    ]
   },
   "properties": {
    "name": "41 ANDERSONS LANE JASPERS BRUSH 2535",
    "locID": "LOC000067480035",
    "tech": "WIRELESS",
    "upgrade": "NULL_NA",
    "gnaf_pid": "GANSW705032595",
    "tech_change_status": "Not Planned",
    "program_type": "Fixed Wireless and Satellite Upgrade Program",
    "target_eligibility_quarter": "NA"
   }
  },
  {
   "type": "Feature",
   "geometry": {
    "type": "Point",
    "coordinates": [
     150.66848842,
     -34.78523104
    ]
   },
   "properties": {
    "name": "51 ANDERSONS LANE JASPERS BRUSH 2535",
    "locID": "LOC000004179019",
    "tech": "WIRELESS",
    "upgrade": "NULL_NA",
    "gnaf_pid": "GANSW705032596",
    "tech_change_status": "Not Planned",
    "program_type": "Fixed Wireless and Satellite Upgrade Program",
    "target_eligibility_quarter": "NA"
   }
  },
  {
   "type": "Feature",
   "geometry": {
    "type": "Point",
    "coordinates": [
     150.66811038,
     -34.77794817
    ]
   },
   "properties": {
    "name": "60C ANDERSONS LANE JASPERS BRUSH 2535",
    "locID": "LOC000051828079",
    "tech": "WIRELESS",
    "upgrade": "NULL_NA",
    "gnaf_pid": "GANSW705032597",
    "tech_change_status": "Not Planned",
    "program_type": "Fixed Wireless and Satellite Upgrade Program",
    "target_eligibility_quarter": "NA"
   }
  },
  {
   "type": "Feature",
   "geometry": {
    "type": "Point",
    "coordinates": [
     150.66872353,
     -34.78440033
    ]
   },
   "properties": {
    "name": "62A ANDERSONS LANE JASPERS BRUSH 2535",
    "locID": "LOC000087298578",
    "tech": "WIRELESS",
    "upgrade": "NULL_NA",
    "gnaf_pid": "GANSW705032598",
    "tech_change_status": "Not Planned",
    "program_type": "Fixed Wireless and Satellite Upgrade Program",
    "target_eligibility_quarter": "NA"
   }
  },
  {
   "type": "Feature",
   "geometry": {
    "type": "Point",
    "coordinates": [
     150.61970717,
     -34.78414026
    ]
   },
   "properties": {
    "name": "157 CEDARVALE LANE JASPERS BRUSH 2535",
    "locID": "LOC000016378281",
    "tech": "WIRELESS",
    "upgrade": "NULL_NA",
    "gnaf_pid": "GANSW705032600",
    "tech_change_status": "Not Planned",
    "program_type": "Fixed Wireless and Satellite Upgrade Program",
    "target_eligibility_quarter": "NA"
   }
  },
  {
   "type": "Feature",
   "geometry": {
    "type": "Point",
    "coordinates": [
     150.62068914,
     -34.78267842
    ]
   },
   "properties": {
    "name": "175 CEDARVALE LANE JASPERS BRUSH 2535",
    "locID": "LOC000001424157",
    "tech": "WIRELESS",
    "upgrade": "NULL_NA",
    "gnaf_pid": "GANSW705032601",
    "tech_change_status": "Not Planned",
    "program_type": "Fixed Wireless and Satellite Upgrade Program",
    "target_eligibility_quarter": "NA"
   }
  },
  {
   "type": "Feature",
   "geometry": {
    "type": "Point",
    "coordinates": [
     150.62191694,
     -34.78316859
    ]
   },
   "properties": {
    "name": "182 CEDARVALE LANE JASPERS BRUSH 2535",
    "locID": "LOC000045818954",
    "tech": "WIRELESS",
    "upgrade": "NULL_NA",
    "gnaf_pid": "GANSW705032602",
    "tech_change_status": "Not Planned",
    "program_type": "Fixed Wireless and Satellite Upgrade Program",
    "target_eligibility_quarter": "NA"
   }
  },
  {
   "type": "Feature",
   "geometry": {
    "type": "Point",
    "coordinates": [
     150.62906071,
     -34.78581196
    ]
   },
   "properties": {
    "name": "43 CEDARVALE LANE JASPERS BRUSH 2535",
    "locID": "LOC000003085747",
    "tech": "WIRELESS",
    "upgrade": "NULL_NA",
    "gnaf_pid": "GANSW705032603",
    "tech_change_status": "Previous Tech Disconnected",
    "program_type": "Fixed Wireless and Satellite Upgrade Program",
    "target_eligibility_quarter": "NA"
   }
  },
  {
   "type": "Feature",
   "geometry": {
    "type": "Point",
    "coordinates": [
     150.6704077,
     -34.79142048
    ]
   },
   "properties": {
    "name": "10 CROZIERS ROAD JASPERS BRUSH 2535",
    "locID": "LOC000098476299",
    "tech": "WIRELESS",
    "upgrade": "NULL_NA",
    "gnaf_pid": "GANSW705032604",
    "tech_change_status": "Not Planned",
    "program_type": "Fixed Wireless and Satellite Upgrade Program",
    "target_eligibility_quarter": "NA"
   }
  },
  {
   "type": "Feature",
   "geometry": {
    "type": "Point",
    "coordinates": [
     150.66099927,
     -34.7880121
    ]
   },
   "properties": {
    "name": "102 CROZIERS ROAD JASPERS BRUSH 2535",
    "locID": "LOC000066818019",
    "tech": "WIRELESS",
    "upgrade": "NULL_NA",
    "gnaf_pid": "GANSW705032605",
    "tech_change_status": "Not Planned",
    "program_type": "Fixed Wireless and Satellite Upgrade Program",
    "target_eligibility_quarter": "NA"
   }
  },
  {
   "type": "Feature",
   "geometry": {
    "type": "Point",
    "coordinates": [
     150.6605954,
     -34.78786143
    ]
   },
   "properties": {
    "name": "104 CROZIERS ROAD JASPERS BRUSH 2535",
    "locID": "LOC000030396827",
    "tech": "WIRELESS",
    "upgrade": "NULL_NA",
    "gnaf_pid": "GANSW705032606",
    "tech_change_status": "Not Planned",
    "program_type": "Fixed Wireless and Satellite Upgrade Program",
    "target_eligibility_quarter": "NA"
   }
  },
  {
   "type": "Feature",
   "geometry": {
    "type": "Point",
    "coordinates": [
     150.66112572,
     -34.78902387
    ]
   },
   "properties": {
    "name": "105A CROZIERS ROAD JASPERS BRUSH 2535",
    "locID": "LOC000055611932",
    "tech": "WIRELESS",
    "upgrade": "NULL_NA",
    "gnaf_pid": "GANSW705032607",
    "tech_change_status": "Not Planned",
    "program_type": "Fixed Wireless and Satellite Upgrade Program",
    "target_eligibility_quarter": "NA"
   }
  },
  {
   "type": "Feature",
   "geometry": {
    "type": "Point",
    "coordinates": [
     150.66028805,
     -34.78864846
    ]
   },
   "properties": {
    "name": "105B CROZIERS ROAD JASPERS BRUSH 2535",
    "locID": "LOC100077610330",
    "tech": "WIRELESS",
    "upgrade": "NULL_NA",
    "gnaf_pid": "GANSW705032608",
    "tech_change_status": "Not Planned",
    "program_type": "Fixed Wireless and Satellite Upgrade Program",
    "target_eligibility_quarter": "NA"
   }
  },
  {
   "type": "Feature",
   "geometry": {
    "type": "Point",
    "coordinates": [
     150.65900606,
     -34.78733433
    ]
   },
   "properties": {
    "name": "126 CROZIERS ROAD JASPERS BRUSH 2535",
    "locID": "LOC000067442657",
    "tech": "WIRELESS",
    "upgrade": "NULL_NA",
    "gnaf_pid": "GANSW705032609",
    "tech_change_status": "Not Planned",
    "program_type": "Fixed Wireless and Satellite Upgrade Program",
    "target_eligibility_quarter": "NA"
   }
  },
  {
   "type": "Feature",
   "geometry": {
    "type": "Point",
    "coordinates": [
     150.65784551,
     -34.78651331
    ]
   },
   "properties": {
    "name": "132 CROZIERS ROAD JASPERS BRUSH 2535",
    "locID": "LOC000063131923",
    "tech": "WIRELESS",
    "upgrade": "NULL_NA",
    "gnaf_pid": "GANSW705032610",
    "tech_change_status": "Previous Tech Disconnected",
    "program_type": "Fixed Wireless and Satellite Upgrade Program",
    "target_eligibility_quarter": "NA"
   }
  },
  {
   "type": "Feature",
   "geometry": {
    "type": "Point",
    "coordinates": [
     150.65727454,
     -34.78764014
    ]
   },
   "properties": {
    "name": "141 CROZIERS ROAD JASPERS BRUSH 2535",
    "locID": "LOC000077514487",
    "tech": "WIRELESS",
    "upgrade": "NULL_NA",
    "gnaf_pid": "GANSW705032611",
    "tech_change_status": "Not Planned",
    "program_type": "Fixed Wireless and Satellite Upgrade Program",
    "target_eligibility_quarter": "NA"
   }
  },
  {
   "type": "Feature",
   "geometry": {
    "type": "Point",
    "coordinates": [
     150.65613044,
     -34.78686282
    ]
   },
   "properties": {
    "name": "152 CROZIERS ROAD JASPERS BRUSH 2535",
    "locID": "LOC000106293697",
    "tech": "WIRELESS",
    "upgrade": "NULL_NA",
    "gnaf_pid": "GANSW705032612",
    "tech_change_status": "Not Planned",
    "program_type": "Fixed Wireless and Satellite Upgrade Program",
    "target_eligibility_quarter": "NA"
   }
  },
  {
   "type": "Feature",
   "geometry": {
    "type": "Point",
    "coordinates": [
     150.65418801,
     -34.78455254
    ]
   },
   "properties": {
    "name": "182 CROZIERS ROAD JASPERS BRUSH 2535",
    "locID": "LOC000006365879",
    "tech": "WIRELESS",
    "upgrade": "NULL_NA",
    "gnaf_pid": "GANSW705032613",
    "tech_change_status": "Not Planned",
    "program_type": "Fixed Wireless and Satellite Upgrade Program",
    "target_eligibility_quarter": "NA"
   }
  },
  {
   "type": "Feature",
   "geometry": {
    "type": "Point",
    "coordinates": [
     150.65365778,
     -34.78421396
    ]
   },
   "properties": {
    "name": "184 CROZIERS ROAD JASPERS BRUSH 2535",
    "locID": "LOC000070723207",
    "tech": "WIRELESS",
    "upgrade": "NULL_NA",
    "gnaf_pid": "GANSW705032614",
    "tech_change_status": "Not Planned",
    "program_type": "Fixed Wireless and Satellite Upgrade Program",
    "target_eligibility_quarter": "NA"
   }
  },
  {
   "type": "Feature",
   "geometry": {
    "type": "Point",
    "coordinates": [
     150.6692636,
     -34.79241758
    ]
   },
   "properties": {
    "name": "21 CROZIERS ROAD JASPERS BRUSH 2535",
    "locID": "LOC000031315189",
    "tech": "WIRELESS",
    "upgrade": "NULL_NA",
    "gnaf_pid": "GANSW705032615",
    "tech_change_status": "Not Planned",
    "program_type": "Fixed Wireless and Satellite Upgrade Program",
    "target_eligibility_quarter": "NA"
   }
  },
  {
   "type": "Feature",
   "geometry": {
    "type": "Point",
    "coordinates": [
     150.65338662,
     -34.78279237
    ]
   },
   "properties": {
    "name": "210 CROZIERS ROAD JASPERS BRUSH 2535",
    "locID": "LOC000005387602",
    "tech": "WIRELESS",
    "upgrade": "NULL_NA",
    "gnaf_pid": "GANSW705032616",
    "tech_change_status": "Not Planned",
    "program_type": "Fixed Wireless and Satellite Upgrade Program",
    "target_eligibility_quarter": "NA"
   }
  },
  {
   "type": "Feature",
   "geometry": {
    "type": "Point",
    "coordinates": [
     150.65213456,
     -34.78168013
    ]
   },
   "properties": {
    "name": "218 CROZIERS ROAD JASPERS BRUSH 2535",
    "locID": "LOC000008287571",
    "tech": "WIRELESS",
    "upgrade": "NULL_NA",
    "gnaf_pid": "GANSW705032617",
    "tech_change_status": "Not Planned",
    "program_type": "Fixed Wireless and Satellite Upgrade Program",
    "target_eligibility_quarter": "NA"
   }
  },
  {
   "type": "Feature",
   "geometry": {
    "type": "Point",
    "coordinates": [
     150.6495382,
     -34.7815277
    ]
   },
   "properties": {
    "name": "234 CROZIERS ROAD JASPERS BRUSH 2535",
    "locID": "LOC000078134678",
    "tech": "WIRELESS",
    "upgrade": "NULL_NA",
    "gnaf_pid": "GANSW705032618",
    "tech_change_status": "Not Planned",
    "program_type": "Fixed Wireless and Satellite Upgrade Program",
    "target_eligibility_quarter": "NA"
   }
  },
  {
   "type": "Feature",
   "geometry": {
    "type": "Point",
    "coordinates": [
     150.6469216,
     -34.78133763
    ]
   },
   "properties": {
    "name": "245 CROZIERS ROAD JASPERS BRUSH 2535",
    "locID": "LOC000084432125",
    "tech": "WIRELESS",
    "upgrade": "NULL_NA",
    "gnaf_pid": "GANSW705032619",
    "tech_change_status": "Not Planned",
    "program_type": "Fixed Wireless and Satellite Upgrade Program",
    "target_eligibility_quarter": "NA"
   }
  },
  {
   "type": "Feature",
   "geometry": {
    "type": "Point",
    "coordinates": [
     150.66815664,
     -34.79061882
    ]
   },
   "properties": {
    "name": "30 CROZIERS ROAD JASPERS BRUSH 2535",
    "locID": "LOC000019879591",
    "tech": "WIRELESS",
    "upgrade": "NULL_NA",
    "gnaf_pid": "GANSW705032620",
    "tech_change_status": "Not Planned",
    "program_type": "Fixed Wireless and Satellite Upgrade Program",
    "target_eligibility_quarter": "NA"
   }
  },
  {
   "type": "Feature",
   "geometry": {
    "type": "Point",
    "coordinates": [
     150.66744194,
     -34.79140548
    ]
   },
   "properties": {
    "name": "35 CROZIERS ROAD JASPERS BRUSH 2535",
    "locID": "LOC000011800868",
    "tech": "WIRELESS",
    "upgrade": "NULL_NA",
    "gnaf_pid": "GANSW705032621",
    "tech_change_status": "Not Planned",
    "program_type": "Fixed Wireless and Satellite Upgrade Program",
    "target_eligibility_quarter": "NA"
   }
  },
  {
   "type": "Feature",
   "geometry": {
    "type": "Point",
    "coordinates": [
     150.66743273,
     -34.79037094
    ]
   },
   "properties": {
    "name": "36 CROZIERS ROAD JASPERS BRUSH 2535",
    "locID": "LOC000098104645",
    "tech": "WIRELESS",
    "upgrade": "NULL_NA",
    "gnaf_pid": "GANSW705032622",
    "tech_change_status": "Not Planned",
    "program_type": "Fixed Wireless and Satellite Upgrade Program",
    "target_eligibility_quarter": "NA"
   }
  },
  {
   "type": "Feature",
   "geometry": {
    "type": "Point",
    "coordinates": [
     150.66772532,
     -34.78999269
    ]
   },
   "properties": {
    "name": "42 CROZIERS ROAD JASPERS BRUSH 2535",
    "locID": "LOC000022868303",
    "tech": "WIRELESS",
    "upgrade": "NULL_NA",
    "gnaf_pid": "GANSW705032623",
    "tech_change_status": "Not Planned",
    "program_type": "Fixed Wireless and Satellite Upgrade Program",
    "target_eligibility_quarter": "NA"
   }
  },
  {
   "type": "Feature",
   "geometry": {
    "type": "Point",
    "coordinates": [
     150.66568121,
     -34.79058556
    ]
   },
   "properties": {
    "name": "55 CROZIERS ROAD JASPERS BRUSH 2535",
    "locID": "LOC000017135530",
    "tech": "WIRELESS",
    "upgrade": "NULL_NA",
    "gnaf_pid": "GANSW705032624",
    "tech_change_status": "Not Planned",
    "program_type": "Fixed Wireless and Satellite Upgrade Program",
    "target_eligibility_quarter": "NA"
   }
  },
  {
   "type": "Feature",
   "geometry": {
    "type": "Point",
    "coordinates": [
     150.66553787,
     -34.78972626
    ]
   },
   "properties": {
    "name": "60 CROZIERS ROAD JASPERS BRUSH 2535",
    "locID": "LOC000051880525",
    "tech": "WIRELESS",
    "upgrade": "NULL_NA",
    "gnaf_pid": "GANSW705032625",
    "tech_change_status": "Not Planned",
    "program_type": "Fixed Wireless and Satellite Upgrade Program",
    "target_eligibility_quarter": "NA"
   }
  },
  {
   "type": "Feature",
   "geometry": {
    "type": "Point",
    "coordinates": [
     150.66483642,
     -34.79031627
    ]
   },
   "properties": {
    "name": "61 CROZIERS ROAD JASPERS BRUSH 2535",
    "locID": "LOC000024610153",
    "tech": "WIRELESS",
    "upgrade": "NULL_NA",
    "gnaf_pid": "GANSW705032626",
    "tech_change_status": "Not Planned",
    "program_type": "Fixed Wireless and Satellite Upgrade Program",
    "target_eligibility_quarter": "NA"
   }
  },
  {
   "type": "Feature",
   "geometry": {
    "type": "Point",
    "coordinates": [
     150.66457577,
     -34.78938605
    ]
   },
   "properties": {
    "name": "66 CROZIERS ROAD JASPERS BRUSH 2535",
    "locID": "LOC000009619567",
    "tech": "WIRELESS",
    "upgrade": "NULL_NA",
    "gnaf_pid": "GANSW705032627",
    "tech_change_status": "Not Planned",
    "program_type": "Fixed Wireless and Satellite Upgrade Program",
    "target_eligibility_quarter": "NA"
   }
  },
  {
   "type": "Feature",
   "geometry": {
    "type": "Point",
    "coordinates": [
     150.6635592,
     -34.78977921
    ]
   },
   "properties": {
    "name": "75 CROZIERS ROAD JASPERS BRUSH 2535",
    "locID": "LOC000039877290",
    "tech": "WIRELESS",
    "upgrade": "NULL_NA",
    "gnaf_pid": "GANSW705032628",
    "tech_change_status": "Not Planned",
    "program_type": "Fixed Wireless and Satellite Upgrade Program",
    "target_eligibility_quarter": "NA"
   }
  },
  {
   "type": "Feature",
   "geometry": {
    "type": "Point",
    "coordinates": [
     150.66297278,
     -34.78881492
    ]
   },
   "properties": {
    "name": "86 CROZIERS ROAD JASPERS BRUSH 2535",
    "locID": "LOC000019868175",
    "tech": "WIRELESS",
    "upgrade": "NULL_NA",
    "gnaf_pid": "GANSW705032629",
    "tech_change_status": "Not Planned",
    "program_type": "Fixed Wireless and Satellite Upgrade Program",
    "target_eligibility_quarter": "NA"
   }
  },
  {
   "type": "Feature",
   "geometry": {
    "type": "Point",
    "coordinates": [
     150.66201093,
     -34.78808041
    ]
   },
   "properties": {
    "name": "96 CROZIERS ROAD JASPERS BRUSH 2535",
    "locID": "LOC000052051236",
    "tech": "WIRELESS",
    "upgrade": "NULL_NA",
    "gnaf_pid": "GANSW705032630",
    "tech_change_status": "Not Planned",
    "program_type": "Fixed Wireless and Satellite Upgrade Program",
    "target_eligibility_quarter": "NA"
   }
  },
  {
   "type": "Feature",
   "geometry": {
    "type": "Point",
    "coordinates": [
     150.65811096,
     -34.80401086
    ]
   },
   "properties": {
    "name": "10B JASPERS BRUSH ROAD JASPERS BRUSH 2535",
    "locID": "LOC000059271420",
    "tech": "WIRELESS",
    "upgrade": "NULL_NA",
    "gnaf_pid": "GANSW705032634",
    "tech_change_status": "Not Planned",
    "program_type": "Fixed Wireless and Satellite Upgrade Program",
    "target_eligibility_quarter": "NA"
   }
  },
  {
   "type": "Feature",
   "geometry": {
    "type": "Point",
    "coordinates": [
     150.65583513,
     -34.80898235
    ]
   },
   "properties": {
    "name": "10C JASPERS BRUSH ROAD JASPERS BRUSH 2535",
    "locID": "LOC000062021100",
    "tech": "WIRELESS",
    "upgrade": "NULL_NA",
    "gnaf_pid": "GANSW705032635"
   }
  },
  {
   "type": "Feature",
   "geometry": {
    "type": "Point",
    "coordinates": [
     150.6692067,
     -34.80784551
    ]
   },
   "properties": {
    "name": "105 JASPERS BRUSH ROAD JASPERS BRUSH 2535",
    "locID": "LOC000023272744",
    "tech": "WIRELESS",
    "upgrade": "NULL_NA",
    "gnaf_pid": "GANSW705032636",
    "tech_change_status": "Not Planned",
    "program_type": "Fixed Wireless and Satellite Upgrade Program",
    "target_eligibility_quarter": "NA"
   }
  },
  {
   "type": "Feature",
   "geometry": {
    "type": "Point",
    "coordinates": [
     150.66233039,
     -34.802962
    ]
   },
   "properties": {
    "name": "25 JASPERS BRUSH ROAD JASPERS BRUSH 2535",
    "locID": "LOC000035696594",
    "tech": "WIRELESS",
    "upgrade": "NULL_NA",
    "gnaf_pid": "GANSW705033710",
    "tech_change_status": "Not Planned",
    "program_type": "Fixed Wireless and Satellite Upgrade Program",
    "target_eligibility_quarter": "NA"
   }
  },
  {
   "type": "Feature",
   "geometry": {
    "type": "Point",
    "coordinates": [
     150.66237084,
     -34.8042374
    ]
   },
   "properties": {
    "name": "30 JASPERS BRUSH ROAD JASPERS BRUSH 2535",
    "locID": "LOC000080027517",
    "tech": "WIRELESS",
    "upgrade": "NULL_NA",
    "gnaf_pid": "GANSW705033711",
    "tech_change_status": "Not Planned",
    "program_type": "Fixed Wireless and Satellite Upgrade Program",
    "target_eligibility_quarter": "NA"
   }
  },
  {
   "type": "Feature",
   "geometry": {
    "type": "Point",
    "coordinates": [
     150.66364056,
     -34.80332431
    ]
   },
   "properties": {
    "name": "35 JASPERS BRUSH ROAD JASPERS BRUSH 2535",
    "locID": "LOC000069060143",
    "tech": "WIRELESS",
    "upgrade": "NULL_NA",
    "gnaf_pid": "GANSW705033712",
    "tech_change_status": "Not Planned",
    "program_type": "Fixed Wireless and Satellite Upgrade Program",
    "target_eligibility_quarter": "NA"
   }
  },
  {
   "type": "Feature",
   "geometry": {
    "type": "Point",
    "coordinates": [
     150.66362701,
     -34.80493507
    ]
   },
   "properties": {
    "name": "40 JASPERS BRUSH ROAD JASPERS BRUSH 2535",
    "locID": "LOC000011338122",
    "tech": "WIRELESS",
    "upgrade": "NULL_NA",
    "gnaf_pid": "GANSW705033713",
    "tech_change_status": "Not Planned",
    "program_type": "Fixed Wireless and Satellite Upgrade Program",
    "target_eligibility_quarter": "NA"
   }
  },
  {
   "type": "Feature",
   "geometry": {
    "type": "Point",
    "coordinates": [
     150.66402297,
     -34.80420105
    ]
   },
   "properties": {
    "name": "43 JASPERS BRUSH ROAD JASPERS BRUSH 2535",
    "locID": "LOC000074679039",
    "tech": "WIRELESS",
    "upgrade": "NULL_NA",
    "gnaf_pid": "GANSW705033714",
    "tech_change_status": "Not Planned",
    "program_type": "Fixed Wireless and Satellite Upgrade Program",
    "target_eligibility_quarter": "NA"
   }
  },
  {
   "type": "Feature",
   "geometry": {
    "type": "Point",
    "coordinates": [
     150.66460868,
     -34.80476946
    ]
   },
   "properties": {
    "name": "51 JASPERS BRUSH ROAD JASPERS BRUSH 2535",
    "locID": "LOC000028210725",
    "tech": "SATELLITE",
    "upgrade": "WIRELESS",
    "gnaf_pid": "GANSW705033716",
    "tech_change_status": "Eligible to Order",
    "program_type": "Fixed Wireless and Satellite Upgrade Program",
    "target_eligibility_quarter": "NA"
   }
  },
  {
   "type": "Feature",
   "geometry": {
    "type": "Point",
    "coordinates": [
     150.67009096,
     -34.80567842
    ]
   },
   "properties": {
    "name": "75 JASPERS BRUSH ROAD JASPERS BRUSH 2535",
    "locID": "LOC000052303871",
    "tech": "WIRELESS",
    "upgrade": "NULL_NA",
    "gnaf_pid": "GANSW705033717",
    "tech_change_status": "Not Planned",
    "program_type": "Fixed Wireless and Satellite Upgrade Program",
    "target_eligibility_quarter": "NA"
   }
  },
  {
   "type": "Feature",
   "geometry": {
    "type": "Point",
    "coordinates": [
     150.6673708,
     -34.80675633
    ]
   },
   "properties": {
    "name": "87 JASPERS BRUSH ROAD JASPERS BRUSH 2535",
    "locID": "LOC000013288677",
    "tech": "WIRELESS",
    "upgrade": "NULL_NA",
    "gnaf_pid": "GANSW705033718",
    "tech_change_status": "Not Planned",
    "program_type": "Fixed Wireless and Satellite Upgrade Program",
    "target_eligibility_quarter": "NA"
   }
  },
  {
   "type": "Feature",
   "geometry": {
    "type": "Point",
    "coordinates": [
     150.66858714,
     -34.80670158
    ]
   },
   "properties": {
    "name": "95 JASPERS BRUSH ROAD JASPERS BRUSH 2535",
    "locID": "LOC000096098356",
    "tech": "WIRELESS",
    "upgrade": "NULL_NA",
    "gnaf_pid": "GANSW705033719",
    "tech_change_status": "Not Planned",
    "program_type": "Fixed Wireless and Satellite Upgrade Program",
    "target_eligibility_quarter": "NA"
   }
  },
  {
   "type": "Feature",
   "geometry": {
    "type": "Point",
    "coordinates": [
     150.66898689,
     -34.80715844
    ]
   },
   "properties": {
    "name": "97 JASPERS BRUSH ROAD JASPERS BRUSH 2535",
    "locID": "LOC000007380574",
    "tech": "WIRELESS",
    "upgrade": "NULL_NA",
    "gnaf_pid": "GANSW705033720",
    "tech_change_status": "Not Planned",
    "program_type": "Fixed Wireless and Satellite Upgrade Program",
    "target_eligibility_quarter": "NA"
   }
  },
  {
   "type": "Feature",
   "geometry": {
    "type": "Point",
    "coordinates": [
     150.66750457,
     -34.80791132
    ]
   },
   "properties": {
    "name": "98 JASPERS BRUSH ROAD JASPERS BRUSH 2535",
    "locID": "LOC000016342391",
    "tech": "WIRELESS",
    "upgrade": "NULL_NA",
    "gnaf_pid": "GANSW705033721",
    "tech_change_status": "Not Planned",
    "program_type": "Fixed Wireless and Satellite Upgrade Program",
    "target_eligibility_quarter": "NA"
   }
  },
  {
   "type": "Feature",
   "geometry": {
    "type": "Point",
    "coordinates": [
     150.67457822,
     -34.78947221
    ]
   },
   "properties": {
    "name": "10 MULLERS LANE JASPERS BRUSH 2535",
    "locID": "LOC000052022523",
    "tech": "WIRELESS",
    "upgrade": "NULL_NA",
    "gnaf_pid": "GANSW705033724",
    "tech_change_status": "Not Planned",
    "program_type": "Fixed Wireless and Satellite Upgrade Program",
    "target_eligibility_quarter": "NA"
   }
  },
  {
   "type": "Feature",
   "geometry": {
    "type": "Point",
    "coordinates": [
     150.67620226,
     -34.79032761
    ]
   },
   "properties": {
    "name": "40 MULLERS LANE JASPERS BRUSH 2535",
    "locID": "LOC000063950233",
    "tech": "WIRELESS",
    "upgrade": "NULL_NA",
    "gnaf_pid": "GANSW705033725",
    "tech_change_status": "Not Planned",
    "program_type": "Fixed Wireless and Satellite Upgrade Program",
    "target_eligibility_quarter": "NA"
   }
  },
  {
   "type": "Feature",
   "geometry": {
    "type": "Point",
    "coordinates": [
     150.67698891,
     -34.79187545
    ]
   },
   "properties": {
    "name": "42A MULLERS LANE JASPERS BRUSH 2535",
    "locID": "LOC000034169598",
    "tech": "WIRELESS",
    "upgrade": "NULL_NA",
    "gnaf_pid": "GANSW705033726",
    "tech_change_status": "Not Planned",
    "program_type": "Fixed Wireless and Satellite Upgrade Program",
    "target_eligibility_quarter": "NA"
   }
  },
  {
   "type": "Feature",
   "geometry": {
    "type": "Point",
    "coordinates": [
     150.67388635,
     -34.79155605
    ]
   },
   "properties": {
    "name": "42B MULLERS LANE JASPERS BRUSH 2535",
    "locID": "LOC000033968123",
    "tech": "WIRELESS",
    "upgrade": "NULL_NA",
    "gnaf_pid": "GANSW705033727",
    "tech_change_status": "Not Planned",
    "program_type": "Fixed Wireless and Satellite Upgrade Program",
    "target_eligibility_quarter": "NA"
   }
  },
  {
   "type": "Feature",
   "geometry": {
    "type": "Point",
    "coordinates": [
     150.6715271,
     -34.79445022
    ]
   },
   "properties": {
    "name": "B249 PRINCES HIGHWAY JASPERS BRUSH 2535",
    "locID": "LOC000083131274",
    "tech": "WIRELESS",
    "upgrade": "NULL_NA",
    "gnaf_pid": "GANSW705034385",
    "tech_change_status": "Not Planned",
    "program_type": "Fixed Wireless and Satellite Upgrade Program",
    "target_eligibility_quarter": "NA"
   }
  },
  {
   "type": "Feature",
   "geometry": {
    "type": "Point",
    "coordinates": [
     150.65383292,
     -34.80488743
    ]
   },
   "properties": {
    "name": "B455 PRINCES HIGHWAY JASPERS BRUSH 2535",
    "locID": "LOC000021313723",
    "tech": "WIRELESS",
    "upgrade": "NULL_NA",
    "gnaf_pid": "GANSW705034386",
    "tech_change_status": "Not Planned",
    "program_type": "Fixed Wireless and Satellite Upgrade Program",
    "target_eligibility_quarter": "NA"
   }
  },
  {
   "type": "Feature",
   "geometry": {
    "type": "Point",
    "coordinates": [
     150.64001026,
     -34.81378445
    ]
   },
   "properties": {
    "name": "B585C PRINCES HIGHWAY JASPERS BRUSH 2535",
    "locID": "LOC000058950588",
    "tech": "WIRELESS",
    "upgrade": "NULL_NA",
    "gnaf_pid": "GANSW705034388",
    "tech_change_status": "Not Planned",
    "program_type": "Fixed Wireless and Satellite Upgrade Program",
    "target_eligibility_quarter": "NA"
   }
  },
  {
   "type": "Feature",
   "geometry": {
    "type": "Point",
    "coordinates": [
     150.64946033,
     -34.80009863
    ]
   },
   "properties": {
    "name": "103B STRONGS ROAD JASPERS BRUSH 2535",
    "locID": "LOC000070718847",
    "tech": "WIRELESS",
    "upgrade": "NULL_NA",
    "gnaf_pid": "GANSW705034389",
    "tech_change_status": "Not Planned",
    "program_type": "Fixed Wireless and Satellite Upgrade Program",
    "target_eligibility_quarter": "NA"
   }
  },
  {
   "type": "Feature",
   "geometry": {
    "type": "Point",
    "coordinates": [
     150.64454079,
     -34.79719902
    ]
   },
   "properties": {
    "name": "151 STRONGS ROAD JASPERS BRUSH 2535",
    "locID": "LOC000090696564",
    "tech": "WIRELESS",
    "upgrade": "NULL_NA",
    "gnaf_pid": "GANSW705034390",
    "tech_change_status": "Not Planned",
    "program_type": "Fixed Wireless and Satellite Upgrade Program",
    "target_eligibility_quarter": "NA"
   }
  },
  {
   "type": "Feature",
   "geometry": {
    "type": "Point",
    "coordinates": [
     150.64413074,
     -34.79599068
    ]
   },
   "properties": {
    "name": "155 STRONGS ROAD JASPERS BRUSH 2535",
    "locID": "LOC000096123993",
    "tech": "WIRELESS",
    "upgrade": "NULL_NA",
    "gnaf_pid": "GANSW705034391",
    "tech_change_status": "Not Planned",
    "program_type": "Fixed Wireless and Satellite Upgrade Program",
    "target_eligibility_quarter": "NA"
   }
  },
  {
   "type": "Feature",
   "geometry": {
    "type": "Point",
    "coordinates": [
     150.64127872,
     -34.79814671
    ]
   },
   "properties": {
    "name": "171A STRONGS ROAD JASPERS BRUSH 2535",
    "locID": "LOC000010468465",
    "tech": "WIRELESS",
    "upgrade": "NULL_NA",
    "gnaf_pid": "GANSW705035879",
    "tech_change_status": "Not Planned",
    "program_type": "Fixed Wireless and Satellite Upgrade Program",
    "target_eligibility_quarter": "NA"
   }
  },
  {
   "type": "Feature",
   "geometry": {
    "type": "Point",
    "coordinates": [
     150.6358118,
     -34.79790574
    ]
   },
   "properties": {
    "name": "171B STRONGS ROAD JASPERS BRUSH 2535",
    "locID": "LOC000010594795",
    "tech": "WIRELESS",
    "upgrade": "NULL_NA",
    "gnaf_pid": "GANSW705035880",
    "tech_change_status": "Not Planned",
    "program_type": "Fixed Wireless and Satellite Upgrade Program",
    "target_eligibility_quarter": "NA"
   }
  },
  {
   "type": "Feature",
   "geometry": {
    "type": "Point",
    "coordinates": [
     150.63865446,
     -34.80106386
    ]
   },
   "properties": {
    "name": "171C STRONGS ROAD JASPERS BRUSH 2535",
    "locID": "LOC000010515073",
    "tech": "WIRELESS",
    "upgrade": "NULL_NA",
    "gnaf_pid": "GANSW705035881",
    "tech_change_status": "Not Planned",
    "program_type": "Fixed Wireless and Satellite Upgrade Program",
    "target_eligibility_quarter": "NA"
   }
  },
  {
   "type": "Feature",
   "geometry": {
    "type": "Point",
    "coordinates": [
     150.63619221,
     -34.80201138
    ]
   },
   "properties": {
    "name": "171D STRONGS ROAD JASPERS BRUSH 2535",
    "locID": "LOC000010598352",
    "tech": "WIRELESS",
    "upgrade": "NULL_NA",
    "gnaf_pid": "GANSW705035882",
    "tech_change_status": "Not Planned",
    "program_type": "Fixed Wireless and Satellite Upgrade Program",
    "target_eligibility_quarter": "NA"
   }
  },
  {
   "type": "Feature",
   "geometry": {
    "type": "Point",
    "coordinates": [
     150.63639296,
     -34.80075885
    ]
   },
   "properties": {
    "name": "171E STRONGS ROAD JASPERS BRUSH 2535",
    "locID": "LOC000010476958",
    "tech": "WIRELESS",
    "upgrade": "NULL_NA",
    "gnaf_pid": "GANSW705035883",
    "tech_change_status": "Not Planned",
    "program_type": "Fixed Wireless and Satellite Upgrade Program",
    "target_eligibility_quarter": "NA"
   }
  },
  {
   "type": "Feature",
   "geometry": {
    "type": "Point",
    "coordinates": [
     150.63414441,
     -34.80138484
    ]
   },
   "properties": {
    "name": "171F STRONGS ROAD JASPERS BRUSH 2535",
    "locID": "LOC000010981695",
    "tech": "WIRELESS",
    "upgrade": "NULL_NA",
    "gnaf_pid": "GANSW705035884",
    "tech_change_status": "Not Planned",
    "program_type": "Fixed Wireless and Satellite Upgrade Program",
    "target_eligibility_quarter": "NA"
   }
  },
  {
   "type": "Feature",
   "geometry": {
    "type": "Point",
    "coordinates": [
     150.6412582,
     -34.79348535
    ]
   },
   "properties": {
    "name": "185 STRONGS ROAD JASPERS BRUSH 2535",
    "locID": "LOC000016400839",
    "tech": "WIRELESS",
    "upgrade": "NULL_NA",
    "gnaf_pid": "GANSW705035885",
    "tech_change_status": "Not Planned",
    "program_type": "Fixed Wireless and Satellite Upgrade Program",
    "target_eligibility_quarter": "NA"
   }
  },
  {
   "type": "Feature",
   "geometry": {
    "type": "Point",
    "coordinates": [
     150.65815756,
     -34.80183294
    ]
   },
   "properties": {
    "name": "20A STRONGS ROAD JASPERS BRUSH 2535",
    "locID": "LOC000033154812",
    "tech": "WIRELESS",
    "upgrade": "NULL_NA",
    "gnaf_pid": "GANSW705035886",
    "tech_change_status": "Not Planned",
    "program_type": "Fixed Wireless and Satellite Upgrade Program",
    "target_eligibility_quarter": "NA"
   }
  },
  {
   "type": "Feature",
   "geometry": {
    "type": "Point",
    "coordinates": [
     150.65893786,
     -34.80219165
    ]
   },
   "properties": {
    "name": "20B STRONGS ROAD JASPERS BRUSH 2535",
    "locID": "LOC000033196930",
    "tech": "WIRELESS",
    "upgrade": "NULL_NA",
    "gnaf_pid": "GANSW705035887",
    "tech_change_status": "Not Planned",
    "program_type": "Fixed Wireless and Satellite Upgrade Program",
    "target_eligibility_quarter": "NA"
   }
  },
  {
   "type": "Feature",
   "geometry": {
    "type": "Point",
    "coordinates": [
     150.64651917,
     -34.7907374
    ]
   },
   "properties": {
    "name": "210 STRONGS ROAD JASPERS BRUSH 2535",
    "locID": "LOC000030374730",
    "tech": "WIRELESS",
    "upgrade": "NULL_NA",
    "gnaf_pid": "GANSW705035888",
    "tech_change_status": "Not Planned",
    "program_type": "Fixed Wireless and Satellite Upgrade Program",
    "target_eligibility_quarter": "NA"
   }
  },
  {
   "type": "Feature",
   "geometry": {
    "type": "Point",
    "coordinates": [
     150.6429047,
     -34.78915701
    ]
   },
   "properties": {
    "name": "220A STRONGS ROAD JASPERS BRUSH 2535",
    "locID": "LOC000068550147",
    "tech": "SATELLITE",
    "upgrade": "NULL_NA",
    "gnaf_pid": "GANSW705035889",
    "tech_change_status": "Not Planned"
   }
  },
  {
   "type": "Feature",
   "geometry": {
    "type": "Point",
    "coordinates": [
     150.64209843,
     -34.78914353
    ]
   },
   "properties": {
    "name": "220B STRONGS ROAD JASPERS BRUSH 2535",
    "locID": "LOC000068524531",
    "tech": "WIRELESS",
    "upgrade": "NULL_NA",
    "gnaf_pid": "GANSW705035890",
    "tech_change_status": "Not Planned",
    "program_type": "Fixed Wireless and Satellite Upgrade Program",
    "target_eligibility_quarter": "NA"
   }
  },
  {
   "type": "Feature",
   "geometry": {
    "type": "Point",
    "coordinates": [
     150.64434558,
     -34.78587554
    ]
   },
   "properties": {
    "name": "220 STRONGS ROAD JASPERS BRUSH 2535",
    "locID": "LOC000068167109",
    "tech": "WIRELESS",
    "upgrade": "NULL_NA",
    "gnaf_pid": "GANSW705035891",
    "tech_change_status": "Not Planned",
    "program_type": "Fixed Wireless and Satellite Upgrade Program",
    "target_eligibility_quarter": "NA"
   }
  },
  {
   "type": "Feature",
   "geometry": {
    "type": "Point",
    "coordinates": [
     150.64115733,
     -34.78883339
    ]
   },
   "properties": {
    "name": "240 STRONGS ROAD JASPERS BRUSH 2535",
    "locID": "LOC000082274704",
    "tech": "WIRELESS",
    "upgrade": "NULL_NA",
    "gnaf_pid": "GANSW705035892",
    "tech_change_status": "Not Planned",
    "program_type": "Fixed Wireless and Satellite Upgrade Program",
    "target_eligibility_quarter": "NA"
   }
  },
  {
   "type": "Feature",
   "geometry": {
    "type": "Point",
    "coordinates": [
     150.65297576,
     -34.79819509
    ]
   },
   "properties": {
    "name": "72 STRONGS ROAD JASPERS BRUSH 2535",
    "locID": "LOC000063189785",
    "tech": "WIRELESS",
    "upgrade": "NULL_NA",
    "gnaf_pid": "GANSW705050327",
    "tech_change_status": "Not Planned",
    "program_type": "Fixed Wireless and Satellite Upgrade Program",
    "target_eligibility_quarter": "NA"
   }
  },
  {
   "type": "Feature",
   "geometry": {
    "type": "Point",
    "coordinates": [
     150.65213316,
     -34.79500423
    ]
   },
   "properties": {
    "name": "76 STRONGS ROAD JASPERS BRUSH 2535",
    "locID": "LOC000095664925",
    "tech": "WIRELESS",
    "upgrade": "NULL_NA",
    "gnaf_pid": "GANSW705050328",
    "tech_change_status": "Not Planned",
    "program_type": "Fixed Wireless and Satellite Upgrade Program",
    "target_eligibility_quarter": "NA"
   }
  },
  {
   "type": "Feature",
   "geometry": {
    "type": "Point",
    "coordinates": [
     150.65112279,
     -34.79947077
    ]
   },
   "properties": {
    "name": "95 STRONGS ROAD JASPERS BRUSH 2535",
    "locID": "LOC000051500340",
    "tech": "WIRELESS",
    "upgrade": "NULL_NA",
    "gnaf_pid": "GANSW705050329",
    "tech_change_status": "Not Planned",
    "program_type": "Fixed Wireless and Satellite Upgrade Program",
    "target_eligibility_quarter": "NA"
   }
  },
  {
   "type": "Feature",
   "geometry": {
    "type": "Point",
    "coordinates": [
     150.63274774,
     -34.81203007
    ]
   },
   "properties": {
    "name": "10 TURNERS LANE JASPERS BRUSH 2535",
    "locID": "LOC000057156358",
    "tech": "WIRELESS",
    "upgrade": "NULL_NA",
    "gnaf_pid": "GANSW705050330",
    "tech_change_status": "Not Planned",
    "program_type": "Fixed Wireless and Satellite Upgrade Program",
    "target_eligibility_quarter": "NA"
   }
  },
  {
   "type": "Feature",
   "geometry": {
    "type": "Point",
    "coordinates": [
     150.63395994,
     -34.81788724
    ]
   },
   "properties": {
    "name": "115 TURNERS LANE JASPERS BRUSH 2535",
    "locID": "LOC000093871072",
    "tech": "WIRELESS",
    "upgrade": "NULL_NA",
    "gnaf_pid": "GANSW705050331",
    "tech_change_status": "Not Planned",
    "program_type": "Fixed Wireless and Satellite Upgrade Program",
    "target_eligibility_quarter": "NA"
   }
  },
  {
   "type": "Feature",
   "geometry": {
    "type": "Point",
    "coordinates": [
     150.63406166,
     -34.81245525
    ]
   },
   "properties": {
    "name": "15 TURNERS LANE JASPERS BRUSH 2535",
    "locID": "LOC000101142653",
    "tech": "WIRELESS",
    "upgrade": "NULL_NA",
    "gnaf_pid": "GANSW705050332",
    "tech_change_status": "Not Planned",
    "program_type": "Fixed Wireless and Satellite Upgrade Program",
    "target_eligibility_quarter": "NA"
   }
  },
  {
   "type": "Feature",
   "geometry": {
    "type": "Point",
    "coordinates": [
     150.63324985,
     -34.81277381
    ]
   },
   "properties": {
    "name": "20 TURNERS LANE JASPERS BRUSH 2535",
    "locID": "LOC000052282250",
    "tech": "WIRELESS",
    "upgrade": "NULL_NA",
    "gnaf_pid": "GANSW705050333",
    "tech_change_status": "Not Planned",
    "program_type": "Fixed Wireless and Satellite Upgrade Program",
    "target_eligibility_quarter": "NA"
   }
  },
  {
   "type": "Feature",
   "geometry": {
    "type": "Point",
    "coordinates": [
     150.63507386,
     -34.81386823
    ]
   },
   "properties": {
    "name": "35 TURNERS LANE JASPERS BRUSH 2535",
    "locID": "LOC000029507701",
    "tech": "WIRELESS",
    "upgrade": "NULL_NA",
    "gnaf_pid": "GANSW705050334",
    "tech_change_status": "Not Planned",
    "program_type": "Fixed Wireless and Satellite Upgrade Program",
    "target_eligibility_quarter": "NA"
   }
  },
  {
   "type": "Feature",
   "geometry": {
    "type": "Point",
    "coordinates": [
     150.63584595,
     -34.81439027
    ]
   },
   "properties": {
    "name": "39A TURNERS LANE JASPERS BRUSH 2535",
    "locID": "LOC000002221414",
    "tech": "WIRELESS",
    "upgrade": "NULL_NA",
    "gnaf_pid": "GANSW705050335",
    "tech_change_status": "Not Planned",
    "program_type": "Fixed Wireless and Satellite Upgrade Program",
    "target_eligibility_quarter": "NA"
   }
  },
  {
   "type": "Feature",
   "geometry": {
    "type": "Point",
    "coordinates": [
     150.63532628,
     -34.81502035
    ]
   },
   "properties": {
    "name": "39B TURNERS LANE JASPERS BRUSH 2535",
    "locID": "LOC000002278881",
    "tech": "WIRELESS",
    "upgrade": "NULL_NA",
    "gnaf_pid": "GANSW705050336",
    "tech_change_status": "Not Planned",
    "program_type": "Fixed Wireless and Satellite Upgrade Program",
    "target_eligibility_quarter": "NA"
   }
  },
  {
   "type": "Feature",
   "geometry": {
    "type": "Point",
    "coordinates": [
     150.63420127,
     -34.8141447
    ]
   },
   "properties": {
    "name": "45 TURNERS LANE JASPERS BRUSH 2535",
    "locID": "LOC000065075920",
    "tech": "WIRELESS",
    "upgrade": "NULL_NA",
    "gnaf_pid": "GANSW705050337",
    "tech_change_status": "Not Planned",
    "program_type": "Fixed Wireless and Satellite Upgrade Program",
    "target_eligibility_quarter": "NA"
   }
  },
  {
   "type": "Feature",
   "geometry": {
    "type": "Point",
    "coordinates": [
     150.68402793,
     -34.79678548
    ]
   },
   "properties": {
    "name": "140 MULLERS LANE JASPERS BRUSH 2535",
    "locID": "LOC000007300670",
    "tech": "WIRELESS",
    "upgrade": "NULL_NA",
    "gnaf_pid": "GANSW706590755",
    "tech_change_status": "Not Planned",
    "program_type": "Fixed Wireless and Satellite Upgrade Program",
    "target_eligibility_quarter": "NA"
   }
  },
  {
   "type": "Feature",
   "geometry": {
    "type": "Point",
    "coordinates": [
     150.67636425,
     -34.79593717
    ]
   },
   "properties": {
    "name": "124 MULLERS LANE JASPERS BRUSH 2535",
    "locID": "LOC000016799035",
    "tech": "WIRELESS",
    "upgrade": "NULL_NA",
    "gnaf_pid": "GANSW706590756",
    "tech_change_status": "Not Planned",
    "program_type": "Fixed Wireless and Satellite Upgrade Program",
    "target_eligibility_quarter": "NA"
   }
  },
  {
   "type": "Feature",
   "geometry": {
    "type": "Point",
    "coordinates": [
     150.67721149,
     -34.79469418
    ]
   },
   "properties": {
    "name": "123 MULLERS LANE JASPERS BRUSH 2535",
    "locID": "LOC000105047523",
    "tech": "WIRELESS",
    "upgrade": "NULL_NA",
    "gnaf_pid": "GANSW706608877",
    "tech_change_status": "Not Planned",
    "program_type": "Fixed Wireless and Satellite Upgrade Program",
    "target_eligibility_quarter": "NA"
   }
  },
  {
   "type": "Feature",
   "geometry": {
    "type": "Point",
    "coordinates": [
     150.67657217,
     -34.79517938
    ]
   },
   "properties": {
    "name": "114 MULLERS LANE JASPERS BRUSH 2535",
    "locID": "LOC000068930027",
    "tech": "WIRELESS",
    "upgrade": "NULL_NA",
    "gnaf_pid": "GANSW706633430",
    "tech_change_status": "Not Planned",
    "program_type": "Fixed Wireless and Satellite Upgrade Program",
    "target_eligibility_quarter": "NA"
   }
  },
  {
   "type": "Feature",
   "geometry": {
    "type": "Point",
    "coordinates": [
     150.63394328,
     -34.78523502
    ]
   },
   "properties": {
    "name": "34 LITTLE CREEK ROAD JASPERS BRUSH 2535",
    "locID": "LOC000057901509",
    "tech": "WIRELESS",
    "upgrade": "NULL_NA",
    "gnaf_pid": "GANSW709388391",
    "tech_change_status": "Not Planned",
    "program_type": "Fixed Wireless and Satellite Upgrade Program",
    "target_eligibility_quarter": "NA"
   }
  },
  {
   "type": "Feature",
   "geometry": {
    "type": "Point",
    "coordinates": [
     150.63301619,
     -34.78456852
    ]
   },
   "properties": {
    "name": "42 LITTLE CREEK ROAD JASPERS BRUSH 2535",
    "locID": "LOC000064953582",
    "tech": "WIRELESS",
    "upgrade": "NULL_NA",
    "gnaf_pid": "GANSW709388392",
    "tech_change_status": "Not Planned",
    "program_type": "Fixed Wireless and Satellite Upgrade Program",
    "target_eligibility_quarter": "NA"
   }
  },
  {
   "type": "Feature",
   "geometry": {
    "type": "Point",
    "coordinates": [
     150.63106269,
     -34.78307531
    ]
   },
   "properties": {
    "name": "84 CEDARVALE LANE JASPERS BRUSH 2535",
    "locID": "LOC000074243746",
    "tech": "WIRELESS",
    "upgrade": "NULL_NA",
    "gnaf_pid": "GANSW709401348",
    "tech_change_status": "Not Planned",
    "program_type": "Fixed Wireless and Satellite Upgrade Program",
    "target_eligibility_quarter": "NA"
   }
  },
  {
   "type": "Feature",
   "geometry": {
    "type": "Point",
    "coordinates": [
     150.64799425,
     -34.79964821
    ]
   },
   "properties": {
    "name": "113 STRONGS ROAD JASPERS BRUSH 2535",
    "locID": "LOC000080361835",
    "tech": "WIRELESS",
    "upgrade": "NULL_NA",
    "gnaf_pid": "GANSW712479240",
    "tech_change_status": "Not Planned",
    "program_type": "Fixed Wireless and Satellite Upgrade Program",
    "target_eligibility_quarter": "NA"
   }
  },
  {
   "type": "Feature",
   "geometry": {
    "type": "Point",
    "coordinates": [
     150.65233264,
     -34.79588044
    ]
   },
   "properties": {
    "name": "96 STRONGS ROAD JASPERS BRUSH 2535",
    "locID": "LOC000001603157",
    "tech": "SATELLITE",
    "upgrade": "WIRELESS",
    "gnaf_pid": "GANSW712479249",
    "tech_change_status": "Eligible to Order",
    "program_type": "Fixed Wireless and Satellite Upgrade Program",
    "target_eligibility_quarter": "NA"
   }
  },
  {
   "type": "Feature",
   "geometry": {
    "type": "Point",
    "coordinates": [
     150.63271282,
     -34.80871606
    ]
   },
   "properties": {
    "name": "B680 PRINCES HIGHWAY JASPERS BRUSH 2535",
    "locID": "LOC000046099720",
    "tech": "WIRELESS",
    "upgrade": "NULL_NA",
    "gnaf_pid": "GANSW712492253",
    "tech_change_status": "Not Planned",
    "program_type": "Fixed Wireless and Satellite Upgrade Program",
    "target_eligibility_quarter": "NA"
   }
  },
  {
   "type": "Feature",
   "geometry": {
    "type": "Point",
    "coordinates": [
     150.66818939,
     -34.79572956
    ]
   },
   "properties": {
    "name": "B270 PRINCES HIGHWAY JASPERS BRUSH 2535",
    "locID": "LOC000084258543",
    "tech": "WIRELESS",
    "upgrade": "NULL_NA",
    "gnaf_pid": "GANSW712492260",
    "tech_change_status": "Not Planned",
    "program_type": "Fixed Wireless and Satellite Upgrade Program",
    "target_eligibility_quarter": "NA"
   }
  },
  {
   "type": "Feature",
   "geometry": {
    "type": "Point",
    "coordinates": [
     150.64954443,
     -34.81006126
    ]
   },
   "properties": {
    "name": "B535 PRINCES HIGHWAY JASPERS BRUSH 2535",
    "locID": "LOC000181976072",
    "tech": "WIRELESS",
    "upgrade": "NULL_NA",
    "gnaf_pid": "GANSW712492262",
    "tech_change_status": "Not Planned",
    "program_type": "Fixed Wireless and Satellite Upgrade Program",
    "target_eligibility_quarter": "NA"
   }
  },
  {
   "type": "Feature",
   "geometry": {
    "type": "Point",
    "coordinates": [
     150.63905452,
     -34.78415581
    ]
   },
   "properties": {
    "name": "246 STRONGS ROAD JASPERS BRUSH 2535",
    "locID": "LOC000038057475",
    "tech": "WIRELESS",
    "upgrade": "NULL_NA",
    "gnaf_pid": "GANSW712492270",
    "tech_change_status": "Eligible to Order",
    "program_type": "Fixed Wireless and Satellite Upgrade Program",
    "target_eligibility_quarter": "NA"
   }
  },
  {
   "type": "Feature",
   "geometry": {
    "type": "Point",
    "coordinates": [
     150.64813128,
     -34.80583389
    ]
   },
   "properties": {
    "name": "B510 PRINCES HIGHWAY JASPERS BRUSH 2535",
    "locID": "LOC000056402402",
    "tech": "WIRELESS",
    "upgrade": "NULL_NA",
    "gnaf_pid": "GANSW712499399",
    "tech_change_status": "Not Planned",
    "program_type": "Fixed Wireless and Satellite Upgrade Program",
    "target_eligibility_quarter": "NA"
   }
  },
  {
   "type": "Feature",
   "geometry": {
    "type": "Point",
    "coordinates": [
     150.63727977,
     -34.8071719
    ]
   },
   "properties": {
    "name": "B640 PRINCES HIGHWAY JASPERS BRUSH 2535",
    "locID": "LOC000092385424",
    "tech": "WIRELESS",
    "upgrade": "NULL_NA",
    "gnaf_pid": "GANSW712499401",
    "tech_change_status": "Not Planned",
    "program_type": "Fixed Wireless and Satellite Upgrade Program",
    "target_eligibility_quarter": "NA"
   }
  },
  {
   "type": "Feature",
   "geometry": {
    "type": "Point",
    "coordinates": [
     150.63366461,
     -34.80953103
    ]
   },
   "properties": {
    "name": "B660 PRINCES HIGHWAY JASPERS BRUSH 2535",
    "locID": "LOC000046982268",
    "tech": "WIRELESS",
    "upgrade": "NULL_NA",
    "gnaf_pid": "GANSW712499402",
    "tech_change_status": "Not Planned",
    "program_type": "Fixed Wireless and Satellite Upgrade Program",
    "target_eligibility_quarter": "NA"
   }
  },
  {
   "type": "Feature",
   "geometry": {
    "type": "Point",
    "coordinates": [
     150.66465712,
     -34.80584916
    ]
   },
   "properties": {
    "name": "60 JASPERS BRUSH ROAD JASPERS BRUSH 2535",
    "locID": "LOC100077739524",
    "tech": "WIRELESS",
    "upgrade": "NULL_NA",
    "gnaf_pid": "GANSW712499543",
    "tech_change_status": "Not Planned",
    "program_type": "Fixed Wireless and Satellite Upgrade Program",
    "target_eligibility_quarter": "NA"
   }
  },
  {
   "type": "Feature",
   "geometry": {
    "type": "Point",
    "coordinates": [
     150.66278922,
     -34.80468111
    ]
   },
   "properties": {
    "name": "38 JASPERS BRUSH ROAD JASPERS BRUSH 2535",
    "locID": "LOC000048117715",
    "tech": "WIRELESS",
    "upgrade": "NULL_NA",
    "gnaf_pid": "GANSW712516484",
    "tech_change_status": "Not Planned",
    "program_type": "Fixed Wireless and Satellite Upgrade Program",
    "target_eligibility_quarter": "NA"
   }
  },
  {
   "type": "Feature",
   "geometry": {
    "type": "Point",
    "coordinates": [
     150.63680176,
     -34.80855524
    ]
   },
   "properties": {
    "name": "B640A PRINCES HIGHWAY JASPERS BRUSH 2535",
    "locID": "LOC000092385424",
    "tech": "WIRELESS",
    "upgrade": "NULL_NA",
    "gnaf_pid": "GANSW715396951",
    "tech_change_status": "Not Planned",
    "program_type": "Fixed Wireless and Satellite Upgrade Program",
    "target_eligibility_quarter": "NA"
   }
  },
  {
   "type": "Feature",
   "geometry": {
    "type": "Point",
    "coordinates": [
     150.63248344,
     -34.78563893
    ]
   },
   "properties": {
    "name": "33 LITTLE CREEK ROAD JASPERS BRUSH 2535",
    "locID": "LOC100078115215",
    "tech": "WIRELESS",
    "upgrade": "NULL_NA",
    "gnaf_pid": "GANSW716331494",
    "tech_change_status": "Not Planned",
    "program_type": "Fixed Wireless and Satellite Upgrade Program",
    "target_eligibility_quarter": "NA"
   }
  },
  {
   "type": "Feature",
   "geometry": {
    "type": "Point",
    "coordinates": [
     150.62435146,
     -34.78473566
    ]
   },
   "properties": {
    "name": "120 CEDARVALE LANE JASPERS BRUSH 2535",
    "locID": "LOC000053761170",
    "tech": "WIRELESS",
    "upgrade": "NULL_NA",
    "gnaf_pid": "GANSW716389488",
    "tech_change_status": "Not Planned",
    "program_type": "Fixed Wireless and Satellite Upgrade Program",
    "target_eligibility_quarter": "NA"
   }
  },
  {
   "type": "Feature",
   "geometry": {
    "type": "Point",
    "coordinates": [
     150.66980255,
     -34.78323915
    ]
   },
   "properties": {
    "name": "60A ANDERSONS LANE JASPERS BRUSH 2535",
    "locID": "LOC000052198797",
    "tech": "WIRELESS",
    "upgrade": "NULL_NA",
    "gnaf_pid": "GANSW716487495",
    "tech_change_status": "Not Planned",
    "program_type": "Fixed Wireless and Satellite Upgrade Program",
    "target_eligibility_quarter": "NA"
   }
  },
  {
   "type": "Feature",
   "geometry": {
    "type": "Point",
    "coordinates": [
     150.66863328,
     -34.78039912
    ]
   },
   "properties": {
    "name": "60B ANDERSONS LANE JASPERS BRUSH 2535",
    "locID": "LOC000051738264",
    "tech": "WIRELESS",
    "upgrade": "NULL_NA",
    "gnaf_pid": "GANSW716487496",
    "tech_change_status": "Not Planned",
    "program_type": "Fixed Wireless and Satellite Upgrade Program",
    "target_eligibility_quarter": "NA"
   }
  },
  {
   "type": "Feature",
   "geometry": {
    "type": "Point",
    "coordinates": [
     150.67460253,
     -34.80280165
    ]
   },
   "properties": {
    "name": "100 O'KEEFFES LANE JASPERS BRUSH 2535",
    "locID": "LOC000042278153",
    "tech": "WIRELESS",
    "upgrade": "NULL_NA",
    "gnaf_pid": "GANSW716597667",
    "tech_change_status": "Eligible to Order",
    "program_type": "Fixed Wireless and Satellite Upgrade Program",
    "target_eligibility_quarter": "NA"
   }
  },
  {
   "type": "Feature",
   "geometry": {
    "type": "Point",
    "coordinates": [
     150.67477801,
     -34.80330728
    ]
   },
   "properties": {
    "name": "106 O'KEEFFES LANE JASPERS BRUSH 2535",
    "locID": "LOC000023916726",
    "tech": "WIRELESS",
    "upgrade": "NULL_NA",
    "gnaf_pid": "GANSW716597668",
    "tech_change_status": "Not Planned",
    "program_type": "Fixed Wireless and Satellite Upgrade Program",
    "target_eligibility_quarter": "NA"
   }
  },
  {
   "type": "Feature",
   "geometry": {
    "type": "Point",
    "coordinates": [
     150.67543832,
     -34.80374153
    ]
   },
   "properties": {
    "name": "108 O'KEEFFES LANE JASPERS BRUSH 2535",
    "locID": "LOC000009199465",
    "tech": "WIRELESS",
    "upgrade": "NULL_NA",
    "gnaf_pid": "GANSW716597669",
    "tech_change_status": "Not Planned",
    "program_type": "Fixed Wireless and Satellite Upgrade Program",
    "target_eligibility_quarter": "NA"
   }
  },
  {
   "type": "Feature",
   "geometry": {
    "type": "Point",
    "coordinates": [
     150.67772558,
     -34.80261724
    ]
   },
   "properties": {
    "name": "134 O'KEEFFES LANE JASPERS BRUSH 2535",
    "locID": "LOC000053648551",
    "tech": "WIRELESS",
    "upgrade": "NULL_NA",
    "gnaf_pid": "GANSW716597671",
    "tech_change_status": "Not Planned",
    "program_type": "Fixed Wireless and Satellite Upgrade Program",
    "target_eligibility_quarter": "NA"
   }
  },
  {
   "type": "Feature",
   "geometry": {
    "type": "Point",
    "coordinates": [
     150.67764957,
     -34.80397059
    ]
   },
   "properties": {
    "name": "140 O'KEEFFES LANE JASPERS BRUSH 2535",
    "locID": "LOC000088416453",
    "tech": "WIRELESS",
    "upgrade": "NULL_NA",
    "gnaf_pid": "GANSW716597672",
    "tech_change_status": "Not Planned",
    "program_type": "Fixed Wireless and Satellite Upgrade Program",
    "target_eligibility_quarter": "NA"
   }
  },
  {
   "type": "Feature",
   "geometry": {
    "type": "Point",
    "coordinates": [
     150.66377239,
     -34.80042996
    ]
   },
   "properties": {
    "name": "4 O'KEEFFES LANE JASPERS BRUSH 2535",
    "locID": "LOC000029154690",
    "tech": "WIRELESS",
    "upgrade": "NULL_NA",
    "gnaf_pid": "GANSW716597674",
    "tech_change_status": "Not Planned",
    "program_type": "Fixed Wireless and Satellite Upgrade Program",
    "target_eligibility_quarter": "NA"
   }
  },
  {
   "type": "Feature",
   "geometry": {
    "type": "Point",
    "coordinates": [
     150.67079238,
     -34.80274416
    ]
   },
   "properties": {
    "name": "60 O'KEEFFES LANE JASPERS BRUSH 2535",
    "locID": "LOC000002239299",
    "tech": "WIRELESS",
    "upgrade": "NULL_NA",
    "gnaf_pid": "GANSW716597675",
    "tech_change_status": "Not Planned",
    "program_type": "Fixed Wireless and Satellite Upgrade Program",
    "target_eligibility_quarter": "NA"
   }
  },
  {
   "type": "Feature",
   "geometry": {
    "type": "Point",
    "coordinates": [
     150.67197035,
     -34.80242203
    ]
   },
   "properties": {
    "name": "64 O'KEEFFES LANE JASPERS BRUSH 2535",
    "locID": "LOC000093628065",
    "tech": "WIRELESS",
    "upgrade": "NULL_NA",
    "gnaf_pid": "GANSW716597676",
    "tech_change_status": "Not Planned",
    "program_type": "Fixed Wireless and Satellite Upgrade Program",
    "target_eligibility_quarter": "NA"
   }
  },
  {
   "type": "Feature",
   "geometry": {
    "type": "Point",
    "coordinates": [
     150.67279832,
     -34.80269704
    ]
   },
   "properties": {
    "name": "86 O'KEEFFES LANE JASPERS BRUSH 2535",
    "locID": "LOC000099577750",
    "tech": "WIRELESS",
    "upgrade": "NULL_NA",
    "gnaf_pid": "GANSW716597677",
    "tech_change_status": "Not Planned",
    "program_type": "Fixed Wireless and Satellite Upgrade Program",
    "target_eligibility_quarter": "NA"
   }
  },
  {
   "type": "Feature",
   "geometry": {
    "type": "Point",
    "coordinates": [
     150.63680176,
     -34.80855524
    ]
   },
   "properties": {
    "name": "640 PRINCES HIGHWAY JASPERS BRUSH 2535",
    "locID": "LOC000092397800",
    "tech": "WIRELESS",
    "upgrade": "NULL_NA",
    "gnaf_pid": "GANSW716683649",
    "tech_change_status": "Not Planned",
    "program_type": "Fixed Wireless and Satellite Upgrade Program",
    "target_eligibility_quarter": "NA"
   }
  },
  {
   "type": "Feature",
   "geometry": {
    "type": "Point",
    "coordinates": [
     150.65839555,
     -34.80575247
    ]
   },
   "properties": {
    "name": "10D JASPERS BRUSH ROAD JASPERS BRUSH 2535",
    "locID": "LOC000062303225",
    "tech": "WIRELESS",
    "upgrade": "NULL_NA",
    "gnaf_pid": "GANSW716925081",
    "tech_change_status": "Not Planned",
    "program_type": "Fixed Wireless and Satellite Upgrade Program",
    "target_eligibility_quarter": "NA"
   }
  },
  {
   "type": "Feature",
   "geometry": {
    "type": "Point",
    "coordinates": [
     150.64896399,
     -34.80262051
    ]
   },
   "properties": {
    "name": "30 ISON LANE JASPERS BRUSH 2535",
    "locID": "LOC000068520529",
    "tech": "WIRELESS",
    "upgrade": "NULL_NA",
    "gnaf_pid": "GANSW716996240",
    "tech_change_status": "Not Planned",
    "program_type": "Fixed Wireless and Satellite Upgrade Program",
    "target_eligibility_quarter": "NA"
   }
  },
  {
   "type": "Feature",
   "geometry": {
    "type": "Point",
    "coordinates": [
     150.64722703,
     -34.8023752
    ]
   },
   "properties": {
    "name": "46 ISON LANE JASPERS BRUSH 2535",
    "locID": "LOC000051333503",
    "tech": "WIRELESS",
    "upgrade": "NULL_NA",
    "gnaf_pid": "GANSW716996241",
    "tech_change_status": "Not Planned",
    "program_type": "Fixed Wireless and Satellite Upgrade Program",
    "target_eligibility_quarter": "NA"
   }
  },
  {
   "type": "Feature",
   "geometry": {
    "type": "Point",
    "coordinates": [
     150.63145941,
     -34.78487525
    ]
   },
   "properties": {
    "name": "70 CEDARVALE LANE JASPERS BRUSH 2535",
    "locID": "LOC000006365814",
    "tech": "WIRELESS",
    "upgrade": "NULL_NA",
    "gnaf_pid": "GANSW717062790",
    "tech_change_status": "Not Planned",
    "program_type": "Fixed Wireless and Satellite Upgrade Program",
    "target_eligibility_quarter": "NA"
   }
  },
  {
   "type": "Feature",
   "geometry": {
    "type": "Point",
    "coordinates": [
     150.64809556,
     -34.80249787
    ]
   },
   "properties": {
    "name": "42 ISON LANE JASPERS BRUSH 2535",
    "locID": "LOC000059080948",
    "tech": "WIRELESS",
    "upgrade": "NULL_NA",
    "gnaf_pid": "GANSW717066241",
    "tech_change_status": "Not Planned",
    "program_type": "Fixed Wireless and Satellite Upgrade Program",
    "target_eligibility_quarter": "NA"
   }
  },
  {
   "type": "Feature",
   "geometry": {
    "type": "Point",
    "coordinates": [
     150.67696471,
     -34.80511542
    ]
   },
   "properties": {
    "name": "120 O'KEEFFES LANE JASPERS BRUSH 2535",
    "locID": "LOC000032243449",
    "tech": "WIRELESS",
    "upgrade": "NULL_NA",
    "gnaf_pid": "GANSW717220820",
    "tech_change_status": "Not Planned",
    "program_type": "Fixed Wireless and Satellite Upgrade Program",
    "target_eligibility_quarter": "NA"
   }
  },
  {
   "type": "Feature",
   "geometry": {
    "type": "Point",
    "coordinates": [
     150.66897592,
     -34.80038436
    ]
   },
   "properties": {
    "name": "45 O'KEEFFES LANE JASPERS BRUSH 2535",
    "locID": "LOC000086314298",
    "tech": "WIRELESS",
    "upgrade": "NULL_NA",
    "gnaf_pid": "GANSW717220821",
    "tech_change_status": "Not Planned",
    "program_type": "Fixed Wireless and Satellite Upgrade Program",
    "target_eligibility_quarter": "NA"
   }
  },
  {
   "type": "Feature",
   "geometry": {
    "type": "Point",
    "coordinates": [
     150.67548293,
     -34.80180227
    ]
   },
   "properties": {
    "name": "99 O'KEEFFES LANE JASPERS BRUSH 2535",
    "locID": "LOC000083805412",
    "tech": "WIRELESS",
    "upgrade": "NULL_NA",
    "gnaf_pid": "GANSW717220823",
    "tech_change_status": "Not Planned",
    "program_type": "Fixed Wireless and Satellite Upgrade Program",
    "target_eligibility_quarter": "NA"
   }
  },
  {
   "type": "Feature",
   "geometry": {
    "type": "Point",
    "coordinates": [
     150.6619596,
     -34.80720847
    ]
   },
   "properties": {
    "name": "23 FAHL LANE JASPERS BRUSH 2535",
    "locID": "LOC000081011781",
    "tech": "WIRELESS",
    "upgrade": "NULL_NA",
    "gnaf_pid": "GANSW717497130",
    "tech_change_status": "Not Planned",
    "program_type": "Fixed Wireless and Satellite Upgrade Program",
    "target_eligibility_quarter": "NA"
   }
  },
  {
   "type": "Feature",
   "geometry": {
    "type": "Point",
    "coordinates": [
     150.6735407,
     -34.80168032
    ]
   },
   "properties": {
    "name": "89 O'KEEFFES LANE JASPERS BRUSH 2535",
    "locID": "LOC000089900258",
    "tech": "SATELLITE",
    "upgrade": "WIRELESS",
    "gnaf_pid": "GANSW717537951",
    "tech_change_status": "Eligible to Order",
    "program_type": "Fixed Wireless and Satellite Upgrade Program",
    "target_eligibility_quarter": "NA"
   }
  },
  {
   "type": "Feature",
   "geometry": {
    "type": "Point",
    "coordinates": [
     150.63819466,
     -34.78680016
    ]
   },
   "properties": {
    "name": "270 STRONGS ROAD JASPERS BRUSH 2535",
    "locID": "LOC000067421038",
    "tech": "WIRELESS",
    "upgrade": "NULL_NA",
    "gnaf_pid": "GANSW717563858",
    "tech_change_status": "Not Planned",
    "program_type": "Fixed Wireless and Satellite Upgrade Program",
    "target_eligibility_quarter": "NA"
   }
  },
  {
   "type": "Feature",
   "geometry": {
    "type": "Point",
    "coordinates": [
     150.63090106,
     -34.78591481
    ]
   },
   "properties": {
    "name": "62 CEDARVALE LANE JASPERS BRUSH 2535",
    "locID": "LOC000101776388",
    "tech": "WIRELESS",
    "upgrade": "NULL_NA",
    "gnaf_pid": "GANSW717592643",
    "tech_change_status": "Not Planned",
    "program_type": "Fixed Wireless and Satellite Upgrade Program",
    "target_eligibility_quarter": "NA"
   }
  },
  {
   "type": "Feature",
   "geometry": {
    "type": "Point",
    "coordinates": [
     150.66218036,
     -34.79354356
    ]
   },
   "properties": {
    "name": "59 CROZIERS ROAD JASPERS BRUSH 2535",
    "locID": "LOC000091948446",
    "tech": "WIRELESS",
    "upgrade": "NULL_NA",
    "gnaf_pid": "GANSW717594309",
    "tech_change_status": "Not Planned",
    "program_type": "Fixed Wireless and Satellite Upgrade Program",
    "target_eligibility_quarter": "NA"
   }
  },
  {
   "type": "Feature",
   "geometry": {
    "type": "Point",
    "coordinates": [
     150.64971356,
     -34.79901375
    ]
   },
   "properties": {
    "name": "103A STRONGS ROAD JASPERS BRUSH 2535",
    "locID": "LOC000070708521",
    "tech": "WIRELESS",
    "upgrade": "NULL_NA",
    "gnaf_pid": "GANSW717663367",
    "tech_change_status": "Not Planned",
    "program_type": "Fixed Wireless and Satellite Upgrade Program",
    "target_eligibility_quarter": "NA"
   }
  },
  {
   "type": "Feature",
   "geometry": {
    "type": "Point",
    "coordinates": [
     150.62855471,
     -34.80952747
    ]
   },
   "properties": {
    "name": "B710 PRINCES HIGHWAY JASPERS BRUSH 2535",
    "locID": "LOC000105301546",
    "tech": "WIRELESS",
    "upgrade": "NULL_NA",
    "gnaf_pid": "GANSW717975095",
    "tech_change_status": "Not Planned",
    "program_type": "Fixed Wireless and Satellite Upgrade Program",
    "target_eligibility_quarter": "NA"
   }
  },
  {
   "type": "Feature",
   "geometry": {
    "type": "Point",
    "coordinates": [
     150.66304549,
     -34.77873382
    ]
   },
   "properties": {
    "name": "62B ANDERSONS LANE JASPERS BRUSH 2535",
    "locID": "LOC000113148612",
    "tech": "WIRELESS",
    "upgrade": "NULL_NA",
    "gnaf_pid": "GANSW718064003",
    "tech_change_status": "Not Planned",
    "program_type": "Fixed Wireless and Satellite Upgrade Program",
    "target_eligibility_quarter": "NA"
   }
  },
  {
   "type": "Feature",
   "geometry": {
    "type": "Point",
    "coordinates": [
     150.67128694,
     -34.80158185
    ]
   },
   "properties": {
    "name": "135 O'KEEFFES LANE JASPERS BRUSH 2535",
    "locID": "LOC000114840580",
    "tech": "WIRELESS",
    "upgrade": "NULL_NA",
    "gnaf_pid": "GANSW718089534"
   }
  },
  {
   "type": "Feature",
   "geometry": {
    "type": "Point",
    "coordinates": [
     150.65734657,
     -34.80262914
    ]
   },
   "properties": {
    "name": "20C STRONGS ROAD JASPERS BRUSH 2535",
    "locID": "LOC100078115514",
    "tech": "WIRELESS",
    "upgrade": "NULL_NA",
    "gnaf_pid": "GANSW718424977",
    "tech_change_status": "Not Planned",
    "program_type": "Fixed Wireless and Satellite Upgrade Program",
    "target_eligibility_quarter": "NA"
   }
  },
  {
   "type": "Feature",
   "geometry": {
    "type": "Point",
    "coordinates": [
     150.66315374,
     -34.80698386
    ]
   },
   "properties": {
    "name": "19 FAHL LANE JASPERS BRUSH 2535",
    "locID": "LOC000164441778",
    "tech": "WIRELESS",
    "upgrade": "NULL_NA",
    "gnaf_pid": "GANSW718663588",
    "tech_change_status": "Not Planned",
    "program_type": "Fixed Wireless and Satellite Upgrade Program",
    "target_eligibility_quarter": "NA"
   }
  },
  {
   "type": "Feature",
   "geometry": {
    "type": "Point",
    "coordinates": [
     150.65656228,
     -34.78671937
    ]
   },
   "properties": {
    "name": "142 CROZIERS ROAD JASPERS BRUSH 2535",
    "locID": "LOC100056243425",
    "tech": "WIRELESS",
    "upgrade": "NULL_NA",
    "gnaf_pid": "GANSW718841129",
    "tech_change_status": "Not Planned",
    "program_type": "Fixed Wireless and Satellite Upgrade Program",
    "target_eligibility_quarter": "NA"
   }
  },
  {
   "type": "Feature",
   "geometry": {
    "type": "Point",
    "coordinates": [
     150.62875489,
     -34.80611402
    ]
   },
   "properties": {
    "name": "74 DEVITTS LANE JASPERS BRUSH 2535",
    "locID": "LOC100056378368",
    "tech": "WIRELESS",
    "upgrade": "NULL_NA",
    "gnaf_pid": "GANSW718884146",
    "tech_change_status": "Not Planned",
    "program_type": "Fixed Wireless and Satellite Upgrade Program",
    "target_eligibility_quarter": "NA"
   }
  },
  {
   "type": "Feature",
   "geometry": {
    "type": "Point",
    "coordinates": [
     150.63680176,
     -34.80855524
    ]
   },
   "properties": {
    "name": "640B PRINCES HIGHWAY JASPERS BRUSH 2535",
    "locID": "LOC000187047148",
    "tech": "WIRELESS",
    "upgrade": "NULL_NA",
    "gnaf_pid": "GANSW718891851",
    "tech_change_status": "Not Planned",
    "program_type": "Fixed Wireless and Satellite Upgrade Program",
    "target_eligibility_quarter": "NA"
   }
  },
  {
   "type": "Feature",
   "geometry": {
    "type": "Point",
    "coordinates": [
     150.66984195,
     -34.79842001
    ]
   },
   "properties": {
    "name": "17 O'KEEFFES LANE JASPERS BRUSH 2535",
    "locID": "LOC100056243456",
    "tech": "WIRELESS",
    "upgrade": "NULL_NA",
    "gnaf_pid": "GANSW718955931",
    "tech_change_status": "Not Planned",
    "program_type": "Fixed Wireless and Satellite Upgrade Program",
    "target_eligibility_quarter": "NA"
   }
  },
  {
   "type": "Feature",
   "geometry": {
    "type": "Point",
    "coordinates": [
     150.66396356,
     -34.80664844
    ]
   },
   "properties": {
    "name": "13 FAHL LANE JASPERS BRUSH 2535",
    "locID": "LOC000168951173",
    "tech": "WIRELESS",
    "upgrade": "NULL_NA",
    "gnaf_pid": "GANSW719164388",
    "tech_change_status": "Not Planned",
    "program_type": "Fixed Wireless and Satellite Upgrade Program",
    "target_eligibility_quarter": "NA"
   }
  },
  {
   "type": "Feature",
   "geometry": {
    "type": "Point",
    "coordinates": [
     150.67892638,
     -34.80435473
    ]
   },
   "properties": {
    "name": "144 O'KEEFFES LANE JASPERS BRUSH 2535",
    "locID": "LOC100072005893",
    "tech": "WIRELESS",
    "upgrade": "NULL_NA",
    "gnaf_pid": "GANSW719690750",
    "tech_change_status": "Not Planned",
    "program_type": "Fixed Wireless and Satellite Upgrade Program",
    "target_eligibility_quarter": "NA"
   }
  },
  {
   "type": "Feature",
   "geometry": {
    "type": "Point",
    "coordinates": [
     150.67429621,
     -34.79391997
    ]
   },
   "properties": {
    "name": "B215A PRINCES HIGHWAY JASPERS BRUSH 2535",
    "locID": "LOC000041580880",
    "tech": "WIRELESS",
    "upgrade": "NULL_NA",
    "gnaf_pid": "GANSW720251640",
    "tech_change_status": "Not Planned",
    "program_type": "Fixed Wireless and Satellite Upgrade Program",
    "target_eligibility_quarter": "NA"
   }
  },
  {
   "type": "Feature",
   "geometry": {
    "type": "Point",
    "coordinates": [
     150.67485003,
     -34.79372758
    ]
   },
   "properties": {
    "name": "B215 PRINCES HIGHWAY JASPERS BRUSH 2535",
    "locID": "LOC000043202536",
    "tech": "WIRELESS",
    "upgrade": "NULL_NA",
    "gnaf_pid": "GANSW720258283",
    "tech_change_status": "Not Planned",
    "program_type": "Fixed Wireless and Satellite Upgrade Program",
    "target_eligibility_quarter": "NA"
   }
  },
  {
   "type": "Feature",
   "geometry": {
    "type": "Point",
    "coordinates": [
     150.67182359,
     -34.78976774
    ]
   },
   "properties": {
    "name": "6 CROZIERS ROAD JASPERS BRUSH 2535",
    "locID": "LOC000055806403",
    "tech": "WIRELESS",
    "upgrade": "NULL_NA",
    "gnaf_pid": "GANSW720343564",
    "tech_change_status": "Not Planned",
    "program_type": "Fixed Wireless and Satellite Upgrade Program",
    "target_eligibility_quarter": "NA"
   }
  },
  {
   "type": "Feature",
   "geometry": {
    "type": "Point",
    "coordinates": [
     150.63371373,
     -34.81467562
    ]
   },
   "properties": {
    "name": "53 TURNERS LANE JASPERS BRUSH 2535",
    "locID": "LOC100078115788",
    "tech": "WIRELESS",
    "upgrade": "NULL_NA",
    "gnaf_pid": "GANSW720420677",
    "tech_change_status": "Not Planned",
    "program_type": "Fixed Wireless and Satellite Upgrade Program",
    "target_eligibility_quarter": "NA"
   }
  },
  {
   "type": "Feature",
   "geometry": {
    "type": "Point",
    "coordinates": [
     150.65366336,
     -34.80496875
    ]
   },
   "properties": {
    "name": "10E JASPERS BRUSH ROAD JASPERS BRUSH 2535",
    "locID": "LOC000021313723",
    "tech": "WIRELESS",
    "upgrade": "NULL_NA",
    "gnaf_pid": "GANSW720677344",
    "tech_change_status": "Not Planned",
    "program_type": "Fixed Wireless and Satellite Upgrade Program",
    "target_eligibility_quarter": "NA"
   }
  },
  {
   "type": "Feature",
   "geometry": {
    "type": "Point",
    "coordinates": [
     150.66863328,
     -34.78039912
    ]
   },
   "properties": {
    "name": "60 ANDERSONS LANE JASPERS BRUSH 2535",
    "locID": "LOC000052198797",
    "tech": "WIRELESS",
    "upgrade": "NULL_NA",
    "gnaf_pid": "GANSW721243328",
    "tech_change_status": "Not Planned",
    "program_type": "Fixed Wireless and Satellite Upgrade Program",
    "target_eligibility_quarter": "NA"
   }
  },
  {
   "type": "Feature",
   "geometry": {
    "type": "Point",
    "coordinates": [
     150.63511159,
     -34.7829018
    ]
   },
   "properties": {
    "name": "80 MARTINVALE LANE JASPERS BRUSH 2535",
    "locID": "LOC100056378347",
    "tech": "WIRELESS",
    "upgrade": "NULL_NA",
    "gnaf_pid": "GANSW721394831",
    "tech_change_status": "Not Planned",
    "program_type": "Fixed Wireless and Satellite Upgrade Program",
    "target_eligibility_quarter": "NA"
   }
  }
 ]
}