{
 "type": "FeatureCollection",
 "generated": "2024-12-13T03:43:02.829782",
 "suburb": "KIKIAMAH",
 "features": [
  {
   "type": "Feature",
   "geometry": {
    "type": "Point",
    "coordinates": [
     148.19705851,
     -34.1183912
    ]
   },
   "properties": {
    "name": "345 OLD FORBES ROAD KIKIAMAH 2594",
    "locID": "LOC000012120656",
    "tech": "WIRELESS",
    "upgrade": "NULL_NA",
    "gnaf_pid": "GANSW715392738",
    "tech_change_status": "Not Planned",
    "program_type": "Fixed Wireless and Satellite Upgrade Program",
    "target_eligibility_quarter": "NA"
   }
  },
  {
   "type": "Feature",
   "geometry": {
    "type": "Point",
    "coordinates": [
     148.05092795,
     -34.06027176
    ]
   },
   "properties": {
    "name": "745 ASHVILLE SCHOOL ROAD KIKIAMAH 2594",
    "locID": "LOC000061104507",
    "tech": "NULL",
    "upgrade": "NULL_NA",
    "gnaf_pid": "GANSW716465551",
    "tech_change_status": "Not Planned"
   }
  },
  {
   "type": "Feature",
   "geometry": {
    "type": "Point",
    "coordinates": [
     148.20902109,
     -34.10732457
    ]
   },
   "properties": {
    "name": "31 JERRARDS CROSSING ROAD KIKIAMAH 2594",
    "locID": "LOC000019667277",
    "tech": "NULL",
    "upgrade": "NULL_NA",
    "gnaf_pid": "GANSW716512007",
    "tech_change_status": "Not Planned"
   }
  },
  {
   "type": "Feature",
   "geometry": {
    "type": "Point",
    "coordinates": [
     148.22010836,
     -34.08762299
    ]
   },
   "properties": {
    "name": "2809 HENRY LAWSON WAY KIKIAMAH 2594",
    "locID": "LOC000115497476",
    "tech": "SATELLITE",
    "upgrade": "WIRELESS",
    "gnaf_pid": "GANSW716552370",
    "tech_change_status": "Eligible to Order",
    "program_type": "Fixed Wireless and Satellite Upgrade Program",
    "target_eligibility_quarter": "NA"
   }
  },
  {
   "type": "Feature",
   "geometry": {
    "type": "Point",
    "coordinates": [
     148.08407481,
     -34.11452736
    ]
   },
   "properties": {
    "name": "4 BLAYNEYS ROAD KIKIAMAH 2594",
    "locID": "LOC000008875754",
    "tech": "SATELLITE",
    "upgrade": "NULL_NA",
    "gnaf_pid": "GANSW716603475",
    "tech_change_status": "Not Planned"
   }
  },
  {
   "type": "Feature",
   "geometry": {
    "type": "Point",
    "coordinates": [
     148.1915964,
     -34.13799076
    ]
   },
   "properties": {
    "name": "765 OLD FORBES ROAD KIKIAMAH 2594",
    "locID": "LOC000059976098",
    "tech": "WIRELESS",
    "upgrade": "NULL_NA",
    "gnaf_pid": "GANSW716611170",
    "tech_change_status": "Not Planned",
    "program_type": "Fixed Wireless and Satellite Upgrade Program",
    "target_eligibility_quarter": "NA"
   }
  },
  {
   "type": "Feature",
   "geometry": {
    "type": "Point",
    "coordinates": [
     148.19670074,
     -34.11410694
    ]
   },
   "properties": {
    "name": "944 OLD FORBES ROAD KIKIAMAH 2594",
    "locID": "LOC000051627747",
    "tech": "WIRELESS",
    "upgrade": "NULL_NA",
    "gnaf_pid": "GANSW716611171",
    "tech_change_status": "Not Planned",
    "program_type": "Fixed Wireless and Satellite Upgrade Program",
    "target_eligibility_quarter": "NA"
   }
  },
  {
   "type": "Feature",
   "geometry": {
    "type": "Point",
    "coordinates": [
     148.0550862,
     -34.10887872
    ]
   },
   "properties": {
    "name": "200 ASHVILLE SCHOOL ROAD KIKIAMAH 2594",
    "locID": "LOC000104037474",
    "tech": "SATELLITE",
    "upgrade": "NULL_NA",
    "gnaf_pid": "GANSW716626008",
    "tech_change_status": "Not Planned"
   }
  },
  {
   "type": "Feature",
   "geometry": {
    "type": "Point",
    "coordinates": [
     148.03731516,
     -34.09367297
    ]
   },
   "properties": {
    "name": "241 ASHVILLE SCHOOL ROAD KIKIAMAH 2594",
    "locID": "LOC000084055054",
    "tech": "NULL",
    "upgrade": "NULL_NA",
    "gnaf_pid": "GANSW716626009",
    "tech_change_status": "Not Planned"
   }
  },
  {
   "type": "Feature",
   "geometry": {
    "type": "Point",
    "coordinates": [
     148.05649693,
     -34.09259544
    ]
   },
   "properties": {
    "name": "374 ASHVILLE SCHOOL ROAD KIKIAMAH 2594",
    "locID": "LOC000021285834",
    "tech": "SATELLITE",
    "upgrade": "NULL_NA",
    "gnaf_pid": "GANSW716626010",
    "tech_change_status": "Not Planned"
   }
  },
  {
   "type": "Feature",
   "geometry": {
    "type": "Point",
    "coordinates": [
     148.03932545,
     -34.08225752
    ]
   },
   "properties": {
    "name": "501 ASHVILLE SCHOOL ROAD KIKIAMAH 2594",
    "locID": "LOC000001450820",
    "tech": "NULL",
    "upgrade": "NULL_NA",
    "gnaf_pid": "GANSW716626011",
    "tech_change_status": "Not Planned"
   }
  },
  {
   "type": "Feature",
   "geometry": {
    "type": "Point",
    "coordinates": [
     148.04689356,
     -34.0687625
    ]
   },
   "properties": {
    "name": "647 ASHVILLE SCHOOL ROAD KIKIAMAH 2594",
    "locID": "LOC000046538418",
    "tech": "NULL",
    "upgrade": "NULL_NA",
    "gnaf_pid": "GANSW716626012",
    "tech_change_status": "Not Planned"
   }
  },
  {
   "type": "Feature",
   "geometry": {
    "type": "Point",
    "coordinates": [
     148.05919859,
     -34.05837158
    ]
   },
   "properties": {
    "name": "796 ASHVILLE SCHOOL ROAD KIKIAMAH 2594",
    "locID": "LOC000063320655",
    "tech": "SATELLITE",
    "upgrade": "NULL_NA",
    "gnaf_pid": "GANSW716626013",
    "tech_change_status": "Not Planned"
   }
  },
  {
   "type": "Feature",
   "geometry": {
    "type": "Point",
    "coordinates": [
     148.06503084,
     -34.07146828
    ]
   },
   "properties": {
    "name": "110 BARRIES LANE KIKIAMAH 2594",
    "locID": "LOC000035951465",
    "tech": "SATELLITE",
    "upgrade": "NULL_NA",
    "gnaf_pid": "GANSW716626323",
    "tech_change_status": "Not Planned"
   }
  },
  {
   "type": "Feature",
   "geometry": {
    "type": "Point",
    "coordinates": [
     148.05272294,
     -34.04767818
    ]
   },
   "properties": {
    "name": "61 BILLICOTT ROAD KIKIAMAH 2594",
    "locID": "LOC000068801484",
    "tech": "NULL",
    "upgrade": "NULL_NA",
    "gnaf_pid": "GANSW716626869",
    "tech_change_status": "Not Planned"
   }
  },
  {
   "type": "Feature",
   "geometry": {
    "type": "Point",
    "coordinates": [
     148.0916865,
     -34.05287859
    ]
   },
   "properties": {
    "name": "1066 BLAYNEYS ROAD KIKIAMAH 2594",
    "locID": "LOC000005621107",
    "tech": "SATELLITE",
    "upgrade": "NULL_NA",
    "gnaf_pid": "GANSW716626980",
    "tech_change_status": "Not Planned"
   }
  },
  {
   "type": "Feature",
   "geometry": {
    "type": "Point",
    "coordinates": [
     148.08000126,
     -34.0479463
    ]
   },
   "properties": {
    "name": "1230 BLAYNEYS ROAD KIKIAMAH 2594",
    "locID": "LOC000052843260",
    "tech": "SATELLITE",
    "upgrade": "NULL_NA",
    "gnaf_pid": "GANSW716626981",
    "tech_change_status": "Not Planned"
   }
  },
  {
   "type": "Feature",
   "geometry": {
    "type": "Point",
    "coordinates": [
     148.12890633,
     -34.0723429
    ]
   },
   "properties": {
    "name": "799 KIKIAMAH LANE KIKIAMAH 2594",
    "locID": "LOC000052829089",
    "tech": "NULL",
    "upgrade": "NULL_NA",
    "gnaf_pid": "GANSW716633920",
    "tech_change_status": "Not Planned"
   }
  },
  {
   "type": "Feature",
   "geometry": {
    "type": "Point",
    "coordinates": [
     148.15009464,
     -34.11585077
    ]
   },
   "properties": {
    "name": "874 KIKIAMAH LANE KIKIAMAH 2594",
    "locID": "LOC000102255461",
    "tech": "SATELLITE",
    "upgrade": "NULL_NA",
    "gnaf_pid": "GANSW716633921",
    "tech_change_status": "Not Planned"
   }
  },
  {
   "type": "Feature",
   "geometry": {
    "type": "Point",
    "coordinates": [
     148.166211,
     -34.08942428
    ]
   },
   "properties": {
    "name": "60 LIRAMBENDA LANE KIKIAMAH 2594",
    "locID": "LOC000100008200",
    "tech": "SATELLITE",
    "upgrade": "NULL_NA",
    "gnaf_pid": "GANSW716634665",
    "tech_change_status": "Not Planned"
   }
  },
  {
   "type": "Feature",
   "geometry": {
    "type": "Point",
    "coordinates": [
     148.11584381,
     -34.12682693
    ]
   },
   "properties": {
    "name": "44 MCLAUGHLINS ROAD KIKIAMAH 2594",
    "locID": "LOC000017632344",
    "tech": "NULL",
    "upgrade": "NULL_NA",
    "gnaf_pid": "GANSW716636265",
    "tech_change_status": "Not Planned"
   }
  },
  {
   "type": "Feature",
   "geometry": {
    "type": "Point",
    "coordinates": [
     148.18319065,
     -34.10827123
    ]
   },
   "properties": {
    "name": "1063 OLD FORBES ROAD KIKIAMAH 2594",
    "locID": "LOC000059777391",
    "tech": "WIRELESS",
    "upgrade": "NULL_NA",
    "gnaf_pid": "GANSW716637622",
    "tech_change_status": "Not Planned",
    "program_type": "Fixed Wireless and Satellite Upgrade Program",
    "target_eligibility_quarter": "NA"
   }
  },
  {
   "type": "Feature",
   "geometry": {
    "type": "Point",
    "coordinates": [
     148.23535629,
     -34.15127159
    ]
   },
   "properties": {
    "name": "455 OLD FORBES ROAD KIKIAMAH 2594",
    "locID": "LOC000038000879",
    "tech": "WIRELESS",
    "upgrade": "NULL_NA",
    "gnaf_pid": "GANSW716637624",
    "tech_change_status": "Not Planned"
   }
  },
  {
   "type": "Feature",
   "geometry": {
    "type": "Point",
    "coordinates": [
     148.21725602,
     -34.15192064
    ]
   },
   "properties": {
    "name": "525 OLD FORBES ROAD KIKIAMAH 2594",
    "locID": "LOC000017280619",
    "tech": "WIRELESS",
    "upgrade": "NULL_NA",
    "gnaf_pid": "GANSW716637625",
    "tech_change_status": "Not Planned",
    "program_type": "Fixed Wireless and Satellite Upgrade Program",
    "target_eligibility_quarter": "NA"
   }
  },
  {
   "type": "Feature",
   "geometry": {
    "type": "Point",
    "coordinates": [
     148.22139378,
     -34.13089879
    ]
   },
   "properties": {
    "name": "540 OLD FORBES ROAD KIKIAMAH 2594",
    "locID": "LOC000057881646",
    "tech": "WIRELESS",
    "upgrade": "NULL_NA",
    "gnaf_pid": "GANSW716637626",
    "tech_change_status": "Not Planned",
    "program_type": "Fixed Wireless and Satellite Upgrade Program",
    "target_eligibility_quarter": "NA"
   }
  },
  {
   "type": "Feature",
   "geometry": {
    "type": "Point",
    "coordinates": [
     148.18458822,
     -34.14148876
    ]
   },
   "properties": {
    "name": "763 OLD FORBES ROAD KIKIAMAH 2594",
    "locID": "LOC000053183372",
    "tech": "WIRELESS",
    "upgrade": "NULL_NA",
    "gnaf_pid": "GANSW716637627",
    "tech_change_status": "Not Planned",
    "program_type": "Fixed Wireless and Satellite Upgrade Program",
    "target_eligibility_quarter": "NA"
   }
  },
  {
   "type": "Feature",
   "geometry": {
    "type": "Point",
    "coordinates": [
     148.18946442,
     -34.11210009
    ]
   },
   "properties": {
    "name": "999 OLD FORBES ROAD KIKIAMAH 2594",
    "locID": "LOC100078093616",
    "tech": "WIRELESS",
    "upgrade": "NULL_NA",
    "gnaf_pid": "GANSW716637628",
    "tech_change_status": "Not Planned",
    "program_type": "Fixed Wireless and Satellite Upgrade Program",
    "target_eligibility_quarter": "NA"
   }
  },
  {
   "type": "Feature",
   "geometry": {
    "type": "Point",
    "coordinates": [
     148.17718639,
     -34.06719981
    ]
   },
   "properties": {
    "name": "730 SUNSET LANE KIKIAMAH 2594",
    "locID": "LOC000009655100",
    "tech": "SATELLITE",
    "upgrade": "NULL_NA",
    "gnaf_pid": "GANSW716641346",
    "tech_change_status": "Not Planned"
   }
  },
  {
   "type": "Feature",
   "geometry": {
    "type": "Point",
    "coordinates": [
     148.01997094,
     -34.03211448
    ]
   },
   "properties": {
    "name": "362 BILLICOTT ROAD KIKIAMAH 2594",
    "locID": "LOC100078091619",
    "tech": "NULL",
    "upgrade": "NULL_NA",
    "gnaf_pid": "GANSW716727902",
    "tech_change_status": "Not Planned"
   }
  },
  {
   "type": "Feature",
   "geometry": {
    "type": "Point",
    "coordinates": [
     148.1222464,
     -34.08901752
    ]
   },
   "properties": {
    "name": "669 KIKIAMAH LANE KIKIAMAH 2594",
    "locID": "LOC000082260555",
    "tech": "WIRELESS",
    "upgrade": "NULL_NA",
    "gnaf_pid": "GANSW716735433",
    "tech_change_status": "Not Planned",
    "program_type": "Fixed Wireless and Satellite Upgrade Program",
    "target_eligibility_quarter": "NA"
   }
  },
  {
   "type": "Feature",
   "geometry": {
    "type": "Point",
    "coordinates": [
     148.16044904,
     -34.08771355
    ]
   },
   "properties": {
    "name": "115 LIRAMBENDA LANE KIKIAMAH 2594",
    "locID": "LOC100078092960",
    "tech": "SATELLITE",
    "upgrade": "NULL_NA",
    "gnaf_pid": "GANSW716736247",
    "tech_change_status": "Not Planned"
   }
  },
  {
   "type": "Feature",
   "geometry": {
    "type": "Point",
    "coordinates": [
     148.17284656,
     -34.08487929
    ]
   },
   "properties": {
    "name": "130 LIRAMBENDA LANE KIKIAMAH 2594",
    "locID": "LOC000121673039",
    "tech": "SATELLITE",
    "upgrade": "NULL_NA",
    "gnaf_pid": "GANSW716736248",
    "tech_change_status": "Not Planned"
   }
  },
  {
   "type": "Feature",
   "geometry": {
    "type": "Point",
    "coordinates": [
     148.16379393,
     -34.08773018
    ]
   },
   "properties": {
    "name": "71 LIRAMBENDA LANE KIKIAMAH 2594",
    "locID": "LOC000121690012",
    "tech": "WIRELESS",
    "upgrade": "NULL_NA",
    "gnaf_pid": "GANSW716736250",
    "tech_change_status": "Not Planned",
    "program_type": "Fixed Wireless and Satellite Upgrade Program",
    "target_eligibility_quarter": "NA"
   }
  },
  {
   "type": "Feature",
   "geometry": {
    "type": "Point",
    "coordinates": [
     148.23508415,
     -34.13421736
    ]
   },
   "properties": {
    "name": "150 OLD FORBES ROAD KIKIAMAH 2594",
    "locID": "LOC000051488912",
    "tech": "WIRELESS",
    "upgrade": "NULL_NA",
    "gnaf_pid": "GANSW717169354",
    "tech_change_status": "Not Planned"
   }
  },
  {
   "type": "Feature",
   "geometry": {
    "type": "Point",
    "coordinates": [
     148.17809964,
     -34.10089513
    ]
   },
   "properties": {
    "name": "1100 OLD FORBES ROAD KIKIAMAH 2594",
    "locID": "LOC000011419753",
    "tech": "WIRELESS",
    "upgrade": "NULL_NA",
    "gnaf_pid": "GANSW717342266",
    "tech_change_status": "Not Planned",
    "program_type": "Fixed Wireless and Satellite Upgrade Program",
    "target_eligibility_quarter": "NA"
   }
  },
  {
   "type": "Feature",
   "geometry": {
    "type": "Point",
    "coordinates": [
     148.20021739,
     -34.08056756
    ]
   },
   "properties": {
    "name": "300 SUNSET LANE KIKIAMAH 2594",
    "locID": "LOC000008988895",
    "tech": "SATELLITE",
    "upgrade": "WIRELESS",
    "gnaf_pid": "GANSW717588841",
    "tech_change_status": "Eligible to Order",
    "program_type": "Fixed Wireless and Satellite Upgrade Program",
    "target_eligibility_quarter": "NA"
   }
  },
  {
   "type": "Feature",
   "geometry": {
    "type": "Point",
    "coordinates": [
     148.1024569,
     -34.08653269
    ]
   },
   "properties": {
    "name": "114 CARTERS LANE KIKIAMAH 2594",
    "locID": "LOC000057044291",
    "tech": "WIRELESS",
    "upgrade": "NULL_NA",
    "gnaf_pid": "GANSW717592496",
    "tech_change_status": "Not Planned",
    "program_type": "Fixed Wireless and Satellite Upgrade Program",
    "target_eligibility_quarter": "NA"
   }
  },
  {
   "type": "Feature",
   "geometry": {
    "type": "Point",
    "coordinates": [
     148.19535073,
     -34.06955847
    ]
   },
   "properties": {
    "name": "487 SUNSET LANE KIKIAMAH 2594",
    "locID": "LOC000087283962",
    "tech": "SATELLITE",
    "upgrade": "NULL_NA",
    "gnaf_pid": "GANSW717719350",
    "tech_change_status": "Not Planned"
   }
  },
  {
   "type": "Feature",
   "geometry": {
    "type": "Point",
    "coordinates": [
     148.05075282,
     -34.08384057
    ]
   },
   "properties": {
    "name": "23 TAUNTONS ROAD KIKIAMAH 2594",
    "locID": "LOC000109146703",
    "tech": "NULL",
    "upgrade": "NULL_NA",
    "gnaf_pid": "GANSW717901084",
    "tech_change_status": "Not Planned"
   }
  },
  {
   "type": "Feature",
   "geometry": {
    "type": "Point",
    "coordinates": [
     148.04278878,
     -34.0351992
    ]
   },
   "properties": {
    "name": "115 MARTENS ROAD KIKIAMAH 2594",
    "locID": "LOC000121720735",
    "tech": "SATELLITE",
    "upgrade": "NULL_NA",
    "gnaf_pid": "GANSW718265980",
    "tech_change_status": "Not Planned"
   }
  },
  {
   "type": "Feature",
   "geometry": {
    "type": "Point",
    "coordinates": [
     148.01388935,
     -34.03447841
    ]
   },
   "properties": {
    "name": "97 HEATHCOTES LANE KIKIAMAH 2594",
    "locID": "LOC000121714154",
    "tech": "WIRELESS",
    "upgrade": "NULL_NA",
    "gnaf_pid": "GANSW720547857",
    "tech_change_status": "Not Planned"
   }
  }
 ]
}