{
 "type": "FeatureCollection",
 "generated": "2026-04-22T16:55:43.984283",
 "suburb": "KINGSVALE",
 "features": [
  {
   "type": "Feature",
   "geometry": {
    "type": "Point",
    "coordinates": [
     148.30857705,
     -34.46285254
    ]
   },
   "properties": {
    "name": "76 HUNTLEIGH ROAD KINGSVALE 2587",
    "locID": "LOC000084979361",
    "tech": "WIRELESS",
    "upgrade": "NULL_NA",
    "gnaf_pid": "GANSW709484644"
   }
  },
  {
   "type": "Feature",
   "geometry": {
    "type": "Point",
    "coordinates": [
     148.33179356,
     -34.39999203
    ]
   },
   "properties": {
    "name": "1 KINGSVALE ROAD KINGSVALE 2587",
    "locID": "LOC000121450158",
    "tech": "WIRELESS",
    "upgrade": "NULL_NA",
    "gnaf_pid": "GANSW712686397",
    "tech_change_status": "Not Planned",
    "program_type": "Fixed Wireless and Satellite Upgrade Program",
    "target_eligibility_quarter": "NA"
   }
  },
  {
   "type": "Feature",
   "geometry": {
    "type": "Point",
    "coordinates": [
     148.33179356,
     -34.39999203
    ]
   },
   "properties": {
    "name": "2 KINGSVALE ROAD KINGSVALE 2587",
    "locID": "LOC000088516666",
    "tech": "WIRELESS",
    "upgrade": "NULL_NA",
    "gnaf_pid": "GANSW712686398",
    "tech_change_status": "Not Planned",
    "program_type": "Fixed Wireless and Satellite Upgrade Program",
    "target_eligibility_quarter": "NA"
   }
  },
  {
   "type": "Feature",
   "geometry": {
    "type": "Point",
    "coordinates": [
     148.30465337,
     -34.44645575
    ]
   },
   "properties": {
    "name": "29 PINE ROAD KINGSVALE 2587",
    "locID": "LOC100081341098",
    "tech": "WIRELESS",
    "upgrade": "NULL_NA",
    "gnaf_pid": "GANSW712686400",
    "tech_change_status": "Not Planned",
    "program_type": "Fixed Wireless and Satellite Upgrade Program",
    "target_eligibility_quarter": "NA"
   }
  },
  {
   "type": "Feature",
   "geometry": {
    "type": "Point",
    "coordinates": [
     148.32256778,
     -34.40184749
    ]
   },
   "properties": {
    "name": "93 PRUNEVALE ROAD KINGSVALE 2587",
    "locID": "LOC000034757482",
    "tech": "WIRELESS",
    "upgrade": "NULL_NA",
    "gnaf_pid": "GANSW713279543",
    "tech_change_status": "Not Planned",
    "program_type": "Fixed Wireless and Satellite Upgrade Program",
    "target_eligibility_quarter": "NA"
   }
  },
  {
   "type": "Feature",
   "geometry": {
    "type": "Point",
    "coordinates": [
     148.31866798,
     -34.40547382
    ]
   },
   "properties": {
    "name": "99 PRUNEVALE ROAD KINGSVALE 2587",
    "locID": "LOC000046088115",
    "tech": "WIRELESS",
    "upgrade": "NULL_NA",
    "gnaf_pid": "GANSW713279544",
    "tech_change_status": "Not Planned",
    "program_type": "Fixed Wireless and Satellite Upgrade Program",
    "target_eligibility_quarter": "NA"
   }
  },
  {
   "type": "Feature",
   "geometry": {
    "type": "Point",
    "coordinates": [
     148.32275004,
     -34.40402767
    ]
   },
   "properties": {
    "name": "97 PRUNEVALE ROAD KINGSVALE 2587",
    "locID": "LOC100078104188",
    "tech": "WIRELESS",
    "upgrade": "NULL_NA",
    "gnaf_pid": "GANSW713279547",
    "tech_change_status": "Not Planned",
    "program_type": "Fixed Wireless and Satellite Upgrade Program",
    "target_eligibility_quarter": "NA"
   }
  },
  {
   "type": "Feature",
   "geometry": {
    "type": "Point",
    "coordinates": [
     148.32456577,
     -34.39836089
    ]
   },
   "properties": {
    "name": "94 PRUNEVALE ROAD KINGSVALE 2587",
    "locID": "LOC000121429449",
    "tech": "WIRELESS",
    "upgrade": "NULL_NA",
    "gnaf_pid": "GANSW713279548",
    "tech_change_status": "Not Planned",
    "program_type": "Fixed Wireless and Satellite Upgrade Program",
    "target_eligibility_quarter": "NA"
   }
  },
  {
   "type": "Feature",
   "geometry": {
    "type": "Point",
    "coordinates": [
     148.32275004,
     -34.40402767
    ]
   },
   "properties": {
    "name": "89 PRUNEVALE ROAD KINGSVALE 2587",
    "locID": "LOC000121473675",
    "tech": "WIRELESS",
    "upgrade": "NULL_NA",
    "gnaf_pid": "GANSW713279551",
    "tech_change_status": "Not Planned",
    "program_type": "Fixed Wireless and Satellite Upgrade Program",
    "target_eligibility_quarter": "NA"
   }
  },
  {
   "type": "Feature",
   "geometry": {
    "type": "Point",
    "coordinates": [
     148.32729491,
     -34.4023524
    ]
   },
   "properties": {
    "name": "101 PRUNEVALE ROAD KINGSVALE 2587",
    "locID": "LOC000121428976",
    "tech": "WIRELESS",
    "upgrade": "NULL_NA",
    "gnaf_pid": "GANSW715397251",
    "tech_change_status": "Not Planned",
    "program_type": "Fixed Wireless and Satellite Upgrade Program",
    "target_eligibility_quarter": "NA"
   }
  },
  {
   "type": "Feature",
   "geometry": {
    "type": "Point",
    "coordinates": [
     148.31421389,
     -34.43694188
    ]
   },
   "properties": {
    "name": "3 BACK CREEK ROAD KINGSVALE 2587",
    "locID": "LOC000042989891",
    "tech": "FTTP",
    "upgrade": "FTTP_NA",
    "gnaf_pid": "GANSW716487822",
    "tech_change_status": "Previous Tech Disconnected",
    "program_type": "On-Demand N2P SDU/MDU Simple",
    "target_eligibility_quarter": "NA"
   }
  },
  {
   "type": "Feature",
   "geometry": {
    "type": "Point",
    "coordinates": [
     148.32000258,
     -34.43524683
    ]
   },
   "properties": {
    "name": "1479 BACK CREEK ROAD KINGSVALE 2587",
    "locID": "LOC000121449952",
    "tech": "WIRELESS",
    "upgrade": "NULL_NA",
    "gnaf_pid": "GANSW717690183",
    "tech_change_status": "Not Planned",
    "program_type": "Fixed Wireless and Satellite Upgrade Program",
    "target_eligibility_quarter": "NA"
   }
  },
  {
   "type": "Feature",
   "geometry": {
    "type": "Point",
    "coordinates": [
     148.31012871,
     -34.40632354
    ]
   },
   "properties": {
    "name": "939 BACK CREEK ROAD KINGSVALE 2587",
    "locID": "LOC000005477119",
    "tech": "WIRELESS",
    "upgrade": "NULL_NA",
    "gnaf_pid": "GANSW717690184",
    "tech_change_status": "Not Planned",
    "program_type": "Fixed Wireless and Satellite Upgrade Program",
    "target_eligibility_quarter": "NA"
   }
  },
  {
   "type": "Feature",
   "geometry": {
    "type": "Point",
    "coordinates": [
     148.34659326,
     -34.41104912
    ]
   },
   "properties": {
    "name": "126 BONNIE DOON ROAD KINGSVALE 2587",
    "locID": "LOC100078103409",
    "tech": "WIRELESS",
    "upgrade": "NULL_NA",
    "gnaf_pid": "GANSW717692023",
    "tech_change_status": "Not Planned",
    "program_type": "Fixed Wireless and Satellite Upgrade Program",
    "target_eligibility_quarter": "NA"
   }
  },
  {
   "type": "Feature",
   "geometry": {
    "type": "Point",
    "coordinates": [
     148.33292915,
     -34.40953031
    ]
   },
   "properties": {
    "name": "24 BONNIE DOON ROAD KINGSVALE 2587",
    "locID": "LOC000121473274",
    "tech": "WIRELESS",
    "upgrade": "NULL_NA",
    "gnaf_pid": "GANSW717692026",
    "tech_change_status": "Not Planned",
    "program_type": "Fixed Wireless and Satellite Upgrade Program",
    "target_eligibility_quarter": "NA"
   }
  },
  {
   "type": "Feature",
   "geometry": {
    "type": "Point",
    "coordinates": [
     148.32445953,
     -34.41132603
    ]
   },
   "properties": {
    "name": "167 BONNINGTON ROAD KINGSVALE 2587",
    "locID": "LOC000094162004",
    "tech": "WIRELESS",
    "upgrade": "NULL_NA",
    "gnaf_pid": "GANSW717692036",
    "tech_change_status": "Not Planned",
    "program_type": "Fixed Wireless and Satellite Upgrade Program",
    "target_eligibility_quarter": "NA"
   }
  },
  {
   "type": "Feature",
   "geometry": {
    "type": "Point",
    "coordinates": [
     148.32864736,
     -34.41501508
    ]
   },
   "properties": {
    "name": "214 BONNINGTON ROAD KINGSVALE 2587",
    "locID": "LOC000073624721",
    "tech": "WIRELESS",
    "upgrade": "NULL_NA",
    "gnaf_pid": "GANSW717692037",
    "tech_change_status": "Not Planned",
    "program_type": "Fixed Wireless and Satellite Upgrade Program",
    "target_eligibility_quarter": "NA"
   }
  },
  {
   "type": "Feature",
   "geometry": {
    "type": "Point",
    "coordinates": [
     148.31475945,
     -34.41270219
    ]
   },
   "properties": {
    "name": "64 BONNINGTON ROAD KINGSVALE 2587",
    "locID": "LOC000080774156",
    "tech": "WIRELESS",
    "upgrade": "NULL_NA",
    "gnaf_pid": "GANSW717692038",
    "tech_change_status": "Not Planned",
    "program_type": "Fixed Wireless and Satellite Upgrade Program",
    "target_eligibility_quarter": "NA"
   }
  },
  {
   "type": "Feature",
   "geometry": {
    "type": "Point",
    "coordinates": [
     148.31650465,
     -34.40901865
    ]
   },
   "properties": {
    "name": "95 BONNINGTON ROAD KINGSVALE 2587",
    "locID": "LOC000066367701",
    "tech": "WIRELESS",
    "upgrade": "NULL_NA",
    "gnaf_pid": "GANSW717692039",
    "tech_change_status": "Not Planned",
    "program_type": "Fixed Wireless and Satellite Upgrade Program",
    "target_eligibility_quarter": "NA"
   }
  },
  {
   "type": "Feature",
   "geometry": {
    "type": "Point",
    "coordinates": [
     148.36140926,
     -34.42362085
    ]
   },
   "properties": {
    "name": "324 BROKEN DAM ROAD KINGSVALE 2587",
    "locID": "LOC000149261349",
    "tech": "WIRELESS",
    "upgrade": "NULL_NA",
    "gnaf_pid": "GANSW717693007",
    "tech_change_status": "Not Planned",
    "program_type": "Fixed Wireless and Satellite Upgrade Program",
    "target_eligibility_quarter": "NA"
   }
  },
  {
   "type": "Feature",
   "geometry": {
    "type": "Point",
    "coordinates": [
     148.35129238,
     -34.42135905
    ]
   },
   "properties": {
    "name": "546 BROKEN DAM ROAD KINGSVALE 2587",
    "locID": "LOC000183083846",
    "tech": "WIRELESS",
    "upgrade": "NULL_NA",
    "gnaf_pid": "GANSW717693008",
    "tech_change_status": "Not Planned",
    "program_type": "Fixed Wireless and Satellite Upgrade Program",
    "target_eligibility_quarter": "NA"
   }
  },
  {
   "type": "Feature",
   "geometry": {
    "type": "Point",
    "coordinates": [
     148.34882806,
     -34.45627467
    ]
   },
   "properties": {
    "name": "1247 CURRAWONG ROAD KINGSVALE 2587",
    "locID": "LOC000121440331",
    "tech": "SATELLITE",
    "upgrade": "NULL_NA",
    "gnaf_pid": "GANSW717697721",
    "tech_change_status": "Not Planned"
   }
  },
  {
   "type": "Feature",
   "geometry": {
    "type": "Point",
    "coordinates": [
     148.34415599,
     -34.43750711
    ]
   },
   "properties": {
    "name": "1388 CURRAWONG ROAD KINGSVALE 2587",
    "locID": "LOC000017327086",
    "tech": "SATELLITE",
    "upgrade": "NULL_NA",
    "gnaf_pid": "GANSW717697722",
    "tech_change_status": "Not Planned"
   }
  },
  {
   "type": "Feature",
   "geometry": {
    "type": "Point",
    "coordinates": [
     148.32429816,
     -34.44122198
    ]
   },
   "properties": {
    "name": "1535 CURRAWONG ROAD KINGSVALE 2587",
    "locID": "LOC000041955863",
    "tech": "SATELLITE",
    "upgrade": "NULL_NA",
    "gnaf_pid": "GANSW717697723",
    "tech_change_status": "Not Planned"
   }
  },
  {
   "type": "Feature",
   "geometry": {
    "type": "Point",
    "coordinates": [
     148.30549132,
     -34.46425545
    ]
   },
   "properties": {
    "name": "103 HUNTLEIGH ROAD KINGSVALE 2587",
    "locID": "LOC000010442748",
    "tech": "WIRELESS",
    "upgrade": "NULL_NA",
    "gnaf_pid": "GANSW717704401",
    "tech_change_status": "Not Planned",
    "program_type": "Fixed Wireless and Satellite Upgrade Program",
    "target_eligibility_quarter": "NA"
   }
  },
  {
   "type": "Feature",
   "geometry": {
    "type": "Point",
    "coordinates": [
     148.30523732,
     -34.46240457
    ]
   },
   "properties": {
    "name": "106 HUNTLEIGH ROAD KINGSVALE 2587",
    "locID": "LOC000084972473",
    "tech": "WIRELESS",
    "upgrade": "NULL_NA",
    "gnaf_pid": "GANSW717704402",
    "tech_change_status": "Not Planned",
    "program_type": "Fixed Wireless and Satellite Upgrade Program",
    "target_eligibility_quarter": "NA"
   }
  },
  {
   "type": "Feature",
   "geometry": {
    "type": "Point",
    "coordinates": [
     148.29867183,
     -34.46156489
    ]
   },
   "properties": {
    "name": "170 HUNTLEIGH ROAD KINGSVALE 2587",
    "locID": "LOC000039813191",
    "tech": "WIRELESS",
    "upgrade": "NULL_NA",
    "gnaf_pid": "GANSW717704403",
    "tech_change_status": "Not Planned",
    "program_type": "Fixed Wireless and Satellite Upgrade Program",
    "target_eligibility_quarter": "NA"
   }
  },
  {
   "type": "Feature",
   "geometry": {
    "type": "Point",
    "coordinates": [
     148.29487294,
     -34.46263062
    ]
   },
   "properties": {
    "name": "212 HUNTLEIGH ROAD KINGSVALE 2587",
    "locID": "LOC000034007646",
    "tech": "WIRELESS",
    "upgrade": "NULL_NA",
    "gnaf_pid": "GANSW717704404",
    "tech_change_status": "Not Planned",
    "program_type": "Fixed Wireless and Satellite Upgrade Program",
    "target_eligibility_quarter": "NA"
   }
  },
  {
   "type": "Feature",
   "geometry": {
    "type": "Point",
    "coordinates": [
     148.29698814,
     -34.46358972
    ]
   },
   "properties": {
    "name": "225 HUNTLEIGH ROAD KINGSVALE 2587",
    "locID": "LOC000027279438",
    "tech": "WIRELESS",
    "upgrade": "NULL_NA",
    "gnaf_pid": "GANSW717704405",
    "tech_change_status": "Not Planned",
    "program_type": "Fixed Wireless and Satellite Upgrade Program",
    "target_eligibility_quarter": "NA"
   }
  },
  {
   "type": "Feature",
   "geometry": {
    "type": "Point",
    "coordinates": [
     148.29428894,
     -34.46439473
    ]
   },
   "properties": {
    "name": "228 HUNTLEIGH ROAD KINGSVALE 2587",
    "locID": "LOC000177389589",
    "tech": "WIRELESS",
    "upgrade": "NULL_NA",
    "gnaf_pid": "GANSW717704406",
    "tech_change_status": "Not Planned",
    "program_type": "Fixed Wireless and Satellite Upgrade Program",
    "target_eligibility_quarter": "NA"
   }
  },
  {
   "type": "Feature",
   "geometry": {
    "type": "Point",
    "coordinates": [
     148.28542356,
     -34.46474462
    ]
   },
   "properties": {
    "name": "334 HUNTLEIGH ROAD KINGSVALE 2587",
    "locID": "LOC000047530457",
    "tech": "WIRELESS",
    "upgrade": "NULL_NA",
    "gnaf_pid": "GANSW717704407",
    "tech_change_status": "Not Planned",
    "program_type": "Fixed Wireless and Satellite Upgrade Program",
    "target_eligibility_quarter": "NA"
   }
  },
  {
   "type": "Feature",
   "geometry": {
    "type": "Point",
    "coordinates": [
     148.31283944,
     -34.46341826
    ]
   },
   "properties": {
    "name": "38 HUNTLEIGH ROAD KINGSVALE 2587",
    "locID": "LOC000061941582",
    "tech": "WIRELESS",
    "upgrade": "NULL_NA",
    "gnaf_pid": "GANSW717704408",
    "tech_change_status": "Not Planned",
    "program_type": "Fixed Wireless and Satellite Upgrade Program",
    "target_eligibility_quarter": "NA"
   }
  },
  {
   "type": "Feature",
   "geometry": {
    "type": "Point",
    "coordinates": [
     148.3198804,
     -34.44065947
    ]
   },
   "properties": {
    "name": "1003 KINGSVALE ROAD KINGSVALE 2587",
    "locID": "LOC000121428911",
    "tech": "WIRELESS",
    "upgrade": "NULL_NA",
    "gnaf_pid": "GANSW717705982",
    "tech_change_status": "Not Planned",
    "program_type": "Fixed Wireless and Satellite Upgrade Program",
    "target_eligibility_quarter": "NA"
   }
  },
  {
   "type": "Feature",
   "geometry": {
    "type": "Point",
    "coordinates": [
     148.32077211,
     -34.44050098
    ]
   },
   "properties": {
    "name": "1011 KINGSVALE ROAD KINGSVALE 2587",
    "locID": "LOC000121428976",
    "tech": "WIRELESS",
    "upgrade": "NULL_NA",
    "gnaf_pid": "GANSW717705983",
    "tech_change_status": "Not Planned",
    "program_type": "Fixed Wireless and Satellite Upgrade Program",
    "target_eligibility_quarter": "NA"
   }
  },
  {
   "type": "Feature",
   "geometry": {
    "type": "Point",
    "coordinates": [
     148.33884056,
     -34.4273418
    ]
   },
   "properties": {
    "name": "1180 KINGSVALE ROAD KINGSVALE 2587",
    "locID": "LOC000121436654",
    "tech": "NULL",
    "upgrade": "NULL_NA",
    "gnaf_pid": "GANSW717705986",
    "tech_change_status": "Not Planned"
   }
  },
  {
   "type": "Feature",
   "geometry": {
    "type": "Point",
    "coordinates": [
     148.33000516,
     -34.42737013
    ]
   },
   "properties": {
    "name": "1182 KINGSVALE ROAD KINGSVALE 2587",
    "locID": "LOC000121436665",
    "tech": "WIRELESS",
    "upgrade": "NULL_NA",
    "gnaf_pid": "GANSW717705987",
    "tech_change_status": "Not Planned",
    "program_type": "Fixed Wireless and Satellite Upgrade Program",
    "target_eligibility_quarter": "NA"
   }
  },
  {
   "type": "Feature",
   "geometry": {
    "type": "Point",
    "coordinates": [
     148.32699424,
     -34.42474823
    ]
   },
   "properties": {
    "name": "1221 KINGSVALE ROAD KINGSVALE 2587",
    "locID": "LOC000121440267",
    "tech": "WIRELESS",
    "upgrade": "NULL_NA",
    "gnaf_pid": "GANSW717705988",
    "tech_change_status": "Not Planned",
    "program_type": "Fixed Wireless and Satellite Upgrade Program",
    "target_eligibility_quarter": "NA"
   }
  },
  {
   "type": "Feature",
   "geometry": {
    "type": "Point",
    "coordinates": [
     148.33477336,
     -34.40491371
    ]
   },
   "properties": {
    "name": "1466 KINGSVALE ROAD KINGSVALE 2587",
    "locID": "LOC000121449923",
    "tech": "WIRELESS",
    "upgrade": "NULL_NA",
    "gnaf_pid": "GANSW717705990",
    "tech_change_status": "Not Planned",
    "program_type": "Fixed Wireless and Satellite Upgrade Program",
    "target_eligibility_quarter": "NA"
   }
  },
  {
   "type": "Feature",
   "geometry": {
    "type": "Point",
    "coordinates": [
     148.33177897,
     -34.40124675
    ]
   },
   "properties": {
    "name": "1507 KINGSVALE ROAD KINGSVALE 2587",
    "locID": "LOC000121450039",
    "tech": "WIRELESS",
    "upgrade": "NULL_NA",
    "gnaf_pid": "GANSW717705991",
    "tech_change_status": "Not Planned",
    "program_type": "Fixed Wireless and Satellite Upgrade Program",
    "target_eligibility_quarter": "NA"
   }
  },
  {
   "type": "Feature",
   "geometry": {
    "type": "Point",
    "coordinates": [
     148.33128629,
     -34.3979294
    ]
   },
   "properties": {
    "name": "1555 KINGSVALE ROAD KINGSVALE 2587",
    "locID": "LOC000121450143",
    "tech": "WIRELESS",
    "upgrade": "NULL_NA",
    "gnaf_pid": "GANSW717705992",
    "tech_change_status": "Not Planned",
    "program_type": "Fixed Wireless and Satellite Upgrade Program",
    "target_eligibility_quarter": "NA"
   }
  },
  {
   "type": "Feature",
   "geometry": {
    "type": "Point",
    "coordinates": [
     148.32907666,
     -34.3858421
    ]
   },
   "properties": {
    "name": "1750 KINGSVALE ROAD KINGSVALE 2587",
    "locID": "LOC000121456374",
    "tech": "WIRELESS",
    "upgrade": "NULL_NA",
    "gnaf_pid": "GANSW717705994",
    "tech_change_status": "Not Planned",
    "program_type": "Fixed Wireless and Satellite Upgrade Program",
    "target_eligibility_quarter": "NA"
   }
  },
  {
   "type": "Feature",
   "geometry": {
    "type": "Point",
    "coordinates": [
     148.32299726,
     -34.48164703
    ]
   },
   "properties": {
    "name": "512 KINGSVALE ROAD KINGSVALE 2587",
    "locID": "LOC000121456576",
    "tech": "WIRELESS",
    "upgrade": "NULL_NA",
    "gnaf_pid": "GANSW717705995",
    "tech_change_status": "Not Planned",
    "program_type": "Fixed Wireless and Satellite Upgrade Program",
    "target_eligibility_quarter": "NA"
   }
  },
  {
   "type": "Feature",
   "geometry": {
    "type": "Point",
    "coordinates": [
     148.31657778,
     -34.48112237
    ]
   },
   "properties": {
    "name": "531 KINGSVALE ROAD KINGSVALE 2587",
    "locID": "LOC000121456666",
    "tech": "WIRELESS",
    "upgrade": "NULL_NA",
    "gnaf_pid": "GANSW717705996",
    "tech_change_status": "Not Planned",
    "program_type": "Fixed Wireless and Satellite Upgrade Program",
    "target_eligibility_quarter": "NA"
   }
  },
  {
   "type": "Feature",
   "geometry": {
    "type": "Point",
    "coordinates": [
     148.31959088,
     -34.44983111
    ]
   },
   "properties": {
    "name": "893 KINGSVALE ROAD KINGSVALE 2587",
    "locID": "LOC000121473675",
    "tech": "WIRELESS",
    "upgrade": "NULL_NA",
    "gnaf_pid": "GANSW717705997",
    "tech_change_status": "Not Planned",
    "program_type": "Fixed Wireless and Satellite Upgrade Program",
    "target_eligibility_quarter": "NA"
   }
  },
  {
   "type": "Feature",
   "geometry": {
    "type": "Point",
    "coordinates": [
     148.31997782,
     -34.44658506
    ]
   },
   "properties": {
    "name": "941 KINGSVALE ROAD KINGSVALE 2587",
    "locID": "LOC000121429449",
    "tech": "WIRELESS",
    "upgrade": "NULL_NA",
    "gnaf_pid": "GANSW717705999",
    "tech_change_status": "Not Planned",
    "program_type": "Fixed Wireless and Satellite Upgrade Program",
    "target_eligibility_quarter": "NA"
   }
  },
  {
   "type": "Feature",
   "geometry": {
    "type": "Point",
    "coordinates": [
     148.32045501,
     -34.44348643
    ]
   },
   "properties": {
    "name": "973 KINGSVALE ROAD KINGSVALE 2587",
    "locID": "LOC100078104188",
    "tech": "WIRELESS",
    "upgrade": "NULL_NA",
    "gnaf_pid": "GANSW717706000",
    "tech_change_status": "Not Planned",
    "program_type": "Fixed Wireless and Satellite Upgrade Program",
    "target_eligibility_quarter": "NA"
   }
  },
  {
   "type": "Feature",
   "geometry": {
    "type": "Point",
    "coordinates": [
     148.32051838,
     -34.44305944
    ]
   },
   "properties": {
    "name": "979 KINGSVALE ROAD KINGSVALE 2587",
    "locID": "LOC000189131400",
    "tech": "WIRELESS",
    "upgrade": "NULL_NA",
    "gnaf_pid": "GANSW717706001",
    "tech_change_status": "Not Planned",
    "program_type": "Fixed Wireless and Satellite Upgrade Program",
    "target_eligibility_quarter": "NA"
   }
  },
  {
   "type": "Feature",
   "geometry": {
    "type": "Point",
    "coordinates": [
     148.29820015,
     -34.45139976
    ]
   },
   "properties": {
    "name": "125 PINE ROAD KINGSVALE 2587",
    "locID": "LOC000063960743",
    "tech": "WIRELESS",
    "upgrade": "NULL_NA",
    "gnaf_pid": "GANSW717715108",
    "tech_change_status": "Not Planned",
    "program_type": "Fixed Wireless and Satellite Upgrade Program",
    "target_eligibility_quarter": "NA"
   }
  },
  {
   "type": "Feature",
   "geometry": {
    "type": "Point",
    "coordinates": [
     148.29681198,
     -34.45320855
    ]
   },
   "properties": {
    "name": "142 PINE ROAD KINGSVALE 2587",
    "locID": "LOC000096916634",
    "tech": "WIRELESS",
    "upgrade": "NULL_NA",
    "gnaf_pid": "GANSW717715109",
    "tech_change_status": "Not Planned",
    "program_type": "Fixed Wireless and Satellite Upgrade Program",
    "target_eligibility_quarter": "NA"
   }
  },
  {
   "type": "Feature",
   "geometry": {
    "type": "Point",
    "coordinates": [
     148.28980262,
     -34.45868144
    ]
   },
   "properties": {
    "name": "168 PINE ROAD KINGSVALE 2587",
    "locID": "LOC000007348252",
    "tech": "WIRELESS",
    "upgrade": "NULL_NA",
    "gnaf_pid": "GANSW717715110",
    "tech_change_status": "Not Planned",
    "program_type": "Fixed Wireless and Satellite Upgrade Program",
    "target_eligibility_quarter": "NA"
   }
  },
  {
   "type": "Feature",
   "geometry": {
    "type": "Point",
    "coordinates": [
     148.30704779,
     -34.4457076
    ]
   },
   "properties": {
    "name": "5 PINE ROAD KINGSVALE 2587",
    "locID": "LOC000012186360",
    "tech": "WIRELESS",
    "upgrade": "NULL_NA",
    "gnaf_pid": "GANSW717715112",
    "tech_change_status": "Not Planned",
    "program_type": "Fixed Wireless and Satellite Upgrade Program",
    "target_eligibility_quarter": "NA"
   }
  },
  {
   "type": "Feature",
   "geometry": {
    "type": "Point",
    "coordinates": [
     148.30054968,
     -34.44865096
    ]
   },
   "properties": {
    "name": "71 PINE ROAD KINGSVALE 2587",
    "locID": "LOC000048110633",
    "tech": "WIRELESS",
    "upgrade": "NULL_NA",
    "gnaf_pid": "GANSW717715113",
    "tech_change_status": "Not Planned",
    "program_type": "Fixed Wireless and Satellite Upgrade Program",
    "target_eligibility_quarter": "NA"
   }
  },
  {
   "type": "Feature",
   "geometry": {
    "type": "Point",
    "coordinates": [
     148.32255823,
     -34.40083551
    ]
   },
   "properties": {
    "name": "105 PRUNEVALE ROAD KINGSVALE 2587",
    "locID": "LOC000076334546",
    "tech": "WIRELESS",
    "upgrade": "NULL_NA",
    "gnaf_pid": "GANSW717715809",
    "tech_change_status": "Not Planned",
    "program_type": "Fixed Wireless and Satellite Upgrade Program",
    "target_eligibility_quarter": "NA"
   }
  },
  {
   "type": "Feature",
   "geometry": {
    "type": "Point",
    "coordinates": [
     148.31822576,
     -34.40037311
    ]
   },
   "properties": {
    "name": "109 PRUNEVALE ROAD KINGSVALE 2587",
    "locID": "LOC000084868585",
    "tech": "WIRELESS",
    "upgrade": "NULL_NA",
    "gnaf_pid": "GANSW717715810",
    "tech_change_status": "Not Planned",
    "program_type": "Fixed Wireless and Satellite Upgrade Program",
    "target_eligibility_quarter": "NA"
   }
  },
  {
   "type": "Feature",
   "geometry": {
    "type": "Point",
    "coordinates": [
     148.32203879,
     -34.39862853
    ]
   },
   "properties": {
    "name": "117 PRUNEVALE ROAD KINGSVALE 2587",
    "locID": "LOC000069991430",
    "tech": "WIRELESS",
    "upgrade": "NULL_NA",
    "gnaf_pid": "GANSW717715811",
    "tech_change_status": "Not Planned",
    "program_type": "Fixed Wireless and Satellite Upgrade Program",
    "target_eligibility_quarter": "NA"
   }
  },
  {
   "type": "Feature",
   "geometry": {
    "type": "Point",
    "coordinates": [
     148.32222673,
     -34.39754449
    ]
   },
   "properties": {
    "name": "137 PRUNEVALE ROAD KINGSVALE 2587",
    "locID": "LOC000077959400",
    "tech": "WIRELESS",
    "upgrade": "NULL_NA",
    "gnaf_pid": "GANSW717715812",
    "tech_change_status": "Not Planned",
    "program_type": "Fixed Wireless and Satellite Upgrade Program",
    "target_eligibility_quarter": "NA"
   }
  },
  {
   "type": "Feature",
   "geometry": {
    "type": "Point",
    "coordinates": [
     148.3229234,
     -34.39740899
    ]
   },
   "properties": {
    "name": "138 PRUNEVALE ROAD KINGSVALE 2587",
    "locID": "LOC000055510936",
    "tech": "WIRELESS",
    "upgrade": "NULL_NA",
    "gnaf_pid": "GANSW717715813",
    "tech_change_status": "Not Planned",
    "program_type": "Fixed Wireless and Satellite Upgrade Program",
    "target_eligibility_quarter": "NA"
   }
  },
  {
   "type": "Feature",
   "geometry": {
    "type": "Point",
    "coordinates": [
     148.32216577,
     -34.39557122
    ]
   },
   "properties": {
    "name": "163 PRUNEVALE ROAD KINGSVALE 2587",
    "locID": "LOC000022252993",
    "tech": "WIRELESS",
    "upgrade": "NULL_NA",
    "gnaf_pid": "GANSW717715814",
    "tech_change_status": "Not Planned",
    "program_type": "Fixed Wireless and Satellite Upgrade Program",
    "target_eligibility_quarter": "NA"
   }
  },
  {
   "type": "Feature",
   "geometry": {
    "type": "Point",
    "coordinates": [
     148.32476028,
     -34.39487768
    ]
   },
   "properties": {
    "name": "164 PRUNEVALE ROAD KINGSVALE 2587",
    "locID": "LOC000035690387",
    "tech": "WIRELESS",
    "upgrade": "NULL_NA",
    "gnaf_pid": "GANSW717715815",
    "tech_change_status": "Not Planned",
    "program_type": "Fixed Wireless and Satellite Upgrade Program",
    "target_eligibility_quarter": "NA"
   }
  },
  {
   "type": "Feature",
   "geometry": {
    "type": "Point",
    "coordinates": [
     148.32322996,
     -34.3947984
    ]
   },
   "properties": {
    "name": "168 PRUNEVALE ROAD KINGSVALE 2587",
    "locID": "LOC000086800719",
    "tech": "WIRELESS",
    "upgrade": "NULL_NA",
    "gnaf_pid": "GANSW717715816",
    "tech_change_status": "Not Planned",
    "program_type": "Fixed Wireless and Satellite Upgrade Program",
    "target_eligibility_quarter": "NA"
   }
  },
  {
   "type": "Feature",
   "geometry": {
    "type": "Point",
    "coordinates": [
     148.3288661,
     -34.40341916
    ]
   },
   "properties": {
    "name": "35 PRUNEVALE ROAD KINGSVALE 2587",
    "locID": "LOC000054077812",
    "tech": "WIRELESS",
    "upgrade": "NULL_NA",
    "gnaf_pid": "GANSW717715817",
    "tech_change_status": "Not Planned",
    "program_type": "Fixed Wireless and Satellite Upgrade Program",
    "target_eligibility_quarter": "NA"
   }
  },
  {
   "type": "Feature",
   "geometry": {
    "type": "Point",
    "coordinates": [
     148.32406065,
     -34.40219712
    ]
   },
   "properties": {
    "name": "74 PRUNEVALE ROAD KINGSVALE 2587",
    "locID": "LOC000080755894",
    "tech": "WIRELESS",
    "upgrade": "NULL_NA",
    "gnaf_pid": "GANSW717715818",
    "tech_change_status": "Not Planned",
    "program_type": "Fixed Wireless and Satellite Upgrade Program",
    "target_eligibility_quarter": "NA"
   }
  },
  {
   "type": "Feature",
   "geometry": {
    "type": "Point",
    "coordinates": [
     148.3239339,
     -34.40287505
    ]
   },
   "properties": {
    "name": "77 PRUNEVALE ROAD KINGSVALE 2587",
    "locID": "LOC000078836292",
    "tech": "WIRELESS",
    "upgrade": "NULL_NA",
    "gnaf_pid": "GANSW717715819",
    "tech_change_status": "Not Planned",
    "program_type": "Fixed Wireless and Satellite Upgrade Program",
    "target_eligibility_quarter": "NA"
   }
  },
  {
   "type": "Feature",
   "geometry": {
    "type": "Point",
    "coordinates": [
     148.29968778,
     -34.45470886
    ]
   },
   "properties": {
    "name": "161 VENTNOR ROAD KINGSVALE 2587",
    "locID": "LOC000177351904",
    "tech": "WIRELESS",
    "upgrade": "NULL_NA",
    "gnaf_pid": "GANSW717721104",
    "tech_change_status": "Not Planned",
    "program_type": "Fixed Wireless and Satellite Upgrade Program",
    "target_eligibility_quarter": "NA"
   }
  },
  {
   "type": "Feature",
   "geometry": {
    "type": "Point",
    "coordinates": [
     148.29156098,
     -34.45753945
    ]
   },
   "properties": {
    "name": "223 VENTNOR ROAD KINGSVALE 2587",
    "locID": "LOC000121470238",
    "tech": "WIRELESS",
    "upgrade": "NULL_NA",
    "gnaf_pid": "GANSW717721105",
    "tech_change_status": "Not Planned",
    "program_type": "Fixed Wireless and Satellite Upgrade Program",
    "target_eligibility_quarter": "NA"
   }
  },
  {
   "type": "Feature",
   "geometry": {
    "type": "Point",
    "coordinates": [
     148.30714268,
     -34.45859643
    ]
   },
   "properties": {
    "name": "47 VENTNOR ROAD KINGSVALE 2587",
    "locID": "LOC000121453346",
    "tech": "WIRELESS",
    "upgrade": "NULL_NA",
    "gnaf_pid": "GANSW717721107",
    "tech_change_status": "Not Planned",
    "program_type": "Fixed Wireless and Satellite Upgrade Program",
    "target_eligibility_quarter": "NA"
   }
  },
  {
   "type": "Feature",
   "geometry": {
    "type": "Point",
    "coordinates": [
     148.30831728,
     -34.45583561
    ]
   },
   "properties": {
    "name": "78 VENTNOR ROAD KINGSVALE 2587",
    "locID": "LOC000121470422",
    "tech": "WIRELESS",
    "upgrade": "NULL_NA",
    "gnaf_pid": "GANSW717721108",
    "tech_change_status": "Eligible to Order",
    "program_type": "Fixed Wireless and Satellite Upgrade Program",
    "target_eligibility_quarter": "NA"
   }
  },
  {
   "type": "Feature",
   "geometry": {
    "type": "Point",
    "coordinates": [
     148.29220381,
     -34.44151102
    ]
   },
   "properties": {
    "name": "405 WOODLANDS ROAD KINGSVALE 2587",
    "locID": "LOC000027927612",
    "tech": "WIRELESS",
    "upgrade": "NULL_NA",
    "gnaf_pid": "GANSW717724410",
    "tech_change_status": "Not Planned",
    "program_type": "Fixed Wireless and Satellite Upgrade Program",
    "target_eligibility_quarter": "NA"
   }
  },
  {
   "type": "Feature",
   "geometry": {
    "type": "Point",
    "coordinates": [
     148.29877036,
     -34.44275342
    ]
   },
   "properties": {
    "name": "476 WOODLANDS ROAD KINGSVALE 2587",
    "locID": "LOC000004723294",
    "tech": "WIRELESS",
    "upgrade": "NULL_NA",
    "gnaf_pid": "GANSW717724411",
    "tech_change_status": "Not Planned",
    "program_type": "Fixed Wireless and Satellite Upgrade Program",
    "target_eligibility_quarter": "NA"
   }
  },
  {
   "type": "Feature",
   "geometry": {
    "type": "Point",
    "coordinates": [
     148.30330702,
     -34.44338128
    ]
   },
   "properties": {
    "name": "516 WOODLANDS ROAD KINGSVALE 2587",
    "locID": "LOC000018881106",
    "tech": "WIRELESS",
    "upgrade": "NULL_NA",
    "gnaf_pid": "GANSW717724412",
    "tech_change_status": "Not Planned",
    "program_type": "Fixed Wireless and Satellite Upgrade Program",
    "target_eligibility_quarter": "NA"
   }
  },
  {
   "type": "Feature",
   "geometry": {
    "type": "Point",
    "coordinates": [
     148.29605801,
     -34.43877729
    ]
   },
   "properties": {
    "name": "110 YANDILLA ROAD KINGSVALE 2587",
    "locID": "LOC000080398430",
    "tech": "WIRELESS",
    "upgrade": "NULL_NA",
    "gnaf_pid": "GANSW717724758",
    "tech_change_status": "Not Planned",
    "program_type": "Fixed Wireless and Satellite Upgrade Program",
    "target_eligibility_quarter": "NA"
   }
  },
  {
   "type": "Feature",
   "geometry": {
    "type": "Point",
    "coordinates": [
     148.32729491,
     -34.4023524
    ]
   },
   "properties": {
    "name": "167 PRUNEVALE ROAD KINGSVALE 2587",
    "locID": "LOC000108774691",
    "tech": "WIRELESS",
    "upgrade": "NULL_NA",
    "gnaf_pid": "GANSW717831930",
    "tech_change_status": "Not Planned",
    "program_type": "Fixed Wireless and Satellite Upgrade Program",
    "target_eligibility_quarter": "NA"
   }
  },
  {
   "type": "Feature",
   "geometry": {
    "type": "Point",
    "coordinates": [
     148.31062514,
     -34.37919369
    ]
   },
   "properties": {
    "name": "617 BACK CREEK ROAD KINGSVALE 2587",
    "locID": "LOC000121459616",
    "tech": "WIRELESS",
    "upgrade": "NULL_NA",
    "gnaf_pid": "GANSW718349251",
    "tech_change_status": "Not Planned",
    "program_type": "Fixed Wireless and Satellite Upgrade Program",
    "target_eligibility_quarter": "NA"
   }
  },
  {
   "type": "Feature",
   "geometry": {
    "type": "Point",
    "coordinates": [
     148.30878917,
     -34.38342234
    ]
   },
   "properties": {
    "name": "669 BACK CREEK ROAD KINGSVALE 2587",
    "locID": "LOC000121464779",
    "tech": "WIRELESS",
    "upgrade": "NULL_NA",
    "gnaf_pid": "GANSW718349252",
    "tech_change_status": "Not Planned",
    "program_type": "Fixed Wireless and Satellite Upgrade Program",
    "target_eligibility_quarter": "NA"
   }
  },
  {
   "type": "Feature",
   "geometry": {
    "type": "Point",
    "coordinates": [
     148.30502235,
     -34.38598126
    ]
   },
   "properties": {
    "name": "709 BACK CREEK ROAD KINGSVALE 2587",
    "locID": "LOC000018817537",
    "tech": "WIRELESS",
    "upgrade": "NULL_NA",
    "gnaf_pid": "GANSW718349253",
    "tech_change_status": "Not Planned",
    "program_type": "Fixed Wireless and Satellite Upgrade Program",
    "target_eligibility_quarter": "NA"
   }
  },
  {
   "type": "Feature",
   "geometry": {
    "type": "Point",
    "coordinates": [
     148.36121897,
     -34.50399244
    ]
   },
   "properties": {
    "name": "499 CURRAWONG ROAD KINGSVALE 2587",
    "locID": "LOC000121453488",
    "tech": "NULL",
    "upgrade": "NULL_NA",
    "gnaf_pid": "GANSW718352365",
    "tech_change_status": "Not Planned"
   }
  },
  {
   "type": "Feature",
   "geometry": {
    "type": "Point",
    "coordinates": [
     148.35545464,
     -34.47580634
    ]
   },
   "properties": {
    "name": "699 CURRAWONG ROAD KINGSVALE 2587",
    "locID": "LOC000121464854",
    "tech": "NULL",
    "upgrade": "NULL_NA",
    "gnaf_pid": "GANSW718352366",
    "tech_change_status": "Not Planned"
   }
  },
  {
   "type": "Feature",
   "geometry": {
    "type": "Point",
    "coordinates": [
     148.37295039,
     -34.49466774
    ]
   },
   "properties": {
    "name": "734 CURRAWONG ROAD KINGSVALE 2587",
    "locID": "LOC000121465040",
    "tech": "NULL",
    "upgrade": "NULL_NA",
    "gnaf_pid": "GANSW718352367",
    "tech_change_status": "Not Planned"
   }
  },
  {
   "type": "Feature",
   "geometry": {
    "type": "Point",
    "coordinates": [
     148.35950471,
     -34.46410235
    ]
   },
   "properties": {
    "name": "88 HOLMAN ROAD KINGSVALE 2587",
    "locID": "LOC000121473647",
    "tech": "SATELLITE",
    "upgrade": "NULL_NA",
    "gnaf_pid": "GANSW718355894",
    "tech_change_status": "Not Planned"
   }
  },
  {
   "type": "Feature",
   "geometry": {
    "type": "Point",
    "coordinates": [
     148.33167232,
     -34.37555017
    ]
   },
   "properties": {
    "name": "1832 KINGSVALE ROAD KINGSVALE 2587",
    "locID": "LOC000176472347",
    "tech": "WIRELESS",
    "upgrade": "NULL_NA",
    "gnaf_pid": "GANSW718356531",
    "tech_change_status": "Not Planned",
    "program_type": "Fixed Wireless and Satellite Upgrade Program",
    "target_eligibility_quarter": "NA"
   }
  },
  {
   "type": "Feature",
   "geometry": {
    "type": "Point",
    "coordinates": [
     148.31663151,
     -34.37666166
    ]
   },
   "properties": {
    "name": "1839 KINGSVALE ROAD KINGSVALE 2587",
    "locID": "LOC100078102601",
    "tech": "WIRELESS",
    "upgrade": "NULL_NA",
    "gnaf_pid": "GANSW718356532",
    "tech_change_status": "Not Planned",
    "program_type": "Fixed Wireless and Satellite Upgrade Program",
    "target_eligibility_quarter": "NA"
   }
  },
  {
   "type": "Feature",
   "geometry": {
    "type": "Point",
    "coordinates": [
     148.32129134,
     -34.37233175
    ]
   },
   "properties": {
    "name": "1897 KINGSVALE ROAD KINGSVALE 2587",
    "locID": "LOC000121461986",
    "tech": "WIRELESS",
    "upgrade": "NULL_NA",
    "gnaf_pid": "GANSW718356533",
    "tech_change_status": "Not Planned",
    "program_type": "Fixed Wireless and Satellite Upgrade Program",
    "target_eligibility_quarter": "NA"
   }
  },
  {
   "type": "Feature",
   "geometry": {
    "type": "Point",
    "coordinates": [
     148.32376196,
     -34.37164311
    ]
   },
   "properties": {
    "name": "1908 KINGSVALE ROAD KINGSVALE 2587",
    "locID": "LOC000121462074",
    "tech": "WIRELESS",
    "upgrade": "NULL_NA",
    "gnaf_pid": "GANSW718356534",
    "tech_change_status": "Not Planned",
    "program_type": "Fixed Wireless and Satellite Upgrade Program",
    "target_eligibility_quarter": "NA"
   }
  },
  {
   "type": "Feature",
   "geometry": {
    "type": "Point",
    "coordinates": [
     148.32275753,
     -34.36789324
    ]
   },
   "properties": {
    "name": "1944 KINGSVALE ROAD KINGSVALE 2587",
    "locID": "LOC000121462159",
    "tech": "WIRELESS",
    "upgrade": "NULL_NA",
    "gnaf_pid": "GANSW718356535",
    "tech_change_status": "Not Planned",
    "program_type": "Fixed Wireless and Satellite Upgrade Program",
    "target_eligibility_quarter": "NA"
   }
  },
  {
   "type": "Feature",
   "geometry": {
    "type": "Point",
    "coordinates": [
     148.30888528,
     -34.48758295
    ]
   },
   "properties": {
    "name": "375 KINGSVALE ROAD KINGSVALE 2587",
    "locID": "LOC000031317337",
    "tech": "WIRELESS",
    "upgrade": "NULL_NA",
    "gnaf_pid": "GANSW718356536",
    "tech_change_status": "Not Planned",
    "program_type": "Fixed Wireless and Satellite Upgrade Program",
    "target_eligibility_quarter": "NA"
   }
  },
  {
   "type": "Feature",
   "geometry": {
    "type": "Point",
    "coordinates": [
     148.31406603,
     -34.51903842
    ]
   },
   "properties": {
    "name": "79 KINGSVALE ROAD KINGSVALE 2587",
    "locID": "LOC000121470480",
    "tech": "NULL",
    "upgrade": "NULL_NA",
    "gnaf_pid": "GANSW718356537",
    "tech_change_status": "Not Planned"
   }
  },
  {
   "type": "Feature",
   "geometry": {
    "type": "Point",
    "coordinates": [
     148.26583306,
     -34.45915639
    ]
   },
   "properties": {
    "name": "30 PONTANIA ROAD KINGSVALE 2587",
    "locID": "LOC000121433234",
    "tech": "WIRELESS",
    "upgrade": "NULL_NA",
    "gnaf_pid": "GANSW718361907",
    "tech_change_status": "Not Planned",
    "program_type": "Fixed Wireless and Satellite Upgrade Program",
    "target_eligibility_quarter": "NA"
   }
  },
  {
   "type": "Feature",
   "geometry": {
    "type": "Point",
    "coordinates": [
     148.2693117,
     -34.45575754
    ]
   },
   "properties": {
    "name": "78 PONTANIA ROAD KINGSVALE 2587",
    "locID": "LOC000121467793",
    "tech": "SATELLITE",
    "upgrade": "WIRELESS",
    "gnaf_pid": "GANSW718361908",
    "tech_change_status": "Eligible to Order",
    "program_type": "Fixed Wireless and Satellite Upgrade Program",
    "target_eligibility_quarter": "NA"
   }
  },
  {
   "type": "Feature",
   "geometry": {
    "type": "Point",
    "coordinates": [
     148.26246155,
     -34.4567391
    ]
   },
   "properties": {
    "name": "1154 WOMBAT ROAD KINGSVALE 2587",
    "locID": "LOC000121436534",
    "tech": "WIRELESS",
    "upgrade": "NULL_NA",
    "gnaf_pid": "GANSW718365101",
    "tech_change_status": "Not Planned",
    "program_type": "Fixed Wireless and Satellite Upgrade Program",
    "target_eligibility_quarter": "NA"
   }
  },
  {
   "type": "Feature",
   "geometry": {
    "type": "Point",
    "coordinates": [
     148.29142613,
     -34.49106278
    ]
   },
   "properties": {
    "name": "376 WOMBAT ROAD KINGSVALE 2587",
    "locID": "LOC000121447211",
    "tech": "NULL",
    "upgrade": "NULL_NA",
    "gnaf_pid": "GANSW718365102",
    "tech_change_status": "Not Planned"
   }
  },
  {
   "type": "Feature",
   "geometry": {
    "type": "Point",
    "coordinates": [
     148.28740235,
     -34.48266715
    ]
   },
   "properties": {
    "name": "834 WOMBAT ROAD KINGSVALE 2587",
    "locID": "LOC000121470666",
    "tech": "WIRELESS",
    "upgrade": "NULL_NA",
    "gnaf_pid": "GANSW718365103",
    "tech_change_status": "Not Planned",
    "program_type": "Fixed Wireless and Satellite Upgrade Program",
    "target_eligibility_quarter": "NA"
   }
  },
  {
   "type": "Feature",
   "geometry": {
    "type": "Point",
    "coordinates": [
     148.30927256,
     -34.4456116
    ]
   },
   "properties": {
    "name": "191 PINE ROAD KINGSVALE 2587",
    "locID": "LOC000172145849",
    "tech": "WIRELESS",
    "upgrade": "NULL_NA",
    "gnaf_pid": "GANSW718701590",
    "tech_change_status": "Not Planned",
    "program_type": "Fixed Wireless and Satellite Upgrade Program",
    "target_eligibility_quarter": "NA"
   }
  },
  {
   "type": "Feature",
   "geometry": {
    "type": "Point",
    "coordinates": [
     148.31421389,
     -34.43694188
    ]
   },
   "properties": {
    "name": "1004 BACK CREEK ROAD KINGSVALE 2587",
    "locID": "LOC000121428924",
    "tech": "WIRELESS",
    "upgrade": "NULL_NA",
    "gnaf_pid": "GANSW718736069",
    "tech_change_status": "Not Planned",
    "program_type": "Fixed Wireless and Satellite Upgrade Program",
    "target_eligibility_quarter": "NA"
   }
  },
  {
   "type": "Feature",
   "geometry": {
    "type": "Point",
    "coordinates": [
     148.31421389,
     -34.43694188
    ]
   },
   "properties": {
    "name": "1482 BACK CREEK ROAD KINGSVALE 2587",
    "locID": "LOC000182053626",
    "tech": "WIRELESS",
    "upgrade": "NULL_NA",
    "gnaf_pid": "GANSW718736071",
    "tech_change_status": "Not Planned",
    "program_type": "Fixed Wireless and Satellite Upgrade Program",
    "target_eligibility_quarter": "NA"
   }
  },
  {
   "type": "Feature",
   "geometry": {
    "type": "Point",
    "coordinates": [
     148.32024565,
     -34.44381701
    ]
   },
   "properties": {
    "name": "1534 BACK CREEK ROAD KINGSVALE 2587",
    "locID": "LOC000180036295",
    "tech": "WIRELESS",
    "upgrade": "NULL_NA",
    "gnaf_pid": "GANSW718736072",
    "tech_change_status": "Previous Tech Disconnected",
    "program_type": "Fixed Wireless and Satellite Upgrade Program",
    "target_eligibility_quarter": "NA"
   }
  },
  {
   "type": "Feature",
   "geometry": {
    "type": "Point",
    "coordinates": [
     148.31421389,
     -34.43694188
    ]
   },
   "properties": {
    "name": "871 BACK CREEK ROAD KINGSVALE 2587",
    "locID": "LOC000178877067",
    "tech": "WIRELESS",
    "upgrade": "NULL_NA",
    "gnaf_pid": "GANSW718736074",
    "tech_change_status": "Not Planned",
    "program_type": "Fixed Wireless and Satellite Upgrade Program",
    "target_eligibility_quarter": "NA"
   }
  },
  {
   "type": "Feature",
   "geometry": {
    "type": "Point",
    "coordinates": [
     148.33179356,
     -34.39999203
    ]
   },
   "properties": {
    "name": "146 KINGSVALE ROAD KINGSVALE 2587",
    "locID": "LOC000121449923",
    "tech": "WIRELESS",
    "upgrade": "NULL_NA",
    "gnaf_pid": "GANSW718737846",
    "tech_change_status": "Not Planned",
    "program_type": "Fixed Wireless and Satellite Upgrade Program",
    "target_eligibility_quarter": "NA"
   }
  },
  {
   "type": "Feature",
   "geometry": {
    "type": "Point",
    "coordinates": [
     148.33179356,
     -34.39999203
    ]
   },
   "properties": {
    "name": "260 KINGSVALE ROAD KINGSVALE 2587",
    "locID": "LOC000164585831",
    "tech": "WIRELESS",
    "upgrade": "NULL_NA",
    "gnaf_pid": "GANSW718737847",
    "tech_change_status": "Not Planned",
    "program_type": "Fixed Wireless and Satellite Upgrade Program",
    "target_eligibility_quarter": "NA"
   }
  },
  {
   "type": "Feature",
   "geometry": {
    "type": "Point",
    "coordinates": [
     148.33179356,
     -34.39999203
    ]
   },
   "properties": {
    "name": "422 KINGSVALE ROAD KINGSVALE 2587",
    "locID": "LOC000084662517",
    "tech": "WIRELESS",
    "upgrade": "NULL_NA",
    "gnaf_pid": "GANSW718737848",
    "tech_change_status": "Not Planned",
    "program_type": "Fixed Wireless and Satellite Upgrade Program",
    "target_eligibility_quarter": "NA"
   }
  },
  {
   "type": "Feature",
   "geometry": {
    "type": "Point",
    "coordinates": [
     148.34008434,
     -34.39952325
    ]
   },
   "properties": {
    "name": "510 KINGSVALE ROAD KINGSVALE 2587",
    "locID": "LOC000186557839",
    "tech": "WIRELESS",
    "upgrade": "NULL_NA",
    "gnaf_pid": "GANSW718737851",
    "tech_change_status": "Not Planned",
    "program_type": "Fixed Wireless and Satellite Upgrade Program",
    "target_eligibility_quarter": "NA"
   }
  },
  {
   "type": "Feature",
   "geometry": {
    "type": "Point",
    "coordinates": [
     148.33179356,
     -34.39999203
    ]
   },
   "properties": {
    "name": "843 KINGSVALE ROAD KINGSVALE 2587",
    "locID": "LOC100080049084",
    "tech": "WIRELESS",
    "upgrade": "NULL_NA",
    "gnaf_pid": "GANSW718737853",
    "tech_change_status": "Not Planned",
    "program_type": "Fixed Wireless and Satellite Upgrade Program",
    "target_eligibility_quarter": "NA"
   }
  },
  {
   "type": "Feature",
   "geometry": {
    "type": "Point",
    "coordinates": [
     148.29261097,
     -34.45885981
    ]
   },
   "properties": {
    "name": "214 PINE ROAD KINGSVALE 2587",
    "locID": "LOC000043332700",
    "tech": "WIRELESS",
    "upgrade": "NULL_NA",
    "gnaf_pid": "GANSW718779266",
    "tech_change_status": "Not Planned",
    "program_type": "Fixed Wireless and Satellite Upgrade Program",
    "target_eligibility_quarter": "NA"
   }
  },
  {
   "type": "Feature",
   "geometry": {
    "type": "Point",
    "coordinates": [
     148.30927256,
     -34.4456116
    ]
   },
   "properties": {
    "name": "243 PINE ROAD KINGSVALE 2587",
    "locID": "LOC100077181447",
    "tech": "WIRELESS",
    "upgrade": "NULL_NA",
    "gnaf_pid": "GANSW718779267",
    "tech_change_status": "Not Planned",
    "program_type": "Fixed Wireless and Satellite Upgrade Program",
    "target_eligibility_quarter": "NA"
   }
  },
  {
   "type": "Feature",
   "geometry": {
    "type": "Point",
    "coordinates": [
     148.28980262,
     -34.45868144
    ]
   },
   "properties": {
    "name": "288 PINE ROAD KINGSVALE 2587",
    "locID": "LOC000160765959",
    "tech": "WIRELESS",
    "upgrade": "NULL_NA",
    "gnaf_pid": "GANSW718779269",
    "tech_change_status": "Not Planned",
    "program_type": "Fixed Wireless and Satellite Upgrade Program",
    "target_eligibility_quarter": "NA"
   }
  },
  {
   "type": "Feature",
   "geometry": {
    "type": "Point",
    "coordinates": [
     148.3305264,
     -34.40444722
    ]
   },
   "properties": {
    "name": "9 PRUNEVALE ROAD KINGSVALE 2587",
    "locID": "LOC100078103244",
    "tech": "WIRELESS",
    "upgrade": "NULL_NA",
    "gnaf_pid": "GANSW718779348",
    "tech_change_status": "Not Planned",
    "program_type": "Fixed Wireless and Satellite Upgrade Program",
    "target_eligibility_quarter": "NA"
   }
  },
  {
   "type": "Feature",
   "geometry": {
    "type": "Point",
    "coordinates": [
     148.28740235,
     -34.48266715
    ]
   },
   "properties": {
    "name": "531 WOMBAT ROAD KINGSVALE 2587",
    "locID": "LOC000121456666",
    "tech": "WIRELESS",
    "upgrade": "NULL_NA",
    "gnaf_pid": "GANSW718934292",
    "tech_change_status": "Not Planned",
    "program_type": "Fixed Wireless and Satellite Upgrade Program",
    "target_eligibility_quarter": "NA"
   }
  },
  {
   "type": "Feature",
   "geometry": {
    "type": "Point",
    "coordinates": [
     148.33179356,
     -34.39999203
    ]
   },
   "properties": {
    "name": "1579 KINGSVALE ROAD KINGSVALE 2587",
    "locID": "LOC000186738914",
    "tech": "WIRELESS",
    "upgrade": "NULL_NA",
    "gnaf_pid": "GANSW718964793",
    "tech_change_status": "Not Planned",
    "program_type": "Fixed Wireless and Satellite Upgrade Program",
    "target_eligibility_quarter": "NA"
   }
  },
  {
   "type": "Feature",
   "geometry": {
    "type": "Point",
    "coordinates": [
     148.35876331,
     -34.4280322
    ]
   },
   "properties": {
    "name": "566 BROKEN DAM ROAD KINGSVALE 2587",
    "locID": "LOC000121456744",
    "tech": "WIRELESS",
    "upgrade": "NULL_NA",
    "gnaf_pid": "GANSW719590682",
    "tech_change_status": "Not Planned",
    "program_type": "Fixed Wireless and Satellite Upgrade Program",
    "target_eligibility_quarter": "NA"
   }
  },
  {
   "type": "Feature",
   "geometry": {
    "type": "Point",
    "coordinates": [
     148.31670682,
     -34.36726567
    ]
   },
   "properties": {
    "name": "931 KINGSVALE ROAD KINGSVALE 2587",
    "locID": "LOC000142807009",
    "tech": "WIRELESS",
    "upgrade": "NULL_NA",
    "gnaf_pid": "GANSW720152260",
    "tech_change_status": "Not Planned",
    "program_type": "Fixed Wireless and Satellite Upgrade Program",
    "target_eligibility_quarter": "NA"
   }
  },
  {
   "type": "Feature",
   "geometry": {
    "type": "Point",
    "coordinates": [
     148.31070075,
     -34.49031361
    ]
   },
   "properties": {
    "name": "2104 BACK CREEK ROAD KINGSVALE 2587",
    "locID": "LOC000186024625",
    "tech": "WIRELESS",
    "upgrade": "NULL_NA",
    "gnaf_pid": "GANSW720418236",
    "tech_change_status": "Not Planned",
    "program_type": "Fixed Wireless and Satellite Upgrade Program",
    "target_eligibility_quarter": "NA"
   }
  },
  {
   "type": "Feature",
   "geometry": {
    "type": "Point",
    "coordinates": [
     148.27450075,
     -34.46393436
    ]
   },
   "properties": {
    "name": "437 HUNTLEIGH ROAD KINGSVALE 2587",
    "locID": "LOC100077870744",
    "tech": "WIRELESS",
    "upgrade": "NULL_NA",
    "gnaf_pid": "GANSW720437828",
    "tech_change_status": "Not Planned",
    "program_type": "Fixed Wireless and Satellite Upgrade Program",
    "target_eligibility_quarter": "NA"
   }
  },
  {
   "type": "Feature",
   "geometry": {
    "type": "Point",
    "coordinates": [
     148.35876331,
     -34.4280322
    ]
   },
   "properties": {
    "name": "100 BROKEN DAM ROAD KINGSVALE 2587",
    "locID": "LOC000151228924",
    "tech": "WIRELESS",
    "upgrade": "NULL_NA",
    "gnaf_pid": "GANSW720440401",
    "tech_change_status": "Not Planned",
    "program_type": "Fixed Wireless and Satellite Upgrade Program",
    "target_eligibility_quarter": "NA"
   }
  },
  {
   "type": "Feature",
   "geometry": {
    "type": "Point",
    "coordinates": [
     148.29021636,
     -34.46576231
    ]
   },
   "properties": {
    "name": "438 HUNTLEIGH ROAD KINGSVALE 2587",
    "locID": "LOC000173923374",
    "tech": "WIRELESS",
    "upgrade": "NULL_NA",
    "gnaf_pid": "GANSW720549994",
    "tech_change_status": "Not Planned",
    "program_type": "Fixed Wireless and Satellite Upgrade Program",
    "target_eligibility_quarter": "NA"
   }
  },
  {
   "type": "Feature",
   "geometry": {
    "type": "Point",
    "coordinates": [
     148.31915396,
     -34.44669694
    ]
   },
   "properties": {
    "name": "1579 BACK CREEK ROAD KINGSVALE 2587",
    "locID": "LOC000186738914",
    "tech": "WIRELESS",
    "upgrade": "NULL_NA",
    "gnaf_pid": "GANSW720803701",
    "tech_change_status": "Not Planned",
    "program_type": "Fixed Wireless and Satellite Upgrade Program",
    "target_eligibility_quarter": "NA"
   }
  },
  {
   "type": "Feature",
   "geometry": {
    "type": "Point",
    "coordinates": [
     148.32050305,
     -34.44147294
    ]
   },
   "properties": {
    "name": "1504 KINGSVALE ROAD KINGSVALE 2587",
    "locID": "LOC000187333833",
    "tech": "WIRELESS",
    "upgrade": "NULL_NA",
    "gnaf_pid": "GANSW720808121",
    "tech_change_status": "Not Planned",
    "program_type": "Fixed Wireless and Satellite Upgrade Program",
    "target_eligibility_quarter": "NA"
   }
  },
  {
   "type": "Feature",
   "geometry": {
    "type": "Point",
    "coordinates": [
     148.31421389,
     -34.43694188
    ]
   },
   "properties": {
    "name": "1504 BACK CREEK ROAD KINGSVALE 2587",
    "locID": "LOC000187333833",
    "tech": "WIRELESS",
    "upgrade": "NULL_NA",
    "gnaf_pid": "GANSW720844666",
    "tech_change_status": "Not Planned",
    "program_type": "Fixed Wireless and Satellite Upgrade Program",
    "target_eligibility_quarter": "NA"
   }
  },
  {
   "type": "Feature",
   "geometry": {
    "type": "Point",
    "coordinates": [
     148.33179356,
     -34.39999203
    ]
   },
   "properties": {
    "name": "1400 KINGSVALE ROAD KINGSVALE 2587",
    "locID": "LOC000121447085",
    "tech": "WIRELESS",
    "upgrade": "NULL_NA",
    "gnaf_pid": "GANSW721004971",
    "tech_change_status": "Not Planned",
    "program_type": "Fixed Wireless and Satellite Upgrade Program",
    "target_eligibility_quarter": "NA"
   }
  },
  {
   "type": "Feature",
   "geometry": {
    "type": "Point",
    "coordinates": [
     148.30557341,
     -34.46542285
    ]
   },
   "properties": {
    "name": "103 KINGSVALE ROAD KINGSVALE 2587",
    "locID": "LOC100082032387",
    "tech": "WIRELESS",
    "upgrade": "NULL_NA",
    "gnaf_pid": "GANSW721749362",
    "tech_change_status": "Not Planned",
    "program_type": "Fixed Wireless and Satellite Upgrade Program",
    "target_eligibility_quarter": "NA"
   }
  }
 ]
}