{
 "type": "FeatureCollection",
 "generated": "2026-05-06T14:45:56.908539",
 "suburb": "MADDENS PLAINS",
 "features": [
  {
   "type": "Feature",
   "geometry": {
    "type": "Point",
    "coordinates": [
     150.94229137,
     -34.24479634
    ]
   },
   "properties": {
    "name": "84A PRINCES HIGHWAY MADDENS PLAINS 2508",
    "locID": "LOC000053119587",
    "tech": "NULL",
    "upgrade": "NULL_NA",
    "gnaf_pid": "GANSW706609882",
    "tech_change_status": "Not Planned"
   }
  },
  {
   "type": "Feature",
   "geometry": {
    "type": "Point",
    "coordinates": [
     150.9430529,
     -34.24561956
    ]
   },
   "properties": {
    "name": "84B PRINCES HIGHWAY MADDENS PLAINS 2508",
    "locID": "LOC000055181355",
    "tech": "NULL",
    "upgrade": "NULL_NA",
    "gnaf_pid": "GANSW716612156",
    "tech_change_status": "Not Planned"
   }
  },
  {
   "type": "Feature",
   "geometry": {
    "type": "Point",
    "coordinates": [
     150.9457988,
     -34.25132074
    ]
   },
   "properties": {
    "name": "167 PRINCES HIGHWAY MADDENS PLAINS 2508",
    "locID": "LOC000048531251",
    "tech": "NULL",
    "upgrade": "NULL_NA",
    "gnaf_pid": "GANSW716740634",
    "tech_change_status": "Not Planned"
   }
  },
  {
   "type": "Feature",
   "geometry": {
    "type": "Point",
    "coordinates": [
     150.95127859,
     -34.26270662
    ]
   },
   "properties": {
    "name": "263 PRINCES HIGHWAY MADDENS PLAINS 2508",
    "locID": "LOC000040582462",
    "tech": "NULL",
    "upgrade": "NULL_NA",
    "gnaf_pid": "GANSW717308921",
    "tech_change_status": "Not Planned"
   }
  },
  {
   "type": "Feature",
   "geometry": {
    "type": "Point",
    "coordinates": [
     150.95422744,
     -34.26326638
    ]
   },
   "properties": {
    "name": "267 PRINCES HIGHWAY MADDENS PLAINS 2508",
    "locID": "LOC000086102778",
    "tech": "NULL",
    "upgrade": "NULL_NA",
    "gnaf_pid": "GANSW717308922",
    "tech_change_status": "Not Planned"
   }
  },
  {
   "type": "Feature",
   "geometry": {
    "type": "Point",
    "coordinates": [
     150.93993105,
     -34.2487652
    ]
   },
   "properties": {
    "name": "190 PRINCES HIGHWAY MADDENS PLAINS 2508",
    "locID": "LOC100078097211",
    "tech": "NULL",
    "upgrade": "NULL_NA",
    "gnaf_pid": "GANSW718433764",
    "tech_change_status": "Not Planned"
   }
  },
  {
   "type": "Feature",
   "geometry": {
    "type": "Point",
    "coordinates": [
     150.92485241,
     -34.29668636
    ]
   },
   "properties": {
    "name": "661 PRINCES HIGHWAY MADDENS PLAINS 2508",
    "locID": "LOC000148097835",
    "tech": "NULL",
    "upgrade": "NULL_NA",
    "gnaf_pid": "GANSW718433765",
    "tech_change_status": "Not Planned"
   }
  },
  {
   "type": "Feature",
   "geometry": {
    "type": "Point",
    "coordinates": [
     150.90969048,
     -34.30353658
    ]
   },
   "properties": {
    "name": "811 PRINCES HIGHWAY MADDENS PLAINS 2508",
    "locID": "LOC000148102387",
    "tech": "NULL",
    "upgrade": "NULL_NA",
    "gnaf_pid": "GANSW718433766",
    "tech_change_status": "Not Planned"
   }
  },
  {
   "type": "Feature",
   "geometry": {
    "type": "Point",
    "coordinates": [
     150.90513352,
     -34.30567868
    ]
   },
   "properties": {
    "name": "851 PRINCES HIGHWAY MADDENS PLAINS 2508",
    "locID": "LOC000148103395",
    "tech": "NULL",
    "upgrade": "NULL_NA",
    "gnaf_pid": "GANSW718441625",
    "tech_change_status": "Not Planned"
   }
  }
 ]
}