{
 "type": "FeatureCollection",
 "generated": "2026-06-27T23:58:57.043105",
 "suburb": "MANAR",
 "features": [
  {
   "type": "Feature",
   "geometry": {
    "type": "Point",
    "coordinates": [
     149.69500845,
     -35.2686209
    ]
   },
   "properties": {
    "name": "8248 KINGS HIGHWAY MANAR 2622",
    "locID": "LOC000009711253",
    "tech": "SATELLITE",
    "upgrade": "NULL_NA",
    "gnaf_pid": "GANSW716404929",
    "tech_change_status": "Not Planned"
   }
  },
  {
   "type": "Feature",
   "geometry": {
    "type": "Point",
    "coordinates": [
     149.64138394,
     -35.29585526
    ]
   },
   "properties": {
    "name": "LOT 2 MANAR ROAD MANAR 2622",
    "locID": "LOC000154954706",
    "tech": "SATELLITE",
    "upgrade": "NULL_NA",
    "gnaf_pid": "GANSW716470265",
    "tech_change_status": "Not Planned"
   }
  },
  {
   "type": "Feature",
   "geometry": {
    "type": "Point",
    "coordinates": [
     149.69247995,
     -35.27603997
    ]
   },
   "properties": {
    "name": "28 JAMALEOPA ROAD MANAR 2622",
    "locID": "LOC000051693803",
    "tech": "SATELLITE",
    "upgrade": "NULL_NA",
    "gnaf_pid": "GANSW716595592",
    "tech_change_status": "Not Planned"
   }
  },
  {
   "type": "Feature",
   "geometry": {
    "type": "Point",
    "coordinates": [
     149.6899286,
     -35.27316101
    ]
   },
   "properties": {
    "name": "29 JAMALEOPA ROAD MANAR 2622",
    "locID": "LOC000107307826",
    "tech": "SATELLITE",
    "upgrade": "NULL_NA",
    "gnaf_pid": "GANSW716595593",
    "tech_change_status": "Not Planned"
   }
  },
  {
   "type": "Feature",
   "geometry": {
    "type": "Point",
    "coordinates": [
     149.69197952,
     -35.27293663
    ]
   },
   "properties": {
    "name": "39 JAMALEOPA ROAD MANAR 2622",
    "locID": "LOC000054246522",
    "tech": "SATELLITE",
    "upgrade": "NULL_NA",
    "gnaf_pid": "GANSW716595594",
    "tech_change_status": "Not Planned"
   }
  },
  {
   "type": "Feature",
   "geometry": {
    "type": "Point",
    "coordinates": [
     149.66660588,
     -35.25630645
    ]
   },
   "properties": {
    "name": "8689 KINGS HIGHWAY MANAR 2622",
    "locID": "LOC000019615875",
    "tech": "SATELLITE",
    "upgrade": "NULL_NA",
    "gnaf_pid": "GANSW716596347",
    "tech_change_status": "Not Planned"
   }
  },
  {
   "type": "Feature",
   "geometry": {
    "type": "Point",
    "coordinates": [
     149.6954392,
     -35.27340688
    ]
   },
   "properties": {
    "name": "1 JAMALEOPA ROAD MANAR 2622",
    "locID": "LOC000090204435",
    "tech": "NULL",
    "upgrade": "NULL_NA",
    "gnaf_pid": "GANSW716734786",
    "tech_change_status": "Not Planned"
   }
  },
  {
   "type": "Feature",
   "geometry": {
    "type": "Point",
    "coordinates": [
     149.69875958,
     -35.28762465
    ]
   },
   "properties": {
    "name": "8056 KINGS HIGHWAY MANAR 2622",
    "locID": "LOC000062266347",
    "tech": "NULL",
    "upgrade": "NULL_NA",
    "gnaf_pid": "GANSW716756273",
    "tech_change_status": "Not Planned"
   }
  },
  {
   "type": "Feature",
   "geometry": {
    "type": "Point",
    "coordinates": [
     149.69005146,
     -35.27082743
    ]
   },
   "properties": {
    "name": "8246 KINGS HIGHWAY MANAR 2622",
    "locID": "LOC000088160851",
    "tech": "SATELLITE",
    "upgrade": "NULL_NA",
    "gnaf_pid": "GANSW716756274",
    "tech_change_status": "Not Planned"
   }
  },
  {
   "type": "Feature",
   "geometry": {
    "type": "Point",
    "coordinates": [
     149.67385687,
     -35.27420391
    ]
   },
   "properties": {
    "name": "8299 KINGS HIGHWAY MANAR 2622",
    "locID": "LOC000048304906",
    "tech": "NULL",
    "upgrade": "NULL_NA",
    "gnaf_pid": "GANSW716756275",
    "tech_change_status": "Not Planned"
   }
  },
  {
   "type": "Feature",
   "geometry": {
    "type": "Point",
    "coordinates": [
     149.69265316,
     -35.26360423
    ]
   },
   "properties": {
    "name": "8352 KINGS HIGHWAY MANAR 2622",
    "locID": "LOC000013894264",
    "tech": "NULL",
    "upgrade": "NULL_NA",
    "gnaf_pid": "GANSW716756276",
    "tech_change_status": "Not Planned"
   }
  },
  {
   "type": "Feature",
   "geometry": {
    "type": "Point",
    "coordinates": [
     149.68136296,
     -35.25049445
    ]
   },
   "properties": {
    "name": "8488 KINGS HIGHWAY MANAR 2622",
    "locID": "LOC000068847585",
    "tech": "SATELLITE",
    "upgrade": "NULL_NA",
    "gnaf_pid": "GANSW716756277",
    "tech_change_status": "Not Planned"
   }
  },
  {
   "type": "Feature",
   "geometry": {
    "type": "Point",
    "coordinates": [
     149.68034422,
     -35.24366514
    ]
   },
   "properties": {
    "name": "8536 KINGS HIGHWAY MANAR 2622",
    "locID": "LOC000031743481",
    "tech": "NULL",
    "upgrade": "NULL_NA",
    "gnaf_pid": "GANSW716756278",
    "tech_change_status": "Not Planned"
   }
  },
  {
   "type": "Feature",
   "geometry": {
    "type": "Point",
    "coordinates": [
     149.69592951,
     -35.27523057
    ]
   },
   "properties": {
    "name": "56 JAMALEOPA ROAD MANAR 2622",
    "locID": "LOC000044061469",
    "tech": "NULL",
    "upgrade": "NULL_NA",
    "gnaf_pid": "GANSW717191510",
    "tech_change_status": "Not Planned"
   }
  },
  {
   "type": "Feature",
   "geometry": {
    "type": "Point",
    "coordinates": [
     149.68207228,
     -35.26323296
    ]
   },
   "properties": {
    "name": "1 KINGS HIGHWAY MANAR 2622",
    "locID": "LOC100072975112",
    "tech": "SATELLITE",
    "upgrade": "NULL_NA",
    "gnaf_pid": "GANSW717336518",
    "tech_change_status": "Not Planned"
   }
  },
  {
   "type": "Feature",
   "geometry": {
    "type": "Point",
    "coordinates": [
     149.68207228,
     -35.26323296
    ]
   },
   "properties": {
    "name": "856 KINGS HIGHWAY MANAR 2622",
    "locID": "LOC000150123701",
    "tech": "NULL",
    "upgrade": "NULL_NA",
    "gnaf_pid": "GANSW717336519",
    "tech_change_status": "Not Planned"
   }
  },
  {
   "type": "Feature",
   "geometry": {
    "type": "Point",
    "coordinates": [
     149.66143297,
     -35.2407032
    ]
   },
   "properties": {
    "name": "221 GOULBURN ROAD MANAR 2622",
    "locID": "LOC000150123698",
    "tech": "SATELLITE",
    "upgrade": "NULL_NA",
    "gnaf_pid": "GANSW717463937",
    "tech_change_status": "Not Planned"
   }
  },
  {
   "type": "Feature",
   "geometry": {
    "type": "Point",
    "coordinates": [
     149.69789126,
     -35.27434016
    ]
   },
   "properties": {
    "name": "80 JAMALEOPA ROAD MANAR 2622",
    "locID": "LOC000092041561",
    "tech": "NULL",
    "upgrade": "NULL_NA",
    "gnaf_pid": "GANSW717464819",
    "tech_change_status": "Not Planned"
   }
  },
  {
   "type": "Feature",
   "geometry": {
    "type": "Point",
    "coordinates": [
     149.69828856,
     -35.27013337
    ]
   },
   "properties": {
    "name": "107 JAMALEOPA ROAD MANAR 2622",
    "locID": "LOC000087264212",
    "tech": "SATELLITE",
    "upgrade": "NULL_NA",
    "gnaf_pid": "GANSW717544023",
    "tech_change_status": "Not Planned"
   }
  },
  {
   "type": "Feature",
   "geometry": {
    "type": "Point",
    "coordinates": [
     149.69348689,
     -35.27726444
    ]
   },
   "properties": {
    "name": "44 JAMALEOPA ROAD MANAR 2622",
    "locID": "LOC000006363607",
    "tech": "NULL",
    "upgrade": "NULL_NA",
    "gnaf_pid": "GANSW717586587",
    "tech_change_status": "Not Planned"
   }
  },
  {
   "type": "Feature",
   "geometry": {
    "type": "Point",
    "coordinates": [
     149.70122241,
     -35.2720789
    ]
   },
   "properties": {
    "name": "104 JAMALEOPA ROAD MANAR 2622",
    "locID": "LOC000003084544",
    "tech": "SATELLITE",
    "upgrade": "NULL_NA",
    "gnaf_pid": "GANSW717658502",
    "tech_change_status": "Not Planned"
   }
  },
  {
   "type": "Feature",
   "geometry": {
    "type": "Point",
    "coordinates": [
     149.70009712,
     -35.26920354
    ]
   },
   "properties": {
    "name": "125 JAMALEOPA ROAD MANAR 2622",
    "locID": "LOC000030928303",
    "tech": "NULL",
    "upgrade": "NULL_NA",
    "gnaf_pid": "GANSW717658503",
    "tech_change_status": "Not Planned"
   }
  },
  {
   "type": "Feature",
   "geometry": {
    "type": "Point",
    "coordinates": [
     149.70314691,
     -35.26819914
    ]
   },
   "properties": {
    "name": "132 JAMALEOPA ROAD MANAR 2622",
    "locID": "LOC000076616486",
    "tech": "NULL",
    "upgrade": "NULL_NA",
    "gnaf_pid": "GANSW717658504",
    "tech_change_status": "Not Planned"
   }
  },
  {
   "type": "Feature",
   "geometry": {
    "type": "Point",
    "coordinates": [
     149.68264205,
     -35.29302394
    ]
   },
   "properties": {
    "name": "306 MANAR ROAD MANAR 2622",
    "locID": "LOC000150123633",
    "tech": "NULL",
    "upgrade": "NULL_NA",
    "gnaf_pid": "GANSW717746917",
    "tech_change_status": "Not Planned"
   }
  },
  {
   "type": "Feature",
   "geometry": {
    "type": "Point",
    "coordinates": [
     149.69060047,
     -35.27481229
    ]
   },
   "properties": {
    "name": "23 JAMALEOPA ROAD MANAR 2622",
    "locID": "LOC000108007824",
    "tech": "NULL",
    "upgrade": "NULL_NA",
    "gnaf_pid": "GANSW717906575",
    "tech_change_status": "Not Planned"
   }
  },
  {
   "type": "Feature",
   "geometry": {
    "type": "Point",
    "coordinates": [
     149.70167898,
     -35.27106421
    ]
   },
   "properties": {
    "name": "108 JAMALEOPA ROAD MANAR 2622",
    "locID": "LOC000090204435",
    "tech": "NULL",
    "upgrade": "NULL_NA",
    "gnaf_pid": "GANSW717955067",
    "tech_change_status": "Not Planned"
   }
  },
  {
   "type": "Feature",
   "geometry": {
    "type": "Point",
    "coordinates": [
     149.70340852,
     -35.26725093
    ]
   },
   "properties": {
    "name": "131 JAMALEOPA ROAD MANAR 2622",
    "locID": "LOC000100129644",
    "tech": "SATELLITE",
    "upgrade": "NULL_NA",
    "gnaf_pid": "GANSW717955070",
    "tech_change_status": "Not Planned"
   }
  },
  {
   "type": "Feature",
   "geometry": {
    "type": "Point",
    "coordinates": [
     149.69342212,
     -35.27234749
    ]
   },
   "properties": {
    "name": "47 JAMALEOPA ROAD MANAR 2622",
    "locID": "LOC000053764046",
    "tech": "SATELLITE",
    "upgrade": "NULL_NA",
    "gnaf_pid": "GANSW717955071",
    "tech_change_status": "Not Planned"
   }
  },
  {
   "type": "Feature",
   "geometry": {
    "type": "Point",
    "coordinates": [
     149.69992868,
     -35.27407187
    ]
   },
   "properties": {
    "name": "88 JAMALEOPA ROAD MANAR 2622",
    "locID": "LOC000033391560",
    "tech": "NULL",
    "upgrade": "NULL_NA",
    "gnaf_pid": "GANSW717955075",
    "tech_change_status": "Not Planned"
   }
  },
  {
   "type": "Feature",
   "geometry": {
    "type": "Point",
    "coordinates": [
     149.70000155,
     -35.26482466
    ]
   },
   "properties": {
    "name": "8324 KINGS HIGHWAY MANAR 2622",
    "locID": "LOC000083977269",
    "tech": "SATELLITE",
    "upgrade": "NULL_NA",
    "gnaf_pid": "GANSW717956284",
    "tech_change_status": "Not Planned"
   }
  },
  {
   "type": "Feature",
   "geometry": {
    "type": "Point",
    "coordinates": [
     149.68905497,
     -35.25783845
    ]
   },
   "properties": {
    "name": "8380 KINGS HIGHWAY MANAR 2622",
    "locID": "LOC000090740266",
    "tech": "NULL",
    "upgrade": "NULL_NA",
    "gnaf_pid": "GANSW717956286",
    "tech_change_status": "Not Planned"
   }
  },
  {
   "type": "Feature",
   "geometry": {
    "type": "Point",
    "coordinates": [
     149.64723373,
     -35.26125442
    ]
   },
   "properties": {
    "name": "8815 KINGS HIGHWAY MANAR 2622",
    "locID": "LOC000055483906",
    "tech": "SATELLITE",
    "upgrade": "NULL_NA",
    "gnaf_pid": "GANSW717956287",
    "tech_change_status": "Not Planned"
   }
  },
  {
   "type": "Feature",
   "geometry": {
    "type": "Point",
    "coordinates": [
     149.65020082,
     -35.28707385
    ]
   },
   "properties": {
    "name": "590 MANAR ROAD MANAR 2622",
    "locID": "LOC000042951806",
    "tech": "NULL",
    "upgrade": "NULL_NA",
    "gnaf_pid": "GANSW717958317",
    "tech_change_status": "Not Planned"
   }
  },
  {
   "type": "Feature",
   "geometry": {
    "type": "Point",
    "coordinates": [
     149.70208399,
     -35.2731144
    ]
   },
   "properties": {
    "name": "27 THE GLEN ROAD MANAR 2622",
    "locID": "LOC000067365196",
    "tech": "SATELLITE",
    "upgrade": "NULL_NA",
    "gnaf_pid": "GANSW717968211",
    "tech_change_status": "Not Planned"
   }
  },
  {
   "type": "Feature",
   "geometry": {
    "type": "Point",
    "coordinates": [
     149.69838228,
     -35.27872632
    ]
   },
   "properties": {
    "name": "8136 KINGS HIGHWAY MANAR 2622",
    "locID": "LOC000098891420",
    "tech": "SATELLITE",
    "upgrade": "NULL_NA",
    "gnaf_pid": "GANSW718008903",
    "tech_change_status": "Not Planned"
   }
  },
  {
   "type": "Feature",
   "geometry": {
    "type": "Point",
    "coordinates": [
     149.68264205,
     -35.29302394
    ]
   },
   "properties": {
    "name": "COTTAGE 1, 306 MANAR ROAD MANAR 2622",
    "locID": "LOC000150123633",
    "tech": "NULL",
    "upgrade": "NULL_NA",
    "gnaf_pid": "GANSW718277772",
    "tech_change_status": "Not Planned"
   }
  },
  {
   "type": "Feature",
   "geometry": {
    "type": "Point",
    "coordinates": [
     149.68566319,
     -35.26861459
    ]
   },
   "properties": {
    "name": "8322 KINGS HIGHWAY MANAR 2622",
    "locID": "LOC000150123651",
    "tech": "SATELLITE",
    "upgrade": "NULL_NA",
    "gnaf_pid": "GANSW718413361",
    "tech_change_status": "Not Planned"
   }
  },
  {
   "type": "Feature",
   "geometry": {
    "type": "Point",
    "coordinates": [
     149.71812199,
     -35.29132807
    ]
   },
   "properties": {
    "name": "7778 KINGS HIGHWAY MANAR 2622",
    "locID": "LOC000150123667",
    "tech": "NULL",
    "upgrade": "NULL_NA",
    "gnaf_pid": "GANSW718531812",
    "tech_change_status": "Not Planned"
   }
  },
  {
   "type": "Feature",
   "geometry": {
    "type": "Point",
    "coordinates": [
     149.69102509,
     -35.26105792
    ]
   },
   "properties": {
    "name": "8358 KINGS HIGHWAY MANAR 2622",
    "locID": "LOC000150123679",
    "tech": "NULL",
    "upgrade": "NULL_NA",
    "gnaf_pid": "GANSW718531813",
    "tech_change_status": "Not Planned"
   }
  },
  {
   "type": "Feature",
   "geometry": {
    "type": "Point",
    "coordinates": [
     149.67252109,
     -35.24190148
    ]
   },
   "properties": {
    "name": "8642 KINGS HIGHWAY MANAR 2622",
    "locID": "LOC000150123680",
    "tech": "NULL",
    "upgrade": "NULL_NA",
    "gnaf_pid": "GANSW718531814",
    "tech_change_status": "Not Planned"
   }
  },
  {
   "type": "Feature",
   "geometry": {
    "type": "Point",
    "coordinates": [
     149.65914823,
     -35.29077923
    ]
   },
   "properties": {
    "name": "508 MANAR ROAD MANAR 2622",
    "locID": "LOC100032157984",
    "tech": "SATELLITE",
    "upgrade": "NULL_NA",
    "gnaf_pid": "GANSW718532502",
    "tech_change_status": "Not Planned"
   }
  },
  {
   "type": "Feature",
   "geometry": {
    "type": "Point",
    "coordinates": [
     149.66451899,
     -35.24009841
    ]
   },
   "properties": {
    "name": "32 GOULBURN ROAD MANAR 2622",
    "locID": "LOC000150123698",
    "tech": "SATELLITE",
    "upgrade": "NULL_NA",
    "gnaf_pid": "GANSW718560475",
    "tech_change_status": "Not Planned"
   }
  },
  {
   "type": "Feature",
   "geometry": {
    "type": "Point",
    "coordinates": [
     149.67737776,
     -35.24765379
    ]
   },
   "properties": {
    "name": "8534 KINGS HIGHWAY MANAR 2622",
    "locID": "LOC000150123701",
    "tech": "NULL",
    "upgrade": "NULL_NA",
    "gnaf_pid": "GANSW718689481",
    "tech_change_status": "Not Planned"
   }
  },
  {
   "type": "Feature",
   "geometry": {
    "type": "Point",
    "coordinates": [
     149.68645254,
     -35.28328753
    ]
   },
   "properties": {
    "name": "291 MANAR ROAD MANAR 2622",
    "locID": "LOC000150154199",
    "tech": "SATELLITE",
    "upgrade": "NULL_NA",
    "gnaf_pid": "GANSW718898070",
    "tech_change_status": "Not Planned"
   }
  },
  {
   "type": "Feature",
   "geometry": {
    "type": "Point",
    "coordinates": [
     149.70088791,
     -35.273432
    ]
   },
   "properties": {
    "name": "1 THE GLEN ROAD MANAR 2622",
    "locID": "LOC000154874614",
    "tech": "SATELLITE",
    "upgrade": "NULL_NA",
    "gnaf_pid": "GANSW718898884",
    "tech_change_status": "Not Planned"
   }
  },
  {
   "type": "Feature",
   "geometry": {
    "type": "Point",
    "coordinates": [
     149.70154755,
     -35.25949793
    ]
   },
   "properties": {
    "name": "171 THE GLEN ROAD MANAR 2622",
    "locID": "LOC000154874614",
    "tech": "SATELLITE",
    "upgrade": "NULL_NA",
    "gnaf_pid": "GANSW719881044",
    "tech_change_status": "Not Planned"
   }
  },
  {
   "type": "Feature",
   "geometry": {
    "type": "Point",
    "coordinates": [
     149.70157386,
     -35.25940018
    ]
   },
   "properties": {
    "name": "266 REEDY CREEK LANE MANAR 2622",
    "locID": "LOC000154874614",
    "tech": "SATELLITE",
    "upgrade": "NULL_NA",
    "gnaf_pid": "GANSW720077686",
    "tech_change_status": "Not Planned"
   }
  },
  {
   "type": "Feature",
   "geometry": {
    "type": "Point",
    "coordinates": [
     149.70876018,
     -35.27292412
    ]
   },
   "properties": {
    "name": "31 REEDY CREEK LANE MANAR 2622",
    "locID": "LOC100077803227",
    "tech": "SATELLITE",
    "upgrade": "NULL_NA",
    "gnaf_pid": "GANSW720080058",
    "tech_change_status": "Not Planned"
   }
  },
  {
   "type": "Feature",
   "geometry": {
    "type": "Point",
    "coordinates": [
     149.70979735,
     -35.26816216
    ]
   },
   "properties": {
    "name": "39 REEDY CREEK LANE MANAR 2622",
    "locID": "LOC100072012042",
    "tech": "NULL",
    "upgrade": "NULL_NA",
    "gnaf_pid": "GANSW720086039",
    "tech_change_status": "Not Planned"
   }
  },
  {
   "type": "Feature",
   "geometry": {
    "type": "Point",
    "coordinates": [
     149.70618449,
     -35.26321438
    ]
   },
   "properties": {
    "name": "239 REEDY CREEK LANE MANAR 2622",
    "locID": "LOC100072011986",
    "tech": "NULL",
    "upgrade": "NULL_NA",
    "gnaf_pid": "GANSW720088451",
    "tech_change_status": "Not Planned"
   }
  },
  {
   "type": "Feature",
   "geometry": {
    "type": "Point",
    "coordinates": [
     149.67994483,
     -35.29820188
    ]
   },
   "properties": {
    "name": "188 MANAR ROAD MANAR 2622",
    "locID": "LOC100078125713",
    "tech": "NULL",
    "upgrade": "NULL_NA",
    "gnaf_pid": "GANSW720332966",
    "tech_change_status": "Not Planned"
   }
  },
  {
   "type": "Feature",
   "geometry": {
    "type": "Point",
    "coordinates": [
     149.68574284,
     -35.29391096
    ]
   },
   "properties": {
    "name": "120 MANAR ROAD MANAR 2622",
    "locID": "LOC000189453355",
    "tech": "NULL",
    "upgrade": "NULL_NA",
    "gnaf_pid": "GANSW720388320",
    "tech_change_status": "Not Planned"
   }
  }
 ]
}