{
 "type": "FeatureCollection",
 "generated": "2025-01-27T22:30:17.500462",
 "suburb": "MARLOWE",
 "features": [
  {
   "type": "Feature",
   "geometry": {
    "type": "Point",
    "coordinates": [
     149.9067937,
     -35.26605677
    ]
   },
   "properties": {
    "name": "8991 NERRIGA ROAD MARLOWE 2622",
    "locID": "LOC000185614426",
    "tech": "SATELLITE",
    "upgrade": "NULL_NA",
    "gnaf_pid": "GANSW717908131",
    "tech_change_status": "Not Planned"
   }
  },
  {
   "type": "Feature",
   "geometry": {
    "type": "Point",
    "coordinates": [
     149.87023409,
     -35.27263815
    ]
   },
   "properties": {
    "name": "348 BROOKVALE LANE MARLOWE 2622",
    "locID": "LOC100072012100",
    "tech": "NULL",
    "upgrade": "NULL_NA",
    "gnaf_pid": "GANSW719881338",
    "tech_change_status": "Not Planned"
   }
  },
  {
   "type": "Feature",
   "geometry": {
    "type": "Point",
    "coordinates": [
     149.86703599,
     -35.28965035
    ]
   },
   "properties": {
    "name": "155 BROOKVALE LANE MARLOWE 2622",
    "locID": "LOC100072012280",
    "tech": "NULL",
    "upgrade": "NULL_NA",
    "gnaf_pid": "GANSW719882794",
    "tech_change_status": "Not Planned"
   }
  },
  {
   "type": "Feature",
   "geometry": {
    "type": "Point",
    "coordinates": [
     149.85972426,
     -35.27746045
    ]
   },
   "properties": {
    "name": "273 BROOKVALE LANE MARLOWE 2622",
    "locID": "LOC100072012171",
    "tech": "SATELLITE",
    "upgrade": "NULL_NA",
    "gnaf_pid": "GANSW719882857",
    "tech_change_status": "Not Planned"
   }
  },
  {
   "type": "Feature",
   "geometry": {
    "type": "Point",
    "coordinates": [
     149.85926436,
     -35.25618814
    ]
   },
   "properties": {
    "name": "UNIT 1, 455 BROOKVALE LANE MARLOWE 2622",
    "locID": "LOC100071980193",
    "tech": "NULL",
    "upgrade": "NULL_NA",
    "gnaf_pid": "GANSW719885065",
    "tech_change_status": "Not Planned"
   }
  },
  {
   "type": "Feature",
   "geometry": {
    "type": "Point",
    "coordinates": [
     149.86319572,
     -35.26109415
    ]
   },
   "properties": {
    "name": "UNIT 2, 455 BROOKVALE LANE MARLOWE 2622",
    "locID": "LOC100071980193",
    "tech": "NULL",
    "upgrade": "NULL_NA",
    "gnaf_pid": "GANSW719887963",
    "tech_change_status": "Not Planned"
   }
  },
  {
   "type": "Feature",
   "geometry": {
    "type": "Point",
    "coordinates": [
     149.85926436,
     -35.25618814
    ]
   },
   "properties": {
    "name": "455 BROOKVALE LANE MARLOWE 2622",
    "locID": "LOC100071980193",
    "tech": "NULL",
    "upgrade": "NULL_NA",
    "gnaf_pid": "GANSW719951919",
    "tech_change_status": "Not Planned"
   }
  },
  {
   "type": "Feature",
   "geometry": {
    "type": "Point",
    "coordinates": [
     149.90812802,
     -35.26681196
    ]
   },
   "properties": {
    "name": "8993 NERRIGA ROAD MARLOWE 2622",
    "locID": "LOC100081676982",
    "tech": "NULL",
    "upgrade": "NULL_NA",
    "gnaf_pid": "GANSW721006560",
    "tech_change_status": "Not Planned"
   }
  }
 ]
}