{
 "type": "FeatureCollection",
 "generated": "2025-01-02T15:23:16.651841",
 "suburb": "MARTINS CREEK",
 "features": [
  {
   "type": "Feature",
   "geometry": {
    "type": "Point",
    "coordinates": [
     151.60975721,
     -32.55081807
    ]
   },
   "properties": {
    "name": "281 DUNGOG ROAD MARTINS CREEK 2420",
    "locID": "LOC000096767487",
    "tech": "WIRELESS",
    "upgrade": "NULL_NA",
    "gnaf_pid": "GANSW705292295",
    "tech_change_status": "Not Planned",
    "program_type": "Fixed Wireless and Satellite Upgrade Program",
    "target_eligibility_quarter": "NA"
   }
  },
  {
   "type": "Feature",
   "geometry": {
    "type": "Point",
    "coordinates": [
     151.60917071,
     -32.54901524
    ]
   },
   "properties": {
    "name": "303 DUNGOG ROAD MARTINS CREEK 2420",
    "locID": "LOC000044144260",
    "tech": "WIRELESS",
    "upgrade": "NULL_NA",
    "gnaf_pid": "GANSW705292296",
    "tech_change_status": "Not Planned",
    "program_type": "Fixed Wireless and Satellite Upgrade Program",
    "target_eligibility_quarter": "NA"
   }
  },
  {
   "type": "Feature",
   "geometry": {
    "type": "Point",
    "coordinates": [
     151.6088392,
     -32.54712877
    ]
   },
   "properties": {
    "name": "333 DUNGOG ROAD MARTINS CREEK 2420",
    "locID": "LOC000008890876",
    "tech": "WIRELESS",
    "upgrade": "NULL_NA",
    "gnaf_pid": "GANSW705292297",
    "tech_change_status": "Not Planned",
    "program_type": "Fixed Wireless and Satellite Upgrade Program",
    "target_eligibility_quarter": "NA"
   }
  },
  {
   "type": "Feature",
   "geometry": {
    "type": "Point",
    "coordinates": [
     151.61150367,
     -32.5457237
    ]
   },
   "properties": {
    "name": "341 DUNGOG ROAD MARTINS CREEK 2420",
    "locID": "LOC000021414739",
    "tech": "WIRELESS",
    "upgrade": "NULL_NA",
    "gnaf_pid": "GANSW705292299",
    "tech_change_status": "Not Planned",
    "program_type": "Fixed Wireless and Satellite Upgrade Program",
    "target_eligibility_quarter": "NA"
   }
  },
  {
   "type": "Feature",
   "geometry": {
    "type": "Point",
    "coordinates": [
     151.61606874,
     -32.53838692
    ]
   },
   "properties": {
    "name": "448 DUNGOG ROAD MARTINS CREEK 2420",
    "locID": "LOC000009647495",
    "tech": "WIRELESS",
    "upgrade": "NULL_NA",
    "gnaf_pid": "GANSW705292303",
    "tech_change_status": "Not Planned",
    "program_type": "Fixed Wireless and Satellite Upgrade Program",
    "target_eligibility_quarter": "NA"
   }
  },
  {
   "type": "Feature",
   "geometry": {
    "type": "Point",
    "coordinates": [
     151.61776784,
     -32.53930576
    ]
   },
   "properties": {
    "name": "462 DUNGOG ROAD MARTINS CREEK 2420",
    "locID": "LOC000086106602",
    "tech": "WIRELESS",
    "upgrade": "NULL_NA",
    "gnaf_pid": "GANSW705292306",
    "tech_change_status": "Not Planned",
    "program_type": "Fixed Wireless and Satellite Upgrade Program",
    "target_eligibility_quarter": "NA"
   }
  },
  {
   "type": "Feature",
   "geometry": {
    "type": "Point",
    "coordinates": [
     151.62404185,
     -32.5328976
    ]
   },
   "properties": {
    "name": "558 DUNGOG ROAD MARTINS CREEK 2420",
    "locID": "LOC000107430268",
    "tech": "WIRELESS",
    "upgrade": "NULL_NA",
    "gnaf_pid": "GANSW705292307",
    "tech_change_status": "Not Planned",
    "program_type": "Fixed Wireless and Satellite Upgrade Program",
    "target_eligibility_quarter": "NA"
   }
  },
  {
   "type": "Feature",
   "geometry": {
    "type": "Point",
    "coordinates": [
     151.60432839,
     -32.55078203
    ]
   },
   "properties": {
    "name": "253 DUNGOG ROAD MARTINS CREEK 2420",
    "locID": "LOC000049299109",
    "tech": "WIRELESS",
    "upgrade": "NULL_NA",
    "gnaf_pid": "GANSW705296425",
    "tech_change_status": "Not Planned",
    "program_type": "Fixed Wireless and Satellite Upgrade Program",
    "target_eligibility_quarter": "NA"
   }
  },
  {
   "type": "Feature",
   "geometry": {
    "type": "Point",
    "coordinates": [
     151.60080271,
     -32.5518169
    ]
   },
   "properties": {
    "name": "255 DUNGOG ROAD MARTINS CREEK 2420",
    "locID": "LOC000039892567",
    "tech": "WIRELESS",
    "upgrade": "NULL_NA",
    "gnaf_pid": "GANSW705296426",
    "tech_change_status": "Not Planned",
    "program_type": "Fixed Wireless and Satellite Upgrade Program",
    "target_eligibility_quarter": "NA"
   }
  },
  {
   "type": "Feature",
   "geometry": {
    "type": "Point",
    "coordinates": [
     151.64240625,
     -32.57365487
    ]
   },
   "properties": {
    "name": "43 BARFORD LANE MARTINS CREEK 2420",
    "locID": "LOC000037901016",
    "tech": "WIRELESS",
    "upgrade": "NULL_NA",
    "gnaf_pid": "GANSW705307779",
    "tech_change_status": "Not Planned",
    "program_type": "Fixed Wireless and Satellite Upgrade Program",
    "target_eligibility_quarter": "NA"
   }
  },
  {
   "type": "Feature",
   "geometry": {
    "type": "Point",
    "coordinates": [
     151.63193736,
     -32.56500528
    ]
   },
   "properties": {
    "name": "115 BLACK ROCK ROAD MARTINS CREEK 2420",
    "locID": "LOC000089285106",
    "tech": "NULL",
    "upgrade": "NULL_NA",
    "gnaf_pid": "GANSW705307782",
    "tech_change_status": "Not Planned"
   }
  },
  {
   "type": "Feature",
   "geometry": {
    "type": "Point",
    "coordinates": [
     151.64242959,
     -32.56909998
    ]
   },
   "properties": {
    "name": "228 BLACK ROCK ROAD MARTINS CREEK 2420",
    "locID": "LOC000032167105",
    "tech": "WIRELESS",
    "upgrade": "NULL_NA",
    "gnaf_pid": "GANSW705307788",
    "tech_change_status": "Not Planned",
    "program_type": "Fixed Wireless and Satellite Upgrade Program",
    "target_eligibility_quarter": "NA"
   }
  },
  {
   "type": "Feature",
   "geometry": {
    "type": "Point",
    "coordinates": [
     151.64838173,
     -32.56557085
    ]
   },
   "properties": {
    "name": "230 BLACK ROCK ROAD MARTINS CREEK 2420",
    "locID": "LOC000029591056",
    "tech": "WIRELESS",
    "upgrade": "NULL_NA",
    "gnaf_pid": "GANSW705307789",
    "tech_change_status": "Not Planned",
    "program_type": "Fixed Wireless and Satellite Upgrade Program",
    "target_eligibility_quarter": "NA"
   }
  },
  {
   "type": "Feature",
   "geometry": {
    "type": "Point",
    "coordinates": [
     151.64625041,
     -32.56613297
    ]
   },
   "properties": {
    "name": "247 BLACK ROCK ROAD MARTINS CREEK 2420",
    "locID": "LOC000062578821",
    "tech": "WIRELESS",
    "upgrade": "NULL_NA",
    "gnaf_pid": "GANSW705307791",
    "tech_change_status": "Not Planned",
    "program_type": "Fixed Wireless and Satellite Upgrade Program",
    "target_eligibility_quarter": "NA"
   }
  },
  {
   "type": "Feature",
   "geometry": {
    "type": "Point",
    "coordinates": [
     151.64515219,
     -32.56707327
    ]
   },
   "properties": {
    "name": "256 BLACK ROCK ROAD MARTINS CREEK 2420",
    "locID": "LOC000050484598",
    "tech": "WIRELESS",
    "upgrade": "NULL_NA",
    "gnaf_pid": "GANSW705307792",
    "tech_change_status": "Not Planned",
    "program_type": "Fixed Wireless and Satellite Upgrade Program",
    "target_eligibility_quarter": "NA"
   }
  },
  {
   "type": "Feature",
   "geometry": {
    "type": "Point",
    "coordinates": [
     151.62680993,
     -32.56846858
    ]
   },
   "properties": {
    "name": "28 BLACK ROCK ROAD MARTINS CREEK 2420",
    "locID": "LOC000039852434",
    "tech": "WIRELESS",
    "upgrade": "NULL_NA",
    "gnaf_pid": "GANSW705307793",
    "tech_change_status": "Not Planned",
    "program_type": "Fixed Wireless and Satellite Upgrade Program",
    "target_eligibility_quarter": "NA"
   }
  },
  {
   "type": "Feature",
   "geometry": {
    "type": "Point",
    "coordinates": [
     151.63783295,
     -32.56611649
    ]
   },
   "properties": {
    "name": "175 BLACK ROCK ROAD MARTINS CREEK 2420",
    "locID": "LOC000093775884",
    "tech": "WIRELESS",
    "upgrade": "NULL_NA",
    "gnaf_pid": "GANSW705310403",
    "tech_change_status": "Not Planned",
    "program_type": "Fixed Wireless and Satellite Upgrade Program",
    "target_eligibility_quarter": "NA"
   }
  },
  {
   "type": "Feature",
   "geometry": {
    "type": "Point",
    "coordinates": [
     151.63847255,
     -32.56443326
    ]
   },
   "properties": {
    "name": "181 BLACK ROCK ROAD MARTINS CREEK 2420",
    "locID": "LOC000025938412",
    "tech": "WIRELESS",
    "upgrade": "NULL_NA",
    "gnaf_pid": "GANSW705310404",
    "tech_change_status": "Not Planned",
    "program_type": "Fixed Wireless and Satellite Upgrade Program",
    "target_eligibility_quarter": "NA"
   }
  },
  {
   "type": "Feature",
   "geometry": {
    "type": "Point",
    "coordinates": [
     151.66335103,
     -32.57392988
    ]
   },
   "properties": {
    "name": "483 BLACK ROCK ROAD MARTINS CREEK 2420",
    "locID": "LOC000086847492",
    "tech": "WIRELESS",
    "upgrade": "NULL_NA",
    "gnaf_pid": "GANSW705315962",
    "tech_change_status": "Not Planned",
    "program_type": "Fixed Wireless and Satellite Upgrade Program",
    "target_eligibility_quarter": "NA"
   }
  },
  {
   "type": "Feature",
   "geometry": {
    "type": "Point",
    "coordinates": [
     151.63156616,
     -32.56787491
    ]
   },
   "properties": {
    "name": "96 BLACK ROCK ROAD MARTINS CREEK 2420",
    "locID": "LOC000016307986",
    "tech": "WIRELESS",
    "upgrade": "NULL_NA",
    "gnaf_pid": "GANSW705315970",
    "tech_change_status": "Not Planned",
    "program_type": "Fixed Wireless and Satellite Upgrade Program",
    "target_eligibility_quarter": "NA"
   }
  },
  {
   "type": "Feature",
   "geometry": {
    "type": "Point",
    "coordinates": [
     151.6229146,
     -32.56022665
    ]
   },
   "properties": {
    "name": "12 VOGELES ROAD MARTINS CREEK 2420",
    "locID": "LOC000085071275",
    "tech": "WIRELESS",
    "upgrade": "NULL_NA",
    "gnaf_pid": "GANSW705317024",
    "tech_change_status": "Not Planned",
    "program_type": "Fixed Wireless and Satellite Upgrade Program",
    "target_eligibility_quarter": "NA"
   }
  },
  {
   "type": "Feature",
   "geometry": {
    "type": "Point",
    "coordinates": [
     151.62594823,
     -32.54392721
    ]
   },
   "properties": {
    "name": "126 MERCHANTS ROAD MARTINS CREEK 2420",
    "locID": "LOC000069233157",
    "tech": "WIRELESS",
    "upgrade": "NULL_NA",
    "gnaf_pid": "GANSW705320493",
    "tech_change_status": "Not Planned",
    "program_type": "Fixed Wireless and Satellite Upgrade Program",
    "target_eligibility_quarter": "NA"
   }
  },
  {
   "type": "Feature",
   "geometry": {
    "type": "Point",
    "coordinates": [
     151.63096152,
     -32.54278054
    ]
   },
   "properties": {
    "name": "168 MERCHANTS ROAD MARTINS CREEK 2420",
    "locID": "LOC000078488343",
    "tech": "WIRELESS",
    "upgrade": "NULL_NA",
    "gnaf_pid": "GANSW705320494",
    "tech_change_status": "Not Planned",
    "program_type": "Fixed Wireless and Satellite Upgrade Program",
    "target_eligibility_quarter": "NA"
   }
  },
  {
   "type": "Feature",
   "geometry": {
    "type": "Point",
    "coordinates": [
     151.61974114,
     -32.53648702
    ]
   },
   "properties": {
    "name": "17 MERCHANTS ROAD MARTINS CREEK 2420",
    "locID": "LOC000026271928",
    "tech": "WIRELESS",
    "upgrade": "NULL_NA",
    "gnaf_pid": "GANSW705320495",
    "tech_change_status": "Not Planned",
    "program_type": "Fixed Wireless and Satellite Upgrade Program",
    "target_eligibility_quarter": "NA"
   }
  },
  {
   "type": "Feature",
   "geometry": {
    "type": "Point",
    "coordinates": [
     151.63386999,
     -32.54499331
    ]
   },
   "properties": {
    "name": "218 MERCHANTS ROAD MARTINS CREEK 2420",
    "locID": "LOC000061950257",
    "tech": "WIRELESS",
    "upgrade": "NULL_NA",
    "gnaf_pid": "GANSW705320497",
    "tech_change_status": "Not Planned",
    "program_type": "Fixed Wireless and Satellite Upgrade Program",
    "target_eligibility_quarter": "NA"
   }
  },
  {
   "type": "Feature",
   "geometry": {
    "type": "Point",
    "coordinates": [
     151.61801382,
     -32.53622304
    ]
   },
   "properties": {
    "name": "22 MERCHANTS ROAD MARTINS CREEK 2420",
    "locID": "LOC000073511054",
    "tech": "WIRELESS",
    "upgrade": "NULL_NA",
    "gnaf_pid": "GANSW705320498",
    "tech_change_status": "Not Planned",
    "program_type": "Fixed Wireless and Satellite Upgrade Program",
    "target_eligibility_quarter": "NA"
   }
  },
  {
   "type": "Feature",
   "geometry": {
    "type": "Point",
    "coordinates": [
     151.63622233,
     -32.54595074
    ]
   },
   "properties": {
    "name": "221 MERCHANTS ROAD MARTINS CREEK 2420",
    "locID": "LOC000005906139",
    "tech": "WIRELESS",
    "upgrade": "NULL_NA",
    "gnaf_pid": "GANSW705320499",
    "tech_change_status": "Not Planned",
    "program_type": "Fixed Wireless and Satellite Upgrade Program",
    "target_eligibility_quarter": "NA"
   }
  },
  {
   "type": "Feature",
   "geometry": {
    "type": "Point",
    "coordinates": [
     151.61777712,
     -32.53718025
    ]
   },
   "properties": {
    "name": "24 MERCHANTS ROAD MARTINS CREEK 2420",
    "locID": "LOC000072519416",
    "tech": "WIRELESS",
    "upgrade": "NULL_NA",
    "gnaf_pid": "GANSW705320500",
    "tech_change_status": "Not Planned",
    "program_type": "Fixed Wireless and Satellite Upgrade Program",
    "target_eligibility_quarter": "NA"
   }
  },
  {
   "type": "Feature",
   "geometry": {
    "type": "Point",
    "coordinates": [
     151.61874355,
     -32.53765035
    ]
   },
   "properties": {
    "name": "26 MERCHANTS ROAD MARTINS CREEK 2420",
    "locID": "LOC000068749407",
    "tech": "WIRELESS",
    "upgrade": "NULL_NA",
    "gnaf_pid": "GANSW705320501",
    "tech_change_status": "Not Planned",
    "program_type": "Fixed Wireless and Satellite Upgrade Program",
    "target_eligibility_quarter": "NA"
   }
  },
  {
   "type": "Feature",
   "geometry": {
    "type": "Point",
    "coordinates": [
     151.62251321,
     -32.53624482
    ]
   },
   "properties": {
    "name": "43 MERCHANTS ROAD MARTINS CREEK 2420",
    "locID": "LOC000086136599",
    "tech": "WIRELESS",
    "upgrade": "NULL_NA",
    "gnaf_pid": "GANSW705320502",
    "tech_change_status": "Not Planned",
    "program_type": "Fixed Wireless and Satellite Upgrade Program",
    "target_eligibility_quarter": "NA"
   }
  },
  {
   "type": "Feature",
   "geometry": {
    "type": "Point",
    "coordinates": [
     151.61958159,
     -32.53889398
    ]
   },
   "properties": {
    "name": "46 MERCHANTS ROAD MARTINS CREEK 2420",
    "locID": "LOC000043974774",
    "tech": "WIRELESS",
    "upgrade": "NULL_NA",
    "gnaf_pid": "GANSW705320503",
    "tech_change_status": "Not Planned",
    "program_type": "Fixed Wireless and Satellite Upgrade Program",
    "target_eligibility_quarter": "NA"
   }
  },
  {
   "type": "Feature",
   "geometry": {
    "type": "Point",
    "coordinates": [
     151.62080544,
     -32.5347749
    ]
   },
   "properties": {
    "name": "9 MERCHANTS ROAD MARTINS CREEK 2420",
    "locID": "LOC000003087682",
    "tech": "WIRELESS",
    "upgrade": "NULL_NA",
    "gnaf_pid": "GANSW705320506",
    "tech_change_status": "Not Planned",
    "program_type": "Fixed Wireless and Satellite Upgrade Program",
    "target_eligibility_quarter": "NA"
   }
  },
  {
   "type": "Feature",
   "geometry": {
    "type": "Point",
    "coordinates": [
     151.62480415,
     -32.54188719
    ]
   },
   "properties": {
    "name": "97 MERCHANTS ROAD MARTINS CREEK 2420",
    "locID": "LOC000026451035",
    "tech": "WIRELESS",
    "upgrade": "NULL_NA",
    "gnaf_pid": "GANSW705320507",
    "tech_change_status": "Not Planned",
    "program_type": "Fixed Wireless and Satellite Upgrade Program",
    "target_eligibility_quarter": "NA"
   }
  },
  {
   "type": "Feature",
   "geometry": {
    "type": "Point",
    "coordinates": [
     151.62687906,
     -32.53028693
    ]
   },
   "properties": {
    "name": "600 DUNGOG ROAD MARTINS CREEK 2420",
    "locID": "LOC000023724943",
    "tech": "WIRELESS",
    "upgrade": "NULL_NA",
    "gnaf_pid": "GANSW705328024",
    "tech_change_status": "Not Planned",
    "program_type": "Fixed Wireless and Satellite Upgrade Program",
    "target_eligibility_quarter": "NA"
   }
  },
  {
   "type": "Feature",
   "geometry": {
    "type": "Point",
    "coordinates": [
     151.62707945,
     -32.53249126
    ]
   },
   "properties": {
    "name": "602 DUNGOG ROAD MARTINS CREEK 2420",
    "locID": "LOC000018930923",
    "tech": "WIRELESS",
    "upgrade": "NULL_NA",
    "gnaf_pid": "GANSW705328025",
    "tech_change_status": "Not Planned",
    "program_type": "Fixed Wireless and Satellite Upgrade Program",
    "target_eligibility_quarter": "NA"
   }
  },
  {
   "type": "Feature",
   "geometry": {
    "type": "Point",
    "coordinates": [
     151.62832694,
     -32.52995776
    ]
   },
   "properties": {
    "name": "604 DUNGOG ROAD MARTINS CREEK 2420",
    "locID": "LOC000096217668",
    "tech": "WIRELESS",
    "upgrade": "NULL_NA",
    "gnaf_pid": "GANSW705328026",
    "tech_change_status": "Not Planned",
    "program_type": "Fixed Wireless and Satellite Upgrade Program",
    "target_eligibility_quarter": "NA"
   }
  },
  {
   "type": "Feature",
   "geometry": {
    "type": "Point",
    "coordinates": [
     151.63687184,
     -32.53111634
    ]
   },
   "properties": {
    "name": "606 DUNGOG ROAD MARTINS CREEK 2420",
    "locID": "LOC000015504315",
    "tech": "WIRELESS",
    "upgrade": "NULL_NA",
    "gnaf_pid": "GANSW705328027",
    "tech_change_status": "Not Planned",
    "program_type": "Fixed Wireless and Satellite Upgrade Program",
    "target_eligibility_quarter": "NA"
   }
  },
  {
   "type": "Feature",
   "geometry": {
    "type": "Point",
    "coordinates": [
     151.6534539,
     -32.5740733
    ]
   },
   "properties": {
    "name": "85 FITNESS ROAD MARTINS CREEK 2420",
    "locID": "LOC000099143868",
    "tech": "WIRELESS",
    "upgrade": "NULL_NA",
    "gnaf_pid": "GANSW705328029",
    "tech_change_status": "Not Planned",
    "program_type": "Fixed Wireless and Satellite Upgrade Program",
    "target_eligibility_quarter": "NA"
   }
  },
  {
   "type": "Feature",
   "geometry": {
    "type": "Point",
    "coordinates": [
     151.65333235,
     -32.53488788
    ]
   },
   "properties": {
    "name": "330 GARDINERS ROAD MARTINS CREEK 2420",
    "locID": "LOC000067479882",
    "tech": "WIRELESS",
    "upgrade": "NULL_NA",
    "gnaf_pid": "GANSW705330646",
    "tech_change_status": "Not Planned",
    "program_type": "Fixed Wireless and Satellite Upgrade Program",
    "target_eligibility_quarter": "NA"
   }
  },
  {
   "type": "Feature",
   "geometry": {
    "type": "Point",
    "coordinates": [
     151.6576851,
     -32.53518583
    ]
   },
   "properties": {
    "name": "378 GARDINERS ROAD MARTINS CREEK 2420",
    "locID": "LOC000105138400",
    "tech": "WIRELESS",
    "upgrade": "NULL_NA",
    "gnaf_pid": "GANSW705330647",
    "tech_change_status": "Not Planned",
    "program_type": "Fixed Wireless and Satellite Upgrade Program",
    "target_eligibility_quarter": "NA"
   }
  },
  {
   "type": "Feature",
   "geometry": {
    "type": "Point",
    "coordinates": [
     151.63689278,
     -32.55076144
    ]
   },
   "properties": {
    "name": "197 VOGELES ROAD MARTINS CREEK 2420",
    "locID": "LOC000085071275",
    "tech": "WIRELESS",
    "upgrade": "NULL_NA",
    "gnaf_pid": "GANSW705331328",
    "tech_change_status": "Not Planned",
    "program_type": "Fixed Wireless and Satellite Upgrade Program",
    "target_eligibility_quarter": "NA"
   }
  },
  {
   "type": "Feature",
   "geometry": {
    "type": "Point",
    "coordinates": [
     151.64956066,
     -32.55514166
    ]
   },
   "properties": {
    "name": "288 VOGELES ROAD MARTINS CREEK 2420",
    "locID": "LOC000096732091",
    "tech": "WIRELESS",
    "upgrade": "NULL_NA",
    "gnaf_pid": "GANSW705331329",
    "tech_change_status": "Not Planned",
    "program_type": "Fixed Wireless and Satellite Upgrade Program",
    "target_eligibility_quarter": "NA"
   }
  },
  {
   "type": "Feature",
   "geometry": {
    "type": "Point",
    "coordinates": [
     151.65465315,
     -32.55058258
    ]
   },
   "properties": {
    "name": "351 VOGELES ROAD MARTINS CREEK 2420",
    "locID": "LOC000060882831",
    "tech": "WIRELESS",
    "upgrade": "NULL_NA",
    "gnaf_pid": "GANSW705331330",
    "tech_change_status": "Not Planned",
    "program_type": "Fixed Wireless and Satellite Upgrade Program",
    "target_eligibility_quarter": "NA"
   }
  },
  {
   "type": "Feature",
   "geometry": {
    "type": "Point",
    "coordinates": [
     151.65543356,
     -32.56017368
    ]
   },
   "properties": {
    "name": "381 VOGELES ROAD MARTINS CREEK 2420",
    "locID": "LOC000070615828",
    "tech": "WIRELESS",
    "upgrade": "NULL_NA",
    "gnaf_pid": "GANSW705331331",
    "tech_change_status": "Not Planned",
    "program_type": "Fixed Wireless and Satellite Upgrade Program",
    "target_eligibility_quarter": "NA"
   }
  },
  {
   "type": "Feature",
   "geometry": {
    "type": "Point",
    "coordinates": [
     151.62117286,
     -32.539352
    ]
   },
   "properties": {
    "name": "60 MERCHANTS ROAD MARTINS CREEK 2420",
    "locID": "LOC000108740058",
    "tech": "WIRELESS",
    "upgrade": "NULL_NA",
    "gnaf_pid": "GANSW709628940",
    "tech_change_status": "Not Planned",
    "program_type": "Fixed Wireless and Satellite Upgrade Program",
    "target_eligibility_quarter": "NA"
   }
  },
  {
   "type": "Feature",
   "geometry": {
    "type": "Point",
    "coordinates": [
     151.64488294,
     -32.55179511
    ]
   },
   "properties": {
    "name": "268 VOGELES ROAD MARTINS CREEK 2420",
    "locID": "LOC000067375936",
    "tech": "WIRELESS",
    "upgrade": "NULL_NA",
    "gnaf_pid": "GANSW709674175",
    "tech_change_status": "Not Planned",
    "program_type": "Fixed Wireless and Satellite Upgrade Program",
    "target_eligibility_quarter": "NA"
   }
  },
  {
   "type": "Feature",
   "geometry": {
    "type": "Point",
    "coordinates": [
     151.64585122,
     -32.54857046
    ]
   },
   "properties": {
    "name": "251 VOGELES ROAD MARTINS CREEK 2420",
    "locID": "LOC000072605335",
    "tech": "WIRELESS",
    "upgrade": "NULL_NA",
    "gnaf_pid": "GANSW709674176",
    "tech_change_status": "Not Planned",
    "program_type": "Fixed Wireless and Satellite Upgrade Program",
    "target_eligibility_quarter": "NA"
   }
  },
  {
   "type": "Feature",
   "geometry": {
    "type": "Point",
    "coordinates": [
     151.64396943,
     -32.56495733
    ]
   },
   "properties": {
    "name": "201 BLACK ROCK ROAD MARTINS CREEK 2420",
    "locID": "LOC000037010317",
    "tech": "WIRELESS",
    "upgrade": "NULL_NA",
    "gnaf_pid": "GANSW709674178",
    "tech_change_status": "Not Planned",
    "program_type": "Fixed Wireless and Satellite Upgrade Program",
    "target_eligibility_quarter": "NA"
   }
  },
  {
   "type": "Feature",
   "geometry": {
    "type": "Point",
    "coordinates": [
     151.61287499,
     -32.54554182
    ]
   },
   "properties": {
    "name": "LOT 15 DUNGOG ROAD MARTINS CREEK 2420",
    "locID": "LOC000107430268",
    "tech": "WIRELESS",
    "upgrade": "NULL_NA",
    "gnaf_pid": "GANSW716657098",
    "tech_change_status": "Not Planned",
    "program_type": "Fixed Wireless and Satellite Upgrade Program",
    "target_eligibility_quarter": "NA"
   }
  },
  {
   "type": "Feature",
   "geometry": {
    "type": "Point",
    "coordinates": [
     151.61287499,
     -32.54554182
    ]
   },
   "properties": {
    "name": "LOT 1 DUNGOG ROAD MARTINS CREEK 2420",
    "locID": "LOC000039892567",
    "tech": "WIRELESS",
    "upgrade": "NULL_NA",
    "gnaf_pid": "GANSW716657100",
    "tech_change_status": "Not Planned",
    "program_type": "Fixed Wireless and Satellite Upgrade Program",
    "target_eligibility_quarter": "NA"
   }
  },
  {
   "type": "Feature",
   "geometry": {
    "type": "Point",
    "coordinates": [
     151.61287499,
     -32.54554182
    ]
   },
   "properties": {
    "name": "LOT 20 DUNGOG ROAD MARTINS CREEK 2420",
    "locID": "LOC000049299109",
    "tech": "WIRELESS",
    "upgrade": "NULL_NA",
    "gnaf_pid": "GANSW716657101",
    "tech_change_status": "Not Planned",
    "program_type": "Fixed Wireless and Satellite Upgrade Program",
    "target_eligibility_quarter": "NA"
   }
  },
  {
   "type": "Feature",
   "geometry": {
    "type": "Point",
    "coordinates": [
     151.61287499,
     -32.54554182
    ]
   },
   "properties": {
    "name": "LOT 21 DUNGOG ROAD MARTINS CREEK 2420",
    "locID": "LOC000023724943",
    "tech": "WIRELESS",
    "upgrade": "NULL_NA",
    "gnaf_pid": "GANSW716657102",
    "tech_change_status": "Not Planned",
    "program_type": "Fixed Wireless and Satellite Upgrade Program",
    "target_eligibility_quarter": "NA"
   }
  },
  {
   "type": "Feature",
   "geometry": {
    "type": "Point",
    "coordinates": [
     151.61287499,
     -32.54554182
    ]
   },
   "properties": {
    "name": "LOT 22 DUNGOG ROAD MARTINS CREEK 2420",
    "locID": "LOC000018930923",
    "tech": "WIRELESS",
    "upgrade": "NULL_NA",
    "gnaf_pid": "GANSW716657103",
    "tech_change_status": "Not Planned",
    "program_type": "Fixed Wireless and Satellite Upgrade Program",
    "target_eligibility_quarter": "NA"
   }
  },
  {
   "type": "Feature",
   "geometry": {
    "type": "Point",
    "coordinates": [
     151.61287499,
     -32.54554182
    ]
   },
   "properties": {
    "name": "LOT 5 DUNGOG ROAD MARTINS CREEK 2420",
    "locID": "LOC000107430268",
    "tech": "WIRELESS",
    "upgrade": "NULL_NA",
    "gnaf_pid": "GANSW716657104",
    "tech_change_status": "Not Planned",
    "program_type": "Fixed Wireless and Satellite Upgrade Program",
    "target_eligibility_quarter": "NA"
   }
  },
  {
   "type": "Feature",
   "geometry": {
    "type": "Point",
    "coordinates": [
     151.61287499,
     -32.54554182
    ]
   },
   "properties": {
    "name": "LOT 7 DUNGOG ROAD MARTINS CREEK 2420",
    "locID": "LOC000008890876",
    "tech": "WIRELESS",
    "upgrade": "NULL_NA",
    "gnaf_pid": "GANSW716657105",
    "tech_change_status": "Not Planned",
    "program_type": "Fixed Wireless and Satellite Upgrade Program",
    "target_eligibility_quarter": "NA"
   }
  },
  {
   "type": "Feature",
   "geometry": {
    "type": "Point",
    "coordinates": [
     151.61287499,
     -32.54554182
    ]
   },
   "properties": {
    "name": "LOT 8 DUNGOG ROAD MARTINS CREEK 2420",
    "locID": "LOC000044144260",
    "tech": "WIRELESS",
    "upgrade": "NULL_NA",
    "gnaf_pid": "GANSW716657106",
    "tech_change_status": "Not Planned",
    "program_type": "Fixed Wireless and Satellite Upgrade Program",
    "target_eligibility_quarter": "NA"
   }
  },
  {
   "type": "Feature",
   "geometry": {
    "type": "Point",
    "coordinates": [
     151.62376231,
     -32.54134726
    ]
   },
   "properties": {
    "name": "LOT 113 MERCHANTS ROAD MARTINS CREEK 2420",
    "locID": "LOC000068749407",
    "tech": "WIRELESS",
    "upgrade": "NULL_NA",
    "gnaf_pid": "GANSW716675020",
    "tech_change_status": "Not Planned",
    "program_type": "Fixed Wireless and Satellite Upgrade Program",
    "target_eligibility_quarter": "NA"
   }
  },
  {
   "type": "Feature",
   "geometry": {
    "type": "Point",
    "coordinates": [
     151.62376231,
     -32.54134726
    ]
   },
   "properties": {
    "name": "LOT 12 MERCHANTS ROAD MARTINS CREEK 2420",
    "locID": "LOC000003087682",
    "tech": "WIRELESS",
    "upgrade": "NULL_NA",
    "gnaf_pid": "GANSW716675021",
    "tech_change_status": "Not Planned",
    "program_type": "Fixed Wireless and Satellite Upgrade Program",
    "target_eligibility_quarter": "NA"
   }
  },
  {
   "type": "Feature",
   "geometry": {
    "type": "Point",
    "coordinates": [
     151.62376231,
     -32.54134726
    ]
   },
   "properties": {
    "name": "LOT 131 MERCHANTS ROAD MARTINS CREEK 2420",
    "locID": "LOC000026271928",
    "tech": "WIRELESS",
    "upgrade": "NULL_NA",
    "gnaf_pid": "GANSW716675022",
    "tech_change_status": "Not Planned",
    "program_type": "Fixed Wireless and Satellite Upgrade Program",
    "target_eligibility_quarter": "NA"
   }
  },
  {
   "type": "Feature",
   "geometry": {
    "type": "Point",
    "coordinates": [
     151.62376231,
     -32.54134726
    ]
   },
   "properties": {
    "name": "LOT 13 MERCHANTS ROAD MARTINS CREEK 2420",
    "locID": "LOC000086136599",
    "tech": "WIRELESS",
    "upgrade": "NULL_NA",
    "gnaf_pid": "GANSW716675023",
    "tech_change_status": "Not Planned",
    "program_type": "Fixed Wireless and Satellite Upgrade Program",
    "target_eligibility_quarter": "NA"
   }
  },
  {
   "type": "Feature",
   "geometry": {
    "type": "Point",
    "coordinates": [
     151.62376231,
     -32.54134726
    ]
   },
   "properties": {
    "name": "LOT 4 MERCHANTS ROAD MARTINS CREEK 2420",
    "locID": "LOC000069233157",
    "tech": "WIRELESS",
    "upgrade": "NULL_NA",
    "gnaf_pid": "GANSW716675025",
    "tech_change_status": "Not Planned",
    "program_type": "Fixed Wireless and Satellite Upgrade Program",
    "target_eligibility_quarter": "NA"
   }
  },
  {
   "type": "Feature",
   "geometry": {
    "type": "Point",
    "coordinates": [
     151.6633369,
     -32.56648261
    ]
   },
   "properties": {
    "name": "321 BLACK ROCK ROAD MARTINS CREEK 2420",
    "locID": "LOC000009567219",
    "tech": "WIRELESS",
    "upgrade": "NULL_NA",
    "gnaf_pid": "GANSW716728025",
    "tech_change_status": "Not Planned",
    "program_type": "Fixed Wireless and Satellite Upgrade Program",
    "target_eligibility_quarter": "NA"
   }
  },
  {
   "type": "Feature",
   "geometry": {
    "type": "Point",
    "coordinates": [
     151.61384065,
     -32.53918099
    ]
   },
   "properties": {
    "name": "455 DUNGOG ROAD MARTINS CREEK 2420",
    "locID": "LOC000035563843",
    "tech": "WIRELESS",
    "upgrade": "NULL_NA",
    "gnaf_pid": "GANSW716731500",
    "tech_change_status": "Not Planned",
    "program_type": "Fixed Wireless and Satellite Upgrade Program",
    "target_eligibility_quarter": "NA"
   }
  },
  {
   "type": "Feature",
   "geometry": {
    "type": "Point",
    "coordinates": [
     151.62747576,
     -32.54289335
    ]
   },
   "properties": {
    "name": "145 MERCHANTS ROAD MARTINS CREEK 2420",
    "locID": "LOC000103767704",
    "tech": "WIRELESS",
    "upgrade": "NULL_NA",
    "gnaf_pid": "GANSW717339516",
    "tech_change_status": "Not Planned",
    "program_type": "Fixed Wireless and Satellite Upgrade Program",
    "target_eligibility_quarter": "NA"
   }
  },
  {
   "type": "Feature",
   "geometry": {
    "type": "Point",
    "coordinates": [
     151.63685027,
     -32.53109477
    ]
   },
   "properties": {
    "name": "186 GARDINERS ROAD MARTINS CREEK 2420",
    "locID": "LOC000066572516",
    "tech": "WIRELESS",
    "upgrade": "NULL_NA",
    "gnaf_pid": "GANSW717373478",
    "tech_change_status": "Not Planned",
    "program_type": "Fixed Wireless and Satellite Upgrade Program",
    "target_eligibility_quarter": "NA"
   }
  },
  {
   "type": "Feature",
   "geometry": {
    "type": "Point",
    "coordinates": [
     151.63742606,
     -32.56736571
    ]
   },
   "properties": {
    "name": "178 BLACK ROCK ROAD MARTINS CREEK 2420",
    "locID": "LOC000114032949",
    "tech": "WIRELESS",
    "upgrade": "NULL_NA",
    "gnaf_pid": "GANSW718175667",
    "tech_change_status": "Not Planned",
    "program_type": "Fixed Wireless and Satellite Upgrade Program",
    "target_eligibility_quarter": "NA"
   }
  },
  {
   "type": "Feature",
   "geometry": {
    "type": "Point",
    "coordinates": [
     151.64616621,
     -32.56709671
    ]
   },
   "properties": {
    "name": "LOT 1539 BLACK ROCK ROAD MARTINS CREEK 2420",
    "locID": "LOC000114032949",
    "tech": "WIRELESS",
    "upgrade": "NULL_NA",
    "gnaf_pid": "GANSW718237405",
    "tech_change_status": "Not Planned",
    "program_type": "Fixed Wireless and Satellite Upgrade Program",
    "target_eligibility_quarter": "NA"
   }
  },
  {
   "type": "Feature",
   "geometry": {
    "type": "Point",
    "coordinates": [
     151.6534539,
     -32.5740733
    ]
   },
   "properties": {
    "name": "HOUSE 2, 85 FITNESS ROAD MARTINS CREEK 2420",
    "locID": "LOC000099143868",
    "tech": "WIRELESS",
    "upgrade": "NULL_NA",
    "gnaf_pid": "GANSW719376140",
    "tech_change_status": "Not Planned",
    "program_type": "Fixed Wireless and Satellite Upgrade Program",
    "target_eligibility_quarter": "NA"
   }
  },
  {
   "type": "Feature",
   "geometry": {
    "type": "Point",
    "coordinates": [
     151.66503942,
     -32.5895739
    ]
   },
   "properties": {
    "name": "817 DUNS CREEK ROAD MARTINS CREEK 2420",
    "locID": "LOC000006322059",
    "tech": "WIRELESS",
    "upgrade": "NULL_NA",
    "gnaf_pid": "GANSW721437808",
    "tech_change_status": "Not Planned",
    "program_type": "Fixed Wireless and Satellite Upgrade Program",
    "target_eligibility_quarter": "NA"
   }
  }
 ]
}