{
 "type": "FeatureCollection",
 "generated": "2026-06-27T07:59:01.674231",
 "suburb": "MERRIGAL",
 "features": [
  {
   "type": "Feature",
   "geometry": {
    "type": "Point",
    "coordinates": [
     148.28178534,
     -31.55152813
    ]
   },
   "properties": {
    "name": "34 MERRIGAL ROAD MERRIGAL 2827",
    "locID": "LOC000013219147",
    "tech": "NULL",
    "upgrade": "NULL_NA",
    "gnaf_pid": "GANSW713034264",
    "tech_change_status": "Not Planned"
   }
  },
  {
   "type": "Feature",
   "geometry": {
    "type": "Point",
    "coordinates": [
     148.21646715,
     -31.49058254
    ]
   },
   "properties": {
    "name": "1213 MERRIGAL ROAD MERRIGAL 2827",
    "locID": "LOC000114293234",
    "tech": "SATELLITE",
    "upgrade": "NULL_NA",
    "gnaf_pid": "GANSW717709851",
    "tech_change_status": "Not Planned"
   }
  },
  {
   "type": "Feature",
   "geometry": {
    "type": "Point",
    "coordinates": [
     148.24477298,
     -31.47000234
    ]
   },
   "properties": {
    "name": "1506 MERRIGAL ROAD MERRIGAL 2827",
    "locID": "LOC000122113226",
    "tech": "SATELLITE",
    "upgrade": "NULL_NA",
    "gnaf_pid": "GANSW717709852",
    "tech_change_status": "Not Planned"
   }
  },
  {
   "type": "Feature",
   "geometry": {
    "type": "Point",
    "coordinates": [
     148.18407232,
     -31.53691737
    ]
   },
   "properties": {
    "name": "499 MERRIGAL ROAD MERRIGAL 2827",
    "locID": "LOC000114482822",
    "tech": "SATELLITE",
    "upgrade": "NULL_NA",
    "gnaf_pid": "GANSW717709854",
    "tech_change_status": "Not Planned"
   }
  },
  {
   "type": "Feature",
   "geometry": {
    "type": "Point",
    "coordinates": [
     148.26857252,
     -31.53041367
    ]
   },
   "properties": {
    "name": "531 MERRIGAL ROAD MERRIGAL 2827",
    "locID": "LOC000114482822",
    "tech": "SATELLITE",
    "upgrade": "NULL_NA",
    "gnaf_pid": "GANSW717709855",
    "tech_change_status": "Not Planned"
   }
  },
  {
   "type": "Feature",
   "geometry": {
    "type": "Point",
    "coordinates": [
     148.22099013,
     -31.50877766
    ]
   },
   "properties": {
    "name": "977 MERRIGAL ROAD MERRIGAL 2827",
    "locID": "LOC000114762456",
    "tech": "NULL",
    "upgrade": "NULL_NA",
    "gnaf_pid": "GANSW717709856",
    "tech_change_status": "Not Planned"
   }
  },
  {
   "type": "Feature",
   "geometry": {
    "type": "Point",
    "coordinates": [
     148.27816904,
     -31.42573868
    ]
   },
   "properties": {
    "name": "2754 CHRISTIES LANE MERRIGAL 2827",
    "locID": "LOC100078055270",
    "tech": "NULL",
    "upgrade": "NULL_NA",
    "gnaf_pid": "GANSW719237343",
    "tech_change_status": "Not Planned"
   }
  },
  {
   "type": "Feature",
   "geometry": {
    "type": "Point",
    "coordinates": [
     148.2631909,
     -31.54204351
    ]
   },
   "properties": {
    "name": "151 MERRIGAL ROAD MERRIGAL 2827",
    "locID": "LOC000114482822",
    "tech": "SATELLITE",
    "upgrade": "NULL_NA",
    "gnaf_pid": "GANSW721129587",
    "tech_change_status": "Not Planned"
   }
  },
  {
   "type": "Feature",
   "geometry": {
    "type": "Point",
    "coordinates": [
     148.31547224,
     -31.56469794
    ]
   },
   "properties": {
    "name": "1616 COLLIE BOURBAH ROAD MERRIGAL 2827",
    "locID": "LOC000086412026",
    "tech": "NULL",
    "upgrade": "NULL_NA",
    "gnaf_pid": "GANSW721570375",
    "tech_change_status": "Not Planned"
   }
  }
 ]
}