{
 "type": "FeatureCollection",
 "generated": "2025-02-18T00:01:55.677948",
 "suburb": "MILLIE",
 "features": [
  {
   "type": "Feature",
   "geometry": {
    "type": "Point",
    "coordinates": [
     149.63160168,
     -29.80164846
    ]
   },
   "properties": {
    "name": "397 GUNADOO LANE MILLIE 2397",
    "locID": "LOC000076559103",
    "tech": "NULL",
    "upgrade": "NULL_NA",
    "gnaf_pid": "GANSW717554669",
    "tech_change_status": "Not Planned"
   }
  },
  {
   "type": "Feature",
   "geometry": {
    "type": "Point",
    "coordinates": [
     149.59386298,
     -29.82536483
    ]
   },
   "properties": {
    "name": "5777 MILLIE ROAD MILLIE 2397",
    "locID": "LOC000170290075",
    "tech": "SATELLITE",
    "upgrade": "NULL_NA",
    "gnaf_pid": "GANSW717675362",
    "tech_change_status": "Not Planned"
   }
  },
  {
   "type": "Feature",
   "geometry": {
    "type": "Point",
    "coordinates": [
     149.45156903,
     -29.71968561
    ]
   },
   "properties": {
    "name": "399 RETREAT ROAD MILLIE 2397",
    "locID": "LOC000121082391",
    "tech": "NULL",
    "upgrade": "NULL_NA",
    "gnaf_pid": "GANSW717716643",
    "tech_change_status": "Not Planned"
   }
  },
  {
   "type": "Feature",
   "geometry": {
    "type": "Point",
    "coordinates": [
     149.40412757,
     -29.73560356
    ]
   },
   "properties": {
    "name": "884 RETREAT ROAD MILLIE 2397",
    "locID": "LOC000121066943",
    "tech": "SATELLITE",
    "upgrade": "NULL_NA",
    "gnaf_pid": "GANSW717716644",
    "tech_change_status": "Not Planned"
   }
  },
  {
   "type": "Feature",
   "geometry": {
    "type": "Point",
    "coordinates": [
     149.63450053,
     -29.80626488
    ]
   },
   "properties": {
    "name": "382 GUNADOO LANE MILLIE 2397",
    "locID": "LOC000115470687",
    "tech": "NULL",
    "upgrade": "NULL_NA",
    "gnaf_pid": "GANSW718241181",
    "tech_change_status": "Not Planned"
   }
  },
  {
   "type": "Feature",
   "geometry": {
    "type": "Point",
    "coordinates": [
     149.61465909,
     -29.79848497
    ]
   },
   "properties": {
    "name": "2268 MILLIE ROAD MILLIE 2397",
    "locID": "LOC000115474179",
    "tech": "NULL",
    "upgrade": "NULL_NA",
    "gnaf_pid": "GANSW718242705",
    "tech_change_status": "Not Planned"
   }
  },
  {
   "type": "Feature",
   "geometry": {
    "type": "Point",
    "coordinates": [
     149.45460518,
     -29.66966219
    ]
   },
   "properties": {
    "name": "1314 TELLERAGA ROAD MILLIE 2397",
    "locID": "LOC000148059406",
    "tech": "SATELLITE",
    "upgrade": "NULL_NA",
    "gnaf_pid": "GANSW718434721",
    "tech_change_status": "Not Planned"
   }
  },
  {
   "type": "Feature",
   "geometry": {
    "type": "Point",
    "coordinates": [
     149.59386298,
     -29.82536483
    ]
   },
   "properties": {
    "name": "2383 MILLIE ROAD MILLIE 2397",
    "locID": "LOC100086079257",
    "tech": "NULL",
    "upgrade": "NULL_NA",
    "gnaf_pid": "GANSW718656503",
    "tech_change_status": "Not Planned"
   }
  },
  {
   "type": "Feature",
   "geometry": {
    "type": "Point",
    "coordinates": [
     149.57929703,
     -29.80548552
    ]
   },
   "properties": {
    "name": "2383 MOLONEY ROAD MILLIE 2397",
    "locID": "LOC100086079257",
    "tech": "NULL",
    "upgrade": "NULL_NA",
    "gnaf_pid": "GANSW719159145",
    "tech_change_status": "Not Planned"
   }
  },
  {
   "type": "Feature",
   "geometry": {
    "type": "Point",
    "coordinates": [
     149.53790571,
     -29.80949958
    ]
   },
   "properties": {
    "name": "3044 MILLIE ROAD MILLIE 2397",
    "locID": "LOC000099975953",
    "tech": "SATELLITE",
    "upgrade": "NULL_NA",
    "gnaf_pid": "GANSW719166133",
    "tech_change_status": "Not Planned"
   }
  }
 ]
}