{
 "type": "FeatureCollection",
 "generated": "2026-04-22T17:46:26.780969",
 "suburb": "MOPPY",
 "features": [
  {
   "type": "Feature",
   "geometry": {
    "type": "Point",
    "coordinates": [
     151.63421987,
     -31.97935638
    ]
   },
   "properties": {
    "name": "1442 MOPPY ROAD MOPPY 2422",
    "locID": "LOC000022120252",
    "tech": "SATELLITE",
    "upgrade": "NULL_NA",
    "gnaf_pid": "GANSW717620171",
    "tech_change_status": "Not Planned"
   }
  },
  {
   "type": "Feature",
   "geometry": {
    "type": "Point",
    "coordinates": [
     151.62618823,
     -31.98102394
    ]
   },
   "properties": {
    "name": "1481 MOPPY ROAD MOPPY 2422",
    "locID": "LOC000016475746",
    "tech": "SATELLITE",
    "upgrade": "NULL_NA",
    "gnaf_pid": "GANSW717620172",
    "tech_change_status": "Not Planned"
   }
  },
  {
   "type": "Feature",
   "geometry": {
    "type": "Point",
    "coordinates": [
     151.61002468,
     -31.9883968
    ]
   },
   "properties": {
    "name": "1703 MOPPY ROAD MOPPY 2422",
    "locID": "LOC000061301622",
    "tech": "SATELLITE",
    "upgrade": "NULL_NA",
    "gnaf_pid": "GANSW717620173",
    "tech_change_status": "Not Planned"
   }
  },
  {
   "type": "Feature",
   "geometry": {
    "type": "Point",
    "coordinates": [
     151.59293688,
     -31.99609841
    ]
   },
   "properties": {
    "name": "1882 MOPPY ROAD MOPPY 2422",
    "locID": "LOC000052437908",
    "tech": "SATELLITE",
    "upgrade": "NULL_NA",
    "gnaf_pid": "GANSW717620175",
    "tech_change_status": "Not Planned"
   }
  },
  {
   "type": "Feature",
   "geometry": {
    "type": "Point",
    "coordinates": [
     151.62908683,
     -32.02552507
    ]
   },
   "properties": {
    "name": "883 MOPPY ROAD MOPPY 2422",
    "locID": "LOC000007996049",
    "tech": "NULL",
    "upgrade": "NULL_NA",
    "gnaf_pid": "GANSW717620178",
    "tech_change_status": "Not Planned"
   }
  },
  {
   "type": "Feature",
   "geometry": {
    "type": "Point",
    "coordinates": [
     151.61454599,
     -31.98625958
    ]
   },
   "properties": {
    "name": "1671 MOPPY ROAD MOPPY 2422",
    "locID": "LOC000017370381",
    "tech": "SATELLITE",
    "upgrade": "NULL_NA",
    "gnaf_pid": "GANSW717628059",
    "tech_change_status": "Not Planned"
   }
  },
  {
   "type": "Feature",
   "geometry": {
    "type": "Point",
    "coordinates": [
     151.61347124,
     -31.96862858
    ]
   },
   "properties": {
    "name": "160 MOPPY CREEK ROAD MOPPY 2422",
    "locID": "LOC000014586211",
    "tech": "SATELLITE",
    "upgrade": "NULL_NA",
    "gnaf_pid": "GANSW717639880",
    "tech_change_status": "Not Planned"
   }
  },
  {
   "type": "Feature",
   "geometry": {
    "type": "Point",
    "coordinates": [
     151.6252548,
     -31.97697892
    ]
   },
   "properties": {
    "name": "30 MOPPY CREEK ROAD MOPPY 2422",
    "locID": "LOC000108390723",
    "tech": "SATELLITE",
    "upgrade": "NULL_NA",
    "gnaf_pid": "GANSW717639881",
    "tech_change_status": "Not Planned"
   }
  },
  {
   "type": "Feature",
   "geometry": {
    "type": "Point",
    "coordinates": [
     151.64086631,
     -31.9763565
    ]
   },
   "properties": {
    "name": "1440 MOPPY ROAD MOPPY 2422",
    "locID": "LOC000084072502",
    "tech": "SATELLITE",
    "upgrade": "NULL_NA",
    "gnaf_pid": "GANSW717639886",
    "tech_change_status": "Not Planned"
   }
  },
  {
   "type": "Feature",
   "geometry": {
    "type": "Point",
    "coordinates": [
     151.63608938,
     -32.02033707
    ]
   },
   "properties": {
    "name": "885 MOPPY ROAD MOPPY 2422",
    "locID": "LOC000040554272",
    "tech": "NULL",
    "upgrade": "NULL_NA",
    "gnaf_pid": "GANSW717639888",
    "tech_change_status": "Not Planned"
   }
  },
  {
   "type": "Feature",
   "geometry": {
    "type": "Point",
    "coordinates": [
     151.66356764,
     -31.98318985
    ]
   },
   "properties": {
    "name": "419 MOPPY ROAD MOPPY 2422",
    "locID": "LOC000148087435",
    "tech": "SATELLITE",
    "upgrade": "NULL_NA",
    "gnaf_pid": "GANSW718729049",
    "tech_change_status": "Not Planned"
   }
  },
  {
   "type": "Feature",
   "geometry": {
    "type": "Point",
    "coordinates": [
     151.65078121,
     -31.99819363
    ]
   },
   "properties": {
    "name": "662 MOPPY ROAD MOPPY 2422",
    "locID": "LOC000148097874",
    "tech": "SATELLITE",
    "upgrade": "NULL_NA",
    "gnaf_pid": "GANSW718729050",
    "tech_change_status": "Not Planned"
   }
  },
  {
   "type": "Feature",
   "geometry": {
    "type": "Point",
    "coordinates": [
     151.66971117,
     -32.00082844
    ]
   },
   "properties": {
    "name": "383 MOPPY ROAD MOPPY 2422",
    "locID": "LOC000179154852",
    "tech": "SATELLITE",
    "upgrade": "NULL_NA",
    "gnaf_pid": "GANSW720939488",
    "tech_change_status": "Not Planned"
   }
  }
 ]
}