{
 "type": "FeatureCollection",
 "generated": "2026-04-11T18:00:37.789047",
 "suburb": "NARADHAN",
 "features": [
  {
   "type": "Feature",
   "geometry": {
    "type": "Point",
    "coordinates": [
     146.35000739,
     -33.77980491
    ]
   },
   "properties": {
    "name": "309 MCCARTENS LANE NARADHAN 2669",
    "locID": "LOC000077241870",
    "tech": "NULL",
    "upgrade": "NULL_NA",
    "gnaf_pid": "GANSW705468139",
    "tech_change_status": "Not Planned"
   }
  },
  {
   "type": "Feature",
   "geometry": {
    "type": "Point",
    "coordinates": [
     146.3912259,
     -33.54184307
    ]
   },
   "properties": {
    "name": "259 MERCERS LANE NARADHAN 2669",
    "locID": "LOC000003854580",
    "tech": "NULL",
    "upgrade": "NULL_NA",
    "gnaf_pid": "GANSW705468141",
    "tech_change_status": "Not Planned"
   }
  },
  {
   "type": "Feature",
   "geometry": {
    "type": "Point",
    "coordinates": [
     146.21225935,
     -33.59458629
    ]
   },
   "properties": {
    "name": "81 MORRIS LANE NARADHAN 2669",
    "locID": "LOC000121806034",
    "tech": "SATELLITE",
    "upgrade": "NULL_NA",
    "gnaf_pid": "GANSW705468143",
    "tech_change_status": "Not Planned"
   }
  },
  {
   "type": "Feature",
   "geometry": {
    "type": "Point",
    "coordinates": [
     146.20477224,
     -33.68219885
    ]
   },
   "properties": {
    "name": "474 RAPERS LANE NARADHAN 2669",
    "locID": "LOC000028037722",
    "tech": "NULL",
    "upgrade": "NULL_NA",
    "gnaf_pid": "GANSW705468159",
    "tech_change_status": "Not Planned"
   }
  },
  {
   "type": "Feature",
   "geometry": {
    "type": "Point",
    "coordinates": [
     146.43427337,
     -33.5746071
    ]
   },
   "properties": {
    "name": "3529 TUGGERABACH ROAD NARADHAN 2669",
    "locID": "LOC000121792530",
    "tech": "NULL",
    "upgrade": "NULL_NA",
    "gnaf_pid": "GANSW705468162",
    "tech_change_status": "Not Planned"
   }
  },
  {
   "type": "Feature",
   "geometry": {
    "type": "Point",
    "coordinates": [
     146.48648632,
     -33.70396295
    ]
   },
   "properties": {
    "name": "672 CATTLES LANE NARADHAN 2669",
    "locID": "LOC000041782499",
    "tech": "SATELLITE",
    "upgrade": "NULL_NA",
    "gnaf_pid": "GANSW705478934",
    "tech_change_status": "Not Planned"
   }
  },
  {
   "type": "Feature",
   "geometry": {
    "type": "Point",
    "coordinates": [
     146.49168794,
     -33.57679136
    ]
   },
   "properties": {
    "name": "776 GRIFFITHS LANE NARADHAN 2669",
    "locID": "LOC000121805964",
    "tech": "NULL",
    "upgrade": "NULL_NA",
    "gnaf_pid": "GANSW705478937",
    "tech_change_status": "Not Planned"
   }
  },
  {
   "type": "Feature",
   "geometry": {
    "type": "Point",
    "coordinates": [
     146.32595164,
     -33.61366908
    ]
   },
   "properties": {
    "name": "LOT 21 YARRAN STREET NARADHAN 2669",
    "locID": "LOC000108128530",
    "tech": "SATELLITE",
    "upgrade": "NULL_NA",
    "gnaf_pid": "GANSW709801306",
    "tech_change_status": "Not Planned"
   }
  },
  {
   "type": "Feature",
   "geometry": {
    "type": "Point",
    "coordinates": [
     146.32595164,
     -33.61366908
    ]
   },
   "properties": {
    "name": "1 YARRAN STREET NARADHAN 2669",
    "locID": "LOC000073413452",
    "tech": "NULL",
    "upgrade": "NULL_NA",
    "gnaf_pid": "GANSW712754325",
    "tech_change_status": "Not Planned"
   }
  },
  {
   "type": "Feature",
   "geometry": {
    "type": "Point",
    "coordinates": [
     146.33292298,
     -33.71101791
    ]
   },
   "properties": {
    "name": "1847 RANKINS SPRINGS ROAD NARADHAN 2669",
    "locID": "LOC000121781478",
    "tech": "NULL",
    "upgrade": "NULL_NA",
    "gnaf_pid": "GANSW716741121",
    "tech_change_status": "Not Planned"
   }
  },
  {
   "type": "Feature",
   "geometry": {
    "type": "Point",
    "coordinates": [
     146.36794411,
     -33.68607602
    ]
   },
   "properties": {
    "name": "2204 RANKINS SPRINGS ROAD NARADHAN 2669",
    "locID": "LOC000121784544",
    "tech": "SATELLITE",
    "upgrade": "NULL_NA",
    "gnaf_pid": "GANSW716741122",
    "tech_change_status": "Not Planned"
   }
  },
  {
   "type": "Feature",
   "geometry": {
    "type": "Point",
    "coordinates": [
     146.28733866,
     -33.63919346
    ]
   },
   "properties": {
    "name": "2907 RANKINS SPRINGS ROAD NARADHAN 2669",
    "locID": "LOC000121787243",
    "tech": "NULL",
    "upgrade": "NULL_NA",
    "gnaf_pid": "GANSW716741124",
    "tech_change_status": "Not Planned"
   }
  },
  {
   "type": "Feature",
   "geometry": {
    "type": "Point",
    "coordinates": [
     146.30993036,
     -33.5776355
    ]
   },
   "properties": {
    "name": "3499 RANKINS SPRINGS ROAD NARADHAN 2669",
    "locID": "LOC000121792511",
    "tech": "NULL",
    "upgrade": "NULL_NA",
    "gnaf_pid": "GANSW716741127",
    "tech_change_status": "Not Planned"
   }
  },
  {
   "type": "Feature",
   "geometry": {
    "type": "Point",
    "coordinates": [
     146.33240219,
     -33.57682774
    ]
   },
   "properties": {
    "name": "3574 RANKINS SPRINGS ROAD NARADHAN 2669",
    "locID": "LOC000142984544",
    "tech": "SATELLITE",
    "upgrade": "NULL_NA",
    "gnaf_pid": "GANSW716741128",
    "tech_change_status": "Not Planned"
   }
  },
  {
   "type": "Feature",
   "geometry": {
    "type": "Point",
    "coordinates": [
     146.25125494,
     -33.64277775
    ]
   },
   "properties": {
    "name": "279 BOGAN GAP ROAD NARADHAN 2669",
    "locID": "LOC000017547532",
    "tech": "NULL",
    "upgrade": "NULL_NA",
    "gnaf_pid": "GANSW717040427",
    "tech_change_status": "Not Planned"
   }
  },
  {
   "type": "Feature",
   "geometry": {
    "type": "Point",
    "coordinates": [
     146.32738856,
     -33.61566592
    ]
   },
   "properties": {
    "name": "24 BOREE STREET NARADHAN 2669",
    "locID": "LOC000097913466",
    "tech": "SATELLITE",
    "upgrade": "NULL_NA",
    "gnaf_pid": "GANSW717040561",
    "tech_change_status": "Not Planned"
   }
  },
  {
   "type": "Feature",
   "geometry": {
    "type": "Point",
    "coordinates": [
     146.45551531,
     -33.59439028
    ]
   },
   "properties": {
    "name": "385 GRIFFITHS LANE NARADHAN 2669",
    "locID": "LOC000036178999",
    "tech": "SATELLITE",
    "upgrade": "NULL_NA",
    "gnaf_pid": "GANSW717044524",
    "tech_change_status": "Not Planned"
   }
  },
  {
   "type": "Feature",
   "geometry": {
    "type": "Point",
    "coordinates": [
     146.42775839,
     -33.66626508
    ]
   },
   "properties": {
    "name": "553 HARTS LANE NARADHAN 2669",
    "locID": "LOC000025857472",
    "tech": "NULL",
    "upgrade": "NULL_NA",
    "gnaf_pid": "GANSW717044782",
    "tech_change_status": "Not Planned"
   }
  },
  {
   "type": "Feature",
   "geometry": {
    "type": "Point",
    "coordinates": [
     146.35531315,
     -33.56389963
    ]
   },
   "properties": {
    "name": "94 HOLTS LANE NARADHAN 2669",
    "locID": "LOC000088141052",
    "tech": "SATELLITE",
    "upgrade": "NULL_NA",
    "gnaf_pid": "GANSW717045146",
    "tech_change_status": "Not Planned"
   }
  },
  {
   "type": "Feature",
   "geometry": {
    "type": "Point",
    "coordinates": [
     146.46480979,
     -33.6205513
    ]
   },
   "properties": {
    "name": "1902 NARADHAN ROAD NARADHAN 2669",
    "locID": "LOC000039141556",
    "tech": "NULL",
    "upgrade": "NULL_NA",
    "gnaf_pid": "GANSW717048188",
    "tech_change_status": "Not Planned"
   }
  },
  {
   "type": "Feature",
   "geometry": {
    "type": "Point",
    "coordinates": [
     146.32774826,
     -33.61329813
    ]
   },
   "properties": {
    "name": "16 YARRAN STREET NARADHAN 2669",
    "locID": "LOC000073413452",
    "tech": "NULL",
    "upgrade": "NULL_NA",
    "gnaf_pid": "GANSW717053656",
    "tech_change_status": "Not Planned"
   }
  },
  {
   "type": "Feature",
   "geometry": {
    "type": "Point",
    "coordinates": [
     146.32436488,
     -33.61264342
    ]
   },
   "properties": {
    "name": "58 YARRAN STREET NARADHAN 2669",
    "locID": "LOC000065083566",
    "tech": "NULL",
    "upgrade": "NULL_NA",
    "gnaf_pid": "GANSW717053657",
    "tech_change_status": "Not Planned"
   }
  },
  {
   "type": "Feature",
   "geometry": {
    "type": "Point",
    "coordinates": [
     146.32393473,
     -33.61372293
    ]
   },
   "properties": {
    "name": "59 YARRAN STREET NARADHAN 2669",
    "locID": "LOC000072948398",
    "tech": "NULL",
    "upgrade": "NULL_NA",
    "gnaf_pid": "GANSW717053658",
    "tech_change_status": "Not Planned"
   }
  },
  {
   "type": "Feature",
   "geometry": {
    "type": "Point",
    "coordinates": [
     146.25372965,
     -33.6243605
    ]
   },
   "properties": {
    "name": "190 BOGAN GAP ROAD NARADHAN 2669",
    "locID": "LOC000033790535",
    "tech": "NULL",
    "upgrade": "NULL_NA",
    "gnaf_pid": "GANSW717184956",
    "tech_change_status": "Not Planned"
   }
  },
  {
   "type": "Feature",
   "geometry": {
    "type": "Point",
    "coordinates": [
     146.32347058,
     -33.61367116
    ]
   },
   "properties": {
    "name": "65 YARRAN STREET NARADHAN 2669",
    "locID": "LOC000068941574",
    "tech": "SATELLITE",
    "upgrade": "NULL_NA",
    "gnaf_pid": "GANSW717203877",
    "tech_change_status": "Not Planned"
   }
  },
  {
   "type": "Feature",
   "geometry": {
    "type": "Point",
    "coordinates": [
     146.34686922,
     -33.55067901
    ]
   },
   "properties": {
    "name": "314 BOOTOOWA ROAD NARADHAN 2669",
    "locID": "LOC000010955715",
    "tech": "NULL",
    "upgrade": "NULL_NA",
    "gnaf_pid": "GANSW717473344",
    "tech_change_status": "Not Planned"
   }
  },
  {
   "type": "Feature",
   "geometry": {
    "type": "Point",
    "coordinates": [
     146.25738175,
     -33.59859566
    ]
   },
   "properties": {
    "name": "591 BOOTOOWA ROAD NARADHAN 2669",
    "locID": "LOC000087966988",
    "tech": "SATELLITE",
    "upgrade": "NULL_NA",
    "gnaf_pid": "GANSW717473345",
    "tech_change_status": "Not Planned"
   }
  },
  {
   "type": "Feature",
   "geometry": {
    "type": "Point",
    "coordinates": [
     146.32116206,
     -33.64510156
    ]
   },
   "properties": {
    "name": "7 BOX STREET NARADHAN 2669",
    "locID": "LOC000055179287",
    "tech": "SATELLITE",
    "upgrade": "NULL_NA",
    "gnaf_pid": "GANSW717473562",
    "tech_change_status": "Not Planned"
   }
  },
  {
   "type": "Feature",
   "geometry": {
    "type": "Point",
    "coordinates": [
     146.43621482,
     -33.6056247
    ]
   },
   "properties": {
    "name": "103 GRIFFITHS LANE NARADHAN 2669",
    "locID": "LOC000035607418",
    "tech": "NULL",
    "upgrade": "NULL_NA",
    "gnaf_pid": "GANSW717477100",
    "tech_change_status": "Not Planned"
   }
  },
  {
   "type": "Feature",
   "geometry": {
    "type": "Point",
    "coordinates": [
     146.49891405,
     -33.65832805
    ]
   },
   "properties": {
    "name": "113 LORDS LANE NARADHAN 2669",
    "locID": "LOC000121774102",
    "tech": "SATELLITE",
    "upgrade": "NULL_NA",
    "gnaf_pid": "GANSW717479393",
    "tech_change_status": "Not Planned"
   }
  },
  {
   "type": "Feature",
   "geometry": {
    "type": "Point",
    "coordinates": [
     146.4792129,
     -33.6215581
    ]
   },
   "properties": {
    "name": "1760 NARADHAN ROAD NARADHAN 2669",
    "locID": "LOC000003098325",
    "tech": "NULL",
    "upgrade": "NULL_NA",
    "gnaf_pid": "GANSW717481026",
    "tech_change_status": "Not Planned"
   }
  },
  {
   "type": "Feature",
   "geometry": {
    "type": "Point",
    "coordinates": [
     146.33208403,
     -33.58149602
    ]
   },
   "properties": {
    "name": "3151 RANKINS SPRINGS ROAD NARADHAN 2669",
    "locID": "LOC000121789826",
    "tech": "SATELLITE",
    "upgrade": "NULL_NA",
    "gnaf_pid": "GANSW717620884",
    "tech_change_status": "Not Planned"
   }
  },
  {
   "type": "Feature",
   "geometry": {
    "type": "Point",
    "coordinates": [
     146.13467603,
     -33.60852133
    ]
   },
   "properties": {
    "name": "1763 MONIA GAP ROAD NARADHAN 2669",
    "locID": "LOC000150132454",
    "tech": "NULL",
    "upgrade": "NULL_NA",
    "gnaf_pid": "GANSW718889784",
    "tech_change_status": "Not Planned"
   }
  },
  {
   "type": "Feature",
   "geometry": {
    "type": "Point",
    "coordinates": [
     146.15192276,
     -33.62752737
    ]
   },
   "properties": {
    "name": "1868 MONIA GAP ROAD NARADHAN 2669",
    "locID": "LOC100071973277",
    "tech": "NULL",
    "upgrade": "NULL_NA",
    "gnaf_pid": "GANSW718889785",
    "tech_change_status": "Not Planned"
   }
  },
  {
   "type": "Feature",
   "geometry": {
    "type": "Point",
    "coordinates": [
     146.11881166,
     -33.62216386
    ]
   },
   "properties": {
    "name": "2204 MONIA GAP ROAD NARADHAN 2669",
    "locID": "LOC000150132465",
    "tech": "SATELLITE",
    "upgrade": "NULL_NA",
    "gnaf_pid": "GANSW718889786",
    "tech_change_status": "Not Planned"
   }
  },
  {
   "type": "Feature",
   "geometry": {
    "type": "Point",
    "coordinates": [
     146.35324963,
     -33.62371026
    ]
   },
   "properties": {
    "name": "3086 RANKINS SPRINGS ROAD NARADHAN 2669",
    "locID": "LOC000179668856",
    "tech": "NULL",
    "upgrade": "NULL_NA",
    "gnaf_pid": "GANSW719808851",
    "tech_change_status": "Not Planned"
   }
  },
  {
   "type": "Feature",
   "geometry": {
    "type": "Point",
    "coordinates": [
     146.20847582,
     -33.56879727
    ]
   },
   "properties": {
    "name": "465 MORRIS LANE NARADHAN 2669",
    "locID": "LOC100071972270",
    "tech": "NULL",
    "upgrade": "NULL_NA",
    "gnaf_pid": "GANSW719887882",
    "tech_change_status": "Not Planned"
   }
  },
  {
   "type": "Feature",
   "geometry": {
    "type": "Point",
    "coordinates": [
     146.11630108,
     -33.59144782
    ]
   },
   "properties": {
    "name": "1 KYNWOOR ROAD NARADHAN 2669",
    "locID": "LOC000185654625",
    "tech": "NULL",
    "upgrade": "NULL_NA",
    "gnaf_pid": "GANSW719896181",
    "tech_change_status": "Not Planned"
   }
  },
  {
   "type": "Feature",
   "geometry": {
    "type": "Point",
    "coordinates": [
     146.32397092,
     -33.66106856
    ]
   },
   "properties": {
    "name": "2735 RANKINS SPRINGS ROAD NARADHAN 2669",
    "locID": "LOC100086138340",
    "tech": "NULL",
    "upgrade": "NULL_NA",
    "gnaf_pid": "GANSW721121398",
    "tech_change_status": "Not Planned"
   }
  },
  {
   "type": "Feature",
   "geometry": {
    "type": "Point",
    "coordinates": [
     146.33564429,
     -33.58587169
    ]
   },
   "properties": {
    "name": "3500 RANKINS SPRINGS ROAD NARADHAN 2669",
    "locID": "LOC000022331089",
    "tech": "NULL",
    "upgrade": "NULL_NA",
    "gnaf_pid": "GANSW721573221",
    "tech_change_status": "Not Planned"
   }
  }
 ]
}