{
 "type": "FeatureCollection",
 "generated": "2025-01-28T15:33:20.905983",
 "suburb": "OLD GREVILLIA",
 "features": [
  {
   "type": "Feature",
   "geometry": {
    "type": "Point",
    "coordinates": [
     152.87731935,
     -28.44148229
    ]
   },
   "properties": {
    "name": "17 LINDSAY STREET OLD GREVILLIA 2474",
    "locID": "LOC000041785075",
    "tech": "NULL",
    "upgrade": "NULL_NA",
    "gnaf_pid": "GANSW709885149",
    "tech_change_status": "Not Planned"
   }
  },
  {
   "type": "Feature",
   "geometry": {
    "type": "Point",
    "coordinates": [
     152.89856284,
     -28.44550939
    ]
   },
   "properties": {
    "name": "117 LAVELLES ROAD OLD GREVILLIA 2474",
    "locID": "LOC000054462799",
    "tech": "SATELLITE",
    "upgrade": "NULL_NA",
    "gnaf_pid": "GANSW715382695",
    "tech_change_status": "Not Planned"
   }
  },
  {
   "type": "Feature",
   "geometry": {
    "type": "Point",
    "coordinates": [
     152.89934603,
     -28.45031534
    ]
   },
   "properties": {
    "name": "72 LAVELLES ROAD OLD GREVILLIA 2474",
    "locID": "LOC000051534510",
    "tech": "NULL",
    "upgrade": "NULL_NA",
    "gnaf_pid": "GANSW715382696",
    "tech_change_status": "Not Planned"
   }
  },
  {
   "type": "Feature",
   "geometry": {
    "type": "Point",
    "coordinates": [
     152.87840326,
     -28.44237507
    ]
   },
   "properties": {
    "name": "6 SHERWOOD STREET OLD GREVILLIA 2474",
    "locID": "LOC000099749919",
    "tech": "NULL",
    "upgrade": "NULL_NA",
    "gnaf_pid": "GANSW716421759",
    "tech_change_status": "Not Planned"
   }
  },
  {
   "type": "Feature",
   "geometry": {
    "type": "Point",
    "coordinates": [
     152.89056749,
     -28.44918022
    ]
   },
   "properties": {
    "name": "10 CALAMIA ROAD OLD GREVILLIA 2474",
    "locID": "LOC100078033320",
    "tech": "NULL",
    "upgrade": "NULL_NA",
    "gnaf_pid": "GANSW716627924",
    "tech_change_status": "Not Planned"
   }
  },
  {
   "type": "Feature",
   "geometry": {
    "type": "Point",
    "coordinates": [
     152.89055797,
     -28.44897083
    ]
   },
   "properties": {
    "name": "14 CALAMIA ROAD OLD GREVILLIA 2474",
    "locID": "LOC100078033312",
    "tech": "SATELLITE",
    "upgrade": "NULL_NA",
    "gnaf_pid": "GANSW716627925",
    "tech_change_status": "Not Planned"
   }
  },
  {
   "type": "Feature",
   "geometry": {
    "type": "Point",
    "coordinates": [
     152.89231341,
     -28.44467191
    ]
   },
   "properties": {
    "name": "48 CALAMIA ROAD OLD GREVILLIA 2474",
    "locID": "LOC000004126650",
    "tech": "NULL",
    "upgrade": "NULL_NA",
    "gnaf_pid": "GANSW716627926",
    "tech_change_status": "Not Planned"
   }
  },
  {
   "type": "Feature",
   "geometry": {
    "type": "Point",
    "coordinates": [
     152.87863042,
     -28.44237911
    ]
   },
   "properties": {
    "name": "4 SHERWOOD STREET OLD GREVILLIA 2474",
    "locID": "LOC000051420218",
    "tech": "SATELLITE",
    "upgrade": "NULL_NA",
    "gnaf_pid": "GANSW716886073",
    "tech_change_status": "Not Planned"
   }
  },
  {
   "type": "Feature",
   "geometry": {
    "type": "Point",
    "coordinates": [
     152.87663834,
     -28.44051035
    ]
   },
   "properties": {
    "name": "13-15 LINDSAY STREET OLD GREVILLIA 2474",
    "locID": "LOC000066635906",
    "tech": "NULL",
    "upgrade": "NULL_NA",
    "gnaf_pid": "GANSW716997732",
    "tech_change_status": "Not Planned"
   }
  },
  {
   "type": "Feature",
   "geometry": {
    "type": "Point",
    "coordinates": [
     152.87787482,
     -28.44236414
    ]
   },
   "properties": {
    "name": "8-12 SHERWOOD STREET OLD GREVILLIA 2474",
    "locID": "LOC000083886554",
    "tech": "NULL",
    "upgrade": "NULL_NA",
    "gnaf_pid": "GANSW717004209",
    "tech_change_status": "Not Planned"
   }
  },
  {
   "type": "Feature",
   "geometry": {
    "type": "Point",
    "coordinates": [
     152.87690613,
     -28.44298409
    ]
   },
   "properties": {
    "name": "16 UNUMGAR STREET OLD GREVILLIA 2474",
    "locID": "LOC000034259727",
    "tech": "NULL",
    "upgrade": "NULL_NA",
    "gnaf_pid": "GANSW717007617",
    "tech_change_status": "Not Planned"
   }
  },
  {
   "type": "Feature",
   "geometry": {
    "type": "Point",
    "coordinates": [
     152.87649057,
     -28.44294962
    ]
   },
   "properties": {
    "name": "22 UNUMGAR STREET OLD GREVILLIA 2474",
    "locID": "LOC000110751316",
    "tech": "NULL",
    "upgrade": "NULL_NA",
    "gnaf_pid": "GANSW717349712",
    "tech_change_status": "Not Planned"
   }
  },
  {
   "type": "Feature",
   "geometry": {
    "type": "Point",
    "coordinates": [
     152.87607484,
     -28.44291513
    ]
   },
   "properties": {
    "name": "24 UNUMGAR STREET OLD GREVILLIA 2474",
    "locID": "LOC000034259727",
    "tech": "NULL",
    "upgrade": "NULL_NA",
    "gnaf_pid": "GANSW717349713",
    "tech_change_status": "Not Planned"
   }
  },
  {
   "type": "Feature",
   "geometry": {
    "type": "Point",
    "coordinates": [
     152.87500856,
     -28.44282635
    ]
   },
   "properties": {
    "name": "30 UNUMGAR STREET OLD GREVILLIA 2474",
    "locID": "LOC000111210375",
    "tech": "SATELLITE",
    "upgrade": "NULL_NA",
    "gnaf_pid": "GANSW717349714",
    "tech_change_status": "Not Planned"
   }
  },
  {
   "type": "Feature",
   "geometry": {
    "type": "Point",
    "coordinates": [
     152.89888983,
     -28.44836686
    ]
   },
   "properties": {
    "name": "98 LAVELLES ROAD OLD GREVILLIA 2474",
    "locID": "LOC000002460684",
    "tech": "NULL",
    "upgrade": "NULL_NA",
    "gnaf_pid": "GANSW717465711",
    "tech_change_status": "Not Planned"
   }
  },
  {
   "type": "Feature",
   "geometry": {
    "type": "Point",
    "coordinates": [
     152.89045804,
     -28.44941341
    ]
   },
   "properties": {
    "name": "8 CALAMIA ROAD OLD GREVILLIA 2474",
    "locID": "LOC000121122050",
    "tech": "SATELLITE",
    "upgrade": "NULL_NA",
    "gnaf_pid": "GANSW717945788",
    "tech_change_status": "Not Planned"
   }
  },
  {
   "type": "Feature",
   "geometry": {
    "type": "Point",
    "coordinates": [
     152.87392008,
     -28.4426054
    ]
   },
   "properties": {
    "name": "32 UNUMGAR STREET OLD GREVILLIA 2474",
    "locID": "LOC000113732723",
    "tech": "NULL",
    "upgrade": "NULL_NA",
    "gnaf_pid": "GANSW718180177",
    "tech_change_status": "Not Planned"
   }
  },
  {
   "type": "Feature",
   "geometry": {
    "type": "Point",
    "coordinates": [
     152.89755548,
     -28.44884483
    ]
   },
   "properties": {
    "name": "83 LAVELLES ROAD OLD GREVILLIA 2474",
    "locID": "LOC100078033308",
    "tech": "NULL",
    "upgrade": "NULL_NA",
    "gnaf_pid": "GANSW718356943",
    "tech_change_status": "Not Planned"
   }
  },
  {
   "type": "Feature",
   "geometry": {
    "type": "Point",
    "coordinates": [
     152.87972314,
     -28.44095902
    ]
   },
   "properties": {
    "name": "47 FINDON CREEK ROAD OLD GREVILLIA 2474",
    "locID": "LOC000170200732",
    "tech": "SATELLITE",
    "upgrade": "NULL_NA",
    "gnaf_pid": "GANSW718408347",
    "tech_change_status": "Not Planned"
   }
  },
  {
   "type": "Feature",
   "geometry": {
    "type": "Point",
    "coordinates": [
     152.87858533,
     -28.44192207
    ]
   },
   "properties": {
    "name": "24 LINDSAY STREET OLD GREVILLIA 2474",
    "locID": "LOC000078560643",
    "tech": "NULL",
    "upgrade": "NULL_NA",
    "gnaf_pid": "GANSW718414310",
    "tech_change_status": "Not Planned"
   }
  },
  {
   "type": "Feature",
   "geometry": {
    "type": "Point",
    "coordinates": [
     152.88060315,
     -28.44396792
    ]
   },
   "properties": {
    "name": "2646 SUMMERLAND WAY OLD GREVILLIA 2474",
    "locID": "LOC000148076582",
    "tech": "NULL",
    "upgrade": "NULL_NA",
    "gnaf_pid": "GANSW718425789",
    "tech_change_status": "Not Planned"
   }
  },
  {
   "type": "Feature",
   "geometry": {
    "type": "Point",
    "coordinates": [
     152.86832493,
     -28.44118376
    ]
   },
   "properties": {
    "name": "2722 SUMMERLAND WAY OLD GREVILLIA 2474",
    "locID": "LOC100078033251",
    "tech": "WIRELESS",
    "upgrade": "NULL_NA",
    "gnaf_pid": "GANSW718425790",
    "tech_change_status": "Not Planned",
    "program_type": "Fixed Wireless and Satellite Upgrade Program",
    "target_eligibility_quarter": "NA"
   }
  },
  {
   "type": "Feature",
   "geometry": {
    "type": "Point",
    "coordinates": [
     152.86507177,
     -28.44289576
    ]
   },
   "properties": {
    "name": "2814 SUMMERLAND WAY OLD GREVILLIA 2474",
    "locID": "LOC000150739957",
    "tech": "NULL",
    "upgrade": "NULL_NA",
    "gnaf_pid": "GANSW718425791",
    "tech_change_status": "Not Planned"
   }
  },
  {
   "type": "Feature",
   "geometry": {
    "type": "Point",
    "coordinates": [
     152.87900571,
     -28.44185823
    ]
   },
   "properties": {
    "name": "7 FINDON CREEK ROAD OLD GREVILLIA 2474",
    "locID": "LOC100086092255",
    "tech": "NULL",
    "upgrade": "NULL_NA",
    "gnaf_pid": "GANSW720815040",
    "tech_change_status": "Not Planned"
   }
  }
 ]
}