{
 "type": "FeatureCollection",
 "generated": "2024-10-14T05:06:30.939640",
 "suburb": "PIMLICO",
 "features": [
  {
   "type": "Feature",
   "geometry": {
    "type": "Point",
    "coordinates": [
     153.51414276,
     -28.89013857
    ]
   },
   "properties": {
    "name": "96 EMIGRANT POINT ROAD PIMLICO 2478",
    "locID": "LOC000008977024",
    "tech": "WIRELESS",
    "upgrade": "NULL_NA",
    "gnaf_pid": "GANSW705661397",
    "tech_change_status": "Not Planned",
    "program_type": "Fixed Wireless and Satellite Upgrade Program",
    "target_eligibility_quarter": "NA"
   }
  },
  {
   "type": "Feature",
   "geometry": {
    "type": "Point",
    "coordinates": [
     153.51423472,
     -28.88959233
    ]
   },
   "properties": {
    "name": "97 EMIGRANT POINT ROAD PIMLICO 2478",
    "locID": "LOC000018858355",
    "tech": "WIRELESS",
    "upgrade": "NULL_NA",
    "gnaf_pid": "GANSW705661398",
    "tech_change_status": "Not Planned",
    "program_type": "Fixed Wireless and Satellite Upgrade Program",
    "target_eligibility_quarter": "NA"
   }
  },
  {
   "type": "Feature",
   "geometry": {
    "type": "Point",
    "coordinates": [
     153.50450206,
     -28.89066876
    ]
   },
   "properties": {
    "name": "107 HERMANS LANE PIMLICO 2478",
    "locID": "LOC000067435275",
    "tech": "WIRELESS",
    "upgrade": "NULL_NA",
    "gnaf_pid": "GANSW705661399",
    "tech_change_status": "Not Planned",
    "program_type": "Fixed Wireless and Satellite Upgrade Program",
    "target_eligibility_quarter": "NA"
   }
  },
  {
   "type": "Feature",
   "geometry": {
    "type": "Point",
    "coordinates": [
     153.50360128,
     -28.89291016
    ]
   },
   "properties": {
    "name": "134 HERMANS LANE PIMLICO 2478",
    "locID": "LOC000007969112",
    "tech": "WIRELESS",
    "upgrade": "NULL_NA",
    "gnaf_pid": "GANSW705661400",
    "tech_change_status": "Not Planned",
    "program_type": "Fixed Wireless and Satellite Upgrade Program",
    "target_eligibility_quarter": "NA"
   }
  },
  {
   "type": "Feature",
   "geometry": {
    "type": "Point",
    "coordinates": [
     153.50423855,
     -28.89708906
    ]
   },
   "properties": {
    "name": "189 HERMANS LANE PIMLICO 2478",
    "locID": "LOC000055868998",
    "tech": "WIRELESS",
    "upgrade": "NULL_NA",
    "gnaf_pid": "GANSW705661401",
    "tech_change_status": "Not Planned",
    "program_type": "Fixed Wireless and Satellite Upgrade Program",
    "target_eligibility_quarter": "NA"
   }
  },
  {
   "type": "Feature",
   "geometry": {
    "type": "Point",
    "coordinates": [
     153.50390118,
     -28.89803239
    ]
   },
   "properties": {
    "name": "190 HERMANS LANE PIMLICO 2478",
    "locID": "LOC000016316304",
    "tech": "WIRELESS",
    "upgrade": "NULL_NA",
    "gnaf_pid": "GANSW705661402",
    "tech_change_status": "Not Planned",
    "program_type": "Fixed Wireless and Satellite Upgrade Program",
    "target_eligibility_quarter": "NA"
   }
  },
  {
   "type": "Feature",
   "geometry": {
    "type": "Point",
    "coordinates": [
     153.51854537,
     -28.89907107
    ]
   },
   "properties": {
    "name": "331 HERMANS LANE PIMLICO 2478",
    "locID": "LOC000045981807",
    "tech": "WIRELESS",
    "upgrade": "NULL_NA",
    "gnaf_pid": "GANSW705661403",
    "tech_change_status": "Not Planned",
    "program_type": "Fixed Wireless and Satellite Upgrade Program",
    "target_eligibility_quarter": "NA"
   }
  },
  {
   "type": "Feature",
   "geometry": {
    "type": "Point",
    "coordinates": [
     153.47854874,
     -28.91768479
    ]
   },
   "properties": {
    "name": "700 PIMLICO ROAD PIMLICO 2478",
    "locID": "LOC000010578863",
    "tech": "WIRELESS",
    "upgrade": "NULL_NA",
    "gnaf_pid": "GANSW705661404",
    "tech_change_status": "Not Planned",
    "program_type": "Fixed Wireless and Satellite Upgrade Program",
    "target_eligibility_quarter": "NA"
   }
  },
  {
   "type": "Feature",
   "geometry": {
    "type": "Point",
    "coordinates": [
     153.47814899,
     -28.91914459
    ]
   },
   "properties": {
    "name": "716 PIMLICO ROAD PIMLICO 2478",
    "locID": "LOC000029650097",
    "tech": "SATELLITE",
    "upgrade": "WIRELESS",
    "gnaf_pid": "GANSW705661405",
    "tech_change_status": "Eligible to Order"
   }
  },
  {
   "type": "Feature",
   "geometry": {
    "type": "Point",
    "coordinates": [
     153.477685,
     -28.91980132
    ]
   },
   "properties": {
    "name": "722 PIMLICO ROAD PIMLICO 2478",
    "locID": "LOC000011851742",
    "tech": "WIRELESS",
    "upgrade": "NULL_NA",
    "gnaf_pid": "GANSW705661406",
    "tech_change_status": "Not Planned",
    "program_type": "Fixed Wireless and Satellite Upgrade Program",
    "target_eligibility_quarter": "NA"
   }
  },
  {
   "type": "Feature",
   "geometry": {
    "type": "Point",
    "coordinates": [
     153.52064539,
     -28.89050228
    ]
   },
   "properties": {
    "name": "161 EMIGRANT POINT ROAD PIMLICO 2478",
    "locID": "LOC000045254794",
    "tech": "WIRELESS",
    "upgrade": "NULL_NA",
    "gnaf_pid": "GANSW705661431",
    "tech_change_status": "Not Planned",
    "program_type": "Fixed Wireless and Satellite Upgrade Program",
    "target_eligibility_quarter": "NA"
   }
  },
  {
   "type": "Feature",
   "geometry": {
    "type": "Point",
    "coordinates": [
     153.52459507,
     -28.89243855
    ]
   },
   "properties": {
    "name": "204 EMIGRANT POINT ROAD PIMLICO 2478",
    "locID": "LOC000086264886",
    "tech": "WIRELESS",
    "upgrade": "NULL_NA",
    "gnaf_pid": "GANSW705661432",
    "tech_change_status": "Not Planned",
    "program_type": "Fixed Wireless and Satellite Upgrade Program",
    "target_eligibility_quarter": "NA"
   }
  },
  {
   "type": "Feature",
   "geometry": {
    "type": "Point",
    "coordinates": [
     153.52013947,
     -28.89828071
    ]
   },
   "properties": {
    "name": "335 HERMANS LANE PIMLICO 2478",
    "locID": "LOC000078558746",
    "tech": "WIRELESS",
    "upgrade": "NULL_NA",
    "gnaf_pid": "GANSW705661440",
    "tech_change_status": "Not Planned",
    "program_type": "Fixed Wireless and Satellite Upgrade Program",
    "target_eligibility_quarter": "NA"
   }
  },
  {
   "type": "Feature",
   "geometry": {
    "type": "Point",
    "coordinates": [
     153.51985693,
     -28.89869848
    ]
   },
   "properties": {
    "name": "337 HERMANS LANE PIMLICO 2478",
    "locID": "LOC000009626719",
    "tech": "WIRELESS",
    "upgrade": "NULL_NA",
    "gnaf_pid": "GANSW705661441",
    "tech_change_status": "Not Planned",
    "program_type": "Fixed Wireless and Satellite Upgrade Program",
    "target_eligibility_quarter": "NA"
   }
  },
  {
   "type": "Feature",
   "geometry": {
    "type": "Point",
    "coordinates": [
     153.51951161,
     -28.8991404
    ]
   },
   "properties": {
    "name": "339 HERMANS LANE PIMLICO 2478",
    "locID": "LOC000090753210",
    "tech": "WIRELESS",
    "upgrade": "NULL_NA",
    "gnaf_pid": "GANSW705664637",
    "tech_change_status": "Not Planned",
    "program_type": "Fixed Wireless and Satellite Upgrade Program",
    "target_eligibility_quarter": "NA"
   }
  },
  {
   "type": "Feature",
   "geometry": {
    "type": "Point",
    "coordinates": [
     153.50287605,
     -28.88919026
    ]
   },
   "properties": {
    "name": "76 HERMANS LANE PIMLICO 2478",
    "locID": "LOC000102043664",
    "tech": "WIRELESS",
    "upgrade": "NULL_NA",
    "gnaf_pid": "GANSW705664638",
    "tech_change_status": "Not Planned",
    "program_type": "Fixed Wireless and Satellite Upgrade Program",
    "target_eligibility_quarter": "NA"
   }
  },
  {
   "type": "Feature",
   "geometry": {
    "type": "Point",
    "coordinates": [
     153.50343687,
     -28.88879798
    ]
   },
   "properties": {
    "name": "83 HERMANS LANE PIMLICO 2478",
    "locID": "LOC000086105753",
    "tech": "WIRELESS",
    "upgrade": "NULL_NA",
    "gnaf_pid": "GANSW705664639",
    "tech_change_status": "Not Planned",
    "program_type": "Fixed Wireless and Satellite Upgrade Program",
    "target_eligibility_quarter": "NA"
   }
  },
  {
   "type": "Feature",
   "geometry": {
    "type": "Point",
    "coordinates": [
     153.48349642,
     -28.90871707
    ]
   },
   "properties": {
    "name": "18 LAWS ROAD PIMLICO 2478",
    "locID": "LOC000026393594",
    "tech": "WIRELESS",
    "upgrade": "NULL_NA",
    "gnaf_pid": "GANSW705664640",
    "tech_change_status": "Not Planned",
    "program_type": "Fixed Wireless and Satellite Upgrade Program",
    "target_eligibility_quarter": "NA"
   }
  },
  {
   "type": "Feature",
   "geometry": {
    "type": "Point",
    "coordinates": [
     153.47869473,
     -28.91203745
    ]
   },
   "properties": {
    "name": "39 LAWS ROAD PIMLICO 2478",
    "locID": "LOC000011438012",
    "tech": "WIRELESS",
    "upgrade": "NULL_NA",
    "gnaf_pid": "GANSW705664641",
    "tech_change_status": "Not Planned",
    "program_type": "Fixed Wireless and Satellite Upgrade Program",
    "target_eligibility_quarter": "NA"
   }
  },
  {
   "type": "Feature",
   "geometry": {
    "type": "Point",
    "coordinates": [
     153.48034346,
     -28.9081287
    ]
   },
   "properties": {
    "name": "52 LAWS ROAD PIMLICO 2478",
    "locID": "LOC000007149833",
    "tech": "WIRELESS",
    "upgrade": "NULL_NA",
    "gnaf_pid": "GANSW705664642",
    "tech_change_status": "Not Planned",
    "program_type": "Fixed Wireless and Satellite Upgrade Program",
    "target_eligibility_quarter": "NA"
   }
  },
  {
   "type": "Feature",
   "geometry": {
    "type": "Point",
    "coordinates": [
     153.47914677,
     -28.90251211
    ]
   },
   "properties": {
    "name": "3 MCANDREWS LANE PIMLICO 2478",
    "locID": "LOC000081908714",
    "tech": "WIRELESS",
    "upgrade": "NULL_NA",
    "gnaf_pid": "GANSW705664643",
    "tech_change_status": "Not Planned",
    "program_type": "Fixed Wireless and Satellite Upgrade Program",
    "target_eligibility_quarter": "NA"
   }
  },
  {
   "type": "Feature",
   "geometry": {
    "type": "Point",
    "coordinates": [
     153.50475264,
     -28.87869479
    ]
   },
   "properties": {
    "name": "165 PIMLICO ROAD PIMLICO 2478",
    "locID": "LOC000054763481",
    "tech": "WIRELESS",
    "upgrade": "NULL_NA",
    "gnaf_pid": "GANSW705664644",
    "tech_change_status": "Not Planned",
    "program_type": "Fixed Wireless and Satellite Upgrade Program",
    "target_eligibility_quarter": "NA"
   }
  },
  {
   "type": "Feature",
   "geometry": {
    "type": "Point",
    "coordinates": [
     153.49507267,
     -28.87386005
    ]
   },
   "properties": {
    "name": "20 PIMLICO ROAD PIMLICO 2478",
    "locID": "LOC000074452772",
    "tech": "WIRELESS",
    "upgrade": "NULL_NA",
    "gnaf_pid": "GANSW705664645",
    "tech_change_status": "Not Planned",
    "program_type": "Fixed Wireless and Satellite Upgrade Program",
    "target_eligibility_quarter": "NA"
   }
  },
  {
   "type": "Feature",
   "geometry": {
    "type": "Point",
    "coordinates": [
     153.49905864,
     -28.88260471
    ]
   },
   "properties": {
    "name": "250 PIMLICO ROAD PIMLICO 2478",
    "locID": "LOC000070856082",
    "tech": "WIRELESS",
    "upgrade": "NULL_NA",
    "gnaf_pid": "GANSW705664646",
    "tech_change_status": "Not Planned",
    "program_type": "Fixed Wireless and Satellite Upgrade Program",
    "target_eligibility_quarter": "NA"
   }
  },
  {
   "type": "Feature",
   "geometry": {
    "type": "Point",
    "coordinates": [
     153.49821632,
     -28.88291405
    ]
   },
   "properties": {
    "name": "252 PIMLICO ROAD PIMLICO 2478",
    "locID": "LOC000041618937",
    "tech": "WIRELESS",
    "upgrade": "NULL_NA",
    "gnaf_pid": "GANSW705664647",
    "tech_change_status": "Not Planned",
    "program_type": "Fixed Wireless and Satellite Upgrade Program",
    "target_eligibility_quarter": "NA"
   }
  },
  {
   "type": "Feature",
   "geometry": {
    "type": "Point",
    "coordinates": [
     153.4978278,
     -28.88395957
    ]
   },
   "properties": {
    "name": "268 PIMLICO ROAD PIMLICO 2478",
    "locID": "LOC000044398866",
    "tech": "WIRELESS",
    "upgrade": "NULL_NA",
    "gnaf_pid": "GANSW705664648",
    "tech_change_status": "Not Planned",
    "program_type": "Fixed Wireless and Satellite Upgrade Program",
    "target_eligibility_quarter": "NA"
   }
  },
  {
   "type": "Feature",
   "geometry": {
    "type": "Point",
    "coordinates": [
     153.47699027,
     -28.92186066
    ]
   },
   "properties": {
    "name": "746 PIMLICO ROAD PIMLICO 2478",
    "locID": "LOC000017197233",
    "tech": "WIRELESS",
    "upgrade": "NULL_NA",
    "gnaf_pid": "GANSW705671662",
    "tech_change_status": "Not Planned",
    "program_type": "Fixed Wireless and Satellite Upgrade Program",
    "target_eligibility_quarter": "NA"
   }
  },
  {
   "type": "Feature",
   "geometry": {
    "type": "Point",
    "coordinates": [
     153.47699027,
     -28.92244066
    ]
   },
   "properties": {
    "name": "752 PIMLICO ROAD PIMLICO 2478",
    "locID": "LOC000087724089",
    "tech": "WIRELESS",
    "upgrade": "NULL_NA",
    "gnaf_pid": "GANSW705671663",
    "tech_change_status": "Not Planned",
    "program_type": "Fixed Wireless and Satellite Upgrade Program",
    "target_eligibility_quarter": "NA"
   }
  },
  {
   "type": "Feature",
   "geometry": {
    "type": "Point",
    "coordinates": [
     153.47690401,
     -28.92269645
    ]
   },
   "properties": {
    "name": "756 PIMLICO ROAD PIMLICO 2478",
    "locID": "LOC000065098497",
    "tech": "WIRELESS",
    "upgrade": "NULL_NA",
    "gnaf_pid": "GANSW705671664",
    "tech_change_status": "Not Planned",
    "program_type": "Fixed Wireless and Satellite Upgrade Program",
    "target_eligibility_quarter": "NA"
   }
  },
  {
   "type": "Feature",
   "geometry": {
    "type": "Point",
    "coordinates": [
     153.47680883,
     -28.9231307
    ]
   },
   "properties": {
    "name": "758 PIMLICO ROAD PIMLICO 2478",
    "locID": "LOC000099300087",
    "tech": "WIRELESS",
    "upgrade": "NULL_NA",
    "gnaf_pid": "GANSW705671665",
    "tech_change_status": "Not Planned",
    "program_type": "Fixed Wireless and Satellite Upgrade Program",
    "target_eligibility_quarter": "NA"
   }
  },
  {
   "type": "Feature",
   "geometry": {
    "type": "Point",
    "coordinates": [
     153.47838226,
     -28.9240111
    ]
   },
   "properties": {
    "name": "771 PIMLICO ROAD PIMLICO 2478",
    "locID": "LOC000086839221",
    "tech": "WIRELESS",
    "upgrade": "NULL_NA",
    "gnaf_pid": "GANSW705674861",
    "tech_change_status": "Not Planned",
    "program_type": "Fixed Wireless and Satellite Upgrade Program",
    "target_eligibility_quarter": "NA"
   }
  },
  {
   "type": "Feature",
   "geometry": {
    "type": "Point",
    "coordinates": [
     153.49544865,
     -28.88807889
    ]
   },
   "properties": {
    "name": "317 PIMLICO ROAD PIMLICO 2478",
    "locID": "LOC100080659447",
    "tech": "WIRELESS",
    "upgrade": "NULL_NA",
    "gnaf_pid": "GANSW705674904",
    "tech_change_status": "Not Planned",
    "program_type": "Fixed Wireless and Satellite Upgrade Program",
    "target_eligibility_quarter": "NA"
   }
  },
  {
   "type": "Feature",
   "geometry": {
    "type": "Point",
    "coordinates": [
     153.49506719,
     -28.88890746
    ]
   },
   "properties": {
    "name": "329 PIMLICO ROAD PIMLICO 2478",
    "locID": "LOC000093010829",
    "tech": "WIRELESS",
    "upgrade": "NULL_NA",
    "gnaf_pid": "GANSW705674905",
    "tech_change_status": "Not Planned",
    "program_type": "Fixed Wireless and Satellite Upgrade Program",
    "target_eligibility_quarter": "NA"
   }
  },
  {
   "type": "Feature",
   "geometry": {
    "type": "Point",
    "coordinates": [
     153.49463412,
     -28.88994014
    ]
   },
   "properties": {
    "name": "341 PIMLICO ROAD PIMLICO 2478",
    "locID": "LOC000026297982",
    "tech": "WIRELESS",
    "upgrade": "NULL_NA",
    "gnaf_pid": "GANSW705674906",
    "tech_change_status": "Not Planned",
    "program_type": "Fixed Wireless and Satellite Upgrade Program",
    "target_eligibility_quarter": "NA"
   }
  },
  {
   "type": "Feature",
   "geometry": {
    "type": "Point",
    "coordinates": [
     153.49138434,
     -28.89652071
    ]
   },
   "properties": {
    "name": "425 PIMLICO ROAD PIMLICO 2478",
    "locID": "LOC000096906143",
    "tech": "WIRELESS",
    "upgrade": "NULL_NA",
    "gnaf_pid": "GANSW705674916",
    "tech_change_status": "Not Planned",
    "program_type": "Fixed Wireless and Satellite Upgrade Program",
    "target_eligibility_quarter": "NA"
   }
  },
  {
   "type": "Feature",
   "geometry": {
    "type": "Point",
    "coordinates": [
     153.4911384,
     -28.89772079
    ]
   },
   "properties": {
    "name": "439 PIMLICO ROAD PIMLICO 2478",
    "locID": "LOC000044646929",
    "tech": "WIRELESS",
    "upgrade": "NULL_NA",
    "gnaf_pid": "GANSW705674917",
    "tech_change_status": "Not Planned",
    "program_type": "Fixed Wireless and Satellite Upgrade Program",
    "target_eligibility_quarter": "NA"
   }
  },
  {
   "type": "Feature",
   "geometry": {
    "type": "Point",
    "coordinates": [
     153.48770044,
     -28.90079207
    ]
   },
   "properties": {
    "name": "482 PIMLICO ROAD PIMLICO 2478",
    "locID": "LOC000109909666",
    "tech": "WIRELESS",
    "upgrade": "NULL_NA",
    "gnaf_pid": "GANSW705674918",
    "tech_change_status": "Not Planned",
    "program_type": "Fixed Wireless and Satellite Upgrade Program",
    "target_eligibility_quarter": "NA"
   }
  },
  {
   "type": "Feature",
   "geometry": {
    "type": "Point",
    "coordinates": [
     153.48718327,
     -28.90195911
    ]
   },
   "properties": {
    "name": "500 PIMLICO ROAD PIMLICO 2478",
    "locID": "LOC100074268429",
    "tech": "WIRELESS",
    "upgrade": "NULL_NA",
    "gnaf_pid": "GANSW705674919",
    "tech_change_status": "Not Planned",
    "program_type": "Fixed Wireless and Satellite Upgrade Program",
    "target_eligibility_quarter": "NA"
   }
  },
  {
   "type": "Feature",
   "geometry": {
    "type": "Point",
    "coordinates": [
     153.48649797,
     -28.90463577
    ]
   },
   "properties": {
    "name": "530 PIMLICO ROAD PIMLICO 2478",
    "locID": "LOC000074101746",
    "tech": "WIRELESS",
    "upgrade": "NULL_NA",
    "gnaf_pid": "GANSW705674920",
    "tech_change_status": "Not Planned",
    "program_type": "Fixed Wireless and Satellite Upgrade Program",
    "target_eligibility_quarter": "NA"
   }
  },
  {
   "type": "Feature",
   "geometry": {
    "type": "Point",
    "coordinates": [
     153.4858817,
     -28.90472143
    ]
   },
   "properties": {
    "name": "538 PIMLICO ROAD PIMLICO 2478",
    "locID": "LOC000082763015",
    "tech": "WIRELESS",
    "upgrade": "NULL_NA",
    "gnaf_pid": "GANSW705674921",
    "tech_change_status": "Not Planned",
    "program_type": "Fixed Wireless and Satellite Upgrade Program",
    "target_eligibility_quarter": "NA"
   }
  },
  {
   "type": "Feature",
   "geometry": {
    "type": "Point",
    "coordinates": [
     153.48514645,
     -28.90463577
    ]
   },
   "properties": {
    "name": "540 PIMLICO ROAD PIMLICO 2478",
    "locID": "LOC100070834263",
    "tech": "WIRELESS",
    "upgrade": "NULL_NA",
    "gnaf_pid": "GANSW705674922",
    "tech_change_status": "Not Planned",
    "program_type": "Fixed Wireless and Satellite Upgrade Program",
    "target_eligibility_quarter": "NA"
   }
  },
  {
   "type": "Feature",
   "geometry": {
    "type": "Point",
    "coordinates": [
     153.50143708,
     -28.86845686
    ]
   },
   "properties": {
    "name": "55 PIMLICO ROAD PIMLICO 2478",
    "locID": "LOC000068467585",
    "tech": "WIRELESS",
    "upgrade": "NULL_NA",
    "gnaf_pid": "GANSW705674923",
    "tech_change_status": "Not Planned",
    "program_type": "Fixed Wireless and Satellite Upgrade Program",
    "target_eligibility_quarter": "NA"
   }
  },
  {
   "type": "Feature",
   "geometry": {
    "type": "Point",
    "coordinates": [
     153.48670194,
     -28.90761137
    ]
   },
   "properties": {
    "name": "563 PIMLICO ROAD PIMLICO 2478",
    "locID": "LOC000093861233",
    "tech": "WIRELESS",
    "upgrade": "NULL_NA",
    "gnaf_pid": "GANSW705674924",
    "tech_change_status": "Not Planned",
    "program_type": "Fixed Wireless and Satellite Upgrade Program",
    "target_eligibility_quarter": "NA"
   }
  },
  {
   "type": "Feature",
   "geometry": {
    "type": "Point",
    "coordinates": [
     153.48593456,
     -28.90749536
    ]
   },
   "properties": {
    "name": "564 PIMLICO ROAD PIMLICO 2478",
    "locID": "LOC000066316449",
    "tech": "WIRELESS",
    "upgrade": "NULL_NA",
    "gnaf_pid": "GANSW705674925",
    "tech_change_status": "Not Planned",
    "program_type": "Fixed Wireless and Satellite Upgrade Program",
    "target_eligibility_quarter": "NA"
   }
  },
  {
   "type": "Feature",
   "geometry": {
    "type": "Point",
    "coordinates": [
     153.48596728,
     -28.9079088
    ]
   },
   "properties": {
    "name": "568 PIMLICO ROAD PIMLICO 2478",
    "locID": "LOC000096126250",
    "tech": "WIRELESS",
    "upgrade": "NULL_NA",
    "gnaf_pid": "GANSW705674926",
    "tech_change_status": "Not Planned",
    "program_type": "Fixed Wireless and Satellite Upgrade Program",
    "target_eligibility_quarter": "NA"
   }
  },
  {
   "type": "Feature",
   "geometry": {
    "type": "Point",
    "coordinates": [
     153.48562821,
     -28.90846797
    ]
   },
   "properties": {
    "name": "574 PIMLICO ROAD PIMLICO 2478",
    "locID": "LOC000091812855",
    "tech": "WIRELESS",
    "upgrade": "NULL_NA",
    "gnaf_pid": "GANSW705674927",
    "tech_change_status": "Not Planned",
    "program_type": "Fixed Wireless and Satellite Upgrade Program",
    "target_eligibility_quarter": "NA"
   }
  },
  {
   "type": "Feature",
   "geometry": {
    "type": "Point",
    "coordinates": [
     153.49407427,
     -28.8910155
    ]
   },
   "properties": {
    "name": "355 PIMLICO ROAD PIMLICO 2478",
    "locID": "LOC000098739365",
    "tech": "WIRELESS",
    "upgrade": "NULL_NA",
    "gnaf_pid": "GANSW705681536",
    "tech_change_status": "Not Planned",
    "program_type": "Fixed Wireless and Satellite Upgrade Program",
    "target_eligibility_quarter": "NA"
   }
  },
  {
   "type": "Feature",
   "geometry": {
    "type": "Point",
    "coordinates": [
     153.49272553,
     -28.89077153
    ]
   },
   "properties": {
    "name": "356 PIMLICO ROAD PIMLICO 2478",
    "locID": "LOC000092085691",
    "tech": "WIRELESS",
    "upgrade": "NULL_NA",
    "gnaf_pid": "GANSW705681537",
    "tech_change_status": "Not Planned",
    "program_type": "Fixed Wireless and Satellite Upgrade Program",
    "target_eligibility_quarter": "NA"
   }
  },
  {
   "type": "Feature",
   "geometry": {
    "type": "Point",
    "coordinates": [
     153.49360831,
     -28.8916448
    ]
   },
   "properties": {
    "name": "365 PIMLICO ROAD PIMLICO 2478",
    "locID": "LOC000022380764",
    "tech": "WIRELESS",
    "upgrade": "NULL_NA",
    "gnaf_pid": "GANSW705681538",
    "tech_change_status": "Not Planned",
    "program_type": "Fixed Wireless and Satellite Upgrade Program",
    "target_eligibility_quarter": "NA"
   }
  },
  {
   "type": "Feature",
   "geometry": {
    "type": "Point",
    "coordinates": [
     153.49244951,
     -28.89212545
    ]
   },
   "properties": {
    "name": "372 PIMLICO ROAD PIMLICO 2478",
    "locID": "LOC000043280475",
    "tech": "WIRELESS",
    "upgrade": "NULL_NA",
    "gnaf_pid": "GANSW705681539",
    "tech_change_status": "Not Planned",
    "program_type": "Fixed Wireless and Satellite Upgrade Program",
    "target_eligibility_quarter": "NA"
   }
  },
  {
   "type": "Feature",
   "geometry": {
    "type": "Point",
    "coordinates": [
     153.49232102,
     -28.89334136
    ]
   },
   "properties": {
    "name": "384 PIMLICO ROAD PIMLICO 2478",
    "locID": "LOC000087313626",
    "tech": "WIRELESS",
    "upgrade": "NULL_NA",
    "gnaf_pid": "GANSW705681540",
    "tech_change_status": "Not Planned",
    "program_type": "Fixed Wireless and Satellite Upgrade Program",
    "target_eligibility_quarter": "NA"
   }
  },
  {
   "type": "Feature",
   "geometry": {
    "type": "Point",
    "coordinates": [
     153.49200347,
     -28.89507027
    ]
   },
   "properties": {
    "name": "397 PIMLICO ROAD PIMLICO 2478",
    "locID": "LOC000056000831",
    "tech": "WIRELESS",
    "upgrade": "NULL_NA",
    "gnaf_pid": "GANSW705681541",
    "tech_change_status": "Not Planned",
    "program_type": "Fixed Wireless and Satellite Upgrade Program",
    "target_eligibility_quarter": "NA"
   }
  },
  {
   "type": "Feature",
   "geometry": {
    "type": "Point",
    "coordinates": [
     153.49171386,
     -28.89396372
    ]
   },
   "properties": {
    "name": "398 PIMLICO ROAD PIMLICO 2478",
    "locID": "LOC000039842964",
    "tech": "WIRELESS",
    "upgrade": "NULL_NA",
    "gnaf_pid": "GANSW705681542",
    "tech_change_status": "Not Planned",
    "program_type": "Fixed Wireless and Satellite Upgrade Program",
    "target_eligibility_quarter": "NA"
   }
  },
  {
   "type": "Feature",
   "geometry": {
    "type": "Point",
    "coordinates": [
     153.49077648,
     -28.89513323
    ]
   },
   "properties": {
    "name": "408 PIMLICO ROAD PIMLICO 2478",
    "locID": "LOC000105271970",
    "tech": "WIRELESS",
    "upgrade": "NULL_NA",
    "gnaf_pid": "GANSW705681543",
    "tech_change_status": "Not Planned",
    "program_type": "Fixed Wireless and Satellite Upgrade Program",
    "target_eligibility_quarter": "NA"
   }
  },
  {
   "type": "Feature",
   "geometry": {
    "type": "Point",
    "coordinates": [
     153.49133972,
     -28.89576226
    ]
   },
   "properties": {
    "name": "417 PIMLICO ROAD PIMLICO 2478",
    "locID": "LOC000046104460",
    "tech": "WIRELESS",
    "upgrade": "NULL_NA",
    "gnaf_pid": "GANSW705681544",
    "tech_change_status": "Not Planned",
    "program_type": "Fixed Wireless and Satellite Upgrade Program",
    "target_eligibility_quarter": "NA"
   }
  },
  {
   "type": "Feature",
   "geometry": {
    "type": "Point",
    "coordinates": [
     153.49148844,
     -28.89616677
    ]
   },
   "properties": {
    "name": "419 PIMLICO ROAD PIMLICO 2478",
    "locID": "LOC000040434130",
    "tech": "WIRELESS",
    "upgrade": "NULL_NA",
    "gnaf_pid": "GANSW705681545",
    "tech_change_status": "Not Planned",
    "program_type": "Fixed Wireless and Satellite Upgrade Program",
    "target_eligibility_quarter": "NA"
   }
  },
  {
   "type": "Feature",
   "geometry": {
    "type": "Point",
    "coordinates": [
     153.48523804,
     -28.90896062
    ]
   },
   "properties": {
    "name": "580 PIMLICO ROAD PIMLICO 2478",
    "locID": "LOC000045370680",
    "tech": "WIRELESS",
    "upgrade": "NULL_NA",
    "gnaf_pid": "GANSW705681556",
    "tech_change_status": "Not Planned",
    "program_type": "Fixed Wireless and Satellite Upgrade Program",
    "target_eligibility_quarter": "NA"
   }
  },
  {
   "type": "Feature",
   "geometry": {
    "type": "Point",
    "coordinates": [
     153.48463012,
     -28.91075749
    ]
   },
   "properties": {
    "name": "601 PIMLICO ROAD PIMLICO 2478",
    "locID": "LOC000001358553",
    "tech": "WIRELESS",
    "upgrade": "NULL_NA",
    "gnaf_pid": "GANSW705681557",
    "tech_change_status": "Not Planned",
    "program_type": "Fixed Wireless and Satellite Upgrade Program",
    "target_eligibility_quarter": "NA"
   }
  },
  {
   "type": "Feature",
   "geometry": {
    "type": "Point",
    "coordinates": [
     153.48306205,
     -28.91105016
    ]
   },
   "properties": {
    "name": "612 PIMLICO ROAD PIMLICO 2478",
    "locID": "LOC000021336568",
    "tech": "WIRELESS",
    "upgrade": "NULL_NA",
    "gnaf_pid": "GANSW705681558",
    "tech_change_status": "Not Planned",
    "program_type": "Fixed Wireless and Satellite Upgrade Program",
    "target_eligibility_quarter": "NA"
   }
  },
  {
   "type": "Feature",
   "geometry": {
    "type": "Point",
    "coordinates": [
     153.48271138,
     -28.91242137
    ]
   },
   "properties": {
    "name": "624 PIMLICO ROAD PIMLICO 2478",
    "locID": "LOC000050404985",
    "tech": "WIRELESS",
    "upgrade": "NULL_NA",
    "gnaf_pid": "GANSW705691827",
    "tech_change_status": "Not Planned",
    "program_type": "Fixed Wireless and Satellite Upgrade Program",
    "target_eligibility_quarter": "NA"
   }
  },
  {
   "type": "Feature",
   "geometry": {
    "type": "Point",
    "coordinates": [
     153.48162425,
     -28.91402513
    ]
   },
   "properties": {
    "name": "646 PIMLICO ROAD PIMLICO 2478",
    "locID": "LOC000018837474",
    "tech": "WIRELESS",
    "upgrade": "NULL_NA",
    "gnaf_pid": "GANSW705691828",
    "tech_change_status": "Not Planned",
    "program_type": "Fixed Wireless and Satellite Upgrade Program",
    "target_eligibility_quarter": "NA"
   }
  },
  {
   "type": "Feature",
   "geometry": {
    "type": "Point",
    "coordinates": [
     153.50170901,
     -28.86926624
    ]
   },
   "properties": {
    "name": "66 PIMLICO ROAD PIMLICO 2478",
    "locID": "LOC000055969613",
    "tech": "WIRELESS",
    "upgrade": "NULL_NA",
    "gnaf_pid": "GANSW705691829",
    "tech_change_status": "Not Planned",
    "program_type": "Fixed Wireless and Satellite Upgrade Program",
    "target_eligibility_quarter": "NA"
   }
  },
  {
   "type": "Feature",
   "geometry": {
    "type": "Point",
    "coordinates": [
     153.48205179,
     -28.91541052
    ]
   },
   "properties": {
    "name": "661 PIMLICO ROAD PIMLICO 2478",
    "locID": "LOC000031329352",
    "tech": "WIRELESS",
    "upgrade": "NULL_NA",
    "gnaf_pid": "GANSW705691830",
    "tech_change_status": "Not Planned",
    "program_type": "Fixed Wireless and Satellite Upgrade Program",
    "target_eligibility_quarter": "NA"
   }
  },
  {
   "type": "Feature",
   "geometry": {
    "type": "Point",
    "coordinates": [
     153.48048849,
     -28.91635516
    ]
   },
   "properties": {
    "name": "674 PIMLICO ROAD PIMLICO 2478",
    "locID": "LOC000079903253",
    "tech": "SATELLITE",
    "upgrade": "WIRELESS",
    "gnaf_pid": "GANSW705691831",
    "tech_change_status": "Eligible to Order",
    "program_type": "Fixed Wireless and Satellite Upgrade Program",
    "target_eligibility_quarter": "NA"
   }
  },
  {
   "type": "Feature",
   "geometry": {
    "type": "Point",
    "coordinates": [
     153.47036853,
     -28.90594824
    ]
   },
   "properties": {
    "name": "109 SARTORIES ROAD PIMLICO 2478",
    "locID": "LOC000103383739",
    "tech": "WIRELESS",
    "upgrade": "NULL_NA",
    "gnaf_pid": "GANSW705691838",
    "tech_change_status": "Not Planned",
    "program_type": "Fixed Wireless and Satellite Upgrade Program",
    "target_eligibility_quarter": "NA"
   }
  },
  {
   "type": "Feature",
   "geometry": {
    "type": "Point",
    "coordinates": [
     153.47142055,
     -28.90651833
    ]
   },
   "properties": {
    "name": "110 SARTORIES ROAD PIMLICO 2478",
    "locID": "LOC000065347739",
    "tech": "WIRELESS",
    "upgrade": "NULL_NA",
    "gnaf_pid": "GANSW705691839",
    "tech_change_status": "Not Planned",
    "program_type": "Fixed Wireless and Satellite Upgrade Program",
    "target_eligibility_quarter": "NA"
   }
  },
  {
   "type": "Feature",
   "geometry": {
    "type": "Point",
    "coordinates": [
     153.47070941,
     -28.90303315
    ]
   },
   "properties": {
    "name": "16 SARTORIES ROAD PIMLICO 2478",
    "locID": "LOC000015608693",
    "tech": "WIRELESS",
    "upgrade": "NULL_NA",
    "gnaf_pid": "GANSW705691840",
    "tech_change_status": "Not Planned",
    "program_type": "Fixed Wireless and Satellite Upgrade Program",
    "target_eligibility_quarter": "NA"
   }
  },
  {
   "type": "Feature",
   "geometry": {
    "type": "Point",
    "coordinates": [
     153.47788549,
     -28.90878106
    ]
   },
   "properties": {
    "name": "67 SARTORIES ROAD PIMLICO 2478",
    "locID": "LOC000005578507",
    "tech": "WIRELESS",
    "upgrade": "NULL_NA",
    "gnaf_pid": "GANSW705691841",
    "tech_change_status": "Not Planned",
    "program_type": "Fixed Wireless and Satellite Upgrade Program",
    "target_eligibility_quarter": "NA"
   }
  },
  {
   "type": "Feature",
   "geometry": {
    "type": "Point",
    "coordinates": [
     153.47283696,
     -28.9077643
    ]
   },
   "properties": {
    "name": "95 SARTORIES ROAD PIMLICO 2478",
    "locID": "LOC000057706229",
    "tech": "WIRELESS",
    "upgrade": "NULL_NA",
    "gnaf_pid": "GANSW705691842",
    "tech_change_status": "Not Planned",
    "program_type": "Fixed Wireless and Satellite Upgrade Program",
    "target_eligibility_quarter": "NA"
   }
  },
  {
   "type": "Feature",
   "geometry": {
    "type": "Point",
    "coordinates": [
     153.47626699,
     -28.89706754
    ]
   },
   "properties": {
    "name": "7 WHYTES LANE PIMLICO 2478",
    "locID": "LOC000069022918",
    "tech": "WIRELESS",
    "upgrade": "NULL_NA",
    "gnaf_pid": "GANSW705691848",
    "tech_change_status": "Not Planned",
    "program_type": "Fixed Wireless and Satellite Upgrade Program",
    "target_eligibility_quarter": "NA"
   }
  },
  {
   "type": "Feature",
   "geometry": {
    "type": "Point",
    "coordinates": [
     153.47462516,
     -28.89656663
    ]
   },
   "properties": {
    "name": "98 WHYTES LANE PIMLICO 2478",
    "locID": "LOC000103114345",
    "tech": "WIRELESS",
    "upgrade": "NULL_NA",
    "gnaf_pid": "GANSW705691849",
    "tech_change_status": "Not Planned",
    "program_type": "Fixed Wireless and Satellite Upgrade Program",
    "target_eligibility_quarter": "NA"
   }
  },
  {
   "type": "Feature",
   "geometry": {
    "type": "Point",
    "coordinates": [
     153.4767126,
     -28.9224901
    ]
   },
   "properties": {
    "name": "5 COOLGARDIE ROAD PIMLICO 2478",
    "locID": "LOC000113648987",
    "tech": "WIRELESS",
    "upgrade": "NULL_NA",
    "gnaf_pid": "GANSW706610128",
    "tech_change_status": "Not Planned"
   }
  },
  {
   "type": "Feature",
   "geometry": {
    "type": "Point",
    "coordinates": [
     153.49109011,
     -28.89607645
    ]
   },
   "properties": {
    "name": "LOT 6 PIMLICO ROAD PIMLICO 2478",
    "locID": "LOC000044398866",
    "tech": "WIRELESS",
    "upgrade": "NULL_NA",
    "gnaf_pid": "GANSW709937333",
    "tech_change_status": "Not Planned",
    "program_type": "Fixed Wireless and Satellite Upgrade Program",
    "target_eligibility_quarter": "NA"
   }
  },
  {
   "type": "Feature",
   "geometry": {
    "type": "Point",
    "coordinates": [
     153.50333408,
     -28.89415408
    ]
   },
   "properties": {
    "name": "148 HERMANS LANE PIMLICO 2478",
    "locID": "LOC000008034168",
    "tech": "WIRELESS",
    "upgrade": "NULL_NA",
    "gnaf_pid": "GANSW709958180",
    "tech_change_status": "Not Planned",
    "program_type": "Fixed Wireless and Satellite Upgrade Program",
    "target_eligibility_quarter": "NA"
   }
  },
  {
   "type": "Feature",
   "geometry": {
    "type": "Point",
    "coordinates": [
     153.4934013,
     -28.8928964
    ]
   },
   "properties": {
    "name": "377 PIMLICO ROAD PIMLICO 2478",
    "locID": "LOC000078930689",
    "tech": "WIRELESS",
    "upgrade": "NULL_NA",
    "gnaf_pid": "GANSW709982717",
    "tech_change_status": "Not Planned",
    "program_type": "Fixed Wireless and Satellite Upgrade Program",
    "target_eligibility_quarter": "NA"
   }
  },
  {
   "type": "Feature",
   "geometry": {
    "type": "Point",
    "coordinates": [
     153.47171869,
     -28.90623038
    ]
   },
   "properties": {
    "name": "107 SARTORIES ROAD PIMLICO 2478",
    "locID": "LOC000074751768",
    "tech": "WIRELESS",
    "upgrade": "NULL_NA",
    "gnaf_pid": "GANSW709985909",
    "tech_change_status": "Not Planned",
    "program_type": "Fixed Wireless and Satellite Upgrade Program",
    "target_eligibility_quarter": "NA"
   }
  },
  {
   "type": "Feature",
   "geometry": {
    "type": "Point",
    "coordinates": [
     153.50498888,
     -28.87595916
    ]
   },
   "properties": {
    "name": "143 PIMLICO ROAD PIMLICO 2478",
    "locID": "LOC000103226365",
    "tech": "WIRELESS",
    "upgrade": "NULL_NA",
    "gnaf_pid": "GANSW712280237",
    "tech_change_status": "Not Planned",
    "program_type": "Fixed Wireless and Satellite Upgrade Program",
    "target_eligibility_quarter": "Dec 2024"
   }
  },
  {
   "type": "Feature",
   "geometry": {
    "type": "Point",
    "coordinates": [
     153.47625026,
     -28.92214397
    ]
   },
   "properties": {
    "name": "1 COOLGARDIE ROAD PIMLICO 2478",
    "locID": "LOC000113648987",
    "tech": "WIRELESS",
    "upgrade": "NULL_NA",
    "gnaf_pid": "GANSW712283392",
    "tech_change_status": "Not Planned"
   }
  },
  {
   "type": "Feature",
   "geometry": {
    "type": "Point",
    "coordinates": [
     153.47626699,
     -28.89706754
    ]
   },
   "properties": {
    "name": "LOT 1 WHYTES LANE PIMLICO 2478",
    "locID": "LOC000103114345",
    "tech": "WIRELESS",
    "upgrade": "NULL_NA",
    "gnaf_pid": "GANSW712297362",
    "tech_change_status": "Not Planned",
    "program_type": "Fixed Wireless and Satellite Upgrade Program",
    "target_eligibility_quarter": "NA"
   }
  },
  {
   "type": "Feature",
   "geometry": {
    "type": "Point",
    "coordinates": [
     153.47468432,
     -28.89822297
    ]
   },
   "properties": {
    "name": "55 WHYTES LANE PIMLICO 2478",
    "locID": "LOC000014685987",
    "tech": "WIRELESS",
    "upgrade": "NULL_NA",
    "gnaf_pid": "GANSW712297368",
    "tech_change_status": "Not Planned",
    "program_type": "Fixed Wireless and Satellite Upgrade Program",
    "target_eligibility_quarter": "NA"
   }
  },
  {
   "type": "Feature",
   "geometry": {
    "type": "Point",
    "coordinates": [
     153.47348787,
     -28.89506076
    ]
   },
   "properties": {
    "name": "127 WHYTES LANE PIMLICO 2478",
    "locID": "LOC000019701510",
    "tech": "WIRELESS",
    "upgrade": "NULL_NA",
    "gnaf_pid": "GANSW712297370",
    "tech_change_status": "Not Planned",
    "program_type": "Fixed Wireless and Satellite Upgrade Program",
    "target_eligibility_quarter": "NA"
   }
  },
  {
   "type": "Feature",
   "geometry": {
    "type": "Point",
    "coordinates": [
     153.47370036,
     -28.89361437
    ]
   },
   "properties": {
    "name": "132 WHYTES LANE PIMLICO 2478",
    "locID": "LOC000031297716",
    "tech": "WIRELESS",
    "upgrade": "NULL_NA",
    "gnaf_pid": "GANSW712297371",
    "tech_change_status": "Not Planned",
    "program_type": "Fixed Wireless and Satellite Upgrade Program",
    "target_eligibility_quarter": "NA"
   }
  },
  {
   "type": "Feature",
   "geometry": {
    "type": "Point",
    "coordinates": [
     153.50024779,
     -28.87129948
    ]
   },
   "properties": {
    "name": "40 PIMLICO ROAD PIMLICO 2478",
    "locID": "LOC000182204652",
    "tech": "WIRELESS",
    "upgrade": "NULL_NA",
    "gnaf_pid": "GANSW715396016",
    "tech_change_status": "Not Planned",
    "program_type": "Fixed Wireless and Satellite Upgrade Program",
    "target_eligibility_quarter": "NA"
   }
  },
  {
   "type": "Feature",
   "geometry": {
    "type": "Point",
    "coordinates": [
     153.50408073,
     -28.89152371
    ]
   },
   "properties": {
    "name": "LOT 2 HERMANS LANE PIMLICO 2478",
    "locID": "LOC000055868998",
    "tech": "WIRELESS",
    "upgrade": "NULL_NA",
    "gnaf_pid": "GANSW715898941",
    "tech_change_status": "Not Planned",
    "program_type": "Fixed Wireless and Satellite Upgrade Program",
    "target_eligibility_quarter": "NA"
   }
  },
  {
   "type": "Feature",
   "geometry": {
    "type": "Point",
    "coordinates": [
     153.49109011,
     -28.89607645
    ]
   },
   "properties": {
    "name": "LOT 1 PIMLICO ROAD PIMLICO 2478",
    "locID": "LOC000109909666",
    "tech": "WIRELESS",
    "upgrade": "NULL_NA",
    "gnaf_pid": "GANSW716044142",
    "tech_change_status": "Not Planned",
    "program_type": "Fixed Wireless and Satellite Upgrade Program",
    "target_eligibility_quarter": "NA"
   }
  },
  {
   "type": "Feature",
   "geometry": {
    "type": "Point",
    "coordinates": [
     153.49109011,
     -28.89607645
    ]
   },
   "properties": {
    "name": "LOT 2 PIMLICO ROAD PIMLICO 2478",
    "locID": "LOC000099300087",
    "tech": "WIRELESS",
    "upgrade": "NULL_NA",
    "gnaf_pid": "GANSW716044143",
    "tech_change_status": "Not Planned",
    "program_type": "Fixed Wireless and Satellite Upgrade Program",
    "target_eligibility_quarter": "NA"
   }
  },
  {
   "type": "Feature",
   "geometry": {
    "type": "Point",
    "coordinates": [
     153.49109011,
     -28.89607645
    ]
   },
   "properties": {
    "name": "LOT 3 PIMLICO ROAD PIMLICO 2478",
    "locID": "LOC000068467585",
    "tech": "WIRELESS",
    "upgrade": "NULL_NA",
    "gnaf_pid": "GANSW716044144",
    "tech_change_status": "Not Planned",
    "program_type": "Fixed Wireless and Satellite Upgrade Program",
    "target_eligibility_quarter": "NA"
   }
  },
  {
   "type": "Feature",
   "geometry": {
    "type": "Point",
    "coordinates": [
     153.47625026,
     -28.92214397
    ]
   },
   "properties": {
    "name": "LOT 1 COOLGARDIE ROAD PIMLICO 2478",
    "locID": "LOC000113648987",
    "tech": "WIRELESS",
    "upgrade": "NULL_NA",
    "gnaf_pid": "GANSW716654549",
    "tech_change_status": "Not Planned"
   }
  },
  {
   "type": "Feature",
   "geometry": {
    "type": "Point",
    "coordinates": [
     153.51483144,
     -28.88984715
    ]
   },
   "properties": {
    "name": "LOT 1 EMIGRANT POINT ROAD PIMLICO 2478",
    "locID": "LOC000008977024",
    "tech": "WIRELESS",
    "upgrade": "NULL_NA",
    "gnaf_pid": "GANSW716658263",
    "tech_change_status": "Not Planned",
    "program_type": "Fixed Wireless and Satellite Upgrade Program",
    "target_eligibility_quarter": "NA"
   }
  },
  {
   "type": "Feature",
   "geometry": {
    "type": "Point",
    "coordinates": [
     153.50408073,
     -28.89152371
    ]
   },
   "properties": {
    "name": "LOT 1 HERMANS LANE PIMLICO 2478",
    "locID": "LOC000090753210",
    "tech": "WIRELESS",
    "upgrade": "NULL_NA",
    "gnaf_pid": "GANSW716665523",
    "tech_change_status": "Not Planned",
    "program_type": "Fixed Wireless and Satellite Upgrade Program",
    "target_eligibility_quarter": "NA"
   }
  },
  {
   "type": "Feature",
   "geometry": {
    "type": "Point",
    "coordinates": [
     153.50408073,
     -28.89152371
    ]
   },
   "properties": {
    "name": "LOT 3 HERMANS LANE PIMLICO 2478",
    "locID": "LOC000078558746",
    "tech": "WIRELESS",
    "upgrade": "NULL_NA",
    "gnaf_pid": "GANSW716665524",
    "tech_change_status": "Not Planned",
    "program_type": "Fixed Wireless and Satellite Upgrade Program",
    "target_eligibility_quarter": "NA"
   }
  },
  {
   "type": "Feature",
   "geometry": {
    "type": "Point",
    "coordinates": [
     153.50408073,
     -28.89152371
    ]
   },
   "properties": {
    "name": "LOT 5 HERMANS LANE PIMLICO 2478",
    "locID": "LOC000045981807",
    "tech": "WIRELESS",
    "upgrade": "NULL_NA",
    "gnaf_pid": "GANSW716665526",
    "tech_change_status": "Not Planned",
    "program_type": "Fixed Wireless and Satellite Upgrade Program",
    "target_eligibility_quarter": "NA"
   }
  },
  {
   "type": "Feature",
   "geometry": {
    "type": "Point",
    "coordinates": [
     153.48268673,
     -28.90892642
    ]
   },
   "properties": {
    "name": "LOT 4 LAWS ROAD PIMLICO 2478",
    "locID": "LOC000011438012",
    "tech": "WIRELESS",
    "upgrade": "NULL_NA",
    "gnaf_pid": "GANSW716670059",
    "tech_change_status": "Not Planned",
    "program_type": "Fixed Wireless and Satellite Upgrade Program",
    "target_eligibility_quarter": "NA"
   }
  },
  {
   "type": "Feature",
   "geometry": {
    "type": "Point",
    "coordinates": [
     153.48268673,
     -28.90892642
    ]
   },
   "properties": {
    "name": "LOT 9 LAWS ROAD PIMLICO 2478",
    "locID": "LOC000007149833",
    "tech": "WIRELESS",
    "upgrade": "NULL_NA",
    "gnaf_pid": "GANSW716670060",
    "tech_change_status": "Not Planned",
    "program_type": "Fixed Wireless and Satellite Upgrade Program",
    "target_eligibility_quarter": "NA"
   }
  },
  {
   "type": "Feature",
   "geometry": {
    "type": "Point",
    "coordinates": [
     153.49109011,
     -28.89607645
    ]
   },
   "properties": {
    "name": "LOT 10 PIMLICO ROAD PIMLICO 2478",
    "locID": "LOC000021336568",
    "tech": "WIRELESS",
    "upgrade": "NULL_NA",
    "gnaf_pid": "GANSW716682181",
    "tech_change_status": "Not Planned",
    "program_type": "Fixed Wireless and Satellite Upgrade Program",
    "target_eligibility_quarter": "NA"
   }
  },
  {
   "type": "Feature",
   "geometry": {
    "type": "Point",
    "coordinates": [
     153.49109011,
     -28.89607645
    ]
   },
   "properties": {
    "name": "LOT 11 PIMLICO ROAD PIMLICO 2478",
    "locID": "LOC000010578863",
    "tech": "WIRELESS",
    "upgrade": "NULL_NA",
    "gnaf_pid": "GANSW716682182",
    "tech_change_status": "Not Planned",
    "program_type": "Fixed Wireless and Satellite Upgrade Program",
    "target_eligibility_quarter": "NA"
   }
  },
  {
   "type": "Feature",
   "geometry": {
    "type": "Point",
    "coordinates": [
     153.49109011,
     -28.89607645
    ]
   },
   "properties": {
    "name": "LOT 13 PIMLICO ROAD PIMLICO 2478",
    "locID": "LOC000082763015",
    "tech": "WIRELESS",
    "upgrade": "NULL_NA",
    "gnaf_pid": "GANSW716682183",
    "tech_change_status": "Not Planned",
    "program_type": "Fixed Wireless and Satellite Upgrade Program",
    "target_eligibility_quarter": "NA"
   }
  },
  {
   "type": "Feature",
   "geometry": {
    "type": "Point",
    "coordinates": [
     153.49109011,
     -28.89607645
    ]
   },
   "properties": {
    "name": "LOT 4 PIMLICO ROAD PIMLICO 2478",
    "locID": "LOC000098739365",
    "tech": "WIRELESS",
    "upgrade": "NULL_NA",
    "gnaf_pid": "GANSW716682184",
    "tech_change_status": "Not Planned",
    "program_type": "Fixed Wireless and Satellite Upgrade Program",
    "target_eligibility_quarter": "NA"
   }
  },
  {
   "type": "Feature",
   "geometry": {
    "type": "Point",
    "coordinates": [
     153.49109011,
     -28.89607645
    ]
   },
   "properties": {
    "name": "LOT 5 PIMLICO ROAD PIMLICO 2478",
    "locID": "LOC000022380764",
    "tech": "WIRELESS",
    "upgrade": "NULL_NA",
    "gnaf_pid": "GANSW716682185",
    "tech_change_status": "Not Planned",
    "program_type": "Fixed Wireless and Satellite Upgrade Program",
    "target_eligibility_quarter": "NA"
   }
  },
  {
   "type": "Feature",
   "geometry": {
    "type": "Point",
    "coordinates": [
     153.49109011,
     -28.89607645
    ]
   },
   "properties": {
    "name": "LOT 7 PIMLICO ROAD PIMLICO 2478",
    "locID": "LOC000096126250",
    "tech": "WIRELESS",
    "upgrade": "NULL_NA",
    "gnaf_pid": "GANSW716682186",
    "tech_change_status": "Not Planned",
    "program_type": "Fixed Wireless and Satellite Upgrade Program",
    "target_eligibility_quarter": "NA"
   }
  },
  {
   "type": "Feature",
   "geometry": {
    "type": "Point",
    "coordinates": [
     153.47626699,
     -28.89706754
    ]
   },
   "properties": {
    "name": "1 WHYTES LANE PIMLICO 2478",
    "locID": "LOC000103114345",
    "tech": "WIRELESS",
    "upgrade": "NULL_NA",
    "gnaf_pid": "GANSW716695486",
    "tech_change_status": "Not Planned",
    "program_type": "Fixed Wireless and Satellite Upgrade Program",
    "target_eligibility_quarter": "NA"
   }
  },
  {
   "type": "Feature",
   "geometry": {
    "type": "Point",
    "coordinates": [
     153.47626699,
     -28.89706754
    ]
   },
   "properties": {
    "name": "LOT 5 WHYTES LANE PIMLICO 2478",
    "locID": "LOC000014685987",
    "tech": "WIRELESS",
    "upgrade": "NULL_NA",
    "gnaf_pid": "GANSW716695488",
    "tech_change_status": "Not Planned",
    "program_type": "Fixed Wireless and Satellite Upgrade Program",
    "target_eligibility_quarter": "NA"
   }
  },
  {
   "type": "Feature",
   "geometry": {
    "type": "Point",
    "coordinates": [
     153.50338979,
     -28.8812946
    ]
   },
   "properties": {
    "name": "197 PIMLICO ROAD PIMLICO 2478",
    "locID": "LOC000003022723",
    "tech": "WIRELESS",
    "upgrade": "NULL_NA",
    "gnaf_pid": "GANSW717107895",
    "tech_change_status": "Not Planned",
    "program_type": "Fixed Wireless and Satellite Upgrade Program",
    "target_eligibility_quarter": "NA"
   }
  },
  {
   "type": "Feature",
   "geometry": {
    "type": "Point",
    "coordinates": [
     153.47675618,
     -28.89768081
    ]
   },
   "properties": {
    "name": "62 WHYTES LANE PIMLICO 2478",
    "locID": "LOC100078036902",
    "tech": "WIRELESS",
    "upgrade": "NULL_NA",
    "gnaf_pid": "GANSW717112478",
    "tech_change_status": "Not Planned",
    "program_type": "Fixed Wireless and Satellite Upgrade Program",
    "target_eligibility_quarter": "NA"
   }
  },
  {
   "type": "Feature",
   "geometry": {
    "type": "Point",
    "coordinates": [
     153.49198076,
     -28.89358882
    ]
   },
   "properties": {
    "name": "390 PIMLICO ROAD PIMLICO 2478",
    "locID": "LOC000022020489",
    "tech": "WIRELESS",
    "upgrade": "NULL_NA",
    "gnaf_pid": "GANSW717343780",
    "tech_change_status": "Not Planned",
    "program_type": "Fixed Wireless and Satellite Upgrade Program",
    "target_eligibility_quarter": "NA"
   }
  },
  {
   "type": "Feature",
   "geometry": {
    "type": "Point",
    "coordinates": [
     153.50135306,
     -28.87020774
    ]
   },
   "properties": {
    "name": "62 PIMLICO ROAD PIMLICO 2478",
    "locID": "LOC000072372879",
    "tech": "WIRELESS",
    "upgrade": "NULL_NA",
    "gnaf_pid": "GANSW717796788",
    "tech_change_status": "Not Planned",
    "program_type": "Fixed Wireless and Satellite Upgrade Program",
    "target_eligibility_quarter": "NA"
   }
  },
  {
   "type": "Feature",
   "geometry": {
    "type": "Point",
    "coordinates": [
     153.47996215,
     -28.91762768
    ]
   },
   "properties": {
    "name": "695 PIMLICO ROAD PIMLICO 2478",
    "locID": "LOC000113606954",
    "tech": "WIRELESS",
    "upgrade": "NULL_NA",
    "gnaf_pid": "GANSW717963053",
    "tech_change_status": "Not Planned",
    "program_type": "Fixed Wireless and Satellite Upgrade Program",
    "target_eligibility_quarter": "NA"
   }
  },
  {
   "type": "Feature",
   "geometry": {
    "type": "Point",
    "coordinates": [
     153.47496676,
     -28.91037568
    ]
   },
   "properties": {
    "name": "69 SARTORIES ROAD PIMLICO 2478",
    "locID": "LOC000008739986",
    "tech": "WIRELESS",
    "upgrade": "NULL_NA",
    "gnaf_pid": "GANSW717965652",
    "tech_change_status": "Not Planned",
    "program_type": "Fixed Wireless and Satellite Upgrade Program",
    "target_eligibility_quarter": "NA"
   }
  },
  {
   "type": "Feature",
   "geometry": {
    "type": "Point",
    "coordinates": [
     153.47787067,
     -28.92097729
    ]
   },
   "properties": {
    "name": "735-739 PIMLICO ROAD PIMLICO 2478",
    "locID": "LOC000121135419",
    "tech": "WIRELESS",
    "upgrade": "NULL_NA",
    "gnaf_pid": "GANSW718317635",
    "tech_change_status": "Not Planned"
   }
  },
  {
   "type": "Feature",
   "geometry": {
    "type": "Point",
    "coordinates": [
     153.47932326,
     -28.91730646
    ]
   },
   "properties": {
    "name": "694 PIMLICO ROAD PIMLICO 2478",
    "locID": "LOC100078037039",
    "tech": "WIRELESS",
    "upgrade": "NULL_NA",
    "gnaf_pid": "GANSW718772188",
    "tech_change_status": "Not Planned",
    "program_type": "Fixed Wireless and Satellite Upgrade Program",
    "target_eligibility_quarter": "NA"
   }
  },
  {
   "type": "Feature",
   "geometry": {
    "type": "Point",
    "coordinates": [
     153.4823439,
     -28.92000644
    ]
   },
   "properties": {
    "name": "10 PIMLICO ROAD PIMLICO 2478",
    "locID": "LOC000021336568",
    "tech": "WIRELESS",
    "upgrade": "NULL_NA",
    "gnaf_pid": "GANSW719159795",
    "tech_change_status": "Not Planned",
    "program_type": "Fixed Wireless and Satellite Upgrade Program",
    "target_eligibility_quarter": "NA"
   }
  },
  {
   "type": "Feature",
   "geometry": {
    "type": "Point",
    "coordinates": [
     153.51741029,
     -28.89843149
    ]
   },
   "properties": {
    "name": "319 HERMANS LANE PIMLICO 2478",
    "locID": "LOC000154635691",
    "tech": "WIRELESS",
    "upgrade": "NULL_NA",
    "gnaf_pid": "GANSW719257740",
    "tech_change_status": "Not Planned",
    "program_type": "Fixed Wireless and Satellite Upgrade Program",
    "target_eligibility_quarter": "NA"
   }
  },
  {
   "type": "Feature",
   "geometry": {
    "type": "Point",
    "coordinates": [
     153.48828107,
     -28.91359727
    ]
   },
   "properties": {
    "name": "51 RIVERBANK ROAD PIMLICO 2478",
    "locID": "LOC000096732619",
    "tech": "WIRELESS",
    "upgrade": "NULL_NA",
    "gnaf_pid": "GANSW719683604",
    "tech_change_status": "Not Planned",
    "program_type": "Fixed Wireless and Satellite Upgrade Program",
    "target_eligibility_quarter": "NA"
   }
  },
  {
   "type": "Feature",
   "geometry": {
    "type": "Point",
    "coordinates": [
     153.49522529,
     -28.91093227
    ]
   },
   "properties": {
    "name": "125 RIVERBANK ROAD PIMLICO 2478",
    "locID": "LOC000071425845",
    "tech": "WIRELESS",
    "upgrade": "NULL_NA",
    "gnaf_pid": "GANSW719683605",
    "tech_change_status": "Not Planned",
    "program_type": "Fixed Wireless and Satellite Upgrade Program",
    "target_eligibility_quarter": "NA"
   }
  },
  {
   "type": "Feature",
   "geometry": {
    "type": "Point",
    "coordinates": [
     153.51075006,
     -28.90282323
    ]
   },
   "properties": {
    "name": "325 RIVERBANK ROAD PIMLICO 2478",
    "locID": "LOC000002212510",
    "tech": "WIRELESS",
    "upgrade": "NULL_NA",
    "gnaf_pid": "GANSW719686122",
    "tech_change_status": "Not Planned",
    "program_type": "Fixed Wireless and Satellite Upgrade Program",
    "target_eligibility_quarter": "NA"
   }
  },
  {
   "type": "Feature",
   "geometry": {
    "type": "Point",
    "coordinates": [
     153.48942131,
     -28.91305286
    ]
   },
   "properties": {
    "name": "65 RIVERBANK ROAD PIMLICO 2478",
    "locID": "LOC000022192485",
    "tech": "WIRELESS",
    "upgrade": "NULL_NA",
    "gnaf_pid": "GANSW719686123",
    "tech_change_status": "Not Planned",
    "program_type": "Fixed Wireless and Satellite Upgrade Program",
    "target_eligibility_quarter": "NA"
   }
  },
  {
   "type": "Feature",
   "geometry": {
    "type": "Point",
    "coordinates": [
     153.50400162,
     -28.91005407
    ]
   },
   "properties": {
    "name": "203 RIVERBANK ROAD PIMLICO 2478",
    "locID": "LOC000061569146",
    "tech": "WIRELESS",
    "upgrade": "NULL_NA",
    "gnaf_pid": "GANSW719686124",
    "tech_change_status": "Not Planned",
    "program_type": "Fixed Wireless and Satellite Upgrade Program",
    "target_eligibility_quarter": "NA"
   }
  },
  {
   "type": "Feature",
   "geometry": {
    "type": "Point",
    "coordinates": [
     153.51126592,
     -28.90240005
    ]
   },
   "properties": {
    "name": "329 RIVERBANK ROAD PIMLICO 2478",
    "locID": "LOC000070021260",
    "tech": "WIRELESS",
    "upgrade": "NULL_NA",
    "gnaf_pid": "GANSW719686125",
    "tech_change_status": "Not Planned",
    "program_type": "Fixed Wireless and Satellite Upgrade Program",
    "target_eligibility_quarter": "NA"
   }
  },
  {
   "type": "Feature",
   "geometry": {
    "type": "Point",
    "coordinates": [
     153.51300342,
     -28.90114571
    ]
   },
   "properties": {
    "name": "349 RIVERBANK ROAD PIMLICO 2478",
    "locID": "LOC100078036939",
    "tech": "WIRELESS",
    "upgrade": "NULL_NA",
    "gnaf_pid": "GANSW719686126",
    "tech_change_status": "Not Planned",
    "program_type": "Fixed Wireless and Satellite Upgrade Program",
    "target_eligibility_quarter": "NA"
   }
  },
  {
   "type": "Feature",
   "geometry": {
    "type": "Point",
    "coordinates": [
     153.51363636,
     -28.90055797
    ]
   },
   "properties": {
    "name": "359 RIVERBANK ROAD PIMLICO 2478",
    "locID": "LOC000049675798",
    "tech": "WIRELESS",
    "upgrade": "NULL_NA",
    "gnaf_pid": "GANSW719686127",
    "tech_change_status": "Not Planned",
    "program_type": "Fixed Wireless and Satellite Upgrade Program",
    "target_eligibility_quarter": "NA"
   }
  },
  {
   "type": "Feature",
   "geometry": {
    "type": "Point",
    "coordinates": [
     153.49255268,
     -28.91189929
    ]
   },
   "properties": {
    "name": "97 RIVERBANK ROAD PIMLICO 2478",
    "locID": "LOC000030498801",
    "tech": "WIRELESS",
    "upgrade": "NULL_NA",
    "gnaf_pid": "GANSW719686128",
    "tech_change_status": "Not Planned",
    "program_type": "Fixed Wireless and Satellite Upgrade Program",
    "target_eligibility_quarter": "NA"
   }
  },
  {
   "type": "Feature",
   "geometry": {
    "type": "Point",
    "coordinates": [
     153.51109246,
     -28.90255811
    ]
   },
   "properties": {
    "name": "327 RIVERBANK ROAD PIMLICO 2478",
    "locID": "LOC000008006352",
    "tech": "WIRELESS",
    "upgrade": "NULL_NA",
    "gnaf_pid": "GANSW719688523",
    "tech_change_status": "Not Planned",
    "program_type": "Fixed Wireless and Satellite Upgrade Program",
    "target_eligibility_quarter": "NA"
   }
  },
  {
   "type": "Feature",
   "geometry": {
    "type": "Point",
    "coordinates": [
     153.50313312,
     -28.91056803
    ]
   },
   "properties": {
    "name": "191 RIVERBANK ROAD PIMLICO 2478",
    "locID": "LOC000088200149",
    "tech": "WIRELESS",
    "upgrade": "NULL_NA",
    "gnaf_pid": "GANSW719688524",
    "tech_change_status": "Not Planned",
    "program_type": "Fixed Wireless and Satellite Upgrade Program",
    "target_eligibility_quarter": "NA"
   }
  },
  {
   "type": "Feature",
   "geometry": {
    "type": "Point",
    "coordinates": [
     153.51282258,
     -28.90127657
    ]
   },
   "properties": {
    "name": "347 RIVERBANK ROAD PIMLICO 2478",
    "locID": "LOC000072443732",
    "tech": "WIRELESS",
    "upgrade": "NULL_NA",
    "gnaf_pid": "GANSW719688525",
    "tech_change_status": "Not Planned",
    "program_type": "Fixed Wireless and Satellite Upgrade Program",
    "target_eligibility_quarter": "NA"
   }
  },
  {
   "type": "Feature",
   "geometry": {
    "type": "Point",
    "coordinates": [
     153.51331275,
     -28.90098628
    ]
   },
   "properties": {
    "name": "355 RIVERBANK ROAD PIMLICO 2478",
    "locID": "LOC000013065311",
    "tech": "WIRELESS",
    "upgrade": "NULL_NA",
    "gnaf_pid": "GANSW719688526",
    "tech_change_status": "Not Planned",
    "program_type": "Fixed Wireless and Satellite Upgrade Program",
    "target_eligibility_quarter": "NA"
   }
  },
  {
   "type": "Feature",
   "geometry": {
    "type": "Point",
    "coordinates": [
     153.48731596,
     -28.91389232
    ]
   },
   "properties": {
    "name": "40-44 RIVERBANK ROAD PIMLICO 2478",
    "locID": "LOC000112625199",
    "tech": "WIRELESS",
    "upgrade": "NULL_NA",
    "gnaf_pid": "GANSW719690890",
    "tech_change_status": "Not Planned",
    "program_type": "Fixed Wireless and Satellite Upgrade Program",
    "target_eligibility_quarter": "NA"
   }
  },
  {
   "type": "Feature",
   "geometry": {
    "type": "Point",
    "coordinates": [
     153.48888304,
     -28.91332312
    ]
   },
   "properties": {
    "name": "59 RIVERBANK ROAD PIMLICO 2478",
    "locID": "LOC000075586902",
    "tech": "WIRELESS",
    "upgrade": "NULL_NA",
    "gnaf_pid": "GANSW719690891",
    "tech_change_status": "Not Planned",
    "program_type": "Fixed Wireless and Satellite Upgrade Program",
    "target_eligibility_quarter": "NA"
   }
  },
  {
   "type": "Feature",
   "geometry": {
    "type": "Point",
    "coordinates": [
     153.48850189,
     -28.91353065
    ]
   },
   "properties": {
    "name": "55 RIVERBANK ROAD PIMLICO 2478",
    "locID": "LOC000048539967",
    "tech": "WIRELESS",
    "upgrade": "NULL_NA",
    "gnaf_pid": "GANSW719690892",
    "tech_change_status": "Not Planned",
    "program_type": "Fixed Wireless and Satellite Upgrade Program",
    "target_eligibility_quarter": "NA"
   }
  },
  {
   "type": "Feature",
   "geometry": {
    "type": "Point",
    "coordinates": [
     153.51356021,
     -28.90090537
    ]
   },
   "properties": {
    "name": "357 RIVERBANK ROAD PIMLICO 2478",
    "locID": "LOC000024525810",
    "tech": "WIRELESS",
    "upgrade": "NULL_NA",
    "gnaf_pid": "GANSW719690893",
    "tech_change_status": "Not Planned",
    "program_type": "Fixed Wireless and Satellite Upgrade Program",
    "target_eligibility_quarter": "NA"
   }
  },
  {
   "type": "Feature",
   "geometry": {
    "type": "Point",
    "coordinates": [
     153.4887238,
     -28.91342037
    ]
   },
   "properties": {
    "name": "57 RIVERBANK ROAD PIMLICO 2478",
    "locID": "LOC000047303184",
    "tech": "WIRELESS",
    "upgrade": "NULL_NA",
    "gnaf_pid": "GANSW719690894",
    "tech_change_status": "Not Planned",
    "program_type": "Fixed Wireless and Satellite Upgrade Program",
    "target_eligibility_quarter": "NA"
   }
  },
  {
   "type": "Feature",
   "geometry": {
    "type": "Point",
    "coordinates": [
     153.50819691,
     -28.9051313
    ]
   },
   "properties": {
    "name": "283 RIVERBANK ROAD PIMLICO 2478",
    "locID": "LOC000074856754",
    "tech": "WIRELESS",
    "upgrade": "NULL_NA",
    "gnaf_pid": "GANSW719693432",
    "tech_change_status": "Not Planned",
    "program_type": "Fixed Wireless and Satellite Upgrade Program",
    "target_eligibility_quarter": "NA"
   }
  },
  {
   "type": "Feature",
   "geometry": {
    "type": "Point",
    "coordinates": [
     153.49199874,
     -28.91207442
    ]
   },
   "properties": {
    "name": "91 RIVERBANK ROAD PIMLICO 2478",
    "locID": "LOC000103581132",
    "tech": "WIRELESS",
    "upgrade": "NULL_NA",
    "gnaf_pid": "GANSW719693433",
    "tech_change_status": "Not Planned",
    "program_type": "Fixed Wireless and Satellite Upgrade Program",
    "target_eligibility_quarter": "NA"
   }
  },
  {
   "type": "Feature",
   "geometry": {
    "type": "Point",
    "coordinates": [
     153.50980304,
     -28.90373456
    ]
   },
   "properties": {
    "name": "305 RIVERBANK ROAD PIMLICO 2478",
    "locID": "LOC000042611750",
    "tech": "WIRELESS",
    "upgrade": "NULL_NA",
    "gnaf_pid": "GANSW719693434",
    "tech_change_status": "Not Planned",
    "program_type": "Fixed Wireless and Satellite Upgrade Program",
    "target_eligibility_quarter": "NA"
   }
  },
  {
   "type": "Feature",
   "geometry": {
    "type": "Point",
    "coordinates": [
     153.50537933,
     -28.90845269
    ]
   },
   "properties": {
    "name": "225 RIVERBANK ROAD PIMLICO 2478",
    "locID": "LOC000052096117",
    "tech": "WIRELESS",
    "upgrade": "NULL_NA",
    "gnaf_pid": "GANSW719693435",
    "tech_change_status": "Not Planned",
    "program_type": "Fixed Wireless and Satellite Upgrade Program",
    "target_eligibility_quarter": "NA"
   }
  },
  {
   "type": "Feature",
   "geometry": {
    "type": "Point",
    "coordinates": [
     153.51315094,
     -28.9010648
    ]
   },
   "properties": {
    "name": "351 RIVERBANK ROAD PIMLICO 2478",
    "locID": "LOC000017272178",
    "tech": "WIRELESS",
    "upgrade": "NULL_NA",
    "gnaf_pid": "GANSW719693436",
    "tech_change_status": "Not Planned",
    "program_type": "Fixed Wireless and Satellite Upgrade Program",
    "target_eligibility_quarter": "NA"
   }
  },
  {
   "type": "Feature",
   "geometry": {
    "type": "Point",
    "coordinates": [
     153.49225382,
     -28.91199447
    ]
   },
   "properties": {
    "name": "95 RIVERBANK ROAD PIMLICO 2478",
    "locID": "LOC000064633449",
    "tech": "WIRELESS",
    "upgrade": "NULL_NA",
    "gnaf_pid": "GANSW719693437",
    "tech_change_status": "Not Planned",
    "program_type": "Fixed Wireless and Satellite Upgrade Program",
    "target_eligibility_quarter": "NA"
   }
  },
  {
   "type": "Feature",
   "geometry": {
    "type": "Point",
    "coordinates": [
     153.48912625,
     -28.91322228
    ]
   },
   "properties": {
    "name": "63 RIVERBANK ROAD PIMLICO 2478",
    "locID": "LOC000087217306",
    "tech": "WIRELESS",
    "upgrade": "NULL_NA",
    "gnaf_pid": "GANSW719695884",
    "tech_change_status": "Not Planned",
    "program_type": "Fixed Wireless and Satellite Upgrade Program",
    "target_eligibility_quarter": "NA"
   }
  },
  {
   "type": "Feature",
   "geometry": {
    "type": "Point",
    "coordinates": [
     153.51259057,
     -28.90130023
    ]
   },
   "properties": {
    "name": "345 RIVERBANK ROAD PIMLICO 2478",
    "locID": "LOC000096018613",
    "tech": "WIRELESS",
    "upgrade": "NULL_NA",
    "gnaf_pid": "GANSW719695885",
    "tech_change_status": "Not Planned",
    "program_type": "Fixed Wireless and Satellite Upgrade Program",
    "target_eligibility_quarter": "NA"
   }
  },
  {
   "type": "Feature",
   "geometry": {
    "type": "Point",
    "coordinates": [
     153.50909634,
     -28.90445374
    ]
   },
   "properties": {
    "name": "299 RIVERBANK ROAD PIMLICO 2478",
    "locID": "LOC000068712898",
    "tech": "WIRELESS",
    "upgrade": "NULL_NA",
    "gnaf_pid": "GANSW719695886",
    "tech_change_status": "Not Planned",
    "program_type": "Fixed Wireless and Satellite Upgrade Program",
    "target_eligibility_quarter": "NA"
   }
  },
  {
   "type": "Feature",
   "geometry": {
    "type": "Point",
    "coordinates": [
     153.49451145,
     -28.91118735
    ]
   },
   "properties": {
    "name": "121 RIVERBANK ROAD PIMLICO 2478",
    "locID": "LOC000053674783",
    "tech": "WIRELESS",
    "upgrade": "NULL_NA",
    "gnaf_pid": "GANSW719695887",
    "tech_change_status": "Not Planned",
    "program_type": "Fixed Wireless and Satellite Upgrade Program",
    "target_eligibility_quarter": "NA"
   }
  },
  {
   "type": "Feature",
   "geometry": {
    "type": "Point",
    "coordinates": [
     153.49014846,
     -28.91244561
    ]
   },
   "properties": {
    "name": "77 RIVERBANK ROAD PIMLICO 2478",
    "locID": "LOC000053707333",
    "tech": "WIRELESS",
    "upgrade": "NULL_NA",
    "gnaf_pid": "GANSW719695888",
    "tech_change_status": "Not Planned",
    "program_type": "Fixed Wireless and Satellite Upgrade Program",
    "target_eligibility_quarter": "NA"
   }
  },
  {
   "type": "Feature",
   "geometry": {
    "type": "Point",
    "coordinates": [
     153.48964783,
     -28.91287011
    ]
   },
   "properties": {
    "name": "67 RIVERBANK ROAD PIMLICO 2478",
    "locID": "LOC000075766045",
    "tech": "WIRELESS",
    "upgrade": "NULL_NA",
    "gnaf_pid": "GANSW719698335",
    "tech_change_status": "Not Planned",
    "program_type": "Fixed Wireless and Satellite Upgrade Program",
    "target_eligibility_quarter": "NA"
   }
  },
  {
   "type": "Feature",
   "geometry": {
    "type": "Point",
    "coordinates": [
     153.51143059,
     -28.90226643
    ]
   },
   "properties": {
    "name": "331 RIVERBANK ROAD PIMLICO 2478",
    "locID": "LOC000065506970",
    "tech": "WIRELESS",
    "upgrade": "NULL_NA",
    "gnaf_pid": "GANSW719698336",
    "tech_change_status": "Not Planned",
    "program_type": "Fixed Wireless and Satellite Upgrade Program",
    "target_eligibility_quarter": "NA"
   }
  },
  {
   "type": "Feature",
   "geometry": {
    "type": "Point",
    "coordinates": [
     153.50955082,
     -28.90413192
    ]
   },
   "properties": {
    "name": "303 RIVERBANK ROAD PIMLICO 2478",
    "locID": "LOC000078030400",
    "tech": "WIRELESS",
    "upgrade": "NULL_NA",
    "gnaf_pid": "GANSW719698337",
    "tech_change_status": "Not Planned",
    "program_type": "Fixed Wireless and Satellite Upgrade Program",
    "target_eligibility_quarter": "NA"
   }
  },
  {
   "type": "Feature",
   "geometry": {
    "type": "Point",
    "coordinates": [
     153.4898991,
     -28.9126017
    ]
   },
   "properties": {
    "name": "73 RIVERBANK ROAD PIMLICO 2478",
    "locID": "LOC000026424671",
    "tech": "WIRELESS",
    "upgrade": "NULL_NA",
    "gnaf_pid": "GANSW719698338",
    "tech_change_status": "Not Planned",
    "program_type": "Fixed Wireless and Satellite Upgrade Program",
    "target_eligibility_quarter": "NA"
   }
  },
  {
   "type": "Feature",
   "geometry": {
    "type": "Point",
    "coordinates": [
     153.51159953,
     -28.90208083
    ]
   },
   "properties": {
    "name": "337 RIVERBANK ROAD PIMLICO 2478",
    "locID": "LOC000062033759",
    "tech": "WIRELESS",
    "upgrade": "NULL_NA",
    "gnaf_pid": "GANSW719698339",
    "tech_change_status": "Not Planned",
    "program_type": "Fixed Wireless and Satellite Upgrade Program",
    "target_eligibility_quarter": "NA"
   }
  },
  {
   "type": "Feature",
   "geometry": {
    "type": "Point",
    "coordinates": [
     153.50486299,
     -28.9095758
    ]
   },
   "properties": {
    "name": "215 RIVERBANK ROAD PIMLICO 2478",
    "locID": "LOC000016317881",
    "tech": "WIRELESS",
    "upgrade": "NULL_NA",
    "gnaf_pid": "GANSW719698340",
    "tech_change_status": "Not Planned",
    "program_type": "Fixed Wireless and Satellite Upgrade Program",
    "target_eligibility_quarter": "NA"
   }
  },
  {
   "type": "Feature",
   "geometry": {
    "type": "Point",
    "coordinates": [
     153.51021706,
     -28.90336574
    ]
   },
   "properties": {
    "name": "313 RIVERBANK ROAD PIMLICO 2478",
    "locID": "LOC000072535916",
    "tech": "WIRELESS",
    "upgrade": "NULL_NA",
    "gnaf_pid": "GANSW719700785",
    "tech_change_status": "Not Planned",
    "program_type": "Fixed Wireless and Satellite Upgrade Program",
    "target_eligibility_quarter": "NA"
   }
  },
  {
   "type": "Feature",
   "geometry": {
    "type": "Point",
    "coordinates": [
     153.51173992,
     -28.90191427
    ]
   },
   "properties": {
    "name": "339 RIVERBANK ROAD PIMLICO 2478",
    "locID": "LOC000029734668",
    "tech": "WIRELESS",
    "upgrade": "NULL_NA",
    "gnaf_pid": "GANSW719700786",
    "tech_change_status": "Not Planned",
    "program_type": "Fixed Wireless and Satellite Upgrade Program",
    "target_eligibility_quarter": "NA"
   }
  },
  {
   "type": "Feature",
   "geometry": {
    "type": "Point",
    "coordinates": [
     153.48731596,
     -28.91389232
    ]
   },
   "properties": {
    "name": "40 RIVERBANK ROAD PIMLICO 2478",
    "locID": "LOC000182204652",
    "tech": "WIRELESS",
    "upgrade": "NULL_NA",
    "gnaf_pid": "GANSW719714270",
    "tech_change_status": "Not Planned",
    "program_type": "Fixed Wireless and Satellite Upgrade Program",
    "target_eligibility_quarter": "NA"
   }
  },
  {
   "type": "Feature",
   "geometry": {
    "type": "Point",
    "coordinates": [
     153.48731596,
     -28.91389232
    ]
   },
   "properties": {
    "name": "44 RIVERBANK ROAD PIMLICO 2478",
    "locID": "LOC000112625199",
    "tech": "WIRELESS",
    "upgrade": "NULL_NA",
    "gnaf_pid": "GANSW719714894",
    "tech_change_status": "Not Planned",
    "program_type": "Fixed Wireless and Satellite Upgrade Program",
    "target_eligibility_quarter": "NA"
   }
  },
  {
   "type": "Feature",
   "geometry": {
    "type": "Point",
    "coordinates": [
     153.50022254,
     -28.91073659
    ]
   },
   "properties": {
    "name": "LOT 6 RIVERBANK ROAD PIMLICO 2478",
    "locID": "LOC000048539967",
    "tech": "WIRELESS",
    "upgrade": "NULL_NA",
    "gnaf_pid": "GANSW719733856",
    "tech_change_status": "Not Planned",
    "program_type": "Fixed Wireless and Satellite Upgrade Program",
    "target_eligibility_quarter": "NA"
   }
  },
  {
   "type": "Feature",
   "geometry": {
    "type": "Point",
    "coordinates": [
     153.50022254,
     -28.91073659
    ]
   },
   "properties": {
    "name": "7 RIVERBANK ROAD PIMLICO 2478",
    "locID": "LOC000062033759",
    "tech": "WIRELESS",
    "upgrade": "NULL_NA",
    "gnaf_pid": "GANSW719734451",
    "tech_change_status": "Not Planned",
    "program_type": "Fixed Wireless and Satellite Upgrade Program",
    "target_eligibility_quarter": "NA"
   }
  },
  {
   "type": "Feature",
   "geometry": {
    "type": "Point",
    "coordinates": [
     153.50022254,
     -28.91073659
    ]
   },
   "properties": {
    "name": "LOT 8 RIVERBANK ROAD PIMLICO 2478",
    "locID": "LOC000053674783",
    "tech": "WIRELESS",
    "upgrade": "NULL_NA",
    "gnaf_pid": "GANSW719737882",
    "tech_change_status": "Not Planned",
    "program_type": "Fixed Wireless and Satellite Upgrade Program",
    "target_eligibility_quarter": "NA"
   }
  },
  {
   "type": "Feature",
   "geometry": {
    "type": "Point",
    "coordinates": [
     153.50022254,
     -28.91073659
    ]
   },
   "properties": {
    "name": "LOT 9 RIVERBANK ROAD PIMLICO 2478",
    "locID": "LOC000096732619",
    "tech": "WIRELESS",
    "upgrade": "NULL_NA",
    "gnaf_pid": "GANSW719738498",
    "tech_change_status": "Not Planned",
    "program_type": "Fixed Wireless and Satellite Upgrade Program",
    "target_eligibility_quarter": "NA"
   }
  },
  {
   "type": "Feature",
   "geometry": {
    "type": "Point",
    "coordinates": [
     153.50022254,
     -28.91073659
    ]
   },
   "properties": {
    "name": "LOT 5 RIVERBANK ROAD PIMLICO 2478",
    "locID": "LOC000048539967",
    "tech": "WIRELESS",
    "upgrade": "NULL_NA",
    "gnaf_pid": "GANSW719738981",
    "tech_change_status": "Not Planned",
    "program_type": "Fixed Wireless and Satellite Upgrade Program",
    "target_eligibility_quarter": "NA"
   }
  },
  {
   "type": "Feature",
   "geometry": {
    "type": "Point",
    "coordinates": [
     153.50022254,
     -28.91073659
    ]
   },
   "properties": {
    "name": "LOT 1 RIVERBANK ROAD PIMLICO 2478",
    "locID": "LOC000026424671",
    "tech": "WIRELESS",
    "upgrade": "NULL_NA",
    "gnaf_pid": "GANSW719739038",
    "tech_change_status": "Not Planned",
    "program_type": "Fixed Wireless and Satellite Upgrade Program",
    "target_eligibility_quarter": "NA"
   }
  },
  {
   "type": "Feature",
   "geometry": {
    "type": "Point",
    "coordinates": [
     153.50022254,
     -28.91073659
    ]
   },
   "properties": {
    "name": "LOT 12 RIVERBANK ROAD PIMLICO 2478",
    "locID": "LOC000061569146",
    "tech": "WIRELESS",
    "upgrade": "NULL_NA",
    "gnaf_pid": "GANSW719739849",
    "tech_change_status": "Not Planned",
    "program_type": "Fixed Wireless and Satellite Upgrade Program",
    "target_eligibility_quarter": "NA"
   }
  },
  {
   "type": "Feature",
   "geometry": {
    "type": "Point",
    "coordinates": [
     153.50022254,
     -28.91073659
    ]
   },
   "properties": {
    "name": "LOT 7 RIVERBANK ROAD PIMLICO 2478",
    "locID": "LOC000062033759",
    "tech": "WIRELESS",
    "upgrade": "NULL_NA",
    "gnaf_pid": "GANSW719739911",
    "tech_change_status": "Not Planned",
    "program_type": "Fixed Wireless and Satellite Upgrade Program",
    "target_eligibility_quarter": "NA"
   }
  },
  {
   "type": "Feature",
   "geometry": {
    "type": "Point",
    "coordinates": [
     153.50022254,
     -28.91073659
    ]
   },
   "properties": {
    "name": "LOT 2 RIVERBANK ROAD PIMLICO 2478",
    "locID": "LOC000070021260",
    "tech": "WIRELESS",
    "upgrade": "NULL_NA",
    "gnaf_pid": "GANSW719740199",
    "tech_change_status": "Not Planned",
    "program_type": "Fixed Wireless and Satellite Upgrade Program",
    "target_eligibility_quarter": "NA"
   }
  },
  {
   "type": "Feature",
   "geometry": {
    "type": "Point",
    "coordinates": [
     153.50022254,
     -28.91073659
    ]
   },
   "properties": {
    "name": "LOT 11 RIVERBANK ROAD PIMLICO 2478",
    "locID": "LOC000053707333",
    "tech": "WIRELESS",
    "upgrade": "NULL_NA",
    "gnaf_pid": "GANSW719740596",
    "tech_change_status": "Not Planned",
    "program_type": "Fixed Wireless and Satellite Upgrade Program",
    "target_eligibility_quarter": "NA"
   }
  },
  {
   "type": "Feature",
   "geometry": {
    "type": "Point",
    "coordinates": [
     153.50022254,
     -28.91073659
    ]
   },
   "properties": {
    "name": "LOT 4 RIVERBANK ROAD PIMLICO 2478",
    "locID": "LOC000075586902",
    "tech": "WIRELESS",
    "upgrade": "NULL_NA",
    "gnaf_pid": "GANSW719741082",
    "tech_change_status": "Not Planned",
    "program_type": "Fixed Wireless and Satellite Upgrade Program",
    "target_eligibility_quarter": "NA"
   }
  },
  {
   "type": "Feature",
   "geometry": {
    "type": "Point",
    "coordinates": [
     153.50022254,
     -28.91073659
    ]
   },
   "properties": {
    "name": "LOT 3 RIVERBANK ROAD PIMLICO 2478",
    "locID": "LOC000087217306",
    "tech": "WIRELESS",
    "upgrade": "NULL_NA",
    "gnaf_pid": "GANSW719742053",
    "tech_change_status": "Not Planned",
    "program_type": "Fixed Wireless and Satellite Upgrade Program",
    "target_eligibility_quarter": "NA"
   }
  },
  {
   "type": "Feature",
   "geometry": {
    "type": "Point",
    "coordinates": [
     153.50463082,
     -28.89794665
    ]
   },
   "properties": {
    "name": "192 HERMANS LANE PIMLICO 2478",
    "locID": "LOC000178591545",
    "tech": "WIRELESS",
    "upgrade": "NULL_NA",
    "gnaf_pid": "GANSW719886599",
    "tech_change_status": "Not Planned",
    "program_type": "Fixed Wireless and Satellite Upgrade Program",
    "target_eligibility_quarter": "NA"
   }
  },
  {
   "type": "Feature",
   "geometry": {
    "type": "Point",
    "coordinates": [
     153.50620442,
     -28.89518829
    ]
   },
   "properties": {
    "name": "141 HERMANS LANE PIMLICO 2478",
    "locID": "LOC100071932041",
    "tech": "WIRELESS",
    "upgrade": "NULL_NA",
    "gnaf_pid": "GANSW720014166",
    "tech_change_status": "Not Planned",
    "program_type": "Fixed Wireless and Satellite Upgrade Program",
    "target_eligibility_quarter": "NA"
   }
  },
  {
   "type": "Feature",
   "geometry": {
    "type": "Point",
    "coordinates": [
     153.51577287,
     -28.89262369
    ]
   },
   "properties": {
    "name": "325 HERMANS LANE PIMLICO 2478",
    "locID": "LOC100078036885",
    "tech": "WIRELESS",
    "upgrade": "NULL_NA",
    "gnaf_pid": "GANSW720321959",
    "tech_change_status": "Not Planned",
    "program_type": "Fixed Wireless and Satellite Upgrade Program",
    "target_eligibility_quarter": "NA"
   }
  },
  {
   "type": "Feature",
   "geometry": {
    "type": "Point",
    "coordinates": [
     153.50000253,
     -28.87080544
    ]
   },
   "properties": {
    "name": "50 PIMLICO ROAD PIMLICO 2478",
    "locID": "LOC000185949836",
    "tech": "WIRELESS",
    "upgrade": "NULL_NA",
    "gnaf_pid": "GANSW720426442",
    "tech_change_status": "Not Planned",
    "program_type": "Fixed Wireless and Satellite Upgrade Program",
    "target_eligibility_quarter": "NA"
   }
  },
  {
   "type": "Feature",
   "geometry": {
    "type": "Point",
    "coordinates": [
     153.49562071,
     -28.88349885
    ]
   },
   "properties": {
    "name": "11 PIMLICO ROAD PIMLICO 2478",
    "locID": "LOC000010578863",
    "tech": "WIRELESS",
    "upgrade": "NULL_NA",
    "gnaf_pid": "GANSW720688959",
    "tech_change_status": "Not Planned",
    "program_type": "Fixed Wireless and Satellite Upgrade Program",
    "target_eligibility_quarter": "NA"
   }
  },
  {
   "type": "Feature",
   "geometry": {
    "type": "Point",
    "coordinates": [
     153.50457265,
     -28.90367302
    ]
   },
   "properties": {
    "name": "1 RIVERBANK ROAD PIMLICO 2478",
    "locID": "LOC000026424671",
    "tech": "WIRELESS",
    "upgrade": "NULL_NA",
    "gnaf_pid": "GANSW720790086",
    "tech_change_status": "Not Planned",
    "program_type": "Fixed Wireless and Satellite Upgrade Program",
    "target_eligibility_quarter": "NA"
   }
  },
  {
   "type": "Feature",
   "geometry": {
    "type": "Point",
    "coordinates": [
     153.47626699,
     -28.89706754
    ]
   },
   "properties": {
    "name": "5 WHYTES LANE PIMLICO 2478",
    "locID": "LOC000014685987",
    "tech": "WIRELESS",
    "upgrade": "NULL_NA",
    "gnaf_pid": "GANSW721583523",
    "tech_change_status": "Not Planned",
    "program_type": "Fixed Wireless and Satellite Upgrade Program",
    "target_eligibility_quarter": "NA"
   }
  }
 ]
}