{
 "type": "FeatureCollection",
 "generated": "2026-05-08T03:35:10.407968",
 "suburb": "PINNACLE",
 "features": [
  {
   "type": "Feature",
   "geometry": {
    "type": "Point",
    "coordinates": [
     147.88382638,
     -33.72366416
    ]
   },
   "properties": {
    "name": "90 DEANS MALLOYS ROAD PINNACLE 2810",
    "locID": "LOC000077257242",
    "tech": "NULL",
    "upgrade": "NULL_NA",
    "gnaf_pid": "GANSW705661781",
    "tech_change_status": "Not Planned"
   }
  },
  {
   "type": "Feature",
   "geometry": {
    "type": "Point",
    "coordinates": [
     147.92558755,
     -33.76870415
    ]
   },
   "properties": {
    "name": "474 HANCOCK FLINNS ROAD PINNACLE 2810",
    "locID": "LOC000122093530",
    "tech": "NULL",
    "upgrade": "NULL_NA",
    "gnaf_pid": "GANSW705661784",
    "tech_change_status": "Not Planned"
   }
  },
  {
   "type": "Feature",
   "geometry": {
    "type": "Point",
    "coordinates": [
     147.97948406,
     -33.76337251
    ]
   },
   "properties": {
    "name": "1175 PINNACLE ROAD PINNACLE 2810",
    "locID": "LOC000006857826",
    "tech": "NULL",
    "upgrade": "NULL_NA",
    "gnaf_pid": "GANSW705661790",
    "tech_change_status": "Not Planned"
   }
  },
  {
   "type": "Feature",
   "geometry": {
    "type": "Point",
    "coordinates": [
     148.00775721,
     -33.74122684
    ]
   },
   "properties": {
    "name": "1560 PINNACLE ROAD PINNACLE 2810",
    "locID": "LOC000077449239",
    "tech": "NULL",
    "upgrade": "NULL_NA",
    "gnaf_pid": "GANSW705661792",
    "tech_change_status": "Not Planned"
   }
  },
  {
   "type": "Feature",
   "geometry": {
    "type": "Point",
    "coordinates": [
     147.86582845,
     -33.71803888
    ]
   },
   "properties": {
    "name": "240 DEANS MALLOYS ROAD PINNACLE 2810",
    "locID": "LOC000053377100",
    "tech": "NULL",
    "upgrade": "NULL_NA",
    "gnaf_pid": "GANSW705668565",
    "tech_change_status": "Not Planned"
   }
  },
  {
   "type": "Feature",
   "geometry": {
    "type": "Point",
    "coordinates": [
     147.88793225,
     -33.70805383
    ]
   },
   "properties": {
    "name": "669 BALLENDENE ROAD PINNACLE 2810",
    "locID": "LOC000015616648",
    "tech": "NULL",
    "upgrade": "NULL_NA",
    "gnaf_pid": "GANSW715729900",
    "tech_change_status": "Not Planned"
   }
  },
  {
   "type": "Feature",
   "geometry": {
    "type": "Point",
    "coordinates": [
     147.96349427,
     -33.72761151
    ]
   },
   "properties": {
    "name": "179 MITTONS LANE PINNACLE 2810",
    "locID": "LOC000187682084",
    "tech": "SATELLITE",
    "upgrade": "NULL_NA",
    "gnaf_pid": "GANSW715986197",
    "tech_change_status": "Not Planned"
   }
  },
  {
   "type": "Feature",
   "geometry": {
    "type": "Point",
    "coordinates": [
     147.92779002,
     -33.71028632
    ]
   },
   "properties": {
    "name": "587 GAP ROAD PINNACLE 2810",
    "locID": "LOC000088361904",
    "tech": "SATELLITE",
    "upgrade": "NULL_NA",
    "gnaf_pid": "GANSW716315375",
    "tech_change_status": "Not Planned"
   }
  },
  {
   "type": "Feature",
   "geometry": {
    "type": "Point",
    "coordinates": [
     147.90224196,
     -33.7028322
    ]
   },
   "properties": {
    "name": "849 GAP ROAD PINNACLE 2810",
    "locID": "LOC000070628155",
    "tech": "NULL",
    "upgrade": "NULL_NA",
    "gnaf_pid": "GANSW716315376",
    "tech_change_status": "Not Planned"
   }
  },
  {
   "type": "Feature",
   "geometry": {
    "type": "Point",
    "coordinates": [
     147.92517243,
     -33.70500796
    ]
   },
   "properties": {
    "name": "238 GAP ROAD PINNACLE 2810",
    "locID": "LOC000107398217",
    "tech": "SATELLITE",
    "upgrade": "NULL_NA",
    "gnaf_pid": "GANSW716753646",
    "tech_change_status": "Not Planned"
   }
  },
  {
   "type": "Feature",
   "geometry": {
    "type": "Point",
    "coordinates": [
     147.92442903,
     -33.76058139
    ]
   },
   "properties": {
    "name": "584 HANCOCK FLINNS ROAD PINNACLE 2810",
    "locID": "LOC000061691130",
    "tech": "SATELLITE",
    "upgrade": "NULL_NA",
    "gnaf_pid": "GANSW716754424",
    "tech_change_status": "Not Planned"
   }
  },
  {
   "type": "Feature",
   "geometry": {
    "type": "Point",
    "coordinates": [
     147.99176855,
     -33.76567189
    ]
   },
   "properties": {
    "name": "1180 PINNACLE ROAD PINNACLE 2810",
    "locID": "LOC000096157588",
    "tech": "SATELLITE",
    "upgrade": "NULL_NA",
    "gnaf_pid": "GANSW716760784",
    "tech_change_status": "Not Planned"
   }
  },
  {
   "type": "Feature",
   "geometry": {
    "type": "Point",
    "coordinates": [
     147.99280335,
     -33.74025256
    ]
   },
   "properties": {
    "name": "1589 PINNACLE ROAD PINNACLE 2810",
    "locID": "LOC000068699822",
    "tech": "SATELLITE",
    "upgrade": "NULL_NA",
    "gnaf_pid": "GANSW716760786",
    "tech_change_status": "Not Planned"
   }
  },
  {
   "type": "Feature",
   "geometry": {
    "type": "Point",
    "coordinates": [
     148.0154085,
     -33.75505897
    ]
   },
   "properties": {
    "name": "761 GOODES LANE PINNACLE 2810",
    "locID": "LOC000082395248",
    "tech": "NULL",
    "upgrade": "NULL_NA",
    "gnaf_pid": "GANSW717863907",
    "tech_change_status": "Not Planned"
   }
  },
  {
   "type": "Feature",
   "geometry": {
    "type": "Point",
    "coordinates": [
     147.9737694,
     -33.74394512
    ]
   },
   "properties": {
    "name": "164 HOCTORS ROAD PINNACLE 2810",
    "locID": "LOC000074745446",
    "tech": "SATELLITE",
    "upgrade": "NULL_NA",
    "gnaf_pid": "GANSW717892039",
    "tech_change_status": "Not Planned"
   }
  },
  {
   "type": "Feature",
   "geometry": {
    "type": "Point",
    "coordinates": [
     148.01848764,
     -33.71268875
    ]
   },
   "properties": {
    "name": "849 MORTRAY ROAD PINNACLE 2810",
    "locID": "LOC000033883459",
    "tech": "SATELLITE",
    "upgrade": "NULL_NA",
    "gnaf_pid": "GANSW717960120",
    "tech_change_status": "Not Planned"
   }
  }
 ]
}