{
 "type": "FeatureCollection",
 "generated": "2024-11-21T04:01:03.781903",
 "suburb": "POINTER MOUNTAIN",
 "features": [
  {
   "type": "Feature",
   "geometry": {
    "type": "Point",
    "coordinates": [
     150.38063749,
     -35.25573034
    ]
   },
   "properties": {
    "name": "567 PORTERS CREEK ROAD POINTER MOUNTAIN 2539",
    "locID": "LOC100075448884",
    "tech": "SATELLITE",
    "upgrade": "NULL_NA",
    "gnaf_pid": "GANSW716049014",
    "tech_change_status": "Not Planned"
   }
  },
  {
   "type": "Feature",
   "geometry": {
    "type": "Point",
    "coordinates": [
     150.38284914,
     -35.26551263
    ]
   },
   "properties": {
    "name": "119 GRAYDONS ROAD POINTER MOUNTAIN 2539",
    "locID": "LOC000086332354",
    "tech": "WIRELESS",
    "upgrade": "NULL_NA",
    "gnaf_pid": "GANSW720679859",
    "tech_change_status": "Not Planned",
    "program_type": "Fixed Wireless and Satellite Upgrade Program",
    "target_eligibility_quarter": "Dec 2024"
   }
  },
  {
   "type": "Feature",
   "geometry": {
    "type": "Point",
    "coordinates": [
     150.3788231,
     -35.2665929
    ]
   },
   "properties": {
    "name": "92 GRAYDONS ROAD POINTER MOUNTAIN 2539",
    "locID": "LOC000042063421",
    "tech": "WIRELESS",
    "upgrade": "NULL_NA",
    "gnaf_pid": "GANSW720680380",
    "tech_change_status": "Not Planned",
    "program_type": "Fixed Wireless and Satellite Upgrade Program",
    "target_eligibility_quarter": "NA"
   }
  },
  {
   "type": "Feature",
   "geometry": {
    "type": "Point",
    "coordinates": [
     150.38026029,
     -35.26704975
    ]
   },
   "properties": {
    "name": "96 GRAYDONS ROAD POINTER MOUNTAIN 2539",
    "locID": "LOC000049438687",
    "tech": "WIRELESS",
    "upgrade": "NULL_NA",
    "gnaf_pid": "GANSW720683814",
    "tech_change_status": "Not Planned",
    "program_type": "Fixed Wireless and Satellite Upgrade Program",
    "target_eligibility_quarter": "NA"
   }
  },
  {
   "type": "Feature",
   "geometry": {
    "type": "Point",
    "coordinates": [
     150.38176412,
     -35.26477499
    ]
   },
   "properties": {
    "name": "99 GRAYDONS ROAD POINTER MOUNTAIN 2539",
    "locID": "LOC000037995418",
    "tech": "WIRELESS",
    "upgrade": "NULL_NA",
    "gnaf_pid": "GANSW720686723",
    "tech_change_status": "Not Planned",
    "program_type": "Fixed Wireless and Satellite Upgrade Program",
    "target_eligibility_quarter": "NA"
   }
  },
  {
   "type": "Feature",
   "geometry": {
    "type": "Point",
    "coordinates": [
     150.38125036,
     -35.26674589
    ]
   },
   "properties": {
    "name": "100 GRAYDONS ROAD POINTER MOUNTAIN 2539",
    "locID": "LOC100078125064",
    "tech": "WIRELESS",
    "upgrade": "NULL_NA",
    "gnaf_pid": "GANSW720687189",
    "tech_change_status": "Not Planned",
    "program_type": "Fixed Wireless and Satellite Upgrade Program",
    "target_eligibility_quarter": "NA"
   }
  },
  {
   "type": "Feature",
   "geometry": {
    "type": "Point",
    "coordinates": [
     150.37826672,
     -35.26147116
    ]
   },
   "properties": {
    "name": "91 GRAYDONS ROAD POINTER MOUNTAIN 2539",
    "locID": "LOC000186782760",
    "tech": "WIRELESS",
    "upgrade": "NULL_NA",
    "gnaf_pid": "GANSW720779669",
    "tech_change_status": "Not Planned",
    "program_type": "Fixed Wireless and Satellite Upgrade Program",
    "target_eligibility_quarter": "Dec 2024"
   }
  },
  {
   "type": "Feature",
   "geometry": {
    "type": "Point",
    "coordinates": [
     150.38227261,
     -35.26127952
    ]
   },
   "properties": {
    "name": "123 GRAYDONS ROAD POINTER MOUNTAIN 2539",
    "locID": "LOC100086137518",
    "tech": "WIRELESS",
    "upgrade": "NULL_NA",
    "gnaf_pid": "GANSW720905229",
    "tech_change_status": "Not Planned",
    "program_type": "Fixed Wireless and Satellite Upgrade Program",
    "target_eligibility_quarter": "NA"
   }
  }
 ]
}