{
 "type": "FeatureCollection",
 "generated": "2025-01-29T21:48:58.441613",
 "suburb": "POTTERY ESTATE",
 "features": [
  {
   "type": "Feature",
   "geometry": {
    "type": "Point",
    "coordinates": [
     150.15577867,
     -33.48498131
    ]
   },
   "properties": {
    "name": "67 BENT STREET POTTERY ESTATE 2790",
    "locID": "LOC000033030153",
    "tech": "FTTN",
    "upgrade": "NULL_NA",
    "gnaf_pid": "GANSW706466994",
    "tech_change_status": "Not Planned"
   }
  },
  {
   "type": "Feature",
   "geometry": {
    "type": "Point",
    "coordinates": [
     150.15599642,
     -33.48368069
    ]
   },
   "properties": {
    "name": "63 LETT STREET POTTERY ESTATE 2790",
    "locID": "LOC000122253707",
    "tech": "FTTN",
    "upgrade": "NULL_NA",
    "gnaf_pid": "GANSW706466997",
    "tech_change_status": "Not Planned"
   }
  },
  {
   "type": "Feature",
   "geometry": {
    "type": "Point",
    "coordinates": [
     150.15623293,
     -33.48371098
    ]
   },
   "properties": {
    "name": "59 LETT STREET POTTERY ESTATE 2790",
    "locID": "LOC000122250637",
    "tech": "FTTN",
    "upgrade": "NULL_NA",
    "gnaf_pid": "GANSW706466998",
    "tech_change_status": "Not Planned"
   }
  },
  {
   "type": "Feature",
   "geometry": {
    "type": "Point",
    "coordinates": [
     150.15485896,
     -33.48458009
    ]
   },
   "properties": {
    "name": "64 BENT STREET POTTERY ESTATE 2790",
    "locID": "LOC000078860546",
    "tech": "FTTN",
    "upgrade": "NULL_NA",
    "gnaf_pid": "GANSW706483841",
    "tech_change_status": "Not Planned"
   }
  },
  {
   "type": "Feature",
   "geometry": {
    "type": "Point",
    "coordinates": [
     150.15502745,
     -33.48457119
    ]
   },
   "properties": {
    "name": "62 BENT STREET POTTERY ESTATE 2790",
    "locID": "LOC000022153434",
    "tech": "FTTN",
    "upgrade": "NULL_NA",
    "gnaf_pid": "GANSW706483842",
    "tech_change_status": "Not Planned"
   }
  },
  {
   "type": "Feature",
   "geometry": {
    "type": "Point",
    "coordinates": [
     150.15468345,
     -33.48460379
    ]
   },
   "properties": {
    "name": "66 BENT STREET POTTERY ESTATE 2790",
    "locID": "LOC000023052903",
    "tech": "FTTN",
    "upgrade": "NULL_NA",
    "gnaf_pid": "GANSW706487374",
    "tech_change_status": "Not Planned"
   }
  },
  {
   "type": "Feature",
   "geometry": {
    "type": "Point",
    "coordinates": [
     150.1560858,
     -33.48495421
    ]
   },
   "properties": {
    "name": "65 BENT STREET POTTERY ESTATE 2790",
    "locID": "LOC000013999779",
    "tech": "FTTN",
    "upgrade": "NULL_NA",
    "gnaf_pid": "GANSW706487375",
    "tech_change_status": "Not Planned"
   }
  },
  {
   "type": "Feature",
   "geometry": {
    "type": "Point",
    "coordinates": [
     150.15411527,
     -33.48473558
    ]
   },
   "properties": {
    "name": "4 HASSAN STREET POTTERY ESTATE 2790",
    "locID": "LOC000086511581",
    "tech": "FTTN",
    "upgrade": "NULL_NA",
    "gnaf_pid": "GANSW706500891",
    "tech_change_status": "Not Planned"
   }
  },
  {
   "type": "Feature",
   "geometry": {
    "type": "Point",
    "coordinates": [
     150.15478994,
     -33.48410755
    ]
   },
   "properties": {
    "name": "17 HASSAN STREET POTTERY ESTATE 2790",
    "locID": "LOC000086198047",
    "tech": "FTTN",
    "upgrade": "NULL_NA",
    "gnaf_pid": "GANSW706500892",
    "tech_change_status": "Not Planned"
   }
  },
  {
   "type": "Feature",
   "geometry": {
    "type": "Point",
    "coordinates": [
     150.15480495,
     -33.48421906
    ]
   },
   "properties": {
    "name": "11 HASSAN STREET POTTERY ESTATE 2790",
    "locID": "LOC000055436313",
    "tech": "FTTN",
    "upgrade": "NULL_NA",
    "gnaf_pid": "GANSW706500893",
    "tech_change_status": "Not Planned"
   }
  },
  {
   "type": "Feature",
   "geometry": {
    "type": "Point",
    "coordinates": [
     150.15640304,
     -33.48372269
    ]
   },
   "properties": {
    "name": "57 LETT STREET POTTERY ESTATE 2790",
    "locID": "LOC000122250541",
    "tech": "FTTC",
    "upgrade": "NULL_NA",
    "gnaf_pid": "GANSW706511610"
   }
  },
  {
   "type": "Feature",
   "geometry": {
    "type": "Point",
    "coordinates": [
     150.15541544,
     -33.4843765
    ]
   },
   "properties": {
    "name": "8 WARATAH STREET POTTERY ESTATE 2790",
    "locID": "LOC000014741443",
    "tech": "FTTN",
    "upgrade": "NULL_NA",
    "gnaf_pid": "GANSW706511735",
    "tech_change_status": "Not Planned"
   }
  },
  {
   "type": "Feature",
   "geometry": {
    "type": "Point",
    "coordinates": [
     150.15605332,
     -33.48439915
    ]
   },
   "properties": {
    "name": "7 WARATAH STREET POTTERY ESTATE 2790",
    "locID": "LOC000086860083",
    "tech": "FTTN",
    "upgrade": "NULL_NA",
    "gnaf_pid": "GANSW706511736",
    "tech_change_status": "Not Planned"
   }
  },
  {
   "type": "Feature",
   "geometry": {
    "type": "Point",
    "coordinates": [
     150.15542944,
     -33.48447781
    ]
   },
   "properties": {
    "name": "6 WARATAH STREET POTTERY ESTATE 2790",
    "locID": "LOC000049601237",
    "tech": "FTTN",
    "upgrade": "NULL_NA",
    "gnaf_pid": "GANSW706511737",
    "tech_change_status": "Not Planned"
   }
  },
  {
   "type": "Feature",
   "geometry": {
    "type": "Point",
    "coordinates": [
     150.15604942,
     -33.48446803
    ]
   },
   "properties": {
    "name": "5 WARATAH STREET POTTERY ESTATE 2790",
    "locID": "LOC000100781083",
    "tech": "FTTN",
    "upgrade": "NULL_NA",
    "gnaf_pid": "GANSW706514933",
    "tech_change_status": "Not Planned"
   }
  },
  {
   "type": "Feature",
   "geometry": {
    "type": "Point",
    "coordinates": [
     150.15604618,
     -33.48454593
    ]
   },
   "properties": {
    "name": "3 WARATAH STREET POTTERY ESTATE 2790",
    "locID": "LOC000060750596",
    "tech": "FTTN",
    "upgrade": "NULL_NA",
    "gnaf_pid": "GANSW706514934",
    "tech_change_status": "Not Planned"
   }
  },
  {
   "type": "Feature",
   "geometry": {
    "type": "Point",
    "coordinates": [
     150.15277357,
     -33.48830247
    ]
   },
   "properties": {
    "name": "2 VALLEY DRIVE POTTERY ESTATE 2790",
    "locID": "LOC000014042144",
    "tech": "FTTC",
    "upgrade": "FTTP_SA",
    "gnaf_pid": "GANSW706514976",
    "tech_change_status": "Eligible to Order"
   }
  },
  {
   "type": "Feature",
   "geometry": {
    "type": "Point",
    "coordinates": [
     150.1560602,
     -33.48418353
    ]
   },
   "properties": {
    "name": "13 WARATAH STREET POTTERY ESTATE 2790",
    "locID": "LOC000032221057",
    "tech": "FTTN",
    "upgrade": "NULL_NA",
    "gnaf_pid": "GANSW706524467",
    "tech_change_status": "Not Planned"
   }
  },
  {
   "type": "Feature",
   "geometry": {
    "type": "Point",
    "coordinates": [
     150.15538444,
     -33.48415933
    ]
   },
   "properties": {
    "name": "12 WARATAH STREET POTTERY ESTATE 2790",
    "locID": "LOC000099965556",
    "tech": "FTTN",
    "upgrade": "NULL_NA",
    "gnaf_pid": "GANSW706524468",
    "tech_change_status": "Not Planned"
   }
  },
  {
   "type": "Feature",
   "geometry": {
    "type": "Point",
    "coordinates": [
     150.15605918,
     -33.4842506
    ]
   },
   "properties": {
    "name": "11 WARATAH STREET POTTERY ESTATE 2790",
    "locID": "LOC000040686652",
    "tech": "FTTN",
    "upgrade": "NULL_NA",
    "gnaf_pid": "GANSW706524469",
    "tech_change_status": "Not Planned"
   }
  },
  {
   "type": "Feature",
   "geometry": {
    "type": "Point",
    "coordinates": [
     150.15539994,
     -33.48426757
    ]
   },
   "properties": {
    "name": "10 WARATAH STREET POTTERY ESTATE 2790",
    "locID": "LOC000036375424",
    "tech": "FTTN",
    "upgrade": "NULL_NA",
    "gnaf_pid": "GANSW706524470",
    "tech_change_status": "Not Planned"
   }
  },
  {
   "type": "Feature",
   "geometry": {
    "type": "Point",
    "coordinates": [
     150.15605635,
     -33.48432205
    ]
   },
   "properties": {
    "name": "9 WARATAH STREET POTTERY ESTATE 2790",
    "locID": "LOC000049307984",
    "tech": "FTTN",
    "upgrade": "NULL_NA",
    "gnaf_pid": "GANSW706524486",
    "tech_change_status": "Not Planned"
   }
  },
  {
   "type": "Feature",
   "geometry": {
    "type": "Point",
    "coordinates": [
     150.15604247,
     -33.48462059
    ]
   },
   "properties": {
    "name": "1 WARATAH STREET POTTERY ESTATE 2790",
    "locID": "LOC000068721591",
    "tech": "FTTN",
    "upgrade": "NULL_NA",
    "gnaf_pid": "GANSW706542076",
    "tech_change_status": "Not Planned"
   }
  },
  {
   "type": "Feature",
   "geometry": {
    "type": "Point",
    "coordinates": [
     150.15577353,
     -33.48364116
    ]
   },
   "properties": {
    "name": "67 LETT STREET POTTERY ESTATE 2790",
    "locID": "LOC000122253776",
    "tech": "FTTN",
    "upgrade": "NULL_NA",
    "gnaf_pid": "GANSW706558237",
    "tech_change_status": "Not Planned"
   }
  },
  {
   "type": "Feature",
   "geometry": {
    "type": "Point",
    "coordinates": [
     150.15606206,
     -33.48389508
    ]
   },
   "properties": {
    "name": "25 WARATAH STREET POTTERY ESTATE 2790",
    "locID": "LOC000061257706",
    "tech": "FTTN",
    "upgrade": "NULL_NA",
    "gnaf_pid": "GANSW706559043",
    "tech_change_status": "Not Planned"
   }
  },
  {
   "type": "Feature",
   "geometry": {
    "type": "Point",
    "coordinates": [
     150.15606576,
     -33.48393845
    ]
   },
   "properties": {
    "name": "23 WARATAH STREET POTTERY ESTATE 2790",
    "locID": "LOC000068416746",
    "tech": "FTTN",
    "upgrade": "NULL_NA",
    "gnaf_pid": "GANSW706559044",
    "tech_change_status": "Not Planned"
   }
  },
  {
   "type": "Feature",
   "geometry": {
    "type": "Point",
    "coordinates": [
     150.15606419,
     -33.48398214
    ]
   },
   "properties": {
    "name": "21 WARATAH STREET POTTERY ESTATE 2790",
    "locID": "LOC000026370082",
    "tech": "FTTN",
    "upgrade": "NULL_NA",
    "gnaf_pid": "GANSW706559045",
    "tech_change_status": "Not Planned"
   }
  },
  {
   "type": "Feature",
   "geometry": {
    "type": "Point",
    "coordinates": [
     150.15544995,
     -33.48462052
    ]
   },
   "properties": {
    "name": "2 WARATAH STREET POTTERY ESTATE 2790",
    "locID": "LOC000108414512",
    "tech": "FTTN",
    "upgrade": "NULL_NA",
    "gnaf_pid": "GANSW706559046",
    "tech_change_status": "Not Planned"
   }
  },
  {
   "type": "Feature",
   "geometry": {
    "type": "Point",
    "coordinates": [
     150.15606283,
     -33.48402843
    ]
   },
   "properties": {
    "name": "19 WARATAH STREET POTTERY ESTATE 2790",
    "locID": "LOC000105340220",
    "tech": "FTTN",
    "upgrade": "NULL_NA",
    "gnaf_pid": "GANSW706559047",
    "tech_change_status": "Not Planned"
   }
  },
  {
   "type": "Feature",
   "geometry": {
    "type": "Point",
    "coordinates": [
     150.15536694,
     -33.48403509
    ]
   },
   "properties": {
    "name": "18 WARATAH STREET POTTERY ESTATE 2790",
    "locID": "LOC000008865493",
    "tech": "FTTN",
    "upgrade": "NULL_NA",
    "gnaf_pid": "GANSW706559048",
    "tech_change_status": "Not Planned"
   }
  },
  {
   "type": "Feature",
   "geometry": {
    "type": "Point",
    "coordinates": [
     150.15606161,
     -33.48407479
    ]
   },
   "properties": {
    "name": "17 WARATAH STREET POTTERY ESTATE 2790",
    "locID": "LOC000005445101",
    "tech": "FTTN",
    "upgrade": "NULL_NA",
    "gnaf_pid": "GANSW706559049",
    "tech_change_status": "Not Planned"
   }
  },
  {
   "type": "Feature",
   "geometry": {
    "type": "Point",
    "coordinates": [
     150.15606048,
     -33.48412294
    ]
   },
   "properties": {
    "name": "15 WARATAH STREET POTTERY ESTATE 2790",
    "locID": "LOC000033382118",
    "tech": "FTTN",
    "upgrade": "NULL_NA",
    "gnaf_pid": "GANSW706559050",
    "tech_change_status": "Not Planned"
   }
  },
  {
   "type": "Feature",
   "geometry": {
    "type": "Point",
    "coordinates": [
     150.15537919,
     -33.48412069
    ]
   },
   "properties": {
    "name": "14 WARATAH STREET POTTERY ESTATE 2790",
    "locID": "LOC000079468276",
    "tech": "FTTN",
    "upgrade": "NULL_NA",
    "gnaf_pid": "GANSW706559051",
    "tech_change_status": "Not Planned"
   }
  },
  {
   "type": "Feature",
   "geometry": {
    "type": "Point",
    "coordinates": [
     150.15547226,
     -33.48523117
    ]
   },
   "properties": {
    "name": "2 SILCOCK STREET POTTERY ESTATE 2790",
    "locID": "LOC000069042561",
    "tech": "FTTN",
    "upgrade": "NULL_NA",
    "gnaf_pid": "GANSW709982833",
    "tech_change_status": "Not Planned"
   }
  },
  {
   "type": "Feature",
   "geometry": {
    "type": "Point",
    "coordinates": [
     150.1547424,
     -33.489063
    ]
   },
   "properties": {
    "name": "25 SILCOCK STREET POTTERY ESTATE 2790",
    "locID": "LOC000086274760",
    "tech": "FTTN",
    "upgrade": "NULL_NA",
    "gnaf_pid": "GANSW709982834",
    "tech_change_status": "Not Planned"
   }
  },
  {
   "type": "Feature",
   "geometry": {
    "type": "Point",
    "coordinates": [
     150.15473005,
     -33.48895284
    ]
   },
   "properties": {
    "name": "23 SILCOCK STREET POTTERY ESTATE 2790",
    "locID": "LOC000003211800",
    "tech": "FTTN",
    "upgrade": "NULL_NA",
    "gnaf_pid": "GANSW709982835",
    "tech_change_status": "Not Planned"
   }
  },
  {
   "type": "Feature",
   "geometry": {
    "type": "Point",
    "coordinates": [
     150.15470029,
     -33.48850866
    ]
   },
   "properties": {
    "name": "17 SILCOCK STREET POTTERY ESTATE 2790",
    "locID": "LOC000186599202",
    "tech": "FTTN",
    "upgrade": "NULL_NA",
    "gnaf_pid": "GANSW709986783",
    "tech_change_status": "Not Planned"
   }
  },
  {
   "type": "Feature",
   "geometry": {
    "type": "Point",
    "coordinates": [
     150.15463089,
     -33.48806817
    ]
   },
   "properties": {
    "name": "9 SILCOCK STREET POTTERY ESTATE 2790",
    "locID": "LOC000108314548",
    "tech": "FTTN",
    "upgrade": "NULL_NA",
    "gnaf_pid": "GANSW709986784",
    "tech_change_status": "Not Planned"
   }
  },
  {
   "type": "Feature",
   "geometry": {
    "type": "Point",
    "coordinates": [
     150.15459422,
     -33.48774173
    ]
   },
   "properties": {
    "name": "3 SILCOCK STREET POTTERY ESTATE 2790",
    "locID": "LOC000013778942",
    "tech": "FTTN",
    "upgrade": "NULL_NA",
    "gnaf_pid": "GANSW709986785",
    "tech_change_status": "Not Planned"
   }
  },
  {
   "type": "Feature",
   "geometry": {
    "type": "Point",
    "coordinates": [
     150.15458206,
     -33.48763202
    ]
   },
   "properties": {
    "name": "1 SILCOCK STREET POTTERY ESTATE 2790",
    "locID": "LOC000062962726",
    "tech": "FTTN",
    "upgrade": "NULL_NA",
    "gnaf_pid": "GANSW709989997",
    "tech_change_status": "Not Planned"
   }
  },
  {
   "type": "Feature",
   "geometry": {
    "type": "Point",
    "coordinates": [
     150.15470554,
     -33.48873415
    ]
   },
   "properties": {
    "name": "19 SILCOCK STREET POTTERY ESTATE 2790",
    "locID": "LOC000014179100",
    "tech": "FTTN",
    "upgrade": "NULL_NA",
    "gnaf_pid": "GANSW709989998",
    "tech_change_status": "Not Planned"
   }
  },
  {
   "type": "Feature",
   "geometry": {
    "type": "Point",
    "coordinates": [
     150.15466939,
     -33.48841161
    ]
   },
   "properties": {
    "name": "15 SILCOCK STREET POTTERY ESTATE 2790",
    "locID": "LOC000094492932",
    "tech": "FTTN",
    "upgrade": "NULL_NA",
    "gnaf_pid": "GANSW709992991",
    "tech_change_status": "Not Planned"
   }
  },
  {
   "type": "Feature",
   "geometry": {
    "type": "Point",
    "coordinates": [
     150.15464421,
     -33.48818698
    ]
   },
   "properties": {
    "name": "11 SILCOCK STREET POTTERY ESTATE 2790",
    "locID": "LOC000017503805",
    "tech": "FTTN",
    "upgrade": "NULL_NA",
    "gnaf_pid": "GANSW709992992",
    "tech_change_status": "Not Planned"
   }
  },
  {
   "type": "Feature",
   "geometry": {
    "type": "Point",
    "coordinates": [
     150.15471782,
     -33.48884368
    ]
   },
   "properties": {
    "name": "21 SILCOCK STREET POTTERY ESTATE 2790",
    "locID": "LOC000093160172",
    "tech": "FTTN",
    "upgrade": "NULL_NA",
    "gnaf_pid": "GANSW709992993",
    "tech_change_status": "Not Planned"
   }
  },
  {
   "type": "Feature",
   "geometry": {
    "type": "Point",
    "coordinates": [
     150.15475595,
     -33.48918378
    ]
   },
   "properties": {
    "name": "27 SILCOCK STREET POTTERY ESTATE 2790",
    "locID": "LOC000069433544",
    "tech": "FTTN",
    "upgrade": "NULL_NA",
    "gnaf_pid": "GANSW709992994",
    "tech_change_status": "Not Planned"
   }
  },
  {
   "type": "Feature",
   "geometry": {
    "type": "Point",
    "coordinates": [
     150.15460658,
     -33.487851
    ]
   },
   "properties": {
    "name": "5 SILCOCK STREET POTTERY ESTATE 2790",
    "locID": "LOC000102986662",
    "tech": "FTTN",
    "upgrade": "NULL_NA",
    "gnaf_pid": "GANSW709992995",
    "tech_change_status": "Not Planned"
   }
  },
  {
   "type": "Feature",
   "geometry": {
    "type": "Point",
    "coordinates": [
     150.15465737,
     -33.48830444
    ]
   },
   "properties": {
    "name": "13 SILCOCK STREET POTTERY ESTATE 2790",
    "locID": "LOC000043560406",
    "tech": "FTTN",
    "upgrade": "NULL_NA",
    "gnaf_pid": "GANSW709992996",
    "tech_change_status": "Not Planned"
   }
  },
  {
   "type": "Feature",
   "geometry": {
    "type": "Point",
    "coordinates": [
     150.15589293,
     -33.48367627
    ]
   },
   "properties": {
    "name": "65 LETT STREET POTTERY ESTATE 2790",
    "locID": "LOC000115589712",
    "tech": "FTTN",
    "upgrade": "NULL_NA",
    "gnaf_pid": "GANSW715241146",
    "tech_change_status": "Not Planned"
   }
  },
  {
   "type": "Feature",
   "geometry": {
    "type": "Point",
    "coordinates": [
     150.15610492,
     -33.4836934
    ]
   },
   "properties": {
    "name": "61 LETT STREET POTTERY ESTATE 2790",
    "locID": "LOC000115585047",
    "tech": "FTTN",
    "upgrade": "NULL_NA",
    "gnaf_pid": "GANSW715241147",
    "tech_change_status": "Not Planned"
   }
  },
  {
   "type": "Feature",
   "geometry": {
    "type": "Point",
    "coordinates": [
     150.15481345,
     -33.48428056
    ]
   },
   "properties": {
    "name": "9 HASSAN STREET POTTERY ESTATE 2790",
    "locID": "LOC000051812314",
    "tech": "FTTN",
    "upgrade": "NULL_NA",
    "gnaf_pid": "GANSW715893185",
    "tech_change_status": "Not Planned"
   }
  },
  {
   "type": "Feature",
   "geometry": {
    "type": "Point",
    "coordinates": [
     150.15344802,
     -33.48462706
    ]
   },
   "properties": {
    "name": "5 LITHGOW STREET POTTERY ESTATE 2790",
    "locID": "LOC000053995957",
    "tech": "FTTN",
    "upgrade": "NULL_NA",
    "gnaf_pid": "GANSW715950523",
    "tech_change_status": "Not Planned"
   }
  },
  {
   "type": "Feature",
   "geometry": {
    "type": "Point",
    "coordinates": [
     150.15204308,
     -33.48860499
    ]
   },
   "properties": {
    "name": "3 VALLEY DRIVE POTTERY ESTATE 2790",
    "locID": "LOC000046076129",
    "tech": "FTTC",
    "upgrade": "FTTP_SA",
    "gnaf_pid": "GANSW716153327",
    "tech_change_status": "Eligible to Order"
   }
  },
  {
   "type": "Feature",
   "geometry": {
    "type": "Point",
    "coordinates": [
     150.15479383,
     -33.48413542
    ]
   },
   "properties": {
    "name": "15 HASSAN STREET POTTERY ESTATE 2790",
    "locID": "LOC000086198047",
    "tech": "FTTN",
    "upgrade": "NULL_NA",
    "gnaf_pid": "GANSW716400644",
    "tech_change_status": "Not Planned"
   }
  },
  {
   "type": "Feature",
   "geometry": {
    "type": "Point",
    "coordinates": [
     150.15482195,
     -33.48434205
    ]
   },
   "properties": {
    "name": "7 HASSAN STREET POTTERY ESTATE 2790",
    "locID": "LOC000097298841",
    "tech": "FTTN",
    "upgrade": "NULL_NA",
    "gnaf_pid": "GANSW716400647",
    "tech_change_status": "Not Planned"
   }
  },
  {
   "type": "Feature",
   "geometry": {
    "type": "Point",
    "coordinates": [
     150.15520512,
     -33.48738044
    ]
   },
   "properties": {
    "name": "14 SILCOCK STREET POTTERY ESTATE 2790",
    "locID": "LOC000071187559",
    "tech": "FTTN",
    "upgrade": "NULL_NA",
    "gnaf_pid": "GANSW716421971",
    "tech_change_status": "Not Planned"
   }
  },
  {
   "type": "Feature",
   "geometry": {
    "type": "Point",
    "coordinates": [
     150.15537394,
     -33.48408205
    ]
   },
   "properties": {
    "name": "16 WARATAH STREET POTTERY ESTATE 2790",
    "locID": "LOC000030457501",
    "tech": "FTTN",
    "upgrade": "NULL_NA",
    "gnaf_pid": "GANSW716428684",
    "tech_change_status": "Not Planned"
   }
  },
  {
   "type": "Feature",
   "geometry": {
    "type": "Point",
    "coordinates": [
     150.15535744,
     -33.48396607
    ]
   },
   "properties": {
    "name": "20 WARATAH STREET POTTERY ESTATE 2790",
    "locID": "LOC000072360149",
    "tech": "FTTN",
    "upgrade": "NULL_NA",
    "gnaf_pid": "GANSW716507662",
    "tech_change_status": "Not Planned"
   }
  },
  {
   "type": "Feature",
   "geometry": {
    "type": "Point",
    "coordinates": [
     150.15347847,
     -33.48478987
    ]
   },
   "properties": {
    "name": "1 LITHGOW STREET POTTERY ESTATE 2790",
    "locID": "LOC000091971634",
    "tech": "FTTN",
    "upgrade": "NULL_NA",
    "gnaf_pid": "GANSW716509217",
    "tech_change_status": "Not Planned"
   }
  },
  {
   "type": "Feature",
   "geometry": {
    "type": "Point",
    "coordinates": [
     150.15410796,
     -33.48460129
    ]
   },
   "properties": {
    "name": "6 HASSAN STREET POTTERY ESTATE 2790",
    "locID": "LOC000090462190",
    "tech": "FTTN",
    "upgrade": "NULL_NA",
    "gnaf_pid": "GANSW716512172",
    "tech_change_status": "Not Planned"
   }
  },
  {
   "type": "Feature",
   "geometry": {
    "type": "Point",
    "coordinates": [
     150.15475994,
     -33.4838948
    ]
   },
   "properties": {
    "name": "21 HASSAN STREET POTTERY ESTATE 2790",
    "locID": "LOC000047528535",
    "tech": "FTTN",
    "upgrade": "NULL_NA",
    "gnaf_pid": "GANSW716518101",
    "tech_change_status": "Not Planned"
   }
  },
  {
   "type": "Feature",
   "geometry": {
    "type": "Point",
    "coordinates": [
     150.15369365,
     -33.48390442
    ]
   },
   "properties": {
    "name": "31 LITHGOW STREET POTTERY ESTATE 2790",
    "locID": "LOC000122234698",
    "tech": "FTTN",
    "upgrade": "NULL_NA",
    "gnaf_pid": "GANSW716526255",
    "tech_change_status": "Not Planned"
   }
  },
  {
   "type": "Feature",
   "geometry": {
    "type": "Point",
    "coordinates": [
     150.15534394,
     -33.48387107
    ]
   },
   "properties": {
    "name": "22 WARATAH STREET POTTERY ESTATE 2790",
    "locID": "LOC000026381597",
    "tech": "FTTN",
    "upgrade": "NULL_NA",
    "gnaf_pid": "GANSW716541927",
    "tech_change_status": "Not Planned"
   }
  },
  {
   "type": "Feature",
   "geometry": {
    "type": "Point",
    "coordinates": [
     150.15477495,
     -33.48400285
    ]
   },
   "properties": {
    "name": "19 HASSAN STREET POTTERY ESTATE 2790",
    "locID": "LOC000047603877",
    "tech": "FTTN",
    "upgrade": "NULL_NA",
    "gnaf_pid": "GANSW716554493",
    "tech_change_status": "Not Planned"
   }
  },
  {
   "type": "Feature",
   "geometry": {
    "type": "Point",
    "coordinates": [
     150.15606048,
     -33.48412294
    ]
   },
   "properties": {
    "name": "UNIT 1, 15 WARATAH STREET POTTERY ESTATE 2790",
    "locID": "LOC000160345155",
    "tech": "FTTN",
    "upgrade": "NULL_NA",
    "gnaf_pid": "GANSW716567244",
    "tech_change_status": "Not Planned"
   }
  },
  {
   "type": "Feature",
   "geometry": {
    "type": "Point",
    "coordinates": [
     150.15606048,
     -33.48412294
    ]
   },
   "properties": {
    "name": "UNIT 2, 15 WARATAH STREET POTTERY ESTATE 2790",
    "locID": "LOC000160345155",
    "tech": "FTTN",
    "upgrade": "NULL_NA",
    "gnaf_pid": "GANSW716567245",
    "tech_change_status": "Not Planned"
   }
  },
  {
   "type": "Feature",
   "geometry": {
    "type": "Point",
    "coordinates": [
     150.15461864,
     -33.48795938
    ]
   },
   "properties": {
    "name": "7 SILCOCK STREET POTTERY ESTATE 2790",
    "locID": "LOC000109926883",
    "tech": "FTTN",
    "upgrade": "NULL_NA",
    "gnaf_pid": "GANSW716601871",
    "tech_change_status": "Not Planned"
   }
  },
  {
   "type": "Feature",
   "geometry": {
    "type": "Point",
    "coordinates": [
     150.15521087,
     -33.48779159
    ]
   },
   "properties": {
    "name": "18 SILCOCK STREET POTTERY ESTATE 2790",
    "locID": "LOC000069163821",
    "tech": "FTTN",
    "upgrade": "NULL_NA",
    "gnaf_pid": "GANSW717383675",
    "tech_change_status": "Not Planned"
   }
  },
  {
   "type": "Feature",
   "geometry": {
    "type": "Point",
    "coordinates": [
     150.155229,
     -33.48795094
    ]
   },
   "properties": {
    "name": "20 SILCOCK STREET POTTERY ESTATE 2790",
    "locID": "LOC000079763469",
    "tech": "FTTN",
    "upgrade": "NULL_NA",
    "gnaf_pid": "GANSW717383676",
    "tech_change_status": "Not Planned"
   }
  },
  {
   "type": "Feature",
   "geometry": {
    "type": "Point",
    "coordinates": [
     150.15524527,
     -33.48809387
    ]
   },
   "properties": {
    "name": "22 SILCOCK STREET POTTERY ESTATE 2790",
    "locID": "LOC000189495025",
    "tech": "FTTN",
    "upgrade": "NULL_NA",
    "gnaf_pid": "GANSW717383677",
    "tech_change_status": "Not Planned"
   }
  },
  {
   "type": "Feature",
   "geometry": {
    "type": "Point",
    "coordinates": [
     150.15526197,
     -33.48824055
    ]
   },
   "properties": {
    "name": "24 SILCOCK STREET POTTERY ESTATE 2790",
    "locID": "LOC100074417070",
    "tech": "FTTN",
    "upgrade": "NULL_NA",
    "gnaf_pid": "GANSW717383678",
    "tech_change_status": "Not Planned"
   }
  },
  {
   "type": "Feature",
   "geometry": {
    "type": "Point",
    "coordinates": [
     150.15527868,
     -33.48838724
    ]
   },
   "properties": {
    "name": "26 SILCOCK STREET POTTERY ESTATE 2790",
    "locID": "LOC100074417062",
    "tech": "FTTN",
    "upgrade": "NULL_NA",
    "gnaf_pid": "GANSW717383679",
    "tech_change_status": "Not Planned"
   }
  },
  {
   "type": "Feature",
   "geometry": {
    "type": "Point",
    "coordinates": [
     150.15529333,
     -33.48851655
    ]
   },
   "properties": {
    "name": "28 SILCOCK STREET POTTERY ESTATE 2790",
    "locID": "LOC000099579349",
    "tech": "FTTN",
    "upgrade": "NULL_NA",
    "gnaf_pid": "GANSW717383680",
    "tech_change_status": "Not Planned"
   }
  },
  {
   "type": "Feature",
   "geometry": {
    "type": "Point",
    "coordinates": [
     150.15530587,
     -33.48862677
    ]
   },
   "properties": {
    "name": "30 SILCOCK STREET POTTERY ESTATE 2790",
    "locID": "LOC000063869531",
    "tech": "FTTN",
    "upgrade": "NULL_NA",
    "gnaf_pid": "GANSW717383681",
    "tech_change_status": "Not Planned"
   }
  },
  {
   "type": "Feature",
   "geometry": {
    "type": "Point",
    "coordinates": [
     150.15531833,
     -33.48873562
    ]
   },
   "properties": {
    "name": "32 SILCOCK STREET POTTERY ESTATE 2790",
    "locID": "LOC000004173746",
    "tech": "FTTN",
    "upgrade": "NULL_NA",
    "gnaf_pid": "GANSW717383682",
    "tech_change_status": "Not Planned"
   }
  },
  {
   "type": "Feature",
   "geometry": {
    "type": "Point",
    "coordinates": [
     150.15533089,
     -33.48884587
    ]
   },
   "properties": {
    "name": "34 SILCOCK STREET POTTERY ESTATE 2790",
    "locID": "LOC000067453051",
    "tech": "FTTN",
    "upgrade": "NULL_NA",
    "gnaf_pid": "GANSW717383683",
    "tech_change_status": "Not Planned"
   }
  },
  {
   "type": "Feature",
   "geometry": {
    "type": "Point",
    "coordinates": [
     150.15395628,
     -33.48807398
    ]
   },
   "properties": {
    "name": "SHOP 1, 4 VALLEY DRIVE POTTERY ESTATE 2790",
    "locID": "LOC000085760261",
    "tech": "FTTC",
    "upgrade": "FTTP_NA",
    "gnaf_pid": "GANSW717385528",
    "tech_change_status": "MDU Complex Eligible To Apply"
   }
  },
  {
   "type": "Feature",
   "geometry": {
    "type": "Point",
    "coordinates": [
     150.15395628,
     -33.48807398
    ]
   },
   "properties": {
    "name": "SHOP 2, 4 VALLEY DRIVE POTTERY ESTATE 2790",
    "locID": "LOC000192301116",
    "tech": "FTTC",
    "upgrade": "FTTP_NA",
    "gnaf_pid": "GANSW717385529",
    "tech_change_status": "MDU Complex Eligible To Apply"
   }
  },
  {
   "type": "Feature",
   "geometry": {
    "type": "Point",
    "coordinates": [
     150.15395628,
     -33.48807398
    ]
   },
   "properties": {
    "name": "SHOP 3, 4 VALLEY DRIVE POTTERY ESTATE 2790",
    "locID": "LOC000085789271",
    "tech": "FTTC",
    "upgrade": "FTTP_NA",
    "gnaf_pid": "GANSW717385530",
    "tech_change_status": "MDU Complex Eligible To Apply"
   }
  },
  {
   "type": "Feature",
   "geometry": {
    "type": "Point",
    "coordinates": [
     150.15395628,
     -33.48807398
    ]
   },
   "properties": {
    "name": "SHOP 4, 4 VALLEY DRIVE POTTERY ESTATE 2790",
    "locID": "LOC000085787389",
    "tech": "FTTC",
    "upgrade": "FTTP_NA",
    "gnaf_pid": "GANSW717385531",
    "tech_change_status": "MDU Complex Eligible To Apply"
   }
  },
  {
   "type": "Feature",
   "geometry": {
    "type": "Point",
    "coordinates": [
     150.15395628,
     -33.48807398
    ]
   },
   "properties": {
    "name": "SHOP 5, 4 VALLEY DRIVE POTTERY ESTATE 2790",
    "locID": "LOC000085588381",
    "tech": "FTTC",
    "upgrade": "FTTP_NA",
    "gnaf_pid": "GANSW717385532",
    "tech_change_status": "MDU Complex Eligible To Apply"
   }
  },
  {
   "type": "Feature",
   "geometry": {
    "type": "Point",
    "coordinates": [
     150.15395628,
     -33.48807398
    ]
   },
   "properties": {
    "name": "SHOP 6, 4 VALLEY DRIVE POTTERY ESTATE 2790",
    "locID": "LOC000192301116",
    "tech": "FTTC",
    "upgrade": "FTTP_NA",
    "gnaf_pid": "GANSW717385533",
    "tech_change_status": "MDU Complex Eligible To Apply"
   }
  },
  {
   "type": "Feature",
   "geometry": {
    "type": "Point",
    "coordinates": [
     150.15395628,
     -33.48807398
    ]
   },
   "properties": {
    "name": "4 VALLEY DRIVE POTTERY ESTATE 2790",
    "locID": "LOC000085787389",
    "tech": "FTTC",
    "upgrade": "FTTP_NA",
    "gnaf_pid": "GANSW717385534",
    "tech_change_status": "MDU Complex Eligible To Apply"
   }
  },
  {
   "type": "Feature",
   "geometry": {
    "type": "Point",
    "coordinates": [
     150.15239495,
     -33.48876044
    ]
   },
   "properties": {
    "name": "1 VALLEY DRIVE POTTERY ESTATE 2790",
    "locID": "LOC000085760261",
    "tech": "FTTC",
    "upgrade": "FTTP_NA",
    "gnaf_pid": "GANSW717565129",
    "tech_change_status": "MDU Complex Eligible To Apply"
   }
  },
  {
   "type": "Feature",
   "geometry": {
    "type": "Point",
    "coordinates": [
     150.15530636,
     -33.48361288
    ]
   },
   "properties": {
    "name": "69 LETT STREET POTTERY ESTATE 2790",
    "locID": "LOC000122253814",
    "tech": "FTTN",
    "upgrade": "NULL_NA",
    "gnaf_pid": "GANSW717706943",
    "tech_change_status": "Not Planned"
   }
  },
  {
   "type": "Feature",
   "geometry": {
    "type": "Point",
    "coordinates": [
     150.15342618,
     -33.48448955
    ]
   },
   "properties": {
    "name": "9 LITHGOW STREET POTTERY ESTATE 2790",
    "locID": "LOC000122264231",
    "tech": "FTTN",
    "upgrade": "NULL_NA",
    "gnaf_pid": "GANSW717776060",
    "tech_change_status": "Not Planned"
   }
  },
  {
   "type": "Feature",
   "geometry": {
    "type": "Point",
    "coordinates": [
     150.1553497,
     -33.48496521
    ]
   },
   "properties": {
    "name": "69 BENT STREET POTTERY ESTATE 2790",
    "locID": "LOC000026824825",
    "tech": "FTTN",
    "upgrade": "NULL_NA",
    "gnaf_pid": "GANSW717916809",
    "tech_change_status": "Not Planned"
   }
  },
  {
   "type": "Feature",
   "geometry": {
    "type": "Point",
    "coordinates": [
     150.15594817,
     -33.48833353
    ]
   },
   "properties": {
    "name": "3 MANTLE STREET POTTERY ESTATE 2790",
    "locID": "LOC000187116951",
    "tech": "FTTN",
    "upgrade": "NULL_NA",
    "gnaf_pid": "GANSW718432837",
    "tech_change_status": "Not Planned"
   }
  },
  {
   "type": "Feature",
   "geometry": {
    "type": "Point",
    "coordinates": [
     150.15471288,
     -33.48861576
    ]
   },
   "properties": {
    "name": "17A SILCOCK STREET POTTERY ESTATE 2790",
    "locID": "LOC000186545769",
    "tech": "FTTN",
    "upgrade": "NULL_NA",
    "gnaf_pid": "GANSW718852985",
    "tech_change_status": "Not Planned"
   }
  },
  {
   "type": "Feature",
   "geometry": {
    "type": "Point",
    "coordinates": [
     150.15543969,
     -33.48454917
    ]
   },
   "properties": {
    "name": "4 WARATAH STREET POTTERY ESTATE 2790",
    "locID": "LOC000086860083",
    "tech": "FTTN",
    "upgrade": "NULL_NA",
    "gnaf_pid": "GANSW719180282",
    "tech_change_status": "Not Planned"
   }
  },
  {
   "type": "Feature",
   "geometry": {
    "type": "Point",
    "coordinates": [
     150.15552421,
     -33.48553624
    ]
   },
   "properties": {
    "name": "4 SILCOCK STREET POTTERY ESTATE 2790",
    "locID": "LOC000163004127",
    "tech": "FTTN",
    "upgrade": "NULL_NA",
    "gnaf_pid": "GANSW719235231",
    "tech_change_status": "Not Planned"
   }
  },
  {
   "type": "Feature",
   "geometry": {
    "type": "Point",
    "coordinates": [
     150.15340049,
     -33.48650471
    ]
   },
   "properties": {
    "name": "71 BENT STREET POTTERY ESTATE 2790",
    "locID": "LOC000188971637",
    "tech": "FTTN",
    "upgrade": "NULL_NA",
    "gnaf_pid": "GANSW719473784",
    "tech_change_status": "Not Planned"
   }
  },
  {
   "type": "Feature",
   "geometry": {
    "type": "Point",
    "coordinates": [
     150.1594391,
     -33.48692618
    ]
   },
   "properties": {
    "name": "4 COOK STREET POTTERY ESTATE 2790",
    "locID": "LOC100055376569",
    "tech": "NULL",
    "upgrade": "NULL_NA",
    "gnaf_pid": "GANSW721441563",
    "tech_change_status": "Not Planned"
   }
  },
  {
   "type": "Feature",
   "geometry": {
    "type": "Point",
    "coordinates": [
     150.15395628,
     -33.48807398
    ]
   },
   "properties": {
    "name": "SHOP 8, 4 VALLEY DRIVE POTTERY ESTATE 2790",
    "locID": "LOC000194100202",
    "tech": "FTTC",
    "upgrade": "FTTP_SA",
    "gnaf_pid": "GANSW721525792",
    "tech_change_status": "Eligible to Order"
   }
  }
 ]
}