{
 "type": "FeatureCollection",
 "generated": "2026-06-12T03:40:46.235938",
 "suburb": "RAWDON VALE",
 "features": [
  {
   "type": "Feature",
   "geometry": {
    "type": "Point",
    "coordinates": [
     151.70680103,
     -31.9885318
    ]
   },
   "properties": {
    "name": "932 RAWDON VALE ROAD RAWDON VALE 2422",
    "locID": "LOC000023292541",
    "tech": "SATELLITE",
    "upgrade": "NULL_NA",
    "gnaf_pid": "GANSW706532410",
    "tech_change_status": "Not Planned"
   }
  },
  {
   "type": "Feature",
   "geometry": {
    "type": "Point",
    "coordinates": [
     151.71225424,
     -31.9873835
    ]
   },
   "properties": {
    "name": "984 RAWDON VALE ROAD RAWDON VALE 2422",
    "locID": "LOC000069774945",
    "tech": "SATELLITE",
    "upgrade": "NULL_NA",
    "gnaf_pid": "GANSW712092430",
    "tech_change_status": "Not Planned"
   }
  },
  {
   "type": "Feature",
   "geometry": {
    "type": "Point",
    "coordinates": [
     151.68158652,
     -31.96571547
    ]
   },
   "properties": {
    "name": "366 BIGNELLS ROAD RAWDON VALE 2422",
    "locID": "LOC000087068034",
    "tech": "SATELLITE",
    "upgrade": "NULL_NA",
    "gnaf_pid": "GANSW712129880",
    "tech_change_status": "Not Planned"
   }
  },
  {
   "type": "Feature",
   "geometry": {
    "type": "Point",
    "coordinates": [
     151.70121089,
     -31.99247356
    ]
   },
   "properties": {
    "name": "35 MOPPY ROAD RAWDON VALE 2422",
    "locID": "LOC000089515814",
    "tech": "SATELLITE",
    "upgrade": "NULL_NA",
    "gnaf_pid": "GANSW717628060",
    "tech_change_status": "Not Planned"
   }
  },
  {
   "type": "Feature",
   "geometry": {
    "type": "Point",
    "coordinates": [
     151.69914782,
     -31.99055849
    ]
   },
   "properties": {
    "name": "70 MOPPY ROAD RAWDON VALE 2422",
    "locID": "LOC000142495170",
    "tech": "SATELLITE",
    "upgrade": "NULL_NA",
    "gnaf_pid": "GANSW717628061",
    "tech_change_status": "Not Planned"
   }
  },
  {
   "type": "Feature",
   "geometry": {
    "type": "Point",
    "coordinates": [
     151.70212699,
     -31.98841275
    ]
   },
   "properties": {
    "name": "915 RAWDON VALE ROAD RAWDON VALE 2422",
    "locID": "LOC100086130822",
    "tech": "NULL",
    "upgrade": "NULL_NA",
    "gnaf_pid": "GANSW721237748",
    "tech_change_status": "Not Planned"
   }
  }
 ]
}