{
 "type": "FeatureCollection",
 "generated": "2024-12-29T16:17:59.137676",
 "suburb": "RUSHES CREEK",
 "features": [
  {
   "type": "Feature",
   "geometry": {
    "type": "Point",
    "coordinates": [
     150.659896,
     -30.83561333
    ]
   },
   "properties": {
    "name": "121 GLENBROOK ROAD RUSHES CREEK 2346",
    "locID": "LOC000048776685",
    "tech": "WIRELESS",
    "upgrade": "NULL_NA",
    "gnaf_pid": "GANSW717463834",
    "tech_change_status": "Not Planned",
    "program_type": "Fixed Wireless and Satellite Upgrade Program",
    "target_eligibility_quarter": "NA"
   }
  },
  {
   "type": "Feature",
   "geometry": {
    "type": "Point",
    "coordinates": [
     150.64564264,
     -30.83170386
    ]
   },
   "properties": {
    "name": "302 GLENBROOK ROAD RUSHES CREEK 2346",
    "locID": "LOC000106173761",
    "tech": "WIRELESS",
    "upgrade": "NULL_NA",
    "gnaf_pid": "GANSW717476881",
    "tech_change_status": "Not Planned",
    "program_type": "Fixed Wireless and Satellite Upgrade Program",
    "target_eligibility_quarter": "NA"
   }
  },
  {
   "type": "Feature",
   "geometry": {
    "type": "Point",
    "coordinates": [
     150.64564264,
     -30.83170386
    ]
   },
   "properties": {
    "name": "78 GLENBROOK ROAD RUSHES CREEK 2346",
    "locID": "LOC000106173774",
    "tech": "WIRELESS",
    "upgrade": "NULL_NA",
    "gnaf_pid": "GANSW717476883",
    "tech_change_status": "Not Planned",
    "program_type": "Fixed Wireless and Satellite Upgrade Program",
    "target_eligibility_quarter": "NA"
   }
  },
  {
   "type": "Feature",
   "geometry": {
    "type": "Point",
    "coordinates": [
     150.62597106,
     -30.79664346
    ]
   },
   "properties": {
    "name": "148 MOYS LANE RUSHES CREEK 2346",
    "locID": "LOC000095815636",
    "tech": "NULL",
    "upgrade": "NULL_NA",
    "gnaf_pid": "GANSW717480799",
    "tech_change_status": "Not Planned"
   }
  },
  {
   "type": "Feature",
   "geometry": {
    "type": "Point",
    "coordinates": [
     150.62597106,
     -30.79664346
    ]
   },
   "properties": {
    "name": "191 MOYS LANE RUSHES CREEK 2346",
    "locID": "LOC000051818470",
    "tech": "SATELLITE",
    "upgrade": "NULL_NA",
    "gnaf_pid": "GANSW717480800",
    "tech_change_status": "Not Planned"
   }
  },
  {
   "type": "Feature",
   "geometry": {
    "type": "Point",
    "coordinates": [
     150.62597106,
     -30.79664346
    ]
   },
   "properties": {
    "name": "325 MOYS LANE RUSHES CREEK 2346",
    "locID": "LOC000008123599",
    "tech": "NULL",
    "upgrade": "NULL_NA",
    "gnaf_pid": "GANSW717480802",
    "tech_change_status": "Not Planned"
   }
  },
  {
   "type": "Feature",
   "geometry": {
    "type": "Point",
    "coordinates": [
     150.62597106,
     -30.79664346
    ]
   },
   "properties": {
    "name": "76 MOYS LANE RUSHES CREEK 2346",
    "locID": "LOC000025957324",
    "tech": "NULL",
    "upgrade": "NULL_NA",
    "gnaf_pid": "GANSW717480803",
    "tech_change_status": "Not Planned"
   }
  },
  {
   "type": "Feature",
   "geometry": {
    "type": "Point",
    "coordinates": [
     150.63523091,
     -30.77982808
    ]
   },
   "properties": {
    "name": "1022 RUSHES CREEK ROAD RUSHES CREEK 2346",
    "locID": "LOC000052790692",
    "tech": "NULL",
    "upgrade": "NULL_NA",
    "gnaf_pid": "GANSW717483693",
    "tech_change_status": "Not Planned"
   }
  },
  {
   "type": "Feature",
   "geometry": {
    "type": "Point",
    "coordinates": [
     150.63348545,
     -30.77423722
    ]
   },
   "properties": {
    "name": "1028 RUSHES CREEK ROAD RUSHES CREEK 2346",
    "locID": "LOC000085206694",
    "tech": "NULL",
    "upgrade": "NULL_NA",
    "gnaf_pid": "GANSW717483694",
    "tech_change_status": "Not Planned"
   }
  },
  {
   "type": "Feature",
   "geometry": {
    "type": "Point",
    "coordinates": [
     150.619703,
     -30.77882759
    ]
   },
   "properties": {
    "name": "1152 RUSHES CREEK ROAD RUSHES CREEK 2346",
    "locID": "LOC000087897955",
    "tech": "SATELLITE",
    "upgrade": "NULL_NA",
    "gnaf_pid": "GANSW717483696",
    "tech_change_status": "Not Planned"
   }
  },
  {
   "type": "Feature",
   "geometry": {
    "type": "Point",
    "coordinates": [
     150.61608159,
     -30.77679705
    ]
   },
   "properties": {
    "name": "1194 RUSHES CREEK ROAD RUSHES CREEK 2346",
    "locID": "LOC000053647998",
    "tech": "NULL",
    "upgrade": "NULL_NA",
    "gnaf_pid": "GANSW717483697",
    "tech_change_status": "Not Planned"
   }
  },
  {
   "type": "Feature",
   "geometry": {
    "type": "Point",
    "coordinates": [
     150.60306229,
     -30.80013557
    ]
   },
   "properties": {
    "name": "1435 RUSHES CREEK ROAD RUSHES CREEK 2346",
    "locID": "LOC000042031616",
    "tech": "NULL",
    "upgrade": "NULL_NA",
    "gnaf_pid": "GANSW717483699",
    "tech_change_status": "Not Planned"
   }
  },
  {
   "type": "Feature",
   "geometry": {
    "type": "Point",
    "coordinates": [
     150.60000539,
     -30.81470576
    ]
   },
   "properties": {
    "name": "1582 RUSHES CREEK ROAD RUSHES CREEK 2346",
    "locID": "LOC000033126985",
    "tech": "SATELLITE",
    "upgrade": "NULL_NA",
    "gnaf_pid": "GANSW717483700",
    "tech_change_status": "Not Planned"
   }
  },
  {
   "type": "Feature",
   "geometry": {
    "type": "Point",
    "coordinates": [
     150.64497197,
     -30.78344506
    ]
   },
   "properties": {
    "name": "915 RUSHES CREEK ROAD RUSHES CREEK 2346",
    "locID": "LOC000062684818",
    "tech": "NULL",
    "upgrade": "NULL_NA",
    "gnaf_pid": "GANSW717483707",
    "tech_change_status": "Not Planned"
   }
  },
  {
   "type": "Feature",
   "geometry": {
    "type": "Point",
    "coordinates": [
     150.64375106,
     -30.77811001
    ]
   },
   "properties": {
    "name": "962 RUSHES CREEK ROAD RUSHES CREEK 2346",
    "locID": "LOC000068379224",
    "tech": "SATELLITE",
    "upgrade": "NULL_NA",
    "gnaf_pid": "GANSW717483708",
    "tech_change_status": "Not Planned"
   }
  },
  {
   "type": "Feature",
   "geometry": {
    "type": "Point",
    "coordinates": [
     150.67539109,
     -30.80073009
    ]
   },
   "properties": {
    "name": "268 SHERWOOD ROAD RUSHES CREEK 2346",
    "locID": "LOC000073106015",
    "tech": "WIRELESS",
    "upgrade": "NULL_NA",
    "gnaf_pid": "GANSW717484102",
    "tech_change_status": "Not Planned",
    "program_type": "Fixed Wireless and Satellite Upgrade Program",
    "target_eligibility_quarter": "NA"
   }
  },
  {
   "type": "Feature",
   "geometry": {
    "type": "Point",
    "coordinates": [
     150.68062288,
     -30.81339684
    ]
   },
   "properties": {
    "name": "405 SHERWOOD ROAD RUSHES CREEK 2346",
    "locID": "LOC000099762956",
    "tech": "WIRELESS",
    "upgrade": "NULL_NA",
    "gnaf_pid": "GANSW717484103",
    "tech_change_status": "Not Planned",
    "program_type": "Fixed Wireless and Satellite Upgrade Program",
    "target_eligibility_quarter": "NA"
   }
  },
  {
   "type": "Feature",
   "geometry": {
    "type": "Point",
    "coordinates": [
     150.66780113,
     -30.82740464
    ]
   },
   "properties": {
    "name": "558 SHERWOOD ROAD RUSHES CREEK 2346",
    "locID": "LOC000020989304",
    "tech": "WIRELESS",
    "upgrade": "NULL_NA",
    "gnaf_pid": "GANSW717484104",
    "tech_change_status": "Not Planned",
    "program_type": "Fixed Wireless and Satellite Upgrade Program",
    "target_eligibility_quarter": "NA"
   }
  },
  {
   "type": "Feature",
   "geometry": {
    "type": "Point",
    "coordinates": [
     150.66995325,
     -30.84210456
    ]
   },
   "properties": {
    "name": "709 SHERWOOD ROAD RUSHES CREEK 2346",
    "locID": "LOC000051745083",
    "tech": "WIRELESS",
    "upgrade": "NULL_NA",
    "gnaf_pid": "GANSW717484105",
    "tech_change_status": "Not Planned",
    "program_type": "Fixed Wireless and Satellite Upgrade Program",
    "target_eligibility_quarter": "NA"
   }
  },
  {
   "type": "Feature",
   "geometry": {
    "type": "Point",
    "coordinates": [
     150.6059022,
     -30.79126521
    ]
   },
   "properties": {
    "name": "147 ALDERFORD ROAD RUSHES CREEK 2346",
    "locID": "LOC000004938192",
    "tech": "NULL",
    "upgrade": "NULL_NA",
    "gnaf_pid": "GANSW717790716",
    "tech_change_status": "Not Planned"
   }
  },
  {
   "type": "Feature",
   "geometry": {
    "type": "Point",
    "coordinates": [
     150.58108977,
     -30.79622695
    ]
   },
   "properties": {
    "name": "240 SKI GARDENS ROAD RUSHES CREEK 2346",
    "locID": "LOC000108550224",
    "tech": "NULL",
    "upgrade": "NULL_NA",
    "gnaf_pid": "GANSW717833311",
    "tech_change_status": "Not Planned"
   }
  },
  {
   "type": "Feature",
   "geometry": {
    "type": "Point",
    "coordinates": [
     150.58640077,
     -30.80118696
    ]
   },
   "properties": {
    "name": "373 SKI GARDENS ROAD RUSHES CREEK 2346",
    "locID": "LOC100085344608",
    "tech": "SATELLITE",
    "upgrade": "NULL_NA",
    "gnaf_pid": "GANSW717833312",
    "tech_change_status": "Not Planned"
   }
  },
  {
   "type": "Feature",
   "geometry": {
    "type": "Point",
    "coordinates": [
     150.64564264,
     -30.83170386
    ]
   },
   "properties": {
    "name": "718 GLENBROOK ROAD RUSHES CREEK 2346",
    "locID": "LOC000115488068",
    "tech": "WIRELESS",
    "upgrade": "NULL_NA",
    "gnaf_pid": "GANSW718240973",
    "tech_change_status": "Not Planned",
    "program_type": "Fixed Wireless and Satellite Upgrade Program",
    "target_eligibility_quarter": "NA"
   }
  },
  {
   "type": "Feature",
   "geometry": {
    "type": "Point",
    "coordinates": [
     150.59424471,
     -30.85325711
    ]
   },
   "properties": {
    "name": "61 RUSHES CREEK ROAD RUSHES CREEK 2346",
    "locID": "LOC000029818745",
    "tech": "WIRELESS",
    "upgrade": "NULL_NA",
    "gnaf_pid": "GANSW718244225",
    "tech_change_status": "Not Planned",
    "program_type": "Fixed Wireless and Satellite Upgrade Program",
    "target_eligibility_quarter": "NA"
   }
  },
  {
   "type": "Feature",
   "geometry": {
    "type": "Point",
    "coordinates": [
     150.66771074,
     -30.83839933
    ]
   },
   "properties": {
    "name": "688 SHERWOOD ROAD RUSHES CREEK 2346",
    "locID": "LOC000142542060",
    "tech": "WIRELESS",
    "upgrade": "NULL_NA",
    "gnaf_pid": "GANSW718509086",
    "tech_change_status": "Not Planned",
    "program_type": "Fixed Wireless and Satellite Upgrade Program",
    "target_eligibility_quarter": "NA"
   }
  }
 ]
}