{
 "type": "FeatureCollection",
 "generated": "2024-11-19T14:03:43.845365",
 "suburb": "SADDLEBACK MOUNTAIN",
 "features": [
  {
   "type": "Feature",
   "geometry": {
    "type": "Point",
    "coordinates": [
     150.78715709,
     -34.6910322
    ]
   },
   "properties": {
    "name": "482 FOUNTAINDALE ROAD SADDLEBACK MOUNTAIN 2533",
    "locID": "LOC000029650738",
    "tech": "SATELLITE",
    "upgrade": "WIRELESS",
    "gnaf_pid": "GANSW705808368",
    "tech_change_status": "Eligible to Order",
    "program_type": "Fixed Wireless and Satellite Upgrade Program",
    "target_eligibility_quarter": "NA"
   }
  },
  {
   "type": "Feature",
   "geometry": {
    "type": "Point",
    "coordinates": [
     150.79244508,
     -34.69454303
    ]
   },
   "properties": {
    "name": "537 FOUNTAINDALE ROAD SADDLEBACK MOUNTAIN 2533",
    "locID": "LOC000081294028",
    "tech": "WIRELESS",
    "upgrade": "NULL_NA",
    "gnaf_pid": "GANSW705808369",
    "tech_change_status": "Not Planned",
    "program_type": "Fixed Wireless and Satellite Upgrade Program",
    "target_eligibility_quarter": "NA"
   }
  },
  {
   "type": "Feature",
   "geometry": {
    "type": "Point",
    "coordinates": [
     150.79762712,
     -34.69485884
    ]
   },
   "properties": {
    "name": "565 FOUNTAINDALE ROAD SADDLEBACK MOUNTAIN 2533",
    "locID": "LOC000038148415",
    "tech": "WIRELESS",
    "upgrade": "NULL_NA",
    "gnaf_pid": "GANSW705808370",
    "tech_change_status": "Not Planned",
    "program_type": "Fixed Wireless and Satellite Upgrade Program",
    "target_eligibility_quarter": "NA"
   }
  },
  {
   "type": "Feature",
   "geometry": {
    "type": "Point",
    "coordinates": [
     150.82705708,
     -34.69087089
    ]
   },
   "properties": {
    "name": "237 SADDLEBACK MOUNTAIN ROAD SADDLEBACK MOUNTAIN 2533",
    "locID": "LOC000024759977",
    "tech": "WIRELESS",
    "upgrade": "NULL_NA",
    "gnaf_pid": "GANSW705808371",
    "tech_change_status": "Not Planned",
    "program_type": "Fixed Wireless and Satellite Upgrade Program",
    "target_eligibility_quarter": "NA"
   }
  },
  {
   "type": "Feature",
   "geometry": {
    "type": "Point",
    "coordinates": [
     150.82338907,
     -34.6913906
    ]
   },
   "properties": {
    "name": "271 SADDLEBACK MOUNTAIN ROAD SADDLEBACK MOUNTAIN 2533",
    "locID": "LOC000037043005",
    "tech": "WIRELESS",
    "upgrade": "NULL_NA",
    "gnaf_pid": "GANSW705808372",
    "tech_change_status": "Not Planned",
    "program_type": "Fixed Wireless and Satellite Upgrade Program",
    "target_eligibility_quarter": "NA"
   }
  },
  {
   "type": "Feature",
   "geometry": {
    "type": "Point",
    "coordinates": [
     150.82209914,
     -34.69309499
    ]
   },
   "properties": {
    "name": "287 SADDLEBACK MOUNTAIN ROAD SADDLEBACK MOUNTAIN 2533",
    "locID": "LOC000031301252",
    "tech": "WIRELESS",
    "upgrade": "NULL_NA",
    "gnaf_pid": "GANSW705808373",
    "tech_change_status": "Eligible to Order",
    "program_type": "Fixed Wireless and Satellite Upgrade Program",
    "target_eligibility_quarter": "NA"
   }
  },
  {
   "type": "Feature",
   "geometry": {
    "type": "Point",
    "coordinates": [
     150.81987733,
     -34.69317725
    ]
   },
   "properties": {
    "name": "309 SADDLEBACK MOUNTAIN ROAD SADDLEBACK MOUNTAIN 2533",
    "locID": "LOC000012883812",
    "tech": "WIRELESS",
    "upgrade": "NULL_NA",
    "gnaf_pid": "GANSW705808374",
    "tech_change_status": "Not Planned",
    "program_type": "Fixed Wireless and Satellite Upgrade Program",
    "target_eligibility_quarter": "NA"
   }
  },
  {
   "type": "Feature",
   "geometry": {
    "type": "Point",
    "coordinates": [
     150.792513,
     -34.70372824
    ]
   },
   "properties": {
    "name": "109 WILLIAMS ROAD SADDLEBACK MOUNTAIN 2533",
    "locID": "LOC000099011354",
    "tech": "WIRELESS",
    "upgrade": "NULL_NA",
    "gnaf_pid": "GANSW705808386",
    "tech_change_status": "Not Planned",
    "program_type": "Fixed Wireless and Satellite Upgrade Program",
    "target_eligibility_quarter": "NA"
   }
  },
  {
   "type": "Feature",
   "geometry": {
    "type": "Point",
    "coordinates": [
     150.81714685,
     -34.69682057
    ]
   },
   "properties": {
    "name": "373 SADDLEBACK MOUNTAIN ROAD SADDLEBACK MOUNTAIN 2533",
    "locID": "LOC000191665212",
    "tech": "WIRELESS",
    "upgrade": "NULL_NA",
    "gnaf_pid": "GANSW705842114",
    "tech_change_status": "Not Planned",
    "program_type": "Fixed Wireless and Satellite Upgrade Program",
    "target_eligibility_quarter": "NA"
   }
  },
  {
   "type": "Feature",
   "geometry": {
    "type": "Point",
    "coordinates": [
     150.81171988,
     -34.70016698
    ]
   },
   "properties": {
    "name": "434 SADDLEBACK MOUNTAIN ROAD SADDLEBACK MOUNTAIN 2533",
    "locID": "LOC000093345579",
    "tech": "WIRELESS",
    "upgrade": "NULL_NA",
    "gnaf_pid": "GANSW705842117",
    "tech_change_status": "Not Planned",
    "program_type": "Fixed Wireless and Satellite Upgrade Program",
    "target_eligibility_quarter": "NA"
   }
  },
  {
   "type": "Feature",
   "geometry": {
    "type": "Point",
    "coordinates": [
     150.79801073,
     -34.699344
    ]
   },
   "properties": {
    "name": "559 SADDLEBACK MOUNTAIN ROAD SADDLEBACK MOUNTAIN 2533",
    "locID": "LOC000017150711",
    "tech": "WIRELESS",
    "upgrade": "NULL_NA",
    "gnaf_pid": "GANSW705852404",
    "tech_change_status": "Not Planned",
    "program_type": "Fixed Wireless and Satellite Upgrade Program",
    "target_eligibility_quarter": "NA"
   }
  },
  {
   "type": "Feature",
   "geometry": {
    "type": "Point",
    "coordinates": [
     150.79235816,
     -34.69932172
    ]
   },
   "properties": {
    "name": "630 SADDLEBACK MOUNTAIN ROAD SADDLEBACK MOUNTAIN 2533",
    "locID": "LOC100075733716",
    "tech": "WIRELESS",
    "upgrade": "NULL_NA",
    "gnaf_pid": "GANSW705852405",
    "tech_change_status": "Not Planned",
    "program_type": "Fixed Wireless and Satellite Upgrade Program",
    "target_eligibility_quarter": "NA"
   }
  },
  {
   "type": "Feature",
   "geometry": {
    "type": "Point",
    "coordinates": [
     150.80476398,
     -34.70096113
    ]
   },
   "properties": {
    "name": "13 WILLIAMS ROAD SADDLEBACK MOUNTAIN 2533",
    "locID": "LOC000088513899",
    "tech": "WIRELESS",
    "upgrade": "NULL_NA",
    "gnaf_pid": "GANSW705852408",
    "tech_change_status": "Not Planned",
    "program_type": "Fixed Wireless and Satellite Upgrade Program",
    "target_eligibility_quarter": "NA"
   }
  },
  {
   "type": "Feature",
   "geometry": {
    "type": "Point",
    "coordinates": [
     150.79127015,
     -34.70137107
    ]
   },
   "properties": {
    "name": "139 WILLIAMS ROAD SADDLEBACK MOUNTAIN 2533",
    "locID": "LOC000004832458",
    "tech": "SATELLITE",
    "upgrade": "WIRELESS",
    "gnaf_pid": "GANSW705852409",
    "tech_change_status": "Eligible to Order",
    "program_type": "Fixed Wireless and Satellite Upgrade Program",
    "target_eligibility_quarter": "NA"
   }
  },
  {
   "type": "Feature",
   "geometry": {
    "type": "Point",
    "coordinates": [
     150.79050091,
     -34.70310225
    ]
   },
   "properties": {
    "name": "155 WILLIAMS ROAD SADDLEBACK MOUNTAIN 2533",
    "locID": "LOC000072380828",
    "tech": "WIRELESS",
    "upgrade": "NULL_NA",
    "gnaf_pid": "GANSW705852410",
    "tech_change_status": "Not Planned",
    "program_type": "Fixed Wireless and Satellite Upgrade Program",
    "target_eligibility_quarter": "NA"
   }
  },
  {
   "type": "Feature",
   "geometry": {
    "type": "Point",
    "coordinates": [
     150.78909884,
     -34.70032648
    ]
   },
   "properties": {
    "name": "156 WILLIAMS ROAD SADDLEBACK MOUNTAIN 2533",
    "locID": "LOC000159676132",
    "tech": "WIRELESS",
    "upgrade": "NULL_NA",
    "gnaf_pid": "GANSW705852411",
    "tech_change_status": "Not Planned",
    "program_type": "Fixed Wireless and Satellite Upgrade Program",
    "target_eligibility_quarter": "NA"
   }
  },
  {
   "type": "Feature",
   "geometry": {
    "type": "Point",
    "coordinates": [
     150.78848327,
     -34.70197028
    ]
   },
   "properties": {
    "name": "157 WILLIAMS ROAD SADDLEBACK MOUNTAIN 2533",
    "locID": "LOC000017938393",
    "tech": "WIRELESS",
    "upgrade": "NULL_NA",
    "gnaf_pid": "GANSW705852412",
    "tech_change_status": "Not Planned",
    "program_type": "Fixed Wireless and Satellite Upgrade Program",
    "target_eligibility_quarter": "NA"
   }
  },
  {
   "type": "Feature",
   "geometry": {
    "type": "Point",
    "coordinates": [
     150.78806297,
     -34.69957946
    ]
   },
   "properties": {
    "name": "158 WILLIAMS ROAD SADDLEBACK MOUNTAIN 2533",
    "locID": "LOC000044661863",
    "tech": "SATELLITE",
    "upgrade": "WIRELESS",
    "gnaf_pid": "GANSW705852413",
    "tech_change_status": "Eligible to Order",
    "program_type": "Fixed Wireless and Satellite Upgrade Program",
    "target_eligibility_quarter": "NA"
   }
  },
  {
   "type": "Feature",
   "geometry": {
    "type": "Point",
    "coordinates": [
     150.78636637,
     -34.69893278
    ]
   },
   "properties": {
    "name": "160 WILLIAMS ROAD SADDLEBACK MOUNTAIN 2533",
    "locID": "LOC000040918459",
    "tech": "WIRELESS",
    "upgrade": "NULL_NA",
    "gnaf_pid": "GANSW705852414",
    "tech_change_status": "Not Planned",
    "program_type": "Fixed Wireless and Satellite Upgrade Program",
    "target_eligibility_quarter": "NA"
   }
  },
  {
   "type": "Feature",
   "geometry": {
    "type": "Point",
    "coordinates": [
     150.80124535,
     -34.70259416
    ]
   },
   "properties": {
    "name": "39 WILLIAMS ROAD SADDLEBACK MOUNTAIN 2533",
    "locID": "LOC000016191274",
    "tech": "WIRELESS",
    "upgrade": "NULL_NA",
    "gnaf_pid": "GANSW705852415",
    "tech_change_status": "Not Planned",
    "program_type": "Fixed Wireless and Satellite Upgrade Program",
    "target_eligibility_quarter": "NA"
   }
  },
  {
   "type": "Feature",
   "geometry": {
    "type": "Point",
    "coordinates": [
     150.80025546,
     -34.70237821
    ]
   },
   "properties": {
    "name": "49 WILLIAMS ROAD SADDLEBACK MOUNTAIN 2533",
    "locID": "LOC000080673798",
    "tech": "WIRELESS",
    "upgrade": "NULL_NA",
    "gnaf_pid": "GANSW705852416",
    "tech_change_status": "Not Planned",
    "program_type": "Fixed Wireless and Satellite Upgrade Program",
    "target_eligibility_quarter": "NA"
   }
  },
  {
   "type": "Feature",
   "geometry": {
    "type": "Point",
    "coordinates": [
     150.79828477,
     -34.70235781
    ]
   },
   "properties": {
    "name": "55 WILLIAMS ROAD SADDLEBACK MOUNTAIN 2533",
    "locID": "LOC000077649946",
    "tech": "WIRELESS",
    "upgrade": "NULL_NA",
    "gnaf_pid": "GANSW705852417",
    "tech_change_status": "Not Planned",
    "program_type": "Fixed Wireless and Satellite Upgrade Program",
    "target_eligibility_quarter": "NA"
   }
  },
  {
   "type": "Feature",
   "geometry": {
    "type": "Point",
    "coordinates": [
     150.79538999,
     -34.7033197
    ]
   },
   "properties": {
    "name": "77 WILLIAMS ROAD SADDLEBACK MOUNTAIN 2533",
    "locID": "LOC000089738074",
    "tech": "WIRELESS",
    "upgrade": "NULL_NA",
    "gnaf_pid": "GANSW705852418",
    "tech_change_status": "Not Planned",
    "program_type": "Fixed Wireless and Satellite Upgrade Program",
    "target_eligibility_quarter": "NA"
   }
  },
  {
   "type": "Feature",
   "geometry": {
    "type": "Point",
    "coordinates": [
     150.79632634,
     -34.70120819
    ]
   },
   "properties": {
    "name": "93 WILLIAMS ROAD SADDLEBACK MOUNTAIN 2533",
    "locID": "LOC000032940906",
    "tech": "WIRELESS",
    "upgrade": "NULL_NA",
    "gnaf_pid": "GANSW705852419",
    "tech_change_status": "Not Planned",
    "program_type": "Fixed Wireless and Satellite Upgrade Program",
    "target_eligibility_quarter": "NA"
   }
  },
  {
   "type": "Feature",
   "geometry": {
    "type": "Point",
    "coordinates": [
     150.80509925,
     -34.69711914
    ]
   },
   "properties": {
    "name": "47 WILSONS ROAD SADDLEBACK MOUNTAIN 2533",
    "locID": "LOC000008136510",
    "tech": "WIRELESS",
    "upgrade": "NULL_NA",
    "gnaf_pid": "GANSW705852420",
    "tech_change_status": "Not Planned",
    "program_type": "Fixed Wireless and Satellite Upgrade Program",
    "target_eligibility_quarter": "NA"
   }
  },
  {
   "type": "Feature",
   "geometry": {
    "type": "Point",
    "coordinates": [
     150.7926092,
     -34.7016614
    ]
   },
   "properties": {
    "name": "127 WILLIAMS ROAD SADDLEBACK MOUNTAIN 2533",
    "locID": "LOC000025943366",
    "tech": "WIRELESS",
    "upgrade": "NULL_NA",
    "gnaf_pid": "GANSW706518820",
    "tech_change_status": "Not Planned",
    "program_type": "Fixed Wireless and Satellite Upgrade Program",
    "target_eligibility_quarter": "NA"
   }
  },
  {
   "type": "Feature",
   "geometry": {
    "type": "Point",
    "coordinates": [
     150.82164224,
     -34.69946447
    ]
   },
   "properties": {
    "name": "311 SADDLEBACK MOUNTAIN ROAD SADDLEBACK MOUNTAIN 2533",
    "locID": "LOC000027228434",
    "tech": "SATELLITE",
    "upgrade": "WIRELESS",
    "gnaf_pid": "GANSW706532248",
    "tech_change_status": "Eligible to Order",
    "program_type": "Fixed Wireless and Satellite Upgrade Program",
    "target_eligibility_quarter": "NA"
   }
  },
  {
   "type": "Feature",
   "geometry": {
    "type": "Point",
    "coordinates": [
     150.79023153,
     -34.6922663
    ]
   },
   "properties": {
    "name": "513 FOUNTAINDALE ROAD SADDLEBACK MOUNTAIN 2533",
    "locID": "LOC000048219931",
    "tech": "WIRELESS",
    "upgrade": "NULL_NA",
    "gnaf_pid": "GANSW707603153",
    "tech_change_status": "Not Planned",
    "program_type": "Fixed Wireless and Satellite Upgrade Program",
    "target_eligibility_quarter": "NA"
   }
  },
  {
   "type": "Feature",
   "geometry": {
    "type": "Point",
    "coordinates": [
     150.81019354,
     -34.69686884
    ]
   },
   "properties": {
    "name": "50 WILSONS ROAD SADDLEBACK MOUNTAIN 2533",
    "locID": "LOC000047112473",
    "tech": "WIRELESS",
    "upgrade": "NULL_NA",
    "gnaf_pid": "GANSW712448115",
    "tech_change_status": "Not Planned",
    "program_type": "Fixed Wireless and Satellite Upgrade Program",
    "target_eligibility_quarter": "NA"
   }
  },
  {
   "type": "Feature",
   "geometry": {
    "type": "Point",
    "coordinates": [
     150.80590832,
     -34.69912517
    ]
   },
   "properties": {
    "name": "486 SADDLEBACK MOUNTAIN ROAD SADDLEBACK MOUNTAIN 2533",
    "locID": "LOC000099715795",
    "tech": "WIRELESS",
    "upgrade": "NULL_NA",
    "gnaf_pid": "GANSW712448136",
    "tech_change_status": "Not Planned",
    "program_type": "Fixed Wireless and Satellite Upgrade Program",
    "target_eligibility_quarter": "NA"
   }
  },
  {
   "type": "Feature",
   "geometry": {
    "type": "Point",
    "coordinates": [
     150.82164224,
     -34.69946447
    ]
   },
   "properties": {
    "name": "UNIT 2, 311 SADDLEBACK MOUNTAIN ROAD SADDLEBACK MOUNTAIN 2533",
    "locID": "LOC000150892431",
    "tech": "WIRELESS",
    "upgrade": "NULL_NA",
    "gnaf_pid": "GANSW718578489",
    "tech_change_status": "Not Planned",
    "program_type": "Fixed Wireless and Satellite Upgrade Program",
    "target_eligibility_quarter": "NA"
   }
  },
  {
   "type": "Feature",
   "geometry": {
    "type": "Point",
    "coordinates": [
     150.7852146,
     -34.68880876
    ]
   },
   "properties": {
    "name": "31 NUNINUNA DRIVE SADDLEBACK MOUNTAIN 2533",
    "locID": "LOC100078112176",
    "tech": "WIRELESS",
    "upgrade": "NULL_NA",
    "gnaf_pid": "GANSW719364319",
    "tech_change_status": "Not Planned",
    "program_type": "Fixed Wireless and Satellite Upgrade Program",
    "target_eligibility_quarter": "NA"
   }
  },
  {
   "type": "Feature",
   "geometry": {
    "type": "Point",
    "coordinates": [
     150.80921384,
     -34.69732035
    ]
   },
   "properties": {
    "name": "88 WILSONS ROAD SADDLEBACK MOUNTAIN 2533",
    "locID": "LOC000175184951",
    "tech": "WIRELESS",
    "upgrade": "NULL_NA",
    "gnaf_pid": "GANSW720393796",
    "tech_change_status": "Not Planned",
    "program_type": "Fixed Wireless and Satellite Upgrade Program",
    "target_eligibility_quarter": "NA"
   }
  },
  {
   "type": "Feature",
   "geometry": {
    "type": "Point",
    "coordinates": [
     150.7965938,
     -34.70087889
    ]
   },
   "properties": {
    "name": "144 WILLIAMS ROAD SADDLEBACK MOUNTAIN 2533",
    "locID": "LOC000182062722",
    "tech": "WIRELESS",
    "upgrade": "NULL_NA",
    "gnaf_pid": "GANSW721007882",
    "tech_change_status": "Not Planned",
    "program_type": "Fixed Wireless and Satellite Upgrade Program",
    "target_eligibility_quarter": "NA"
   }
  }
 ]
}