{
 "type": "FeatureCollection",
 "generated": "2026-06-09T11:41:25.243493",
 "suburb": "SAUMAREZ",
 "features": [
  {
   "type": "Feature",
   "geometry": {
    "type": "Point",
    "coordinates": [
     151.58487276,
     -30.55733655
    ]
   },
   "properties": {
    "name": "9964 NEW ENGLAND HIGHWAY SAUMAREZ 2350",
    "locID": "LOC000004733502",
    "tech": "WIRELESS",
    "upgrade": "NULL_NA",
    "gnaf_pid": "GANSW705863151",
    "tech_change_status": "Not Planned",
    "program_type": "Fixed Wireless and Satellite Upgrade Program",
    "target_eligibility_quarter": "NA"
   }
  },
  {
   "type": "Feature",
   "geometry": {
    "type": "Point",
    "coordinates": [
     151.57827376,
     -30.55808612
    ]
   },
   "properties": {
    "name": "13 PINE AVENUE SAUMAREZ 2350",
    "locID": "LOC000107294595",
    "tech": "WIRELESS",
    "upgrade": "NULL_NA",
    "gnaf_pid": "GANSW705910609",
    "tech_change_status": "Not Planned",
    "program_type": "Fixed Wireless and Satellite Upgrade Program",
    "target_eligibility_quarter": "NA"
   }
  },
  {
   "type": "Feature",
   "geometry": {
    "type": "Point",
    "coordinates": [
     151.57837969,
     -30.55716625
    ]
   },
   "properties": {
    "name": "20 PINE AVENUE SAUMAREZ 2350",
    "locID": "LOC000061358804",
    "tech": "WIRELESS",
    "upgrade": "NULL_NA",
    "gnaf_pid": "GANSW705910610",
    "tech_change_status": "Not Planned",
    "program_type": "Fixed Wireless and Satellite Upgrade Program",
    "target_eligibility_quarter": "NA"
   }
  },
  {
   "type": "Feature",
   "geometry": {
    "type": "Point",
    "coordinates": [
     151.58412632,
     -30.56378813
    ]
   },
   "properties": {
    "name": "16 ROSETTA COURT SAUMAREZ 2350",
    "locID": "LOC000104301222",
    "tech": "WIRELESS",
    "upgrade": "NULL_NA",
    "gnaf_pid": "GANSW705910611",
    "tech_change_status": "Not Planned",
    "program_type": "Fixed Wireless and Satellite Upgrade Program",
    "target_eligibility_quarter": "NA"
   }
  },
  {
   "type": "Feature",
   "geometry": {
    "type": "Point",
    "coordinates": [
     151.58490929,
     -30.56299812
    ]
   },
   "properties": {
    "name": "17 ROSETTA COURT SAUMAREZ 2350",
    "locID": "LOC000074739978",
    "tech": "WIRELESS",
    "upgrade": "NULL_NA",
    "gnaf_pid": "GANSW705910612",
    "tech_change_status": "Not Planned",
    "program_type": "Fixed Wireless and Satellite Upgrade Program",
    "target_eligibility_quarter": "NA"
   }
  },
  {
   "type": "Feature",
   "geometry": {
    "type": "Point",
    "coordinates": [
     151.57699862,
     -30.56004709
    ]
   },
   "properties": {
    "name": "35 WATTLE DRIVE SAUMAREZ 2350",
    "locID": "LOC000054001059",
    "tech": "WIRELESS",
    "upgrade": "NULL_NA",
    "gnaf_pid": "GANSW705910615",
    "tech_change_status": "Not Planned",
    "program_type": "Fixed Wireless and Satellite Upgrade Program",
    "target_eligibility_quarter": "NA"
   }
  },
  {
   "type": "Feature",
   "geometry": {
    "type": "Point",
    "coordinates": [
     151.57933442,
     -30.56021539
    ]
   },
   "properties": {
    "name": "40 WATTLE DRIVE SAUMAREZ 2350",
    "locID": "LOC000095600321",
    "tech": "WIRELESS",
    "upgrade": "NULL_NA",
    "gnaf_pid": "GANSW705910616",
    "tech_change_status": "Not Planned",
    "program_type": "Fixed Wireless and Satellite Upgrade Program",
    "target_eligibility_quarter": "NA"
   }
  },
  {
   "type": "Feature",
   "geometry": {
    "type": "Point",
    "coordinates": [
     151.57944208,
     -30.55847997
    ]
   },
   "properties": {
    "name": "63 WATTLE DRIVE SAUMAREZ 2350",
    "locID": "LOC000033846416",
    "tech": "WIRELESS",
    "upgrade": "NULL_NA",
    "gnaf_pid": "GANSW712038594",
    "tech_change_status": "Not Planned",
    "program_type": "Fixed Wireless and Satellite Upgrade Program",
    "target_eligibility_quarter": "NA"
   }
  },
  {
   "type": "Feature",
   "geometry": {
    "type": "Point",
    "coordinates": [
     151.58002802,
     -30.55763229
    ]
   },
   "properties": {
    "name": "67 WATTLE DRIVE SAUMAREZ 2350",
    "locID": "LOC000027259338",
    "tech": "WIRELESS",
    "upgrade": "NULL_NA",
    "gnaf_pid": "GANSW712038595",
    "tech_change_status": "Not Planned",
    "program_type": "Fixed Wireless and Satellite Upgrade Program",
    "target_eligibility_quarter": "NA"
   }
  },
  {
   "type": "Feature",
   "geometry": {
    "type": "Point",
    "coordinates": [
     151.58139325,
     -30.55857812
    ]
   },
   "properties": {
    "name": "68 WATTLE DRIVE SAUMAREZ 2350",
    "locID": "LOC000025471732",
    "tech": "WIRELESS",
    "upgrade": "NULL_NA",
    "gnaf_pid": "GANSW712038596",
    "tech_change_status": "Not Planned",
    "program_type": "Fixed Wireless and Satellite Upgrade Program",
    "target_eligibility_quarter": "NA"
   }
  },
  {
   "type": "Feature",
   "geometry": {
    "type": "Point",
    "coordinates": [
     151.57725294,
     -30.56297529
    ]
   },
   "properties": {
    "name": "6 ARDING ROAD SAUMAREZ 2350",
    "locID": "LOC000013255367",
    "tech": "WIRELESS",
    "upgrade": "NULL_NA",
    "gnaf_pid": "GANSW712055425",
    "tech_change_status": "Not Planned",
    "program_type": "Fixed Wireless and Satellite Upgrade Program",
    "target_eligibility_quarter": "NA"
   }
  },
  {
   "type": "Feature",
   "geometry": {
    "type": "Point",
    "coordinates": [
     151.57742632,
     -30.55714523
    ]
   },
   "properties": {
    "name": "25 PINE AVENUE SAUMAREZ 2350",
    "locID": "LOC000073074088",
    "tech": "WIRELESS",
    "upgrade": "NULL_NA",
    "gnaf_pid": "GANSW712058624",
    "tech_change_status": "Not Planned",
    "program_type": "Fixed Wireless and Satellite Upgrade Program",
    "target_eligibility_quarter": "NA"
   }
  },
  {
   "type": "Feature",
   "geometry": {
    "type": "Point",
    "coordinates": [
     151.57790082,
     -30.55618175
    ]
   },
   "properties": {
    "name": "28 PINE AVENUE SAUMAREZ 2350",
    "locID": "LOC000027987389",
    "tech": "WIRELESS",
    "upgrade": "NULL_NA",
    "gnaf_pid": "GANSW712058625",
    "tech_change_status": "Not Planned",
    "program_type": "Fixed Wireless and Satellite Upgrade Program",
    "target_eligibility_quarter": "NA"
   }
  },
  {
   "type": "Feature",
   "geometry": {
    "type": "Point",
    "coordinates": [
     151.58137405,
     -30.56473441
    ]
   },
   "properties": {
    "name": "27 SAUMAREZ WAR SERVICE ROAD SAUMAREZ 2350",
    "locID": "LOC000007358572",
    "tech": "WIRELESS",
    "upgrade": "NULL_NA",
    "gnaf_pid": "GANSW712058628",
    "tech_change_status": "Not Planned",
    "program_type": "Fixed Wireless and Satellite Upgrade Program",
    "target_eligibility_quarter": "NA"
   }
  },
  {
   "type": "Feature",
   "geometry": {
    "type": "Point",
    "coordinates": [
     151.5836826,
     -30.56552374
    ]
   },
   "properties": {
    "name": "53 SAUMAREZ WAR SERVICE ROAD SAUMAREZ 2350",
    "locID": "LOC000087996170",
    "tech": "WIRELESS",
    "upgrade": "NULL_NA",
    "gnaf_pid": "GANSW712058629",
    "tech_change_status": "Not Planned",
    "program_type": "Fixed Wireless and Satellite Upgrade Program",
    "target_eligibility_quarter": "NA"
   }
  },
  {
   "type": "Feature",
   "geometry": {
    "type": "Point",
    "coordinates": [
     151.62028866,
     -30.59519315
    ]
   },
   "properties": {
    "name": "460 SAUMAREZ WAR SERVICE ROAD SAUMAREZ 2350",
    "locID": "LOC000016838322",
    "tech": "WIRELESS",
    "upgrade": "NULL_NA",
    "gnaf_pid": "GANSW712058631",
    "tech_change_status": "Not Planned",
    "program_type": "Fixed Wireless and Satellite Upgrade Program",
    "target_eligibility_quarter": "NA"
   }
  },
  {
   "type": "Feature",
   "geometry": {
    "type": "Point",
    "coordinates": [
     151.58009086,
     -30.56394065
    ]
   },
   "properties": {
    "name": "7 TUBEROSA ROAD SAUMAREZ 2350",
    "locID": "LOC000065336354",
    "tech": "WIRELESS",
    "upgrade": "NULL_NA",
    "gnaf_pid": "GANSW712058632",
    "tech_change_status": "Not Planned",
    "program_type": "Fixed Wireless and Satellite Upgrade Program",
    "target_eligibility_quarter": "NA"
   }
  },
  {
   "type": "Feature",
   "geometry": {
    "type": "Point",
    "coordinates": [
     151.58072617,
     -30.5631364
    ]
   },
   "properties": {
    "name": "19 TUBEROSA ROAD SAUMAREZ 2350",
    "locID": "LOC000087819466",
    "tech": "WIRELESS",
    "upgrade": "NULL_NA",
    "gnaf_pid": "GANSW712058633",
    "tech_change_status": "Not Planned",
    "program_type": "Fixed Wireless and Satellite Upgrade Program",
    "target_eligibility_quarter": "NA"
   }
  },
  {
   "type": "Feature",
   "geometry": {
    "type": "Point",
    "coordinates": [
     151.58257978,
     -30.56290559
    ]
   },
   "properties": {
    "name": "28 TUBEROSA ROAD SAUMAREZ 2350",
    "locID": "LOC000035541458",
    "tech": "WIRELESS",
    "upgrade": "NULL_NA",
    "gnaf_pid": "GANSW712058634",
    "tech_change_status": "Not Planned",
    "program_type": "Fixed Wireless and Satellite Upgrade Program",
    "target_eligibility_quarter": "NA"
   }
  },
  {
   "type": "Feature",
   "geometry": {
    "type": "Point",
    "coordinates": [
     151.58146191,
     -30.56231429
    ]
   },
   "properties": {
    "name": "31 TUBEROSA ROAD SAUMAREZ 2350",
    "locID": "LOC000007409128",
    "tech": "WIRELESS",
    "upgrade": "NULL_NA",
    "gnaf_pid": "GANSW712058635",
    "tech_change_status": "Not Planned",
    "program_type": "Fixed Wireless and Satellite Upgrade Program",
    "target_eligibility_quarter": "NA"
   }
  },
  {
   "type": "Feature",
   "geometry": {
    "type": "Point",
    "coordinates": [
     151.58211721,
     -30.56163472
    ]
   },
   "properties": {
    "name": "41 TUBEROSA ROAD SAUMAREZ 2350",
    "locID": "LOC000018745831",
    "tech": "WIRELESS",
    "upgrade": "NULL_NA",
    "gnaf_pid": "GANSW712058636",
    "tech_change_status": "Not Planned",
    "program_type": "Fixed Wireless and Satellite Upgrade Program",
    "target_eligibility_quarter": "NA"
   }
  },
  {
   "type": "Feature",
   "geometry": {
    "type": "Point",
    "coordinates": [
     151.58328105,
     -30.56176701
    ]
   },
   "properties": {
    "name": "44 TUBEROSA ROAD SAUMAREZ 2350",
    "locID": "LOC000103563152",
    "tech": "WIRELESS",
    "upgrade": "NULL_NA",
    "gnaf_pid": "GANSW712058637",
    "tech_change_status": "Not Planned",
    "program_type": "Fixed Wireless and Satellite Upgrade Program",
    "target_eligibility_quarter": "NA"
   }
  },
  {
   "type": "Feature",
   "geometry": {
    "type": "Point",
    "coordinates": [
     151.58325792,
     -30.56022632
    ]
   },
   "properties": {
    "name": "51 TUBEROSA ROAD SAUMAREZ 2350",
    "locID": "LOC000011370318",
    "tech": "WIRELESS",
    "upgrade": "NULL_NA",
    "gnaf_pid": "GANSW712058638",
    "tech_change_status": "Not Planned",
    "program_type": "Fixed Wireless and Satellite Upgrade Program",
    "target_eligibility_quarter": "NA"
   }
  },
  {
   "type": "Feature",
   "geometry": {
    "type": "Point",
    "coordinates": [
     151.57550134,
     -30.56240168
    ]
   },
   "properties": {
    "name": "1 WATTLE DRIVE SAUMAREZ 2350",
    "locID": "LOC000039547901",
    "tech": "WIRELESS",
    "upgrade": "NULL_NA",
    "gnaf_pid": "GANSW712058639",
    "tech_change_status": "Not Planned",
    "program_type": "Fixed Wireless and Satellite Upgrade Program",
    "target_eligibility_quarter": "NA"
   }
  },
  {
   "type": "Feature",
   "geometry": {
    "type": "Point",
    "coordinates": [
     151.57702895,
     -30.56117245
    ]
   },
   "properties": {
    "name": "25 WATTLE DRIVE SAUMAREZ 2350",
    "locID": "LOC000066604887",
    "tech": "WIRELESS",
    "upgrade": "NULL_NA",
    "gnaf_pid": "GANSW712058641",
    "tech_change_status": "Not Planned",
    "program_type": "Fixed Wireless and Satellite Upgrade Program",
    "target_eligibility_quarter": "NA"
   }
  },
  {
   "type": "Feature",
   "geometry": {
    "type": "Point",
    "coordinates": [
     151.57815063,
     -30.56133968
    ]
   },
   "properties": {
    "name": "30 WATTLE DRIVE SAUMAREZ 2350",
    "locID": "LOC000028263535",
    "tech": "WIRELESS",
    "upgrade": "NULL_NA",
    "gnaf_pid": "GANSW712058642",
    "tech_change_status": "Not Planned",
    "program_type": "Fixed Wireless and Satellite Upgrade Program",
    "target_eligibility_quarter": "NA"
   }
  },
  {
   "type": "Feature",
   "geometry": {
    "type": "Point",
    "coordinates": [
     151.57873657,
     -30.56091139
    ]
   },
   "properties": {
    "name": "32 WATTLE DRIVE SAUMAREZ 2350",
    "locID": "LOC000091980288",
    "tech": "SATELLITE",
    "upgrade": "NULL_NA",
    "gnaf_pid": "GANSW712058643",
    "tech_change_status": "Not Planned"
   }
  },
  {
   "type": "Feature",
   "geometry": {
    "type": "Point",
    "coordinates": [
     151.57715626,
     -30.55921427
    ]
   },
   "properties": {
    "name": "37 WATTLE DRIVE SAUMAREZ 2350",
    "locID": "LOC000018843312",
    "tech": "WIRELESS",
    "upgrade": "NULL_NA",
    "gnaf_pid": "GANSW712058645",
    "tech_change_status": "Not Planned",
    "program_type": "Fixed Wireless and Satellite Upgrade Program",
    "target_eligibility_quarter": "NA"
   }
  },
  {
   "type": "Feature",
   "geometry": {
    "type": "Point",
    "coordinates": [
     151.57888981,
     -30.55910374
    ]
   },
   "properties": {
    "name": "49 WATTLE DRIVE SAUMAREZ 2350",
    "locID": "LOC000066726368",
    "tech": "WIRELESS",
    "upgrade": "NULL_NA",
    "gnaf_pid": "GANSW712058647",
    "tech_change_status": "Not Planned",
    "program_type": "Fixed Wireless and Satellite Upgrade Program",
    "target_eligibility_quarter": "NA"
   }
  },
  {
   "type": "Feature",
   "geometry": {
    "type": "Point",
    "coordinates": [
     151.57975677,
     -30.55940142
    ]
   },
   "properties": {
    "name": "58 WATTLE DRIVE SAUMAREZ 2350",
    "locID": "LOC000010022275",
    "tech": "WIRELESS",
    "upgrade": "NULL_NA",
    "gnaf_pid": "GANSW712058648",
    "tech_change_status": "Not Planned",
    "program_type": "Fixed Wireless and Satellite Upgrade Program",
    "target_eligibility_quarter": "NA"
   }
  },
  {
   "type": "Feature",
   "geometry": {
    "type": "Point",
    "coordinates": [
     151.58078112,
     -30.55891601
    ]
   },
   "properties": {
    "name": "60 WATTLE DRIVE SAUMAREZ 2350",
    "locID": "LOC000013219293",
    "tech": "WIRELESS",
    "upgrade": "NULL_NA",
    "gnaf_pid": "GANSW712058649",
    "tech_change_status": "Not Planned",
    "program_type": "Fixed Wireless and Satellite Upgrade Program",
    "target_eligibility_quarter": "NA"
   }
  },
  {
   "type": "Feature",
   "geometry": {
    "type": "Point",
    "coordinates": [
     151.5823501,
     -30.56516682
    ]
   },
   "properties": {
    "name": "41 SAUMAREZ WAR SERVICE ROAD SAUMAREZ 2350",
    "locID": "LOC000027995264",
    "tech": "WIRELESS",
    "upgrade": "NULL_NA",
    "gnaf_pid": "GANSW715400843",
    "tech_change_status": "Not Planned",
    "program_type": "Fixed Wireless and Satellite Upgrade Program",
    "target_eligibility_quarter": "NA"
   }
  },
  {
   "type": "Feature",
   "geometry": {
    "type": "Point",
    "coordinates": [
     151.57576586,
     -30.54809085
    ]
   },
   "properties": {
    "name": "70 WATTLE DRIVE SAUMAREZ 2350",
    "locID": "LOC000065282989",
    "tech": "WIRELESS",
    "upgrade": "NULL_NA",
    "gnaf_pid": "GANSW715410786",
    "tech_change_status": "Not Planned",
    "program_type": "Fixed Wireless and Satellite Upgrade Program",
    "target_eligibility_quarter": "NA"
   }
  },
  {
   "type": "Feature",
   "geometry": {
    "type": "Point",
    "coordinates": [
     151.56036928,
     -30.55212608
    ]
   },
   "properties": {
    "name": "206 ARDING ROAD SAUMAREZ 2350",
    "locID": "LOC000120841765",
    "tech": "WIRELESS",
    "upgrade": "NULL_NA",
    "gnaf_pid": "GANSW715722282",
    "tech_change_status": "Not Planned",
    "program_type": "Fixed Wireless and Satellite Upgrade Program",
    "target_eligibility_quarter": "NA"
   }
  },
  {
   "type": "Feature",
   "geometry": {
    "type": "Point",
    "coordinates": [
     151.57758492,
     -30.56221275
    ]
   },
   "properties": {
    "name": "12 WATTLE DRIVE SAUMAREZ 2350",
    "locID": "LOC000088610837",
    "tech": "SATELLITE",
    "upgrade": "NULL_NA",
    "gnaf_pid": "GANSW716171304",
    "tech_change_status": "Not Planned"
   }
  },
  {
   "type": "Feature",
   "geometry": {
    "type": "Point",
    "coordinates": [
     151.58172849,
     -30.56296489
    ]
   },
   "properties": {
    "name": "LOT 6 TUBEROSA ROAD SAUMAREZ 2350",
    "locID": "LOC000103563152",
    "tech": "WIRELESS",
    "upgrade": "NULL_NA",
    "gnaf_pid": "GANSW716691970",
    "tech_change_status": "Not Planned",
    "program_type": "Fixed Wireless and Satellite Upgrade Program",
    "target_eligibility_quarter": "NA"
   }
  },
  {
   "type": "Feature",
   "geometry": {
    "type": "Point",
    "coordinates": [
     151.57649222,
     -30.56153004
    ]
   },
   "properties": {
    "name": "17 WATTLE DRIVE SAUMAREZ 2350",
    "locID": "LOC000066726368",
    "tech": "WIRELESS",
    "upgrade": "NULL_NA",
    "gnaf_pid": "GANSW716710000",
    "tech_change_status": "Not Planned",
    "program_type": "Fixed Wireless and Satellite Upgrade Program",
    "target_eligibility_quarter": "NA"
   }
  },
  {
   "type": "Feature",
   "geometry": {
    "type": "Point",
    "coordinates": [
     151.57920042,
     -30.55933832
    ]
   },
   "properties": {
    "name": "6 WATTLE DRIVE SAUMAREZ 2350",
    "locID": "LOC000013219293",
    "tech": "WIRELESS",
    "upgrade": "NULL_NA",
    "gnaf_pid": "GANSW717312445",
    "tech_change_status": "Not Planned",
    "program_type": "Fixed Wireless and Satellite Upgrade Program",
    "target_eligibility_quarter": "NA"
   }
  },
  {
   "type": "Feature",
   "geometry": {
    "type": "Point",
    "coordinates": [
     151.57312298,
     -30.56984955
    ]
   },
   "properties": {
    "name": "10348 NEW ENGLAND HIGHWAY SAUMAREZ 2350",
    "locID": "LOC000089350956",
    "tech": "WIRELESS",
    "upgrade": "NULL_NA",
    "gnaf_pid": "GANSW717983970",
    "tech_change_status": "Not Planned",
    "program_type": "Fixed Wireless and Satellite Upgrade Program",
    "target_eligibility_quarter": "NA"
   }
  },
  {
   "type": "Feature",
   "geometry": {
    "type": "Point",
    "coordinates": [
     151.57312298,
     -30.56984955
    ]
   },
   "properties": {
    "name": "10350 NEW ENGLAND HIGHWAY SAUMAREZ 2350",
    "locID": "LOC000060645083",
    "tech": "WIRELESS",
    "upgrade": "NULL_NA",
    "gnaf_pid": "GANSW717983971",
    "tech_change_status": "Not Planned",
    "program_type": "Fixed Wireless and Satellite Upgrade Program",
    "target_eligibility_quarter": "NA"
   }
  },
  {
   "type": "Feature",
   "geometry": {
    "type": "Point",
    "coordinates": [
     151.57312298,
     -30.56984955
    ]
   },
   "properties": {
    "name": "9308 NEW ENGLAND HIGHWAY SAUMAREZ 2350",
    "locID": "LOC100081300426",
    "tech": "WIRELESS",
    "upgrade": "NULL_NA",
    "gnaf_pid": "GANSW718965557",
    "tech_change_status": "Not Planned",
    "program_type": "Fixed Wireless and Satellite Upgrade Program",
    "target_eligibility_quarter": "NA"
   }
  }
 ]
}