{
 "type": "FeatureCollection",
 "generated": "2025-02-16T18:29:42.494503",
 "suburb": "SPRING TERRACE",
 "features": [
  {
   "type": "Feature",
   "geometry": {
    "type": "Point",
    "coordinates": [
     149.08954369,
     -33.4080548
    ]
   },
   "properties": {
    "name": "37 BAKERS ROAD SPRING TERRACE 2798",
    "locID": "LOC000011335165",
    "tech": "WIRELESS",
    "upgrade": "NULL_NA",
    "gnaf_pid": "GANSW716626148",
    "tech_change_status": "Not Planned",
    "program_type": "Fixed Wireless and Satellite Upgrade Program",
    "target_eligibility_quarter": "NA"
   }
  },
  {
   "type": "Feature",
   "geometry": {
    "type": "Point",
    "coordinates": [
     149.09206591,
     -33.41064246
    ]
   },
   "properties": {
    "name": "68 BAKERS ROAD SPRING TERRACE 2798",
    "locID": "LOC000042990914",
    "tech": "WIRELESS",
    "upgrade": "NULL_NA",
    "gnaf_pid": "GANSW716626149",
    "tech_change_status": "Not Planned",
    "program_type": "Fixed Wireless and Satellite Upgrade Program",
    "target_eligibility_quarter": "NA"
   }
  },
  {
   "type": "Feature",
   "geometry": {
    "type": "Point",
    "coordinates": [
     149.10376692,
     -33.41066626
    ]
   },
   "properties": {
    "name": "8 BAKERS ROAD SPRING TERRACE 2798",
    "locID": "LOC000075012242",
    "tech": "WIRELESS",
    "upgrade": "NULL_NA",
    "gnaf_pid": "GANSW716626150",
    "tech_change_status": "Not Planned",
    "program_type": "Fixed Wireless and Satellite Upgrade Program",
    "target_eligibility_quarter": "NA"
   }
  },
  {
   "type": "Feature",
   "geometry": {
    "type": "Point",
    "coordinates": [
     149.08450505,
     -33.41086871
    ]
   },
   "properties": {
    "name": "1533 FOREST REEFS ROAD SPRING TERRACE 2798",
    "locID": "LOC000041088347",
    "tech": "WIRELESS",
    "upgrade": "NULL_NA",
    "gnaf_pid": "GANSW716630837",
    "tech_change_status": "Not Planned",
    "program_type": "Fixed Wireless and Satellite Upgrade Program",
    "target_eligibility_quarter": "NA"
   }
  },
  {
   "type": "Feature",
   "geometry": {
    "type": "Point",
    "coordinates": [
     149.08936205,
     -33.41108251
    ]
   },
   "properties": {
    "name": "1544 FOREST REEFS ROAD SPRING TERRACE 2798",
    "locID": "LOC000003269037",
    "tech": "WIRELESS",
    "upgrade": "NULL_NA",
    "gnaf_pid": "GANSW716630838",
    "tech_change_status": "Not Planned",
    "program_type": "Fixed Wireless and Satellite Upgrade Program",
    "target_eligibility_quarter": "NA"
   }
  },
  {
   "type": "Feature",
   "geometry": {
    "type": "Point",
    "coordinates": [
     149.08397008,
     -33.40027104
    ]
   },
   "properties": {
    "name": "1654 FOREST REEFS ROAD SPRING TERRACE 2798",
    "locID": "LOC000015591481",
    "tech": "WIRELESS",
    "upgrade": "NULL_NA",
    "gnaf_pid": "GANSW716630839",
    "tech_change_status": "Not Planned",
    "program_type": "Fixed Wireless and Satellite Upgrade Program",
    "target_eligibility_quarter": "NA"
   }
  },
  {
   "type": "Feature",
   "geometry": {
    "type": "Point",
    "coordinates": [
     149.08427466,
     -33.39947394
    ]
   },
   "properties": {
    "name": "1670 FOREST REEFS ROAD SPRING TERRACE 2798",
    "locID": "LOC000016199200",
    "tech": "WIRELESS",
    "upgrade": "NULL_NA",
    "gnaf_pid": "GANSW716630841",
    "tech_change_status": "Not Planned",
    "program_type": "Fixed Wireless and Satellite Upgrade Program",
    "target_eligibility_quarter": "NA"
   }
  },
  {
   "type": "Feature",
   "geometry": {
    "type": "Point",
    "coordinates": [
     149.08088881,
     -33.39753485
    ]
   },
   "properties": {
    "name": "1703 FOREST REEFS ROAD SPRING TERRACE 2798",
    "locID": "LOC000094029532",
    "tech": "WIRELESS",
    "upgrade": "NULL_NA",
    "gnaf_pid": "GANSW716630842",
    "tech_change_status": "Not Planned",
    "program_type": "Fixed Wireless and Satellite Upgrade Program",
    "target_eligibility_quarter": "NA"
   }
  },
  {
   "type": "Feature",
   "geometry": {
    "type": "Point",
    "coordinates": [
     149.08111046,
     -33.39613441
    ]
   },
   "properties": {
    "name": "1705 FOREST REEFS ROAD SPRING TERRACE 2798",
    "locID": "LOC000043117182",
    "tech": "WIRELESS",
    "upgrade": "NULL_NA",
    "gnaf_pid": "GANSW716630843",
    "tech_change_status": "Not Planned",
    "program_type": "Fixed Wireless and Satellite Upgrade Program",
    "target_eligibility_quarter": "NA"
   }
  },
  {
   "type": "Feature",
   "geometry": {
    "type": "Point",
    "coordinates": [
     149.08385088,
     -33.3959581
    ]
   },
   "properties": {
    "name": "1714 FOREST REEFS ROAD SPRING TERRACE 2798",
    "locID": "LOC000024604679",
    "tech": "WIRELESS",
    "upgrade": "NULL_NA",
    "gnaf_pid": "GANSW716630844",
    "tech_change_status": "Not Planned",
    "program_type": "Fixed Wireless and Satellite Upgrade Program",
    "target_eligibility_quarter": "NA"
   }
  },
  {
   "type": "Feature",
   "geometry": {
    "type": "Point",
    "coordinates": [
     149.08114861,
     -33.39409926
    ]
   },
   "properties": {
    "name": "1727 FOREST REEFS ROAD SPRING TERRACE 2798",
    "locID": "LOC000094136077",
    "tech": "WIRELESS",
    "upgrade": "NULL_NA",
    "gnaf_pid": "GANSW716630845",
    "tech_change_status": "Not Planned",
    "program_type": "Fixed Wireless and Satellite Upgrade Program",
    "target_eligibility_quarter": "NA"
   }
  },
  {
   "type": "Feature",
   "geometry": {
    "type": "Point",
    "coordinates": [
     149.08735217,
     -33.42131888
    ]
   },
   "properties": {
    "name": "40 HOLMES ROAD SPRING TERRACE 2798",
    "locID": "LOC000071127525",
    "tech": "WIRELESS",
    "upgrade": "NULL_NA",
    "gnaf_pid": "GANSW716632725",
    "tech_change_status": "Not Planned",
    "program_type": "Fixed Wireless and Satellite Upgrade Program",
    "target_eligibility_quarter": "NA"
   }
  },
  {
   "type": "Feature",
   "geometry": {
    "type": "Point",
    "coordinates": [
     149.09406703,
     -33.42017608
    ]
   },
   "properties": {
    "name": "41 HOLMES ROAD SPRING TERRACE 2798",
    "locID": "LOC000004666168",
    "tech": "WIRELESS",
    "upgrade": "NULL_NA",
    "gnaf_pid": "GANSW716632726",
    "tech_change_status": "Not Planned",
    "program_type": "Fixed Wireless and Satellite Upgrade Program",
    "target_eligibility_quarter": "NA"
   }
  },
  {
   "type": "Feature",
   "geometry": {
    "type": "Point",
    "coordinates": [
     149.0888227,
     -33.4173814
    ]
   },
   "properties": {
    "name": "42 HOLMES ROAD SPRING TERRACE 2798",
    "locID": "LOC000013147515",
    "tech": "WIRELESS",
    "upgrade": "NULL_NA",
    "gnaf_pid": "GANSW716632727",
    "tech_change_status": "Not Planned",
    "program_type": "Fixed Wireless and Satellite Upgrade Program",
    "target_eligibility_quarter": "NA"
   }
  },
  {
   "type": "Feature",
   "geometry": {
    "type": "Point",
    "coordinates": [
     149.08684066,
     -33.39365308
    ]
   },
   "properties": {
    "name": "272 ORCHARD ROAD SPRING TERRACE 2798",
    "locID": "LOC000093319601",
    "tech": "WIRELESS",
    "upgrade": "NULL_NA",
    "gnaf_pid": "GANSW716637787",
    "tech_change_status": "Not Planned",
    "program_type": "Fixed Wireless and Satellite Upgrade Program",
    "target_eligibility_quarter": "NA"
   }
  },
  {
   "type": "Feature",
   "geometry": {
    "type": "Point",
    "coordinates": [
     149.09136322,
     -33.39365308
    ]
   },
   "properties": {
    "name": "308 ORCHARD ROAD SPRING TERRACE 2798",
    "locID": "LOC000099789352",
    "tech": "WIRELESS",
    "upgrade": "NULL_NA",
    "gnaf_pid": "GANSW716637788",
    "tech_change_status": "Not Planned",
    "program_type": "Fixed Wireless and Satellite Upgrade Program",
    "target_eligibility_quarter": "NA"
   }
  },
  {
   "type": "Feature",
   "geometry": {
    "type": "Point",
    "coordinates": [
     149.09271801,
     -33.39308367
    ]
   },
   "properties": {
    "name": "324 ORCHARD ROAD SPRING TERRACE 2798",
    "locID": "LOC000017304531",
    "tech": "WIRELESS",
    "upgrade": "NULL_NA",
    "gnaf_pid": "GANSW716637789",
    "tech_change_status": "Not Planned",
    "program_type": "Fixed Wireless and Satellite Upgrade Program",
    "target_eligibility_quarter": "NA"
   }
  },
  {
   "type": "Feature",
   "geometry": {
    "type": "Point",
    "coordinates": [
     149.1050642,
     -33.41936967
    ]
   },
   "properties": {
    "name": "316 SPRING TERRACE ROAD SPRING TERRACE 2798",
    "locID": "LOC000086864846",
    "tech": "WIRELESS",
    "upgrade": "NULL_NA",
    "gnaf_pid": "GANSW716640918",
    "tech_change_status": "Not Planned",
    "program_type": "Fixed Wireless and Satellite Upgrade Program",
    "target_eligibility_quarter": "NA"
   }
  },
  {
   "type": "Feature",
   "geometry": {
    "type": "Point",
    "coordinates": [
     149.07318376,
     -33.40591213
    ]
   },
   "properties": {
    "name": "100 WALDEGRAVE ROAD SPRING TERRACE 2798",
    "locID": "LOC000054389677",
    "tech": "WIRELESS",
    "upgrade": "NULL_NA",
    "gnaf_pid": "GANSW716642479",
    "tech_change_status": "Not Planned",
    "program_type": "Fixed Wireless and Satellite Upgrade Program",
    "target_eligibility_quarter": "NA"
   }
  },
  {
   "type": "Feature",
   "geometry": {
    "type": "Point",
    "coordinates": [
     149.07489719,
     -33.41339998
    ]
   },
   "properties": {
    "name": "187 WALDEGRAVE ROAD SPRING TERRACE 2798",
    "locID": "LOC000089259468",
    "tech": "WIRELESS",
    "upgrade": "NULL_NA",
    "gnaf_pid": "GANSW716642480",
    "tech_change_status": "Not Planned",
    "program_type": "Fixed Wireless and Satellite Upgrade Program",
    "target_eligibility_quarter": "NA"
   }
  },
  {
   "type": "Feature",
   "geometry": {
    "type": "Point",
    "coordinates": [
     149.06545746,
     -33.41495409
    ]
   },
   "properties": {
    "name": "276 WALDEGRAVE ROAD SPRING TERRACE 2798",
    "locID": "LOC000011483596",
    "tech": "SATELLITE",
    "upgrade": "WIRELESS",
    "gnaf_pid": "GANSW716642481",
    "tech_change_status": "Eligible to Order",
    "program_type": "Fixed Wireless and Satellite Upgrade Program",
    "target_eligibility_quarter": "NA"
   }
  },
  {
   "type": "Feature",
   "geometry": {
    "type": "Point",
    "coordinates": [
     149.06260883,
     -33.41749528
    ]
   },
   "properties": {
    "name": "314 WALDEGRAVE ROAD SPRING TERRACE 2798",
    "locID": "LOC000103636189",
    "tech": "WIRELESS",
    "upgrade": "NULL_NA",
    "gnaf_pid": "GANSW716642482",
    "tech_change_status": "Previous Tech Disconnected",
    "program_type": "Fixed Wireless and Satellite Upgrade Program",
    "target_eligibility_quarter": "NA"
   }
  },
  {
   "type": "Feature",
   "geometry": {
    "type": "Point",
    "coordinates": [
     149.07427546,
     -33.40247328
    ]
   },
   "properties": {
    "name": "54 WALDEGRAVE ROAD SPRING TERRACE 2798",
    "locID": "LOC000186956433",
    "tech": "WIRELESS",
    "upgrade": "NULL_NA",
    "gnaf_pid": "GANSW716642484",
    "tech_change_status": "Not Planned",
    "program_type": "Fixed Wireless and Satellite Upgrade Program",
    "target_eligibility_quarter": "NA"
   }
  },
  {
   "type": "Feature",
   "geometry": {
    "type": "Point",
    "coordinates": [
     149.09350531,
     -33.3939106
    ]
   },
   "properties": {
    "name": "4 SPRING TERRACE ROAD SPRING TERRACE 2798",
    "locID": "LOC000001585593",
    "tech": "WIRELESS",
    "upgrade": "NULL_NA",
    "gnaf_pid": "GANSW716902121",
    "tech_change_status": "Not Planned",
    "program_type": "Fixed Wireless and Satellite Upgrade Program",
    "target_eligibility_quarter": "NA"
   }
  },
  {
   "type": "Feature",
   "geometry": {
    "type": "Point",
    "coordinates": [
     149.08138365,
     -33.39980223
    ]
   },
   "properties": {
    "name": "7 WALDEGRAVE ROAD SPRING TERRACE 2798",
    "locID": "LOC000028847752",
    "tech": "WIRELESS",
    "upgrade": "NULL_NA",
    "gnaf_pid": "GANSW716903421",
    "tech_change_status": "Not Planned",
    "program_type": "Fixed Wireless and Satellite Upgrade Program",
    "target_eligibility_quarter": "NA"
   }
  },
  {
   "type": "Feature",
   "geometry": {
    "type": "Point",
    "coordinates": [
     149.11806357,
     -33.39059933
    ]
   },
   "properties": {
    "name": "380 FOREST ROAD SPRING TERRACE 2798",
    "locID": "LOC000083799555",
    "tech": "WIRELESS",
    "upgrade": "NULL_NA",
    "gnaf_pid": "GANSW717079669",
    "tech_change_status": "Not Planned",
    "program_type": "Fixed Wireless and Satellite Upgrade Program",
    "target_eligibility_quarter": "NA"
   }
  },
  {
   "type": "Feature",
   "geometry": {
    "type": "Point",
    "coordinates": [
     149.11320252,
     -33.39137583
    ]
   },
   "properties": {
    "name": "422 FOREST ROAD SPRING TERRACE 2798",
    "locID": "LOC000040474948",
    "tech": "WIRELESS",
    "upgrade": "NULL_NA",
    "gnaf_pid": "GANSW717079670",
    "tech_change_status": "Not Planned",
    "program_type": "Fixed Wireless and Satellite Upgrade Program",
    "target_eligibility_quarter": "NA"
   }
  },
  {
   "type": "Feature",
   "geometry": {
    "type": "Point",
    "coordinates": [
     149.09764706,
     -33.39333348
    ]
   },
   "properties": {
    "name": "574 FOREST ROAD SPRING TERRACE 2798",
    "locID": "LOC000048163119",
    "tech": "WIRELESS",
    "upgrade": "NULL_NA",
    "gnaf_pid": "GANSW717079671",
    "tech_change_status": "Not Planned",
    "program_type": "Fixed Wireless and Satellite Upgrade Program",
    "target_eligibility_quarter": "NA"
   }
  },
  {
   "type": "Feature",
   "geometry": {
    "type": "Point",
    "coordinates": [
     149.09609631,
     -33.39261903
    ]
   },
   "properties": {
    "name": "584 FOREST ROAD SPRING TERRACE 2798",
    "locID": "LOC000014858249",
    "tech": "WIRELESS",
    "upgrade": "NULL_NA",
    "gnaf_pid": "GANSW717079672",
    "tech_change_status": "Not Planned",
    "program_type": "Fixed Wireless and Satellite Upgrade Program",
    "target_eligibility_quarter": "NA"
   }
  },
  {
   "type": "Feature",
   "geometry": {
    "type": "Point",
    "coordinates": [
     149.09482837,
     -33.39223539
    ]
   },
   "properties": {
    "name": "614 FOREST ROAD SPRING TERRACE 2798",
    "locID": "LOC000062097941",
    "tech": "WIRELESS",
    "upgrade": "NULL_NA",
    "gnaf_pid": "GANSW717079673",
    "tech_change_status": "Not Planned",
    "program_type": "Fixed Wireless and Satellite Upgrade Program",
    "target_eligibility_quarter": "NA"
   }
  },
  {
   "type": "Feature",
   "geometry": {
    "type": "Point",
    "coordinates": [
     149.09519249,
     -33.39075937
    ]
   },
   "properties": {
    "name": "616 FOREST ROAD SPRING TERRACE 2798",
    "locID": "LOC000076012127",
    "tech": "WIRELESS",
    "upgrade": "NULL_NA",
    "gnaf_pid": "GANSW717079674",
    "tech_change_status": "Not Planned",
    "program_type": "Fixed Wireless and Satellite Upgrade Program",
    "target_eligibility_quarter": "NA"
   }
  },
  {
   "type": "Feature",
   "geometry": {
    "type": "Point",
    "coordinates": [
     149.09141761,
     -33.38312365
    ]
   },
   "properties": {
    "name": "704 FOREST ROAD SPRING TERRACE 2798",
    "locID": "LOC000065441513",
    "tech": "WIRELESS",
    "upgrade": "NULL_NA",
    "gnaf_pid": "GANSW717079677",
    "tech_change_status": "Not Planned",
    "program_type": "Fixed Wireless and Satellite Upgrade Program",
    "target_eligibility_quarter": "NA"
   }
  },
  {
   "type": "Feature",
   "geometry": {
    "type": "Point",
    "coordinates": [
     149.09068458,
     -33.387246
    ]
   },
   "properties": {
    "name": "700 FOREST ROAD SPRING TERRACE 2798",
    "locID": "LOC100073265510",
    "tech": "WIRELESS",
    "upgrade": "NULL_NA",
    "gnaf_pid": "GANSW717189174",
    "tech_change_status": "Not Planned",
    "program_type": "Fixed Wireless and Satellite Upgrade Program",
    "target_eligibility_quarter": "NA"
   }
  },
  {
   "type": "Feature",
   "geometry": {
    "type": "Point",
    "coordinates": [
     149.08804114,
     -33.39262099
    ]
   },
   "properties": {
    "name": "285 ORCHARD ROAD SPRING TERRACE 2798",
    "locID": "LOC100078081917",
    "tech": "WIRELESS",
    "upgrade": "NULL_NA",
    "gnaf_pid": "GANSW717196599",
    "tech_change_status": "Not Planned",
    "program_type": "Fixed Wireless and Satellite Upgrade Program",
    "target_eligibility_quarter": "NA"
   }
  },
  {
   "type": "Feature",
   "geometry": {
    "type": "Point",
    "coordinates": [
     149.10809268,
     -33.39250237
    ]
   },
   "properties": {
    "name": "467 FOREST ROAD SPRING TERRACE 2798",
    "locID": "LOC000076871313",
    "tech": "WIRELESS",
    "upgrade": "NULL_NA",
    "gnaf_pid": "GANSW717284808",
    "tech_change_status": "Not Planned",
    "program_type": "Fixed Wireless and Satellite Upgrade Program",
    "target_eligibility_quarter": "NA"
   }
  },
  {
   "type": "Feature",
   "geometry": {
    "type": "Point",
    "coordinates": [
     149.09588685,
     -33.39540502
    ]
   },
   "properties": {
    "name": "23 SPRING TERRACE ROAD SPRING TERRACE 2798",
    "locID": "LOC000069581835",
    "tech": "WIRELESS",
    "upgrade": "NULL_NA",
    "gnaf_pid": "GANSW717290391",
    "tech_change_status": "Not Planned",
    "program_type": "Fixed Wireless and Satellite Upgrade Program",
    "target_eligibility_quarter": "NA"
   }
  },
  {
   "type": "Feature",
   "geometry": {
    "type": "Point",
    "coordinates": [
     149.09842302,
     -33.40002468
    ]
   },
   "properties": {
    "name": "75 SPRING TERRACE ROAD SPRING TERRACE 2798",
    "locID": "LOC000004834984",
    "tech": "WIRELESS",
    "upgrade": "NULL_NA",
    "gnaf_pid": "GANSW717290392",
    "tech_change_status": "Not Planned",
    "program_type": "Fixed Wireless and Satellite Upgrade Program",
    "target_eligibility_quarter": "NA"
   }
  },
  {
   "type": "Feature",
   "geometry": {
    "type": "Point",
    "coordinates": [
     149.0984488,
     -33.39411067
    ]
   },
   "properties": {
    "name": "573 FOREST ROAD SPRING TERRACE 2798",
    "locID": "LOC000037364117",
    "tech": "WIRELESS",
    "upgrade": "NULL_NA",
    "gnaf_pid": "GANSW717372391",
    "tech_change_status": "Not Planned",
    "program_type": "Fixed Wireless and Satellite Upgrade Program",
    "target_eligibility_quarter": "NA"
   }
  },
  {
   "type": "Feature",
   "geometry": {
    "type": "Point",
    "coordinates": [
     149.10830141,
     -33.39464708
    ]
   },
   "properties": {
    "name": "29 KELLY LANE SPRING TERRACE 2798",
    "locID": "LOC000053222066",
    "tech": "SATELLITE",
    "upgrade": "NULL_NA",
    "gnaf_pid": "GANSW717535917",
    "tech_change_status": "Not Planned"
   }
  },
  {
   "type": "Feature",
   "geometry": {
    "type": "Point",
    "coordinates": [
     149.10589976,
     -33.39658576
    ]
   },
   "properties": {
    "name": "30 KELLY LANE SPRING TERRACE 2798",
    "locID": "LOC000054525734",
    "tech": "WIRELESS",
    "upgrade": "NULL_NA",
    "gnaf_pid": "GANSW717535918",
    "tech_change_status": "Not Planned",
    "program_type": "Fixed Wireless and Satellite Upgrade Program",
    "target_eligibility_quarter": "NA"
   }
  },
  {
   "type": "Feature",
   "geometry": {
    "type": "Point",
    "coordinates": [
     149.11647505,
     -33.42124667
    ]
   },
   "properties": {
    "name": "113 GLENLEA ROAD SPRING TERRACE 2798",
    "locID": "LOC000091363103",
    "tech": "WIRELESS",
    "upgrade": "NULL_NA",
    "gnaf_pid": "GANSW717543715",
    "tech_change_status": "Not Planned",
    "program_type": "Fixed Wireless and Satellite Upgrade Program",
    "target_eligibility_quarter": "NA"
   }
  },
  {
   "type": "Feature",
   "geometry": {
    "type": "Point",
    "coordinates": [
     149.12569911,
     -33.41719598
    ]
   },
   "properties": {
    "name": "170 COWRIGA ROAD SPRING TERRACE 2798",
    "locID": "LOC000068408987",
    "tech": "WIRELESS",
    "upgrade": "NULL_NA",
    "gnaf_pid": "GANSW717594193",
    "tech_change_status": "Not Planned",
    "program_type": "Fixed Wireless and Satellite Upgrade Program",
    "target_eligibility_quarter": "NA"
   }
  },
  {
   "type": "Feature",
   "geometry": {
    "type": "Point",
    "coordinates": [
     149.1111709,
     -33.41377186
    ]
   },
   "properties": {
    "name": "31 COWRIGA ROAD SPRING TERRACE 2798",
    "locID": "LOC000015606558",
    "tech": "WIRELESS",
    "upgrade": "NULL_NA",
    "gnaf_pid": "GANSW717594197",
    "tech_change_status": "Not Planned",
    "program_type": "Fixed Wireless and Satellite Upgrade Program",
    "target_eligibility_quarter": "NA"
   }
  },
  {
   "type": "Feature",
   "geometry": {
    "type": "Point",
    "coordinates": [
     149.11214374,
     -33.41532326
    ]
   },
   "properties": {
    "name": "42 COWRIGA ROAD SPRING TERRACE 2798",
    "locID": "LOC000106110946",
    "tech": "WIRELESS",
    "upgrade": "NULL_NA",
    "gnaf_pid": "GANSW717594198",
    "tech_change_status": "Not Planned",
    "program_type": "Fixed Wireless and Satellite Upgrade Program",
    "target_eligibility_quarter": "NA"
   }
  },
  {
   "type": "Feature",
   "geometry": {
    "type": "Point",
    "coordinates": [
     149.06008929,
     -33.41569737
    ]
   },
   "properties": {
    "name": "365 WALDEGRAVE ROAD SPRING TERRACE 2798",
    "locID": "LOC000055191000",
    "tech": "WIRELESS",
    "upgrade": "NULL_NA",
    "gnaf_pid": "GANSW717902302",
    "tech_change_status": "Not Planned",
    "program_type": "Fixed Wireless and Satellite Upgrade Program",
    "target_eligibility_quarter": "NA"
   }
  },
  {
   "type": "Feature",
   "geometry": {
    "type": "Point",
    "coordinates": [
     149.12367063,
     -33.41553512
    ]
   },
   "properties": {
    "name": "135 COWRIGA ROAD SPRING TERRACE 2798",
    "locID": "LOC000122224932",
    "tech": "WIRELESS",
    "upgrade": "NULL_NA",
    "gnaf_pid": "GANSW718367185",
    "tech_change_status": "Not Planned",
    "program_type": "Fixed Wireless and Satellite Upgrade Program",
    "target_eligibility_quarter": "NA"
   }
  },
  {
   "type": "Feature",
   "geometry": {
    "type": "Point",
    "coordinates": [
     149.12605059,
     -33.40152978
    ]
   },
   "properties": {
    "name": "14 TOWNSEND ROAD SPRING TERRACE 2798",
    "locID": "LOC100033423105",
    "tech": "WIRELESS",
    "upgrade": "NULL_NA",
    "gnaf_pid": "GANSW718694024",
    "tech_change_status": "Not Planned",
    "program_type": "Fixed Wireless and Satellite Upgrade Program",
    "target_eligibility_quarter": "NA"
   }
  },
  {
   "type": "Feature",
   "geometry": {
    "type": "Point",
    "coordinates": [
     149.10591995,
     -33.41083086
    ]
   },
   "properties": {
    "name": "213 SPRING TERRACE ROAD SPRING TERRACE 2798",
    "locID": "LOC000140498169",
    "tech": "WIRELESS",
    "upgrade": "NULL_NA",
    "gnaf_pid": "GANSW718702492",
    "tech_change_status": "Not Planned",
    "program_type": "Fixed Wireless and Satellite Upgrade Program",
    "target_eligibility_quarter": "NA"
   }
  },
  {
   "type": "Feature",
   "geometry": {
    "type": "Point",
    "coordinates": [
     149.10682476,
     -33.41050405
    ]
   },
   "properties": {
    "name": "215 SPRING TERRACE ROAD SPRING TERRACE 2798",
    "locID": "LOC000152549627",
    "tech": "WIRELESS",
    "upgrade": "NULL_NA",
    "gnaf_pid": "GANSW718732563",
    "tech_change_status": "Not Planned",
    "program_type": "Fixed Wireless and Satellite Upgrade Program",
    "target_eligibility_quarter": "NA"
   }
  },
  {
   "type": "Feature",
   "geometry": {
    "type": "Point",
    "coordinates": [
     149.08228306,
     -33.3998569
    ]
   },
   "properties": {
    "name": "5 WALDEGRAVE ROAD SPRING TERRACE 2798",
    "locID": "LOC000050521906",
    "tech": "WIRELESS",
    "upgrade": "NULL_NA",
    "gnaf_pid": "GANSW720808007",
    "tech_change_status": "Not Planned",
    "program_type": "Fixed Wireless and Satellite Upgrade Program",
    "target_eligibility_quarter": "NA"
   }
  },
  {
   "type": "Feature",
   "geometry": {
    "type": "Point",
    "coordinates": [
     149.10990015,
     -33.40888277
    ]
   },
   "properties": {
    "name": "6 SPRING TERRACE ROAD SPRING TERRACE 2798",
    "locID": "LOC000076012127",
    "tech": "WIRELESS",
    "upgrade": "NULL_NA",
    "gnaf_pid": "GANSW721121038",
    "tech_change_status": "Not Planned",
    "program_type": "Fixed Wireless and Satellite Upgrade Program",
    "target_eligibility_quarter": "NA"
   }
  },
  {
   "type": "Feature",
   "geometry": {
    "type": "Point",
    "coordinates": [
     149.10335441,
     -33.40909046
    ]
   },
   "properties": {
    "name": "314 SPRING TERRACE ROAD SPRING TERRACE 2798",
    "locID": "LOC000103636189",
    "tech": "WIRELESS",
    "upgrade": "NULL_NA",
    "gnaf_pid": "GANSW721132201",
    "tech_change_status": "Previous Tech Disconnected",
    "program_type": "Fixed Wireless and Satellite Upgrade Program",
    "target_eligibility_quarter": "NA"
   }
  }
 ]
}