{
 "type": "FeatureCollection",
 "generated": "2024-12-12T05:31:01.257980",
 "suburb": "ST FILLANS",
 "features": [
  {
   "type": "Feature",
   "geometry": {
    "type": "Point",
    "coordinates": [
     149.65359358,
     -32.48812512
    ]
   },
   "properties": {
    "name": "824 BLACK SPRINGS ROAD ST FILLANS 2850",
    "locID": "LOC000008096841",
    "tech": "WIRELESS",
    "upgrade": "NULL_NA",
    "gnaf_pid": "GANSW706001908",
    "tech_change_status": "Not Planned",
    "program_type": "Fixed Wireless and Satellite Upgrade Program",
    "target_eligibility_quarter": "NA"
   }
  },
  {
   "type": "Feature",
   "geometry": {
    "type": "Point",
    "coordinates": [
     149.65469213,
     -32.48428076
    ]
   },
   "properties": {
    "name": "926 BLACK SPRINGS ROAD ST FILLANS 2850",
    "locID": "LOC000089509129",
    "tech": "WIRELESS",
    "upgrade": "NULL_NA",
    "gnaf_pid": "GANSW706001909",
    "tech_change_status": "Not Planned",
    "program_type": "Fixed Wireless and Satellite Upgrade Program",
    "target_eligibility_quarter": "NA"
   }
  },
  {
   "type": "Feature",
   "geometry": {
    "type": "Point",
    "coordinates": [
     149.63515599,
     -32.47855123
    ]
   },
   "properties": {
    "name": "173 LOWES PEAK ROAD ST FILLANS 2850",
    "locID": "LOC100080485540",
    "tech": "WIRELESS",
    "upgrade": "NULL_NA",
    "gnaf_pid": "GANSW706001911",
    "tech_change_status": "Not Planned",
    "program_type": "Fixed Wireless and Satellite Upgrade Program",
    "target_eligibility_quarter": "NA"
   }
  },
  {
   "type": "Feature",
   "geometry": {
    "type": "Point",
    "coordinates": [
     149.64318163,
     -32.46449872
    ]
   },
   "properties": {
    "name": "349 LOWES PEAK ROAD ST FILLANS 2850",
    "locID": "LOC000076950827",
    "tech": "WIRELESS",
    "upgrade": "NULL_NA",
    "gnaf_pid": "GANSW706001912",
    "tech_change_status": "Not Planned",
    "program_type": "Fixed Wireless and Satellite Upgrade Program",
    "target_eligibility_quarter": "NA"
   }
  },
  {
   "type": "Feature",
   "geometry": {
    "type": "Point",
    "coordinates": [
     149.64485032,
     -32.464786
    ]
   },
   "properties": {
    "name": "350 LOWES PEAK ROAD ST FILLANS 2850",
    "locID": "LOC000186489463",
    "tech": "WIRELESS",
    "upgrade": "NULL_NA",
    "gnaf_pid": "GANSW706001913",
    "tech_change_status": "Not Planned",
    "program_type": "Fixed Wireless and Satellite Upgrade Program",
    "target_eligibility_quarter": "NA"
   }
  },
  {
   "type": "Feature",
   "geometry": {
    "type": "Point",
    "coordinates": [
     149.64747553,
     -32.48077244
    ]
   },
   "properties": {
    "name": "86 LOWES PEAK ROAD ST FILLANS 2850",
    "locID": "LOC000016458785",
    "tech": "WIRELESS",
    "upgrade": "NULL_NA",
    "gnaf_pid": "GANSW706001915",
    "tech_change_status": "Not Planned",
    "program_type": "Fixed Wireless and Satellite Upgrade Program",
    "target_eligibility_quarter": "NA"
   }
  },
  {
   "type": "Feature",
   "geometry": {
    "type": "Point",
    "coordinates": [
     149.63595454,
     -32.45809801
    ]
   },
   "properties": {
    "name": "120 SAINTS LANE ST FILLANS 2850",
    "locID": "LOC000085161688",
    "tech": "WIRELESS",
    "upgrade": "NULL_NA",
    "gnaf_pid": "GANSW706001916",
    "tech_change_status": "Not Planned",
    "program_type": "Fixed Wireless and Satellite Upgrade Program",
    "target_eligibility_quarter": "NA"
   }
  },
  {
   "type": "Feature",
   "geometry": {
    "type": "Point",
    "coordinates": [
     149.63441978,
     -32.46212406
    ]
   },
   "properties": {
    "name": "70 SAINTS LANE ST FILLANS 2850",
    "locID": "LOC000038310711",
    "tech": "WIRELESS",
    "upgrade": "NULL_NA",
    "gnaf_pid": "GANSW706001917",
    "tech_change_status": "Not Planned",
    "program_type": "Fixed Wireless and Satellite Upgrade Program",
    "target_eligibility_quarter": "NA"
   }
  },
  {
   "type": "Feature",
   "geometry": {
    "type": "Point",
    "coordinates": [
     149.62813973,
     -32.46920559
    ]
   },
   "properties": {
    "name": "6 ST FILLANS ROAD ST FILLANS 2850",
    "locID": "LOC000010775227",
    "tech": "WIRELESS",
    "upgrade": "NULL_NA",
    "gnaf_pid": "GANSW706001918",
    "tech_change_status": "Not Planned",
    "program_type": "Fixed Wireless and Satellite Upgrade Program",
    "target_eligibility_quarter": "NA"
   }
  },
  {
   "type": "Feature",
   "geometry": {
    "type": "Point",
    "coordinates": [
     149.65339936,
     -32.47354047
    ]
   },
   "properties": {
    "name": "1055 BLACK SPRINGS ROAD ST FILLANS 2850",
    "locID": "LOC000114334565",
    "tech": "WIRELESS",
    "upgrade": "NULL_NA",
    "gnaf_pid": "GANSW706479601",
    "tech_change_status": "Not Planned",
    "program_type": "Fixed Wireless and Satellite Upgrade Program",
    "target_eligibility_quarter": "NA"
   }
  },
  {
   "type": "Feature",
   "geometry": {
    "type": "Point",
    "coordinates": [
     149.62803657,
     -32.46055242
    ]
   },
   "properties": {
    "name": "1438 HENRY LAWSON DRIVE ST FILLANS 2850",
    "locID": "LOC000001381870",
    "tech": "WIRELESS",
    "upgrade": "NULL_NA",
    "gnaf_pid": "GANSW706510197",
    "tech_change_status": "Not Planned",
    "program_type": "Fixed Wireless and Satellite Upgrade Program",
    "target_eligibility_quarter": "NA"
   }
  },
  {
   "type": "Feature",
   "geometry": {
    "type": "Point",
    "coordinates": [
     149.62794792,
     -32.47717201
    ]
   },
   "properties": {
    "name": "1263 HENRY LAWSON DRIVE ST FILLANS 2850",
    "locID": "LOC000094756438",
    "tech": "WIRELESS",
    "upgrade": "NULL_NA",
    "gnaf_pid": "GANSW706510198",
    "tech_change_status": "Not Planned",
    "program_type": "Fixed Wireless and Satellite Upgrade Program",
    "target_eligibility_quarter": "NA"
   }
  },
  {
   "type": "Feature",
   "geometry": {
    "type": "Point",
    "coordinates": [
     149.65656405,
     -32.47255299
    ]
   },
   "properties": {
    "name": "1040 BLACK SPRINGS ROAD ST FILLANS 2850",
    "locID": "LOC000072487862",
    "tech": "WIRELESS",
    "upgrade": "NULL_NA",
    "gnaf_pid": "GANSW710133920",
    "tech_change_status": "Not Planned",
    "program_type": "Fixed Wireless and Satellite Upgrade Program",
    "target_eligibility_quarter": "NA"
   }
  },
  {
   "type": "Feature",
   "geometry": {
    "type": "Point",
    "coordinates": [
     149.64043714,
     -32.46732878
    ]
   },
   "properties": {
    "name": "301 LOWES PEAK ROAD ST FILLANS 2850",
    "locID": "LOC000013704958",
    "tech": "WIRELESS",
    "upgrade": "NULL_NA",
    "gnaf_pid": "GANSW710133921",
    "tech_change_status": "Not Planned",
    "program_type": "Fixed Wireless and Satellite Upgrade Program",
    "target_eligibility_quarter": "NA"
   }
  },
  {
   "type": "Feature",
   "geometry": {
    "type": "Point",
    "coordinates": [
     149.65705089,
     -32.4662308
    ]
   },
   "properties": {
    "name": "1114 BLACK SPRINGS ROAD ST FILLANS 2850",
    "locID": "LOC000063964246",
    "tech": "WIRELESS",
    "upgrade": "NULL_NA",
    "gnaf_pid": "GANSW710133922",
    "tech_change_status": "Not Planned",
    "program_type": "Fixed Wireless and Satellite Upgrade Program",
    "target_eligibility_quarter": "NA"
   }
  },
  {
   "type": "Feature",
   "geometry": {
    "type": "Point",
    "coordinates": [
     149.65886618,
     -32.47960809
    ]
   },
   "properties": {
    "name": "982 BLACK SPRINGS ROAD ST FILLANS 2850",
    "locID": "LOC000071148912",
    "tech": "WIRELESS",
    "upgrade": "NULL_NA",
    "gnaf_pid": "GANSW710133923",
    "tech_change_status": "Not Planned",
    "program_type": "Fixed Wireless and Satellite Upgrade Program",
    "target_eligibility_quarter": "NA"
   }
  },
  {
   "type": "Feature",
   "geometry": {
    "type": "Point",
    "coordinates": [
     149.64376231,
     -32.47499378
    ]
   },
   "properties": {
    "name": "224 LOWES PEAK ROAD ST FILLANS 2850",
    "locID": "LOC000010579641",
    "tech": "WIRELESS",
    "upgrade": "NULL_NA",
    "gnaf_pid": "GANSW710133926",
    "tech_change_status": "Not Planned",
    "program_type": "Fixed Wireless and Satellite Upgrade Program",
    "target_eligibility_quarter": "NA"
   }
  },
  {
   "type": "Feature",
   "geometry": {
    "type": "Point",
    "coordinates": [
     149.65382797,
     -32.46621262
    ]
   },
   "properties": {
    "name": "1131 BLACK SPRINGS ROAD ST FILLANS 2850",
    "locID": "LOC000103072862",
    "tech": "WIRELESS",
    "upgrade": "NULL_NA",
    "gnaf_pid": "GANSW710133929",
    "tech_change_status": "Not Planned",
    "program_type": "Fixed Wireless and Satellite Upgrade Program",
    "target_eligibility_quarter": "NA"
   }
  },
  {
   "type": "Feature",
   "geometry": {
    "type": "Point",
    "coordinates": [
     149.63867009,
     -32.48101694
    ]
   },
   "properties": {
    "name": "157A LOWES PEAK ROAD ST FILLANS 2850",
    "locID": "LOC000043761695",
    "tech": "WIRELESS",
    "upgrade": "NULL_NA",
    "gnaf_pid": "GANSW710133930",
    "tech_change_status": "Not Planned",
    "program_type": "Fixed Wireless and Satellite Upgrade Program",
    "target_eligibility_quarter": "NA"
   }
  },
  {
   "type": "Feature",
   "geometry": {
    "type": "Point",
    "coordinates": [
     149.64664738,
     -32.45735938
    ]
   },
   "properties": {
    "name": "406 LOWES PEAK ROAD ST FILLANS 2850",
    "locID": "LOC000014644126",
    "tech": "WIRELESS",
    "upgrade": "NULL_NA",
    "gnaf_pid": "GANSW710133931",
    "tech_change_status": "Not Planned",
    "program_type": "Fixed Wireless and Satellite Upgrade Program",
    "target_eligibility_quarter": "NA"
   }
  },
  {
   "type": "Feature",
   "geometry": {
    "type": "Point",
    "coordinates": [
     149.64674518,
     -32.45867356
    ]
   },
   "properties": {
    "name": "400 LOWES PEAK ROAD ST FILLANS 2850",
    "locID": "LOC000097697258",
    "tech": "WIRELESS",
    "upgrade": "NULL_NA",
    "gnaf_pid": "GANSW710147594",
    "tech_change_status": "Not Planned",
    "program_type": "Fixed Wireless and Satellite Upgrade Program",
    "target_eligibility_quarter": "NA"
   }
  },
  {
   "type": "Feature",
   "geometry": {
    "type": "Point",
    "coordinates": [
     149.64005817,
     -32.4731356
    ]
   },
   "properties": {
    "name": "233 LOWES PEAK ROAD ST FILLANS 2850",
    "locID": "LOC000062999121",
    "tech": "WIRELESS",
    "upgrade": "NULL_NA",
    "gnaf_pid": "GANSW710147595",
    "tech_change_status": "Not Planned",
    "program_type": "Fixed Wireless and Satellite Upgrade Program",
    "target_eligibility_quarter": "NA"
   }
  },
  {
   "type": "Feature",
   "geometry": {
    "type": "Point",
    "coordinates": [
     149.64224642,
     -32.46023223
    ]
   },
   "properties": {
    "name": "383 LOWES PEAK ROAD ST FILLANS 2850",
    "locID": "LOC000035512257",
    "tech": "WIRELESS",
    "upgrade": "NULL_NA",
    "gnaf_pid": "GANSW710147597",
    "tech_change_status": "Not Planned",
    "program_type": "Fixed Wireless and Satellite Upgrade Program",
    "target_eligibility_quarter": "NA"
   }
  },
  {
   "type": "Feature",
   "geometry": {
    "type": "Point",
    "coordinates": [
     149.64446524,
     -32.45772001
    ]
   },
   "properties": {
    "name": "405 LOWES PEAK ROAD ST FILLANS 2850",
    "locID": "LOC000081612081",
    "tech": "WIRELESS",
    "upgrade": "NULL_NA",
    "gnaf_pid": "GANSW710147598",
    "tech_change_status": "Not Planned",
    "program_type": "Fixed Wireless and Satellite Upgrade Program",
    "target_eligibility_quarter": "NA"
   }
  },
  {
   "type": "Feature",
   "geometry": {
    "type": "Point",
    "coordinates": [
     149.63120183,
     -32.48112192
    ]
   },
   "properties": {
    "name": "1214 HENRY LAWSON DRIVE ST FILLANS 2850",
    "locID": "LOC000047764867",
    "tech": "WIRELESS",
    "upgrade": "NULL_NA",
    "gnaf_pid": "GANSW710154521",
    "tech_change_status": "Not Planned",
    "program_type": "Fixed Wireless and Satellite Upgrade Program",
    "target_eligibility_quarter": "NA"
   }
  },
  {
   "type": "Feature",
   "geometry": {
    "type": "Point",
    "coordinates": [
     149.61982933,
     -32.44497902
    ]
   },
   "properties": {
    "name": "1613 HENRY LAWSON DRIVE ST FILLANS 2850",
    "locID": "LOC000080761121",
    "tech": "WIRELESS",
    "upgrade": "NULL_NA",
    "gnaf_pid": "GANSW710154524",
    "tech_change_status": "Not Planned",
    "program_type": "Fixed Wireless and Satellite Upgrade Program",
    "target_eligibility_quarter": "NA"
   }
  },
  {
   "type": "Feature",
   "geometry": {
    "type": "Point",
    "coordinates": [
     149.61163645,
     -32.45445443
    ]
   },
   "properties": {
    "name": "1541 HENRY LAWSON DRIVE ST FILLANS 2850",
    "locID": "LOC000084211068",
    "tech": "WIRELESS",
    "upgrade": "NULL_NA",
    "gnaf_pid": "GANSW710154526",
    "tech_change_status": "Not Planned",
    "program_type": "Fixed Wireless and Satellite Upgrade Program",
    "target_eligibility_quarter": "NA"
   }
  },
  {
   "type": "Feature",
   "geometry": {
    "type": "Point",
    "coordinates": [
     149.6280431,
     -32.47950983
    ]
   },
   "properties": {
    "name": "1235 HENRY LAWSON DRIVE ST FILLANS 2850",
    "locID": "LOC000028107576",
    "tech": "WIRELESS",
    "upgrade": "NULL_NA",
    "gnaf_pid": "GANSW710154527",
    "tech_change_status": "Not Planned",
    "program_type": "Fixed Wireless and Satellite Upgrade Program",
    "target_eligibility_quarter": "NA"
   }
  },
  {
   "type": "Feature",
   "geometry": {
    "type": "Point",
    "coordinates": [
     149.63344897,
     -32.4569987
    ]
   },
   "properties": {
    "name": "119 SAINTS LANE ST FILLANS 2850",
    "locID": "LOC000045276525",
    "tech": "WIRELESS",
    "upgrade": "NULL_NA",
    "gnaf_pid": "GANSW710154528",
    "tech_change_status": "Not Planned",
    "program_type": "Fixed Wireless and Satellite Upgrade Program",
    "target_eligibility_quarter": "NA"
   }
  },
  {
   "type": "Feature",
   "geometry": {
    "type": "Point",
    "coordinates": [
     149.63407503,
     -32.48035454
    ]
   },
   "properties": {
    "name": "1232 HENRY LAWSON DRIVE ST FILLANS 2850",
    "locID": "LOC000034870021",
    "tech": "WIRELESS",
    "upgrade": "NULL_NA",
    "gnaf_pid": "GANSW710154531",
    "tech_change_status": "Not Planned",
    "program_type": "Fixed Wireless and Satellite Upgrade Program",
    "target_eligibility_quarter": "NA"
   }
  },
  {
   "type": "Feature",
   "geometry": {
    "type": "Point",
    "coordinates": [
     149.64946077,
     -32.46955913
    ]
   },
   "properties": {
    "name": "53 BREWERS LANE ST FILLANS 2850",
    "locID": "LOC000052933510",
    "tech": "WIRELESS",
    "upgrade": "NULL_NA",
    "gnaf_pid": "GANSW710154533",
    "tech_change_status": "Not Planned",
    "program_type": "Fixed Wireless and Satellite Upgrade Program",
    "target_eligibility_quarter": "NA"
   }
  },
  {
   "type": "Feature",
   "geometry": {
    "type": "Point",
    "coordinates": [
     149.63718234,
     -32.45367221
    ]
   },
   "properties": {
    "name": "165 SAINTS LANE ST FILLANS 2850",
    "locID": "LOC000040999837",
    "tech": "WIRELESS",
    "upgrade": "NULL_NA",
    "gnaf_pid": "GANSW710175192",
    "tech_change_status": "Not Planned",
    "program_type": "Fixed Wireless and Satellite Upgrade Program",
    "target_eligibility_quarter": "NA"
   }
  },
  {
   "type": "Feature",
   "geometry": {
    "type": "Point",
    "coordinates": [
     149.62687996,
     -32.45975491
    ]
   },
   "properties": {
    "name": "1454 HENRY LAWSON DRIVE ST FILLANS 2850",
    "locID": "LOC000057685382",
    "tech": "WIRELESS",
    "upgrade": "NULL_NA",
    "gnaf_pid": "GANSW710175193",
    "tech_change_status": "Not Planned",
    "program_type": "Fixed Wireless and Satellite Upgrade Program",
    "target_eligibility_quarter": "NA"
   }
  },
  {
   "type": "Feature",
   "geometry": {
    "type": "Point",
    "coordinates": [
     149.63060696,
     -32.47580382
    ]
   },
   "properties": {
    "name": "1274 HENRY LAWSON DRIVE ST FILLANS 2850",
    "locID": "LOC000099564901",
    "tech": "WIRELESS",
    "upgrade": "NULL_NA",
    "gnaf_pid": "GANSW710175194",
    "tech_change_status": "Not Planned",
    "program_type": "Fixed Wireless and Satellite Upgrade Program",
    "target_eligibility_quarter": "NA"
   }
  },
  {
   "type": "Feature",
   "geometry": {
    "type": "Point",
    "coordinates": [
     149.61701997,
     -32.44604185
    ]
   },
   "properties": {
    "name": "1605 HENRY LAWSON DRIVE ST FILLANS 2850",
    "locID": "LOC000091359147",
    "tech": "WIRELESS",
    "upgrade": "NULL_NA",
    "gnaf_pid": "GANSW710175195",
    "tech_change_status": "Not Planned",
    "program_type": "Fixed Wireless and Satellite Upgrade Program",
    "target_eligibility_quarter": "NA"
   }
  },
  {
   "type": "Feature",
   "geometry": {
    "type": "Point",
    "coordinates": [
     149.62775865,
     -32.46705484
    ]
   },
   "properties": {
    "name": "1374 HENRY LAWSON DRIVE ST FILLANS 2850",
    "locID": "LOC000092478513",
    "tech": "WIRELESS",
    "upgrade": "NULL_NA",
    "gnaf_pid": "GANSW710175197",
    "tech_change_status": "Not Planned",
    "program_type": "Fixed Wireless and Satellite Upgrade Program",
    "target_eligibility_quarter": "NA"
   }
  },
  {
   "type": "Feature",
   "geometry": {
    "type": "Point",
    "coordinates": [
     149.64881118,
     -32.46208431
    ]
   },
   "properties": {
    "name": "376 LOWES PEAK ROAD ST FILLANS 2850",
    "locID": "LOC000075476286",
    "tech": "WIRELESS",
    "upgrade": "NULL_NA",
    "gnaf_pid": "GANSW710181067",
    "tech_change_status": "Not Planned",
    "program_type": "Fixed Wireless and Satellite Upgrade Program",
    "target_eligibility_quarter": "NA"
   }
  },
  {
   "type": "Feature",
   "geometry": {
    "type": "Point",
    "coordinates": [
     149.64552157,
     -32.4725675
    ]
   },
   "properties": {
    "name": "44 BREWERS LANE ST FILLANS 2850",
    "locID": "LOC000075553893",
    "tech": "WIRELESS",
    "upgrade": "NULL_NA",
    "gnaf_pid": "GANSW710181068",
    "tech_change_status": "Not Planned",
    "program_type": "Fixed Wireless and Satellite Upgrade Program",
    "target_eligibility_quarter": "NA"
   }
  },
  {
   "type": "Feature",
   "geometry": {
    "type": "Point",
    "coordinates": [
     149.63214978,
     -32.46273796
    ]
   },
   "properties": {
    "name": "59 SAINTS LANE ST FILLANS 2850",
    "locID": "LOC000042296777",
    "tech": "WIRELESS",
    "upgrade": "NULL_NA",
    "gnaf_pid": "GANSW710181072",
    "tech_change_status": "Not Planned",
    "program_type": "Fixed Wireless and Satellite Upgrade Program",
    "target_eligibility_quarter": "NA"
   }
  },
  {
   "type": "Feature",
   "geometry": {
    "type": "Point",
    "coordinates": [
     149.6469897,
     -32.46817428
    ]
   },
   "properties": {
    "name": "45 BREWERS LANE ST FILLANS 2850",
    "locID": "LOC000005014168",
    "tech": "WIRELESS",
    "upgrade": "NULL_NA",
    "gnaf_pid": "GANSW710181510",
    "tech_change_status": "Not Planned",
    "program_type": "Fixed Wireless and Satellite Upgrade Program",
    "target_eligibility_quarter": "NA"
   }
  },
  {
   "type": "Feature",
   "geometry": {
    "type": "Point",
    "coordinates": [
     149.62885807,
     -32.47181822
    ]
   },
   "properties": {
    "name": "1318 HENRY LAWSON DRIVE ST FILLANS 2850",
    "locID": "LOC000078360027",
    "tech": "WIRELESS",
    "upgrade": "NULL_NA",
    "gnaf_pid": "GANSW710181513",
    "tech_change_status": "Not Planned",
    "program_type": "Fixed Wireless and Satellite Upgrade Program",
    "target_eligibility_quarter": "NA"
   }
  },
  {
   "type": "Feature",
   "geometry": {
    "type": "Point",
    "coordinates": [
     149.62853948,
     -32.46656439
    ]
   },
   "properties": {
    "name": "9 ST FILLANS ROAD ST FILLANS 2850",
    "locID": "LOC000041646393",
    "tech": "WIRELESS",
    "upgrade": "NULL_NA",
    "gnaf_pid": "GANSW710181515",
    "tech_change_status": "Not Planned",
    "program_type": "Fixed Wireless and Satellite Upgrade Program",
    "target_eligibility_quarter": "NA"
   }
  },
  {
   "type": "Feature",
   "geometry": {
    "type": "Point",
    "coordinates": [
     149.63424846,
     -32.46372306
    ]
   },
   "properties": {
    "name": "50 SAINTS LANE ST FILLANS 2850",
    "locID": "LOC000107313538",
    "tech": "WIRELESS",
    "upgrade": "NULL_NA",
    "gnaf_pid": "GANSW710181516",
    "tech_change_status": "Not Planned",
    "program_type": "Fixed Wireless and Satellite Upgrade Program",
    "target_eligibility_quarter": "NA"
   }
  },
  {
   "type": "Feature",
   "geometry": {
    "type": "Point",
    "coordinates": [
     149.62586511,
     -32.45575325
    ]
   },
   "properties": {
    "name": "1498 HENRY LAWSON DRIVE ST FILLANS 2850",
    "locID": "LOC000107858493",
    "tech": "WIRELESS",
    "upgrade": "NULL_NA",
    "gnaf_pid": "GANSW710181517",
    "tech_change_status": "Not Planned",
    "program_type": "Fixed Wireless and Satellite Upgrade Program",
    "target_eligibility_quarter": "NA"
   }
  },
  {
   "type": "Feature",
   "geometry": {
    "type": "Point",
    "coordinates": [
     149.63530495,
     -32.45896889
    ]
   },
   "properties": {
    "name": "104 SAINTS LANE ST FILLANS 2850",
    "locID": "LOC000082850038",
    "tech": "WIRELESS",
    "upgrade": "NULL_NA",
    "gnaf_pid": "GANSW710181522",
    "tech_change_status": "Not Planned",
    "program_type": "Fixed Wireless and Satellite Upgrade Program",
    "target_eligibility_quarter": "NA"
   }
  },
  {
   "type": "Feature",
   "geometry": {
    "type": "Point",
    "coordinates": [
     149.64406744,
     -32.47025937
    ]
   },
   "properties": {
    "name": "27 BREWERS LANE ST FILLANS 2850",
    "locID": "LOC000049547272",
    "tech": "WIRELESS",
    "upgrade": "NULL_NA",
    "gnaf_pid": "GANSW710181526",
    "tech_change_status": "Not Planned",
    "program_type": "Fixed Wireless and Satellite Upgrade Program",
    "target_eligibility_quarter": "NA"
   }
  },
  {
   "type": "Feature",
   "geometry": {
    "type": "Point",
    "coordinates": [
     149.63689852,
     -32.47096163
    ]
   },
   "properties": {
    "name": "98 ST FILLANS ROAD ST FILLANS 2850",
    "locID": "LOC000003766031",
    "tech": "WIRELESS",
    "upgrade": "NULL_NA",
    "gnaf_pid": "GANSW710181527",
    "tech_change_status": "Not Planned",
    "program_type": "Fixed Wireless and Satellite Upgrade Program",
    "target_eligibility_quarter": "NA"
   }
  },
  {
   "type": "Feature",
   "geometry": {
    "type": "Point",
    "coordinates": [
     149.6528271,
     -32.48197804
    ]
   },
   "properties": {
    "name": "951 BLACK SPRINGS ROAD ST FILLANS 2850",
    "locID": "LOC000074768571",
    "tech": "WIRELESS",
    "upgrade": "NULL_NA",
    "gnaf_pid": "GANSW710210114",
    "tech_change_status": "Not Planned",
    "program_type": "Fixed Wireless and Satellite Upgrade Program",
    "target_eligibility_quarter": "NA"
   }
  },
  {
   "type": "Feature",
   "geometry": {
    "type": "Point",
    "coordinates": [
     149.65974063,
     -32.48239206
    ]
   },
   "properties": {
    "name": "950 BLACK SPRINGS ROAD ST FILLANS 2850",
    "locID": "LOC000065397959",
    "tech": "WIRELESS",
    "upgrade": "NULL_NA",
    "gnaf_pid": "GANSW710231129",
    "tech_change_status": "Not Planned",
    "program_type": "Fixed Wireless and Satellite Upgrade Program",
    "target_eligibility_quarter": "NA"
   }
  },
  {
   "type": "Feature",
   "geometry": {
    "type": "Point",
    "coordinates": [
     149.63196326,
     -32.47426312
    ]
   },
   "properties": {
    "name": "1300 HENRY LAWSON DRIVE ST FILLANS 2850",
    "locID": "LOC000078747049",
    "tech": "WIRELESS",
    "upgrade": "NULL_NA",
    "gnaf_pid": "GANSW710231131",
    "tech_change_status": "Not Planned",
    "program_type": "Fixed Wireless and Satellite Upgrade Program",
    "target_eligibility_quarter": "NA"
   }
  },
  {
   "type": "Feature",
   "geometry": {
    "type": "Point",
    "coordinates": [
     149.64268652,
     -32.46504272
    ]
   },
   "properties": {
    "name": "317 LOWES PEAK ROAD ST FILLANS 2850",
    "locID": "LOC000099852227",
    "tech": "WIRELESS",
    "upgrade": "NULL_NA",
    "gnaf_pid": "GANSW710231132",
    "tech_change_status": "Not Planned",
    "program_type": "Fixed Wireless and Satellite Upgrade Program",
    "target_eligibility_quarter": "NA"
   }
  },
  {
   "type": "Feature",
   "geometry": {
    "type": "Point",
    "coordinates": [
     149.65373249,
     -32.4771275
    ]
   },
   "properties": {
    "name": "1021 BLACK SPRINGS ROAD ST FILLANS 2850",
    "locID": "LOC000016839335",
    "tech": "WIRELESS",
    "upgrade": "NULL_NA",
    "gnaf_pid": "GANSW710231133",
    "tech_change_status": "Not Planned",
    "program_type": "Fixed Wireless and Satellite Upgrade Program",
    "target_eligibility_quarter": "NA"
   }
  },
  {
   "type": "Feature",
   "geometry": {
    "type": "Point",
    "coordinates": [
     149.6573458,
     -32.48967974
    ]
   },
   "properties": {
    "name": "820 BLACK SPRINGS ROAD ST FILLANS 2850",
    "locID": "LOC000073536324",
    "tech": "WIRELESS",
    "upgrade": "NULL_NA",
    "gnaf_pid": "GANSW710231135",
    "tech_change_status": "Not Planned",
    "program_type": "Fixed Wireless and Satellite Upgrade Program",
    "target_eligibility_quarter": "NA"
   }
  },
  {
   "type": "Feature",
   "geometry": {
    "type": "Point",
    "coordinates": [
     149.64064832,
     -32.47242983
    ]
   },
   "properties": {
    "name": "LOT 6 LOWES PEAK ROAD ST FILLANS 2850",
    "locID": "LOC000084813128",
    "tech": "WIRELESS",
    "upgrade": "NULL_NA",
    "gnaf_pid": "GANSW710231136",
    "tech_change_status": "Not Planned",
    "program_type": "Fixed Wireless and Satellite Upgrade Program",
    "target_eligibility_quarter": "NA"
   }
  },
  {
   "type": "Feature",
   "geometry": {
    "type": "Point",
    "coordinates": [
     149.65176171,
     -32.48797507
    ]
   },
   "properties": {
    "name": "878 BLACK SPRINGS ROAD ST FILLANS 2850",
    "locID": "LOC000072425593",
    "tech": "WIRELESS",
    "upgrade": "NULL_NA",
    "gnaf_pid": "GANSW710231137",
    "tech_change_status": "Not Planned",
    "program_type": "Fixed Wireless and Satellite Upgrade Program",
    "target_eligibility_quarter": "NA"
   }
  },
  {
   "type": "Feature",
   "geometry": {
    "type": "Point",
    "coordinates": [
     149.6328615,
     -32.48177032
    ]
   },
   "properties": {
    "name": "1212 HENRY LAWSON DRIVE ST FILLANS 2850",
    "locID": "LOC000076196995",
    "tech": "WIRELESS",
    "upgrade": "NULL_NA",
    "gnaf_pid": "GANSW715680567",
    "tech_change_status": "Not Planned",
    "program_type": "Fixed Wireless and Satellite Upgrade Program",
    "target_eligibility_quarter": "NA"
   }
  },
  {
   "type": "Feature",
   "geometry": {
    "type": "Point",
    "coordinates": [
     149.62583426,
     -32.45047359
    ]
   },
   "properties": {
    "name": "1556 HENRY LAWSON DRIVE ST FILLANS 2850",
    "locID": "LOC000022877541",
    "tech": "WIRELESS",
    "upgrade": "NULL_NA",
    "gnaf_pid": "GANSW715680571",
    "tech_change_status": "Not Planned",
    "program_type": "Fixed Wireless and Satellite Upgrade Program",
    "target_eligibility_quarter": "NA"
   }
  },
  {
   "type": "Feature",
   "geometry": {
    "type": "Point",
    "coordinates": [
     149.65631421,
     -32.47717509
    ]
   },
   "properties": {
    "name": "1012 BLACK SPRINGS ROAD ST FILLANS 2850",
    "locID": "LOC000112906335",
    "tech": "WIRELESS",
    "upgrade": "NULL_NA",
    "gnaf_pid": "GANSW715748321",
    "tech_change_status": "Not Planned",
    "program_type": "Fixed Wireless and Satellite Upgrade Program",
    "target_eligibility_quarter": "NA"
   }
  },
  {
   "type": "Feature",
   "geometry": {
    "type": "Point",
    "coordinates": [
     149.65579667,
     -32.47561654
    ]
   },
   "properties": {
    "name": "1026 BLACK SPRINGS ROAD ST FILLANS 2850",
    "locID": "LOC000113200934",
    "tech": "WIRELESS",
    "upgrade": "NULL_NA",
    "gnaf_pid": "GANSW715748323",
    "tech_change_status": "Not Planned",
    "program_type": "Fixed Wireless and Satellite Upgrade Program",
    "target_eligibility_quarter": "NA"
   }
  },
  {
   "type": "Feature",
   "geometry": {
    "type": "Point",
    "coordinates": [
     149.65361946,
     -32.47462312
    ]
   },
   "properties": {
    "name": "1039 BLACK SPRINGS ROAD ST FILLANS 2850",
    "locID": "LOC000029032639",
    "tech": "WIRELESS",
    "upgrade": "NULL_NA",
    "gnaf_pid": "GANSW715748324",
    "tech_change_status": "Not Planned",
    "program_type": "Fixed Wireless and Satellite Upgrade Program",
    "target_eligibility_quarter": "NA"
   }
  },
  {
   "type": "Feature",
   "geometry": {
    "type": "Point",
    "coordinates": [
     149.65642026,
     -32.46930747
    ]
   },
   "properties": {
    "name": "1084 BLACK SPRINGS ROAD ST FILLANS 2850",
    "locID": "LOC000113033782",
    "tech": "WIRELESS",
    "upgrade": "NULL_NA",
    "gnaf_pid": "GANSW715748327",
    "tech_change_status": "Not Planned",
    "program_type": "Fixed Wireless and Satellite Upgrade Program",
    "target_eligibility_quarter": "NA"
   }
  },
  {
   "type": "Feature",
   "geometry": {
    "type": "Point",
    "coordinates": [
     149.6532328,
     -32.47069701
    ]
   },
   "properties": {
    "name": "1089 BLACK SPRINGS ROAD ST FILLANS 2850",
    "locID": "LOC000011276456",
    "tech": "WIRELESS",
    "upgrade": "NULL_NA",
    "gnaf_pid": "GANSW715748328",
    "tech_change_status": "Not Planned",
    "program_type": "Fixed Wireless and Satellite Upgrade Program",
    "target_eligibility_quarter": "NA"
   }
  },
  {
   "type": "Feature",
   "geometry": {
    "type": "Point",
    "coordinates": [
     149.65387187,
     -32.46386243
    ]
   },
   "properties": {
    "name": "1155 BLACK SPRINGS ROAD ST FILLANS 2850",
    "locID": "LOC000143024611",
    "tech": "WIRELESS",
    "upgrade": "NULL_NA",
    "gnaf_pid": "GANSW715748330",
    "tech_change_status": "Not Planned",
    "program_type": "Fixed Wireless and Satellite Upgrade Program",
    "target_eligibility_quarter": "NA"
   }
  },
  {
   "type": "Feature",
   "geometry": {
    "type": "Point",
    "coordinates": [
     149.65279397,
     -32.46129737
    ]
   },
   "properties": {
    "name": "1187 BLACK SPRINGS ROAD ST FILLANS 2850",
    "locID": "LOC000113283542",
    "tech": "WIRELESS",
    "upgrade": "NULL_NA",
    "gnaf_pid": "GANSW715748331",
    "tech_change_status": "Not Planned",
    "program_type": "Fixed Wireless and Satellite Upgrade Program",
    "target_eligibility_quarter": "NA"
   }
  },
  {
   "type": "Feature",
   "geometry": {
    "type": "Point",
    "coordinates": [
     149.65632747,
     -32.46074414
    ]
   },
   "properties": {
    "name": "1190 BLACK SPRINGS ROAD ST FILLANS 2850",
    "locID": "LOC000114733754",
    "tech": "WIRELESS",
    "upgrade": "NULL_NA",
    "gnaf_pid": "GANSW715748332",
    "tech_change_status": "Not Planned",
    "program_type": "Fixed Wireless and Satellite Upgrade Program",
    "target_eligibility_quarter": "NA"
   }
  },
  {
   "type": "Feature",
   "geometry": {
    "type": "Point",
    "coordinates": [
     149.65822372,
     -32.48079187
    ]
   },
   "properties": {
    "name": "974 BLACK SPRINGS ROAD ST FILLANS 2850",
    "locID": "LOC000114599979",
    "tech": "WIRELESS",
    "upgrade": "NULL_NA",
    "gnaf_pid": "GANSW715748338",
    "tech_change_status": "Not Planned",
    "program_type": "Fixed Wireless and Satellite Upgrade Program",
    "target_eligibility_quarter": "NA"
   }
  },
  {
   "type": "Feature",
   "geometry": {
    "type": "Point",
    "coordinates": [
     149.65328634,
     -32.48039926
    ]
   },
   "properties": {
    "name": "979 BLACK SPRINGS ROAD ST FILLANS 2850",
    "locID": "LOC000093881968",
    "tech": "WIRELESS",
    "upgrade": "NULL_NA",
    "gnaf_pid": "GANSW715748339",
    "tech_change_status": "Not Planned",
    "program_type": "Fixed Wireless and Satellite Upgrade Program",
    "target_eligibility_quarter": "NA"
   }
  },
  {
   "type": "Feature",
   "geometry": {
    "type": "Point",
    "coordinates": [
     149.65298891,
     -32.47834698
    ]
   },
   "properties": {
    "name": "987 BLACK SPRINGS ROAD ST FILLANS 2850",
    "locID": "LOC000114413618",
    "tech": "WIRELESS",
    "upgrade": "NULL_NA",
    "gnaf_pid": "GANSW715748341",
    "tech_change_status": "Not Planned",
    "program_type": "Fixed Wireless and Satellite Upgrade Program",
    "target_eligibility_quarter": "NA"
   }
  },
  {
   "type": "Feature",
   "geometry": {
    "type": "Point",
    "coordinates": [
     149.62845356,
     -32.48170488
    ]
   },
   "properties": {
    "name": "1191 HENRY LAWSON DRIVE ST FILLANS 2850",
    "locID": "LOC000021222346",
    "tech": "WIRELESS",
    "upgrade": "NULL_NA",
    "gnaf_pid": "GANSW715897735",
    "tech_change_status": "Not Planned",
    "program_type": "Fixed Wireless and Satellite Upgrade Program",
    "target_eligibility_quarter": "NA"
   }
  },
  {
   "type": "Feature",
   "geometry": {
    "type": "Point",
    "coordinates": [
     149.63352775,
     -32.47808215
    ]
   },
   "properties": {
    "name": "1240 HENRY LAWSON DRIVE ST FILLANS 2850",
    "locID": "LOC000024184261",
    "tech": "WIRELESS",
    "upgrade": "NULL_NA",
    "gnaf_pid": "GANSW715897740",
    "tech_change_status": "Not Planned",
    "program_type": "Fixed Wireless and Satellite Upgrade Program",
    "target_eligibility_quarter": "NA"
   }
  },
  {
   "type": "Feature",
   "geometry": {
    "type": "Point",
    "coordinates": [
     149.62804578,
     -32.47098452
    ]
   },
   "properties": {
    "name": "1332 HENRY LAWSON DRIVE ST FILLANS 2850",
    "locID": "LOC000077667759",
    "tech": "WIRELESS",
    "upgrade": "NULL_NA",
    "gnaf_pid": "GANSW715897745",
    "tech_change_status": "Not Planned",
    "program_type": "Fixed Wireless and Satellite Upgrade Program",
    "target_eligibility_quarter": "NA"
   }
  },
  {
   "type": "Feature",
   "geometry": {
    "type": "Point",
    "coordinates": [
     149.61874627,
     -32.45032131
    ]
   },
   "properties": {
    "name": "1565 HENRY LAWSON DRIVE ST FILLANS 2850",
    "locID": "LOC000016314339",
    "tech": "WIRELESS",
    "upgrade": "NULL_NA",
    "gnaf_pid": "GANSW715897747",
    "tech_change_status": "Not Planned",
    "program_type": "Fixed Wireless and Satellite Upgrade Program",
    "target_eligibility_quarter": "NA"
   }
  },
  {
   "type": "Feature",
   "geometry": {
    "type": "Point",
    "coordinates": [
     149.61956005,
     -32.44910779
    ]
   },
   "properties": {
    "name": "1567 HENRY LAWSON DRIVE ST FILLANS 2850",
    "locID": "LOC000102994421",
    "tech": "WIRELESS",
    "upgrade": "NULL_NA",
    "gnaf_pid": "GANSW715897748",
    "tech_change_status": "Not Planned",
    "program_type": "Fixed Wireless and Satellite Upgrade Program",
    "target_eligibility_quarter": "NA"
   }
  },
  {
   "type": "Feature",
   "geometry": {
    "type": "Point",
    "coordinates": [
     149.64511316,
     -32.46839234
    ]
   },
   "properties": {
    "name": "292 LOWES PEAK ROAD ST FILLANS 2850",
    "locID": "LOC000053165589",
    "tech": "WIRELESS",
    "upgrade": "NULL_NA",
    "gnaf_pid": "GANSW715955807",
    "tech_change_status": "Not Planned",
    "program_type": "Fixed Wireless and Satellite Upgrade Program",
    "target_eligibility_quarter": "NA"
   }
  },
  {
   "type": "Feature",
   "geometry": {
    "type": "Point",
    "coordinates": [
     149.64463028,
     -32.46577622
    ]
   },
   "properties": {
    "name": "338 LOWES PEAK ROAD ST FILLANS 2850",
    "locID": "LOC000084813128",
    "tech": "WIRELESS",
    "upgrade": "NULL_NA",
    "gnaf_pid": "GANSW715955810",
    "tech_change_status": "Not Planned",
    "program_type": "Fixed Wireless and Satellite Upgrade Program",
    "target_eligibility_quarter": "NA"
   }
  },
  {
   "type": "Feature",
   "geometry": {
    "type": "Point",
    "coordinates": [
     149.64862782,
     -32.46392414
    ]
   },
   "properties": {
    "name": "374 LOWES PEAK ROAD ST FILLANS 2850",
    "locID": "LOC000061667586",
    "tech": "WIRELESS",
    "upgrade": "NULL_NA",
    "gnaf_pid": "GANSW715955811",
    "tech_change_status": "Not Planned",
    "program_type": "Fixed Wireless and Satellite Upgrade Program",
    "target_eligibility_quarter": "NA"
   }
  },
  {
   "type": "Feature",
   "geometry": {
    "type": "Point",
    "coordinates": [
     149.64203249,
     -32.46201095
    ]
   },
   "properties": {
    "name": "381 LOWES PEAK ROAD ST FILLANS 2850",
    "locID": "LOC000035495700",
    "tech": "WIRELESS",
    "upgrade": "NULL_NA",
    "gnaf_pid": "GANSW715955813",
    "tech_change_status": "Not Planned",
    "program_type": "Fixed Wireless and Satellite Upgrade Program",
    "target_eligibility_quarter": "NA"
   }
  },
  {
   "type": "Feature",
   "geometry": {
    "type": "Point",
    "coordinates": [
     149.65332678,
     -32.45750227
    ]
   },
   "properties": {
    "name": "24 NORLENBAH LANE ST FILLANS 2850",
    "locID": "LOC000043007064",
    "tech": "WIRELESS",
    "upgrade": "NULL_NA",
    "gnaf_pid": "GANSW716010674",
    "tech_change_status": "Not Planned",
    "program_type": "Fixed Wireless and Satellite Upgrade Program",
    "target_eligibility_quarter": "NA"
   }
  },
  {
   "type": "Feature",
   "geometry": {
    "type": "Point",
    "coordinates": [
     149.65071056,
     -32.45841617
    ]
   },
   "properties": {
    "name": "51 NORLENBAH LANE ST FILLANS 2850",
    "locID": "LOC000018382524",
    "tech": "WIRELESS",
    "upgrade": "NULL_NA",
    "gnaf_pid": "GANSW716010675",
    "tech_change_status": "Not Planned",
    "program_type": "Fixed Wireless and Satellite Upgrade Program",
    "target_eligibility_quarter": "NA"
   }
  },
  {
   "type": "Feature",
   "geometry": {
    "type": "Point",
    "coordinates": [
     149.63917922,
     -32.45669303
    ]
   },
   "properties": {
    "name": "144 SAINTS LANE ST FILLANS 2850",
    "locID": "LOC000112944908",
    "tech": "WIRELESS",
    "upgrade": "NULL_NA",
    "gnaf_pid": "GANSW716080880",
    "tech_change_status": "Not Planned",
    "program_type": "Fixed Wireless and Satellite Upgrade Program",
    "target_eligibility_quarter": "NA"
   }
  },
  {
   "type": "Feature",
   "geometry": {
    "type": "Point",
    "coordinates": [
     149.6403579,
     -32.45475898
    ]
   },
   "properties": {
    "name": "162 SAINTS LANE ST FILLANS 2850",
    "locID": "LOC000008140706",
    "tech": "WIRELESS",
    "upgrade": "NULL_NA",
    "gnaf_pid": "GANSW716080881",
    "tech_change_status": "Not Planned",
    "program_type": "Fixed Wireless and Satellite Upgrade Program",
    "target_eligibility_quarter": "NA"
   }
  },
  {
   "type": "Feature",
   "geometry": {
    "type": "Point",
    "coordinates": [
     149.63853863,
     -32.45323678
    ]
   },
   "properties": {
    "name": "171 SAINTS LANE ST FILLANS 2850",
    "locID": "LOC000107358816",
    "tech": "WIRELESS",
    "upgrade": "NULL_NA",
    "gnaf_pid": "GANSW716080883",
    "tech_change_status": "Not Planned",
    "program_type": "Fixed Wireless and Satellite Upgrade Program",
    "target_eligibility_quarter": "NA"
   }
  },
  {
   "type": "Feature",
   "geometry": {
    "type": "Point",
    "coordinates": [
     149.63148707,
     -32.46608082
    ]
   },
   "properties": {
    "name": "43 SAINTS LANE ST FILLANS 2850",
    "locID": "LOC000113089613",
    "tech": "WIRELESS",
    "upgrade": "NULL_NA",
    "gnaf_pid": "GANSW716080885",
    "tech_change_status": "Not Planned",
    "program_type": "Fixed Wireless and Satellite Upgrade Program",
    "target_eligibility_quarter": "NA"
   }
  },
  {
   "type": "Feature",
   "geometry": {
    "type": "Point",
    "coordinates": [
     149.6331009,
     -32.47092594
    ]
   },
   "properties": {
    "name": "60 ST FILLANS ROAD ST FILLANS 2850",
    "locID": "LOC000013245268",
    "tech": "WIRELESS",
    "upgrade": "NULL_NA",
    "gnaf_pid": "GANSW716100648",
    "tech_change_status": "Not Planned",
    "program_type": "Fixed Wireless and Satellite Upgrade Program",
    "target_eligibility_quarter": "NA"
   }
  },
  {
   "type": "Feature",
   "geometry": {
    "type": "Point",
    "coordinates": [
     149.63491406,
     -32.46754948
    ]
   },
   "properties": {
    "name": "75 ST FILLANS ROAD ST FILLANS 2850",
    "locID": "LOC000052829908",
    "tech": "WIRELESS",
    "upgrade": "NULL_NA",
    "gnaf_pid": "GANSW716100649",
    "tech_change_status": "Not Planned",
    "program_type": "Fixed Wireless and Satellite Upgrade Program",
    "target_eligibility_quarter": "NA"
   }
  },
  {
   "type": "Feature",
   "geometry": {
    "type": "Point",
    "coordinates": [
     149.65856016,
     -32.48444109
    ]
   },
   "properties": {
    "name": "40 URALBA LANE ST FILLANS 2850",
    "locID": "LOC000092108463",
    "tech": "WIRELESS",
    "upgrade": "NULL_NA",
    "gnaf_pid": "GANSW716152055",
    "tech_change_status": "Not Planned",
    "program_type": "Fixed Wireless and Satellite Upgrade Program",
    "target_eligibility_quarter": "NA"
   }
  },
  {
   "type": "Feature",
   "geometry": {
    "type": "Point",
    "coordinates": [
     149.64271709,
     -32.47707202
    ]
   },
   "properties": {
    "name": "196 LOWES PEAK ROAD ST FILLANS 2850",
    "locID": "LOC000031695818",
    "tech": "WIRELESS",
    "upgrade": "NULL_NA",
    "gnaf_pid": "GANSW716756847",
    "tech_change_status": "Not Planned",
    "program_type": "Fixed Wireless and Satellite Upgrade Program",
    "target_eligibility_quarter": "NA"
   }
  },
  {
   "type": "Feature",
   "geometry": {
    "type": "Point",
    "coordinates": [
     149.63673368,
     -32.43739409
    ]
   },
   "properties": {
    "name": "1740 HENRY LAWSON DRIVE ST FILLANS 2850",
    "locID": "LOC000095016472",
    "tech": "WIRELESS",
    "upgrade": "NULL_NA",
    "gnaf_pid": "GANSW717044848",
    "tech_change_status": "Not Planned",
    "program_type": "Fixed Wireless and Satellite Upgrade Program",
    "target_eligibility_quarter": "NA"
   }
  },
  {
   "type": "Feature",
   "geometry": {
    "type": "Point",
    "coordinates": [
     149.63095054,
     -32.4572771
    ]
   },
   "properties": {
    "name": "91 SAINTS LANE ST FILLANS 2850",
    "locID": "LOC000030938246",
    "tech": "WIRELESS",
    "upgrade": "NULL_NA",
    "gnaf_pid": "GANSW717346266",
    "tech_change_status": "Not Planned",
    "program_type": "Fixed Wireless and Satellite Upgrade Program",
    "target_eligibility_quarter": "NA"
   }
  },
  {
   "type": "Feature",
   "geometry": {
    "type": "Point",
    "coordinates": [
     149.63816987,
     -32.48322381
    ]
   },
   "properties": {
    "name": "157B LOWES PEAK ROAD ST FILLANS 2850",
    "locID": "LOC000043985958",
    "tech": "WIRELESS",
    "upgrade": "NULL_NA",
    "gnaf_pid": "GANSW717586972",
    "tech_change_status": "Not Planned",
    "program_type": "Fixed Wireless and Satellite Upgrade Program",
    "target_eligibility_quarter": "NA"
   }
  },
  {
   "type": "Feature",
   "geometry": {
    "type": "Point",
    "coordinates": [
     149.63914883,
     -32.46868163
    ]
   },
   "properties": {
    "name": "107 ST FILLANS ROAD ST FILLANS 2850",
    "locID": "LOC000062858724",
    "tech": "WIRELESS",
    "upgrade": "NULL_NA",
    "gnaf_pid": "GANSW717605866",
    "tech_change_status": "Not Planned",
    "program_type": "Fixed Wireless and Satellite Upgrade Program",
    "target_eligibility_quarter": "NA"
   }
  },
  {
   "type": "Feature",
   "geometry": {
    "type": "Point",
    "coordinates": [
     149.65136789,
     -32.45758039
    ]
   },
   "properties": {
    "name": "46 NORLENBAH LANE ST FILLANS 2850",
    "locID": "LOC000038065082",
    "tech": "WIRELESS",
    "upgrade": "NULL_NA",
    "gnaf_pid": "GANSW717974707",
    "tech_change_status": "Not Planned",
    "program_type": "Fixed Wireless and Satellite Upgrade Program",
    "target_eligibility_quarter": "NA"
   }
  },
  {
   "type": "Feature",
   "geometry": {
    "type": "Point",
    "coordinates": [
     149.65062765,
     -32.45711913
    ]
   },
   "properties": {
    "name": "48 NORLENBAH LANE ST FILLANS 2850",
    "locID": "LOC000108351444",
    "tech": "WIRELESS",
    "upgrade": "NULL_NA",
    "gnaf_pid": "GANSW717974708",
    "tech_change_status": "Not Planned",
    "program_type": "Fixed Wireless and Satellite Upgrade Program",
    "target_eligibility_quarter": "NA"
   }
  },
  {
   "type": "Feature",
   "geometry": {
    "type": "Point",
    "coordinates": [
     149.6497373,
     -32.45939658
    ]
   },
   "properties": {
    "name": "52 NORLENBAH LANE ST FILLANS 2850",
    "locID": "LOC000078071240",
    "tech": "WIRELESS",
    "upgrade": "NULL_NA",
    "gnaf_pid": "GANSW717974709",
    "tech_change_status": "Not Planned",
    "program_type": "Fixed Wireless and Satellite Upgrade Program",
    "target_eligibility_quarter": "NA"
   }
  },
  {
   "type": "Feature",
   "geometry": {
    "type": "Point",
    "coordinates": [
     149.65282881,
     -32.45683996
    ]
   },
   "properties": {
    "name": "34 NORLENBAH LANE ST FILLANS 2850",
    "locID": "LOC000046085193",
    "tech": "WIRELESS",
    "upgrade": "NULL_NA",
    "gnaf_pid": "GANSW718010203",
    "tech_change_status": "Not Planned",
    "program_type": "Fixed Wireless and Satellite Upgrade Program",
    "target_eligibility_quarter": "NA"
   }
  },
  {
   "type": "Feature",
   "geometry": {
    "type": "Point",
    "coordinates": [
     149.62630074,
     -32.45790087
    ]
   },
   "properties": {
    "name": "1476 HENRY LAWSON DRIVE ST FILLANS 2850",
    "locID": "LOC000122454700",
    "tech": "WIRELESS",
    "upgrade": "NULL_NA",
    "gnaf_pid": "GANSW718196095",
    "tech_change_status": "Not Planned",
    "program_type": "Fixed Wireless and Satellite Upgrade Program",
    "target_eligibility_quarter": "NA"
   }
  },
  {
   "type": "Feature",
   "geometry": {
    "type": "Point",
    "coordinates": [
     149.64429363,
     -32.47188891
    ]
   },
   "properties": {
    "name": "24 BREWERS LANE ST FILLANS 2850",
    "locID": "LOC000115629889",
    "tech": "WIRELESS",
    "upgrade": "NULL_NA",
    "gnaf_pid": "GANSW718224156",
    "tech_change_status": "Not Planned",
    "program_type": "Fixed Wireless and Satellite Upgrade Program",
    "target_eligibility_quarter": "NA"
   }
  },
  {
   "type": "Feature",
   "geometry": {
    "type": "Point",
    "coordinates": [
     149.63048112,
     -32.46946258
    ]
   },
   "properties": {
    "name": "24 ST FILLANS ROAD ST FILLANS 2850",
    "locID": "LOC000108485459",
    "tech": "WIRELESS",
    "upgrade": "NULL_NA",
    "gnaf_pid": "GANSW718269874",
    "tech_change_status": "Not Planned",
    "program_type": "Fixed Wireless and Satellite Upgrade Program",
    "target_eligibility_quarter": "NA"
   }
  },
  {
   "type": "Feature",
   "geometry": {
    "type": "Point",
    "coordinates": [
     149.65920713,
     -32.4542309
    ]
   },
   "properties": {
    "name": "7 NORLENBAH ROAD ST FILLANS 2850",
    "locID": "LOC000122446630",
    "tech": "WIRELESS",
    "upgrade": "NULL_NA",
    "gnaf_pid": "GANSW718316349",
    "tech_change_status": "Not Planned",
    "program_type": "Fixed Wireless and Satellite Upgrade Program",
    "target_eligibility_quarter": "NA"
   }
  },
  {
   "type": "Feature",
   "geometry": {
    "type": "Point",
    "coordinates": [
     149.65339565,
     -32.45826208
    ]
   },
   "properties": {
    "name": "14 NORLENBAH LANE ST FILLANS 2850",
    "locID": "LOC000153138701",
    "tech": "WIRELESS",
    "upgrade": "NULL_NA",
    "gnaf_pid": "GANSW718433344",
    "tech_change_status": "Not Planned",
    "program_type": "Fixed Wireless and Satellite Upgrade Program",
    "target_eligibility_quarter": "NA"
   }
  },
  {
   "type": "Feature",
   "geometry": {
    "type": "Point",
    "coordinates": [
     149.6280656,
     -32.46365073
    ]
   },
   "properties": {
    "name": "1430 HENRY LAWSON DRIVE ST FILLANS 2850",
    "locID": "LOC100078068706",
    "tech": "WIRELESS",
    "upgrade": "NULL_NA",
    "gnaf_pid": "GANSW718459608",
    "tech_change_status": "Not Planned",
    "program_type": "Fixed Wireless and Satellite Upgrade Program",
    "target_eligibility_quarter": "NA"
   }
  },
  {
   "type": "Feature",
   "geometry": {
    "type": "Point",
    "coordinates": [
     149.657553,
     -32.46348132
    ]
   },
   "properties": {
    "name": "288 FROG ROCK ROAD ST FILLANS 2850",
    "locID": "LOC000160351370",
    "tech": "WIRELESS",
    "upgrade": "NULL_NA",
    "gnaf_pid": "GANSW718559996",
    "tech_change_status": "Not Planned",
    "program_type": "Fixed Wireless and Satellite Upgrade Program",
    "target_eligibility_quarter": "NA"
   }
  },
  {
   "type": "Feature",
   "geometry": {
    "type": "Point",
    "coordinates": [
     149.65339565,
     -32.45826208
    ]
   },
   "properties": {
    "name": "19 NORLENBAH LANE ST FILLANS 2850",
    "locID": "LOC000018382524",
    "tech": "WIRELESS",
    "upgrade": "NULL_NA",
    "gnaf_pid": "GANSW718700899",
    "tech_change_status": "Not Planned",
    "program_type": "Fixed Wireless and Satellite Upgrade Program",
    "target_eligibility_quarter": "NA"
   }
  },
  {
   "type": "Feature",
   "geometry": {
    "type": "Point",
    "coordinates": [
     149.65064784,
     -32.4842767
    ]
   },
   "properties": {
    "name": "32 LOWES PEAK ROAD ST FILLANS 2850",
    "locID": "LOC000035512257",
    "tech": "WIRELESS",
    "upgrade": "NULL_NA",
    "gnaf_pid": "GANSW720637087",
    "tech_change_status": "Not Planned",
    "program_type": "Fixed Wireless and Satellite Upgrade Program",
    "target_eligibility_quarter": "NA"
   }
  },
  {
   "type": "Feature",
   "geometry": {
    "type": "Point",
    "coordinates": [
     149.6452403,
     -32.48328704
    ]
   },
   "properties": {
    "name": "51 LOWES PEAK ROAD ST FILLANS 2850",
    "locID": "LOC100087277785",
    "tech": "WIRELESS",
    "upgrade": "NULL_NA",
    "gnaf_pid": "GANSW721177833",
    "tech_change_status": "Not Planned",
    "program_type": "Fixed Wireless and Satellite Upgrade Program",
    "target_eligibility_quarter": "NA"
   }
  },
  {
   "type": "Feature",
   "geometry": {
    "type": "Point",
    "coordinates": [
     149.6532328,
     -32.47069701
    ]
   },
   "properties": {
    "name": "UNIT 1, 1089 BLACK SPRINGS ROAD ST FILLANS 2850",
    "locID": "LOC000011276456",
    "tech": "WIRELESS",
    "upgrade": "NULL_NA",
    "gnaf_pid": "GANSW721332486",
    "tech_change_status": "Not Planned",
    "program_type": "Fixed Wireless and Satellite Upgrade Program",
    "target_eligibility_quarter": "NA"
   }
  }
 ]
}