{
 "type": "FeatureCollection",
 "generated": "2024-11-19T06:29:19.948810",
 "suburb": "STUBBO",
 "features": [
  {
   "type": "Feature",
   "geometry": {
    "type": "Point",
    "coordinates": [
     149.58768224,
     -32.30504676
    ]
   },
   "properties": {
    "name": "110 BEELA ROAD STUBBO 2852",
    "locID": "LOC000029578660",
    "tech": "WIRELESS",
    "upgrade": "NULL_NA",
    "gnaf_pid": "GANSW705972241",
    "tech_change_status": "Not Planned",
    "program_type": "Fixed Wireless and Satellite Upgrade Program",
    "target_eligibility_quarter": "NA"
   }
  },
  {
   "type": "Feature",
   "geometry": {
    "type": "Point",
    "coordinates": [
     149.61683492,
     -32.26027179
    ]
   },
   "properties": {
    "name": "440 BLUE SPRINGS ROAD STUBBO 2852",
    "locID": "LOC000032204736",
    "tech": "WIRELESS",
    "upgrade": "NULL_NA",
    "gnaf_pid": "GANSW705972242",
    "tech_change_status": "Not Planned",
    "program_type": "Fixed Wireless and Satellite Upgrade Program",
    "target_eligibility_quarter": "NA"
   }
  },
  {
   "type": "Feature",
   "geometry": {
    "type": "Point",
    "coordinates": [
     149.57570867,
     -32.30214891
    ]
   },
   "properties": {
    "name": "300 CARRAMAR ROAD STUBBO 2852",
    "locID": "LOC000008737179",
    "tech": "WIRELESS",
    "upgrade": "NULL_NA",
    "gnaf_pid": "GANSW705972243",
    "tech_change_status": "Not Planned",
    "program_type": "Fixed Wireless and Satellite Upgrade Program",
    "target_eligibility_quarter": "NA"
   }
  },
  {
   "type": "Feature",
   "geometry": {
    "type": "Point",
    "coordinates": [
     149.57428576,
     -32.30194903
    ]
   },
   "properties": {
    "name": "322 CARRAMAR ROAD STUBBO 2852",
    "locID": "LOC000006474365",
    "tech": "WIRELESS",
    "upgrade": "NULL_NA",
    "gnaf_pid": "GANSW705972244",
    "tech_change_status": "Not Planned",
    "program_type": "Fixed Wireless and Satellite Upgrade Program",
    "target_eligibility_quarter": "NA"
   }
  },
  {
   "type": "Feature",
   "geometry": {
    "type": "Point",
    "coordinates": [
     149.5257031,
     -32.32487609
    ]
   },
   "properties": {
    "name": "325 BARNEYS REEF ROAD STUBBO 2852",
    "locID": "LOC000097440591",
    "tech": "WIRELESS",
    "upgrade": "NULL_NA",
    "gnaf_pid": "GANSW705982502",
    "tech_change_status": "Not Planned",
    "program_type": "Fixed Wireless and Satellite Upgrade Program",
    "target_eligibility_quarter": "NA"
   }
  },
  {
   "type": "Feature",
   "geometry": {
    "type": "Point",
    "coordinates": [
     149.60969254,
     -32.31329355
    ]
   },
   "properties": {
    "name": "231 WYOMING ROAD STUBBO 2852",
    "locID": "LOC000091209310",
    "tech": "WIRELESS",
    "upgrade": "NULL_NA",
    "gnaf_pid": "GANSW706013088",
    "tech_change_status": "Not Planned",
    "program_type": "Fixed Wireless and Satellite Upgrade Program",
    "target_eligibility_quarter": "NA"
   }
  },
  {
   "type": "Feature",
   "geometry": {
    "type": "Point",
    "coordinates": [
     149.53835678,
     -32.23786445
    ]
   },
   "properties": {
    "name": "1309 BARNEYS REEF ROAD STUBBO 2852",
    "locID": "LOC000099407401",
    "tech": "WIRELESS",
    "upgrade": "NULL_NA",
    "gnaf_pid": "GANSW710184988",
    "tech_change_status": "Not Planned",
    "program_type": "Fixed Wireless and Satellite Upgrade Program",
    "target_eligibility_quarter": "NA"
   }
  },
  {
   "type": "Feature",
   "geometry": {
    "type": "Point",
    "coordinates": [
     149.58576577,
     -32.31812325
    ]
   },
   "properties": {
    "name": "612 COPE ROAD STUBBO 2852",
    "locID": "LOC000075810064",
    "tech": "WIRELESS",
    "upgrade": "NULL_NA",
    "gnaf_pid": "GANSW710191887",
    "tech_change_status": "Not Planned",
    "program_type": "Fixed Wireless and Satellite Upgrade Program",
    "target_eligibility_quarter": "NA"
   }
  },
  {
   "type": "Feature",
   "geometry": {
    "type": "Point",
    "coordinates": [
     149.58238043,
     -32.31324925
    ]
   },
   "properties": {
    "name": "60 RAYDON LANE STUBBO 2852",
    "locID": "LOC000045206060",
    "tech": "WIRELESS",
    "upgrade": "NULL_NA",
    "gnaf_pid": "GANSW710191888",
    "tech_change_status": "Not Planned",
    "program_type": "Fixed Wireless and Satellite Upgrade Program",
    "target_eligibility_quarter": "NA"
   }
  },
  {
   "type": "Feature",
   "geometry": {
    "type": "Point",
    "coordinates": [
     149.57582247,
     -32.32301643
    ]
   },
   "properties": {
    "name": "485 COPE ROAD STUBBO 2852",
    "locID": "LOC000005542878",
    "tech": "WIRELESS",
    "upgrade": "NULL_NA",
    "gnaf_pid": "GANSW710191891",
    "tech_change_status": "Not Planned",
    "program_type": "Fixed Wireless and Satellite Upgrade Program",
    "target_eligibility_quarter": "NA"
   }
  },
  {
   "type": "Feature",
   "geometry": {
    "type": "Point",
    "coordinates": [
     149.57493297,
     -32.30389067
    ]
   },
   "properties": {
    "name": "303 CARRAMAR ROAD STUBBO 2852",
    "locID": "LOC000013289473",
    "tech": "WIRELESS",
    "upgrade": "NULL_NA",
    "gnaf_pid": "GANSW710191892",
    "tech_change_status": "Not Planned",
    "program_type": "Fixed Wireless and Satellite Upgrade Program",
    "target_eligibility_quarter": "NA"
   }
  },
  {
   "type": "Feature",
   "geometry": {
    "type": "Point",
    "coordinates": [
     149.5436696,
     -32.24076269
    ]
   },
   "properties": {
    "name": "1278 BARNEYS REEF ROAD STUBBO 2852",
    "locID": "LOC000019639794",
    "tech": "WIRELESS",
    "upgrade": "NULL_NA",
    "gnaf_pid": "GANSW710191893",
    "tech_change_status": "Not Planned"
   }
  },
  {
   "type": "Feature",
   "geometry": {
    "type": "Point",
    "coordinates": [
     149.53221093,
     -32.32157499
    ]
   },
   "properties": {
    "name": "366 BARNEYS REEF ROAD STUBBO 2852",
    "locID": "LOC000029612026",
    "tech": "WIRELESS",
    "upgrade": "NULL_NA",
    "gnaf_pid": "GANSW710191894",
    "tech_change_status": "Not Planned",
    "program_type": "Fixed Wireless and Satellite Upgrade Program",
    "target_eligibility_quarter": "NA"
   }
  },
  {
   "type": "Feature",
   "geometry": {
    "type": "Point",
    "coordinates": [
     149.56893638,
     -32.30285047
    ]
   },
   "properties": {
    "name": "359 CARRAMAR ROAD STUBBO 2852",
    "locID": "LOC100081507515",
    "tech": "WIRELESS",
    "upgrade": "NULL_NA",
    "gnaf_pid": "GANSW710191896",
    "tech_change_status": "Not Planned",
    "program_type": "Fixed Wireless and Satellite Upgrade Program",
    "target_eligibility_quarter": "NA"
   }
  },
  {
   "type": "Feature",
   "geometry": {
    "type": "Point",
    "coordinates": [
     149.52999725,
     -32.30963317
    ]
   },
   "properties": {
    "name": "489 BARNEYS REEF ROAD STUBBO 2852",
    "locID": "LOC000004665497",
    "tech": "WIRELESS",
    "upgrade": "NULL_NA",
    "gnaf_pid": "GANSW710191899",
    "tech_change_status": "Not Planned",
    "program_type": "Fixed Wireless and Satellite Upgrade Program",
    "target_eligibility_quarter": "NA"
   }
  },
  {
   "type": "Feature",
   "geometry": {
    "type": "Point",
    "coordinates": [
     149.57354315,
     -32.2236155
    ]
   },
   "properties": {
    "name": "272 MEROTHERIE ROAD STUBBO 2852",
    "locID": "LOC000013326068",
    "tech": "NULL",
    "upgrade": "NULL_NA",
    "gnaf_pid": "GANSW710191900",
    "tech_change_status": "Not Planned"
   }
  },
  {
   "type": "Feature",
   "geometry": {
    "type": "Point",
    "coordinates": [
     149.54456848,
     -32.26569661
    ]
   },
   "properties": {
    "name": "955 BARNEYS REEF ROAD STUBBO 2852",
    "locID": "LOC000098495412",
    "tech": "WIRELESS",
    "upgrade": "NULL_NA",
    "gnaf_pid": "GANSW710191901",
    "tech_change_status": "Not Planned",
    "program_type": "Fixed Wireless and Satellite Upgrade Program",
    "target_eligibility_quarter": "NA"
   }
  },
  {
   "type": "Feature",
   "geometry": {
    "type": "Point",
    "coordinates": [
     149.59096398,
     -32.3161511
    ]
   },
   "properties": {
    "name": "35 WYOMING ROAD STUBBO 2852",
    "locID": "LOC000091209310",
    "tech": "WIRELESS",
    "upgrade": "NULL_NA",
    "gnaf_pid": "GANSW710194395",
    "tech_change_status": "Not Planned",
    "program_type": "Fixed Wireless and Satellite Upgrade Program",
    "target_eligibility_quarter": "NA"
   }
  },
  {
   "type": "Feature",
   "geometry": {
    "type": "Point",
    "coordinates": [
     149.59071384,
     -32.31607707
    ]
   },
   "properties": {
    "name": "33 WYOMING ROAD STUBBO 2852",
    "locID": "LOC000097120587",
    "tech": "WIRELESS",
    "upgrade": "NULL_NA",
    "gnaf_pid": "GANSW710194397",
    "tech_change_status": "Not Planned",
    "program_type": "Fixed Wireless and Satellite Upgrade Program",
    "target_eligibility_quarter": "NA"
   }
  },
  {
   "type": "Feature",
   "geometry": {
    "type": "Point",
    "coordinates": [
     149.60352887,
     -32.29581489
    ]
   },
   "properties": {
    "name": "99 BLUE SPRINGS ROAD STUBBO 2852",
    "locID": "LOC000108307364",
    "tech": "WIRELESS",
    "upgrade": "NULL_NA",
    "gnaf_pid": "GANSW710197526",
    "tech_change_status": "Not Planned",
    "program_type": "Fixed Wireless and Satellite Upgrade Program",
    "target_eligibility_quarter": "NA"
   }
  },
  {
   "type": "Feature",
   "geometry": {
    "type": "Point",
    "coordinates": [
     149.59011309,
     -32.29997187
    ]
   },
   "properties": {
    "name": "126 CARRAMAR ROAD STUBBO 2852",
    "locID": "LOC000089033233",
    "tech": "WIRELESS",
    "upgrade": "NULL_NA",
    "gnaf_pid": "GANSW710197527",
    "tech_change_status": "Not Planned",
    "program_type": "Fixed Wireless and Satellite Upgrade Program",
    "target_eligibility_quarter": "NA"
   }
  },
  {
   "type": "Feature",
   "geometry": {
    "type": "Point",
    "coordinates": [
     149.57208875,
     -32.30750393
    ]
   },
   "properties": {
    "name": "48 ELOUERA ROAD STUBBO 2852",
    "locID": "LOC000028294877",
    "tech": "WIRELESS",
    "upgrade": "NULL_NA",
    "gnaf_pid": "GANSW710197528",
    "tech_change_status": "Not Planned",
    "program_type": "Fixed Wireless and Satellite Upgrade Program",
    "target_eligibility_quarter": "NA"
   }
  },
  {
   "type": "Feature",
   "geometry": {
    "type": "Point",
    "coordinates": [
     149.59517024,
     -32.30699072
    ]
   },
   "properties": {
    "name": "777 COPE ROAD STUBBO 2852",
    "locID": "LOC000001390781",
    "tech": "WIRELESS",
    "upgrade": "NULL_NA",
    "gnaf_pid": "GANSW710197535",
    "tech_change_status": "Not Planned",
    "program_type": "Fixed Wireless and Satellite Upgrade Program",
    "target_eligibility_quarter": "NA"
   }
  },
  {
   "type": "Feature",
   "geometry": {
    "type": "Point",
    "coordinates": [
     149.56551118,
     -32.30316155
    ]
   },
   "properties": {
    "name": "LOT 26 CARAWATHA ROAD STUBBO 2852",
    "locID": "LOC000122441265",
    "tech": "WIRELESS",
    "upgrade": "NULL_NA",
    "gnaf_pid": "GANSW710197536",
    "tech_change_status": "Not Planned",
    "program_type": "Fixed Wireless and Satellite Upgrade Program",
    "target_eligibility_quarter": "NA"
   }
  },
  {
   "type": "Feature",
   "geometry": {
    "type": "Point",
    "coordinates": [
     149.59811794,
     -32.30993842
    ]
   },
   "properties": {
    "name": "748 COPE ROAD STUBBO 2852",
    "locID": "LOC000036384363",
    "tech": "WIRELESS",
    "upgrade": "NULL_NA",
    "gnaf_pid": "GANSW710201480",
    "tech_change_status": "Not Planned",
    "program_type": "Fixed Wireless and Satellite Upgrade Program",
    "target_eligibility_quarter": "NA"
   }
  },
  {
   "type": "Feature",
   "geometry": {
    "type": "Point",
    "coordinates": [
     149.59076849,
     -32.31611079
    ]
   },
   "properties": {
    "name": "31 WYOMING ROAD STUBBO 2852",
    "locID": "LOC000094163701",
    "tech": "WIRELESS",
    "upgrade": "NULL_NA",
    "gnaf_pid": "GANSW710201481",
    "tech_change_status": "Not Planned",
    "program_type": "Fixed Wireless and Satellite Upgrade Program",
    "target_eligibility_quarter": "NA"
   }
  },
  {
   "type": "Feature",
   "geometry": {
    "type": "Point",
    "coordinates": [
     149.59752596,
     -32.31829439
    ]
   },
   "properties": {
    "name": "105 WYOMING ROAD STUBBO 2852",
    "locID": "LOC000094748352",
    "tech": "WIRELESS",
    "upgrade": "NULL_NA",
    "gnaf_pid": "GANSW710201483",
    "tech_change_status": "Not Planned",
    "program_type": "Fixed Wireless and Satellite Upgrade Program",
    "target_eligibility_quarter": "NA"
   }
  },
  {
   "type": "Feature",
   "geometry": {
    "type": "Point",
    "coordinates": [
     149.60578547,
     -32.31429292
    ]
   },
   "properties": {
    "name": "229 WYOMING ROAD STUBBO 2852",
    "locID": "LOC000021548900",
    "tech": "WIRELESS",
    "upgrade": "NULL_NA",
    "gnaf_pid": "GANSW710201484",
    "tech_change_status": "Not Planned",
    "program_type": "Fixed Wireless and Satellite Upgrade Program",
    "target_eligibility_quarter": "NA"
   }
  },
  {
   "type": "Feature",
   "geometry": {
    "type": "Point",
    "coordinates": [
     149.60214013,
     -32.31906136
    ]
   },
   "properties": {
    "name": "148A WYOMING ROAD STUBBO 2852",
    "locID": "LOC000094163701",
    "tech": "WIRELESS",
    "upgrade": "NULL_NA",
    "gnaf_pid": "GANSW710201486",
    "tech_change_status": "Not Planned",
    "program_type": "Fixed Wireless and Satellite Upgrade Program",
    "target_eligibility_quarter": "NA"
   }
  },
  {
   "type": "Feature",
   "geometry": {
    "type": "Point",
    "coordinates": [
     149.59694775,
     -32.32131392
    ]
   },
   "properties": {
    "name": "106 WYOMING ROAD STUBBO 2852",
    "locID": "LOC000023847188",
    "tech": "WIRELESS",
    "upgrade": "NULL_NA",
    "gnaf_pid": "GANSW710201487",
    "tech_change_status": "Not Planned",
    "program_type": "Fixed Wireless and Satellite Upgrade Program",
    "target_eligibility_quarter": "NA"
   }
  },
  {
   "type": "Feature",
   "geometry": {
    "type": "Point",
    "coordinates": [
     149.59728086,
     -32.31882609
    ]
   },
   "properties": {
    "name": "32 WYOMING ROAD STUBBO 2852",
    "locID": "LOC000096879764",
    "tech": "WIRELESS",
    "upgrade": "NULL_NA",
    "gnaf_pid": "GANSW710201489",
    "tech_change_status": "Not Planned",
    "program_type": "Fixed Wireless and Satellite Upgrade Program",
    "target_eligibility_quarter": "NA"
   }
  },
  {
   "type": "Feature",
   "geometry": {
    "type": "Point",
    "coordinates": [
     149.57446226,
     -32.30495195
    ]
   },
   "properties": {
    "name": "23 ELOUERA ROAD STUBBO 2852",
    "locID": "LOC000037133862",
    "tech": "WIRELESS",
    "upgrade": "NULL_NA",
    "gnaf_pid": "GANSW710204594",
    "tech_change_status": "Not Planned",
    "program_type": "Fixed Wireless and Satellite Upgrade Program",
    "target_eligibility_quarter": "NA"
   }
  },
  {
   "type": "Feature",
   "geometry": {
    "type": "Point",
    "coordinates": [
     149.59302308,
     -32.31160406
    ]
   },
   "properties": {
    "name": "703 COPE ROAD STUBBO 2852",
    "locID": "LOC000059976112",
    "tech": "WIRELESS",
    "upgrade": "NULL_NA",
    "gnaf_pid": "GANSW710204599",
    "tech_change_status": "Not Planned",
    "program_type": "Fixed Wireless and Satellite Upgrade Program",
    "target_eligibility_quarter": "NA"
   }
  },
  {
   "type": "Feature",
   "geometry": {
    "type": "Point",
    "coordinates": [
     149.59461917,
     -32.30928772
    ]
   },
   "properties": {
    "name": "717 COPE ROAD STUBBO 2852",
    "locID": "LOC000047575808",
    "tech": "WIRELESS",
    "upgrade": "NULL_NA",
    "gnaf_pid": "GANSW710204601",
    "tech_change_status": "Not Planned",
    "program_type": "Fixed Wireless and Satellite Upgrade Program",
    "target_eligibility_quarter": "NA"
   }
  },
  {
   "type": "Feature",
   "geometry": {
    "type": "Point",
    "coordinates": [
     149.58204037,
     -32.3014051
    ]
   },
   "properties": {
    "name": "242 CARRAMAR ROAD STUBBO 2852",
    "locID": "LOC000025946373",
    "tech": "WIRELESS",
    "upgrade": "NULL_NA",
    "gnaf_pid": "GANSW710204602",
    "tech_change_status": "Not Planned",
    "program_type": "Fixed Wireless and Satellite Upgrade Program",
    "target_eligibility_quarter": "NA"
   }
  },
  {
   "type": "Feature",
   "geometry": {
    "type": "Point",
    "coordinates": [
     149.60399207,
     -32.31211721
    ]
   },
   "properties": {
    "name": "108 WYOMING LANE STUBBO 2852",
    "locID": "LOC000011445792",
    "tech": "WIRELESS",
    "upgrade": "NULL_NA",
    "gnaf_pid": "GANSW710204608",
    "tech_change_status": "Not Planned",
    "program_type": "Fixed Wireless and Satellite Upgrade Program",
    "target_eligibility_quarter": "NA"
   }
  },
  {
   "type": "Feature",
   "geometry": {
    "type": "Point",
    "coordinates": [
     149.57985127,
     -32.30499214
    ]
   },
   "properties": {
    "name": "261 CARRAMAR ROAD STUBBO 2852",
    "locID": "LOC000009002647",
    "tech": "WIRELESS",
    "upgrade": "NULL_NA",
    "gnaf_pid": "GANSW710204626",
    "tech_change_status": "Not Planned",
    "program_type": "Fixed Wireless and Satellite Upgrade Program",
    "target_eligibility_quarter": "NA"
   }
  },
  {
   "type": "Feature",
   "geometry": {
    "type": "Point",
    "coordinates": [
     149.58455325,
     -32.30739054
    ]
   },
   "properties": {
    "name": "71 BEELA ROAD STUBBO 2852",
    "locID": "LOC000047860397",
    "tech": "WIRELESS",
    "upgrade": "NULL_NA",
    "gnaf_pid": "GANSW710204627",
    "tech_change_status": "Not Planned",
    "program_type": "Fixed Wireless and Satellite Upgrade Program",
    "target_eligibility_quarter": "NA"
   }
  },
  {
   "type": "Feature",
   "geometry": {
    "type": "Point",
    "coordinates": [
     149.58600472,
     -32.3060402
    ]
   },
   "properties": {
    "name": "117 BEELA ROAD STUBBO 2852",
    "locID": "LOC000037831120",
    "tech": "WIRELESS",
    "upgrade": "NULL_NA",
    "gnaf_pid": "GANSW710204628",
    "tech_change_status": "Not Planned",
    "program_type": "Fixed Wireless and Satellite Upgrade Program",
    "target_eligibility_quarter": "NA"
   }
  },
  {
   "type": "Feature",
   "geometry": {
    "type": "Point",
    "coordinates": [
     149.53204429,
     -32.31768036
    ]
   },
   "properties": {
    "name": "412 BARNEYS REEF ROAD STUBBO 2852",
    "locID": "LOC000013951127",
    "tech": "WIRELESS",
    "upgrade": "NULL_NA",
    "gnaf_pid": "GANSW710204629",
    "tech_change_status": "Not Planned",
    "program_type": "Fixed Wireless and Satellite Upgrade Program",
    "target_eligibility_quarter": "NA"
   }
  },
  {
   "type": "Feature",
   "geometry": {
    "type": "Point",
    "coordinates": [
     149.58878395,
     -32.30939148
    ]
   },
   "properties": {
    "name": "54 BEELA ROAD STUBBO 2852",
    "locID": "LOC000030882522",
    "tech": "WIRELESS",
    "upgrade": "NULL_NA",
    "gnaf_pid": "GANSW710204630",
    "tech_change_status": "Not Planned",
    "program_type": "Fixed Wireless and Satellite Upgrade Program",
    "target_eligibility_quarter": "NA"
   }
  },
  {
   "type": "Feature",
   "geometry": {
    "type": "Point",
    "coordinates": [
     149.58595459,
     -32.30182746
    ]
   },
   "properties": {
    "name": "202 CARRAMAR ROAD STUBBO 2852",
    "locID": "LOC000029759848",
    "tech": "WIRELESS",
    "upgrade": "NULL_NA",
    "gnaf_pid": "GANSW710207716",
    "tech_change_status": "Not Planned",
    "program_type": "Fixed Wireless and Satellite Upgrade Program",
    "target_eligibility_quarter": "NA"
   }
  },
  {
   "type": "Feature",
   "geometry": {
    "type": "Point",
    "coordinates": [
     149.57404466,
     -32.30722196
    ]
   },
   "properties": {
    "name": "51 ELOUERA ROAD STUBBO 2852",
    "locID": "LOC000093491965",
    "tech": "WIRELESS",
    "upgrade": "NULL_NA",
    "gnaf_pid": "GANSW710207719",
    "tech_change_status": "Not Planned",
    "program_type": "Fixed Wireless and Satellite Upgrade Program",
    "target_eligibility_quarter": "NA"
   }
  },
  {
   "type": "Feature",
   "geometry": {
    "type": "Point",
    "coordinates": [
     149.58362538,
     -32.30395074
    ]
   },
   "properties": {
    "name": "LOT 11 CARRAMAR ROAD STUBBO 2852",
    "locID": "LOC000064208808",
    "tech": "WIRELESS",
    "upgrade": "NULL_NA",
    "gnaf_pid": "GANSW710207720",
    "tech_change_status": "Not Planned",
    "program_type": "Fixed Wireless and Satellite Upgrade Program",
    "target_eligibility_quarter": "NA"
   }
  },
  {
   "type": "Feature",
   "geometry": {
    "type": "Point",
    "coordinates": [
     149.57396614,
     -32.30863179
    ]
   },
   "properties": {
    "name": "65 ELOUERA ROAD STUBBO 2852",
    "locID": "LOC000058820338",
    "tech": "WIRELESS",
    "upgrade": "NULL_NA",
    "gnaf_pid": "GANSW710225032",
    "tech_change_status": "Not Planned",
    "program_type": "Fixed Wireless and Satellite Upgrade Program",
    "target_eligibility_quarter": "NA"
   }
  },
  {
   "type": "Feature",
   "geometry": {
    "type": "Point",
    "coordinates": [
     149.58545899,
     -32.23963449
    ]
   },
   "properties": {
    "name": "709 BLUE SPRINGS ROAD STUBBO 2852",
    "locID": "LOC000101247009",
    "tech": "WIRELESS",
    "upgrade": "NULL_NA",
    "gnaf_pid": "GANSW710225034",
    "tech_change_status": "Not Planned",
    "program_type": "Fixed Wireless and Satellite Upgrade Program",
    "target_eligibility_quarter": "NA"
   }
  },
  {
   "type": "Feature",
   "geometry": {
    "type": "Point",
    "coordinates": [
     149.58362538,
     -32.30395074
    ]
   },
   "properties": {
    "name": "LOT 1 CARRAMAR ROAD STUBBO 2852",
    "locID": "LOC000115619486",
    "tech": "SATELLITE",
    "upgrade": "NULL_NA",
    "gnaf_pid": "GANSW710225035",
    "tech_change_status": "Not Planned"
   }
  },
  {
   "type": "Feature",
   "geometry": {
    "type": "Point",
    "coordinates": [
     149.52212259,
     -32.270827
    ]
   },
   "properties": {
    "name": "913 BARNEYS REEF ROAD STUBBO 2852",
    "locID": "LOC000180385016",
    "tech": "SATELLITE",
    "upgrade": "WIRELESS",
    "gnaf_pid": "GANSW710225036",
    "tech_change_status": "Eligible to Order",
    "program_type": "Fixed Wireless and Satellite Upgrade Program",
    "target_eligibility_quarter": "NA"
   }
  },
  {
   "type": "Feature",
   "geometry": {
    "type": "Point",
    "coordinates": [
     149.59832699,
     -32.29435634
    ]
   },
   "properties": {
    "name": "74 CARRAMAR ROAD STUBBO 2852",
    "locID": "LOC000064208808",
    "tech": "WIRELESS",
    "upgrade": "NULL_NA",
    "gnaf_pid": "GANSW710225039",
    "tech_change_status": "Not Planned",
    "program_type": "Fixed Wireless and Satellite Upgrade Program",
    "target_eligibility_quarter": "NA"
   }
  },
  {
   "type": "Feature",
   "geometry": {
    "type": "Point",
    "coordinates": [
     149.573113,
     -32.33050002
    ]
   },
   "properties": {
    "name": "420 COPE ROAD STUBBO 2852",
    "locID": "LOC000103009028",
    "tech": "WIRELESS",
    "upgrade": "NULL_NA",
    "gnaf_pid": "GANSW710225040",
    "tech_change_status": "Not Planned",
    "program_type": "Fixed Wireless and Satellite Upgrade Program",
    "target_eligibility_quarter": "NA"
   }
  },
  {
   "type": "Feature",
   "geometry": {
    "type": "Point",
    "coordinates": [
     149.5734982,
     -32.3056305
    ]
   },
   "properties": {
    "name": "319 ELOUERA ROAD STUBBO 2852",
    "locID": "LOC000075273331",
    "tech": "WIRELESS",
    "upgrade": "NULL_NA",
    "gnaf_pid": "GANSW710225041",
    "tech_change_status": "Not Planned",
    "program_type": "Fixed Wireless and Satellite Upgrade Program",
    "target_eligibility_quarter": "NA"
   }
  },
  {
   "type": "Feature",
   "geometry": {
    "type": "Point",
    "coordinates": [
     149.53993069,
     -32.24342077
    ]
   },
   "properties": {
    "name": "1251 BARNEYS REEF ROAD STUBBO 2852",
    "locID": "LOC000097986605",
    "tech": "WIRELESS",
    "upgrade": "NULL_NA",
    "gnaf_pid": "GANSW715672123",
    "tech_change_status": "Not Planned",
    "program_type": "Fixed Wireless and Satellite Upgrade Program",
    "target_eligibility_quarter": "NA"
   }
  },
  {
   "type": "Feature",
   "geometry": {
    "type": "Point",
    "coordinates": [
     149.52958688,
     -32.31796242
    ]
   },
   "properties": {
    "name": "401 BARNEYS REEF ROAD STUBBO 2852",
    "locID": "LOC000051930168",
    "tech": "WIRELESS",
    "upgrade": "NULL_NA",
    "gnaf_pid": "GANSW715672125",
    "tech_change_status": "Not Planned",
    "program_type": "Fixed Wireless and Satellite Upgrade Program",
    "target_eligibility_quarter": "NA"
   }
  },
  {
   "type": "Feature",
   "geometry": {
    "type": "Point",
    "coordinates": [
     149.61737256,
     -32.27795395
    ]
   },
   "properties": {
    "name": "262 BLUE SPRINGS ROAD STUBBO 2852",
    "locID": "LOC000002318943",
    "tech": "WIRELESS",
    "upgrade": "NULL_NA",
    "gnaf_pid": "GANSW715672895",
    "tech_change_status": "Not Planned",
    "program_type": "Fixed Wireless and Satellite Upgrade Program",
    "target_eligibility_quarter": "NA"
   }
  },
  {
   "type": "Feature",
   "geometry": {
    "type": "Point",
    "coordinates": [
     149.56987866,
     -32.32160008
    ]
   },
   "properties": {
    "name": "417 COPE ROAD STUBBO 2852",
    "locID": "LOC000040842686",
    "tech": "WIRELESS",
    "upgrade": "NULL_NA",
    "gnaf_pid": "GANSW715675772",
    "tech_change_status": "Not Planned",
    "program_type": "Fixed Wireless and Satellite Upgrade Program",
    "target_eligibility_quarter": "NA"
   }
  },
  {
   "type": "Feature",
   "geometry": {
    "type": "Point",
    "coordinates": [
     149.59004825,
     -32.28984441
    ]
   },
   "properties": {
    "name": "155 GOVERNOR ROAD STUBBO 2852",
    "locID": "LOC000018745733",
    "tech": "WIRELESS",
    "upgrade": "NULL_NA",
    "gnaf_pid": "GANSW715679163",
    "tech_change_status": "Not Planned",
    "program_type": "Fixed Wireless and Satellite Upgrade Program",
    "target_eligibility_quarter": "NA"
   }
  },
  {
   "type": "Feature",
   "geometry": {
    "type": "Point",
    "coordinates": [
     149.54922521,
     -32.29225211
    ]
   },
   "properties": {
    "name": "99 STUBBO ROAD STUBBO 2852",
    "locID": "LOC000104978556",
    "tech": "WIRELESS",
    "upgrade": "NULL_NA",
    "gnaf_pid": "GANSW715689545",
    "tech_change_status": "Not Planned",
    "program_type": "Fixed Wireless and Satellite Upgrade Program",
    "target_eligibility_quarter": "NA"
   }
  },
  {
   "type": "Feature",
   "geometry": {
    "type": "Point",
    "coordinates": [
     149.58940129,
     -32.31897016
    ]
   },
   "properties": {
    "name": "46 WYOMING ROAD STUBBO 2852",
    "locID": "LOC000089153119",
    "tech": "WIRELESS",
    "upgrade": "NULL_NA",
    "gnaf_pid": "GANSW715693184",
    "tech_change_status": "Not Planned",
    "program_type": "Fixed Wireless and Satellite Upgrade Program",
    "target_eligibility_quarter": "NA"
   }
  },
  {
   "type": "Feature",
   "geometry": {
    "type": "Point",
    "coordinates": [
     149.53038921,
     -32.32619494
    ]
   },
   "properties": {
    "name": "358 BARNEYS REEF ROAD STUBBO 2852",
    "locID": "LOC000122438203",
    "tech": "WIRELESS",
    "upgrade": "NULL_NA",
    "gnaf_pid": "GANSW715733451",
    "tech_change_status": "Not Planned",
    "program_type": "Fixed Wireless and Satellite Upgrade Program",
    "target_eligibility_quarter": "NA"
   }
  },
  {
   "type": "Feature",
   "geometry": {
    "type": "Point",
    "coordinates": [
     149.58434504,
     -32.30870519
    ]
   },
   "properties": {
    "name": "69 BEELA ROAD STUBBO 2852",
    "locID": "LOC000100777467",
    "tech": "WIRELESS",
    "upgrade": "NULL_NA",
    "gnaf_pid": "GANSW715739594",
    "tech_change_status": "Not Planned",
    "program_type": "Fixed Wireless and Satellite Upgrade Program",
    "target_eligibility_quarter": "NA"
   }
  },
  {
   "type": "Feature",
   "geometry": {
    "type": "Point",
    "coordinates": [
     149.60251209,
     -32.29805966
    ]
   },
   "properties": {
    "name": "65 BLUE SPRINGS ROAD STUBBO 2852",
    "locID": "LOC000037073038",
    "tech": "WIRELESS",
    "upgrade": "NULL_NA",
    "gnaf_pid": "GANSW715750757",
    "tech_change_status": "Not Planned",
    "program_type": "Fixed Wireless and Satellite Upgrade Program",
    "target_eligibility_quarter": "NA"
   }
  },
  {
   "type": "Feature",
   "geometry": {
    "type": "Point",
    "coordinates": [
     149.56333841,
     -32.30501176
    ]
   },
   "properties": {
    "name": "45 CARAWATHA ROAD STUBBO 2852",
    "locID": "LOC000122441265",
    "tech": "WIRELESS",
    "upgrade": "NULL_NA",
    "gnaf_pid": "GANSW715782280",
    "tech_change_status": "Not Planned",
    "program_type": "Fixed Wireless and Satellite Upgrade Program",
    "target_eligibility_quarter": "NA"
   }
  },
  {
   "type": "Feature",
   "geometry": {
    "type": "Point",
    "coordinates": [
     149.6037831,
     -32.30153042
    ]
   },
   "properties": {
    "name": "12 CARRAMAR ROAD STUBBO 2852",
    "locID": "LOC100077364286",
    "tech": "WIRELESS",
    "upgrade": "NULL_NA",
    "gnaf_pid": "GANSW715784331",
    "tech_change_status": "Not Planned",
    "program_type": "Fixed Wireless and Satellite Upgrade Program",
    "target_eligibility_quarter": "NA"
   }
  },
  {
   "type": "Feature",
   "geometry": {
    "type": "Point",
    "coordinates": [
     149.58272447,
     -32.3000845
    ]
   },
   "properties": {
    "name": "240 CARRAMAR ROAD STUBBO 2852",
    "locID": "LOC000122474352",
    "tech": "WIRELESS",
    "upgrade": "NULL_NA",
    "gnaf_pid": "GANSW715784332",
    "tech_change_status": "Not Planned",
    "program_type": "Fixed Wireless and Satellite Upgrade Program",
    "target_eligibility_quarter": "NA"
   }
  },
  {
   "type": "Feature",
   "geometry": {
    "type": "Point",
    "coordinates": [
     149.57899302,
     -32.29757205
    ]
   },
   "properties": {
    "name": "264 CARRAMAR ROAD STUBBO 2852",
    "locID": "LOC100078066313",
    "tech": "WIRELESS",
    "upgrade": "NULL_NA",
    "gnaf_pid": "GANSW715784333",
    "tech_change_status": "Not Planned",
    "program_type": "Fixed Wireless and Satellite Upgrade Program",
    "target_eligibility_quarter": "NA"
   }
  },
  {
   "type": "Feature",
   "geometry": {
    "type": "Point",
    "coordinates": [
     149.57296243,
     -32.30341203
    ]
   },
   "properties": {
    "name": "319 CARRAMAR ROAD STUBBO 2852",
    "locID": "LOC000085738069",
    "tech": "WIRELESS",
    "upgrade": "NULL_NA",
    "gnaf_pid": "GANSW715784334",
    "tech_change_status": "Not Planned",
    "program_type": "Fixed Wireless and Satellite Upgrade Program",
    "target_eligibility_quarter": "NA"
   }
  },
  {
   "type": "Feature",
   "geometry": {
    "type": "Point",
    "coordinates": [
     149.57201112,
     -32.29640689
    ]
   },
   "properties": {
    "name": "354 CARRAMAR ROAD STUBBO 2852",
    "locID": "LOC000115619486",
    "tech": "SATELLITE",
    "upgrade": "NULL_NA",
    "gnaf_pid": "GANSW715784335",
    "tech_change_status": "Not Planned"
   }
  },
  {
   "type": "Feature",
   "geometry": {
    "type": "Point",
    "coordinates": [
     149.55753877,
     -32.30456845
    ]
   },
   "properties": {
    "name": "423 CARRAMAR ROAD STUBBO 2852",
    "locID": "LOC000122441220",
    "tech": "SATELLITE",
    "upgrade": "WIRELESS",
    "gnaf_pid": "GANSW715784336",
    "tech_change_status": "Eligible to Order",
    "program_type": "Fixed Wireless and Satellite Upgrade Program",
    "target_eligibility_quarter": "NA"
   }
  },
  {
   "type": "Feature",
   "geometry": {
    "type": "Point",
    "coordinates": [
     149.58025168,
     -32.31820996
    ]
   },
   "properties": {
    "name": "579 COPE ROAD STUBBO 2852",
    "locID": "LOC000075352502",
    "tech": "WIRELESS",
    "upgrade": "NULL_NA",
    "gnaf_pid": "GANSW715809194",
    "tech_change_status": "Not Planned",
    "program_type": "Fixed Wireless and Satellite Upgrade Program",
    "target_eligibility_quarter": "NA"
   }
  },
  {
   "type": "Feature",
   "geometry": {
    "type": "Point",
    "coordinates": [
     149.59172813,
     -32.31179716
    ]
   },
   "properties": {
    "name": "701 COPE ROAD STUBBO 2852",
    "locID": "LOC000031208791",
    "tech": "WIRELESS",
    "upgrade": "NULL_NA",
    "gnaf_pid": "GANSW715809196",
    "tech_change_status": "Not Planned",
    "program_type": "Fixed Wireless and Satellite Upgrade Program",
    "target_eligibility_quarter": "NA"
   }
  },
  {
   "type": "Feature",
   "geometry": {
    "type": "Point",
    "coordinates": [
     149.60346886,
     -32.30538231
    ]
   },
   "properties": {
    "name": "828 COPE ROAD STUBBO 2852",
    "locID": "LOC000023355619",
    "tech": "WIRELESS",
    "upgrade": "NULL_NA",
    "gnaf_pid": "GANSW715809197",
    "tech_change_status": "Not Planned",
    "program_type": "Fixed Wireless and Satellite Upgrade Program",
    "target_eligibility_quarter": "NA"
   }
  },
  {
   "type": "Feature",
   "geometry": {
    "type": "Point",
    "coordinates": [
     149.5713178,
     -32.308075
    ]
   },
   "properties": {
    "name": "56 ELOUERA ROAD STUBBO 2852",
    "locID": "LOC000122444241",
    "tech": "WIRELESS",
    "upgrade": "NULL_NA",
    "gnaf_pid": "GANSW715844914",
    "tech_change_status": "Not Planned",
    "program_type": "Fixed Wireless and Satellite Upgrade Program",
    "target_eligibility_quarter": "NA"
   }
  },
  {
   "type": "Feature",
   "geometry": {
    "type": "Point",
    "coordinates": [
     149.57296391,
     -32.30906688
    ]
   },
   "properties": {
    "name": "67 ELOUERA ROAD STUBBO 2852",
    "locID": "LOC000122446994",
    "tech": "WIRELESS",
    "upgrade": "NULL_NA",
    "gnaf_pid": "GANSW715844916",
    "tech_change_status": "Not Planned",
    "program_type": "Fixed Wireless and Satellite Upgrade Program",
    "target_eligibility_quarter": "NA"
   }
  },
  {
   "type": "Feature",
   "geometry": {
    "type": "Point",
    "coordinates": [
     149.59593894,
     -32.29068459
    ]
   },
   "properties": {
    "name": "107 GOVERNOR ROAD STUBBO 2852",
    "locID": "LOC000023006346",
    "tech": "WIRELESS",
    "upgrade": "NULL_NA",
    "gnaf_pid": "GANSW715878236",
    "tech_change_status": "Not Planned",
    "program_type": "Fixed Wireless and Satellite Upgrade Program",
    "target_eligibility_quarter": "NA"
   }
  },
  {
   "type": "Feature",
   "geometry": {
    "type": "Point",
    "coordinates": [
     149.60443957,
     -32.29309022
    ]
   },
   "properties": {
    "name": "11 GOVERNOR ROAD STUBBO 2852",
    "locID": "LOC000114842354",
    "tech": "WIRELESS",
    "upgrade": "NULL_NA",
    "gnaf_pid": "GANSW715878237",
    "tech_change_status": "Not Planned",
    "program_type": "Fixed Wireless and Satellite Upgrade Program",
    "target_eligibility_quarter": "NA"
   }
  },
  {
   "type": "Feature",
   "geometry": {
    "type": "Point",
    "coordinates": [
     149.59715247,
     -32.29183267
    ]
   },
   "properties": {
    "name": "91 GOVERNOR ROAD STUBBO 2852",
    "locID": "LOC000091731760",
    "tech": "SATELLITE",
    "upgrade": "WIRELESS",
    "gnaf_pid": "GANSW715878241",
    "tech_change_status": "Eligible to Order",
    "program_type": "Fixed Wireless and Satellite Upgrade Program",
    "target_eligibility_quarter": "NA"
   }
  },
  {
   "type": "Feature",
   "geometry": {
    "type": "Point",
    "coordinates": [
     149.52541896,
     -32.31321464
    ]
   },
   "properties": {
    "name": "38 JACKSONS LANE STUBBO 2852",
    "locID": "LOC000115115668",
    "tech": "WIRELESS",
    "upgrade": "NULL_NA",
    "gnaf_pid": "GANSW715916057",
    "tech_change_status": "Not Planned",
    "program_type": "Fixed Wireless and Satellite Upgrade Program",
    "target_eligibility_quarter": "NA"
   }
  },
  {
   "type": "Feature",
   "geometry": {
    "type": "Point",
    "coordinates": [
     149.55632503,
     -32.30115628
    ]
   },
   "properties": {
    "name": "224 STUBBO ROAD STUBBO 2852",
    "locID": "LOC000115619440",
    "tech": "WIRELESS",
    "upgrade": "NULL_NA",
    "gnaf_pid": "GANSW716106656",
    "tech_change_status": "Not Planned",
    "program_type": "Fixed Wireless and Satellite Upgrade Program",
    "target_eligibility_quarter": "NA"
   }
  },
  {
   "type": "Feature",
   "geometry": {
    "type": "Point",
    "coordinates": [
     149.60140052,
     -32.31282519
    ]
   },
   "properties": {
    "name": "33 WYOMING LANE STUBBO 2852",
    "locID": "LOC000003004671",
    "tech": "WIRELESS",
    "upgrade": "NULL_NA",
    "gnaf_pid": "GANSW716192330",
    "tech_change_status": "Not Planned",
    "program_type": "Fixed Wireless and Satellite Upgrade Program",
    "target_eligibility_quarter": "NA"
   }
  },
  {
   "type": "Feature",
   "geometry": {
    "type": "Point",
    "coordinates": [
     149.60358169,
     -32.31001267
    ]
   },
   "properties": {
    "name": "59 WYOMING LANE STUBBO 2852",
    "locID": "LOC000011445792",
    "tech": "WIRELESS",
    "upgrade": "NULL_NA",
    "gnaf_pid": "GANSW716192331",
    "tech_change_status": "Not Planned",
    "program_type": "Fixed Wireless and Satellite Upgrade Program",
    "target_eligibility_quarter": "NA"
   }
  },
  {
   "type": "Feature",
   "geometry": {
    "type": "Point",
    "coordinates": [
     149.60502404,
     -32.31931834
    ]
   },
   "properties": {
    "name": "148B WYOMING ROAD STUBBO 2852",
    "locID": "LOC000096879764",
    "tech": "WIRELESS",
    "upgrade": "NULL_NA",
    "gnaf_pid": "GANSW716192349",
    "tech_change_status": "Not Planned",
    "program_type": "Fixed Wireless and Satellite Upgrade Program",
    "target_eligibility_quarter": "NA"
   }
  },
  {
   "type": "Feature",
   "geometry": {
    "type": "Point",
    "coordinates": [
     149.60845046,
     -32.31875679
    ]
   },
   "properties": {
    "name": "148C WYOMING ROAD STUBBO 2852",
    "locID": "LOC000097120587",
    "tech": "WIRELESS",
    "upgrade": "NULL_NA",
    "gnaf_pid": "GANSW716192350",
    "tech_change_status": "Not Planned",
    "program_type": "Fixed Wireless and Satellite Upgrade Program",
    "target_eligibility_quarter": "NA"
   }
  },
  {
   "type": "Feature",
   "geometry": {
    "type": "Point",
    "coordinates": [
     149.59385564,
     -32.31762814
    ]
   },
   "properties": {
    "name": "63 WYOMING ROAD STUBBO 2852",
    "locID": "LOC000063606812",
    "tech": "WIRELESS",
    "upgrade": "NULL_NA",
    "gnaf_pid": "GANSW716192354",
    "tech_change_status": "Not Planned",
    "program_type": "Fixed Wireless and Satellite Upgrade Program",
    "target_eligibility_quarter": "NA"
   }
  },
  {
   "type": "Feature",
   "geometry": {
    "type": "Point",
    "coordinates": [
     149.59303116,
     -32.31525701
    ]
   },
   "properties": {
    "name": "7 WYOMING ROAD STUBBO 2852",
    "locID": "LOC000008842054",
    "tech": "WIRELESS",
    "upgrade": "NULL_NA",
    "gnaf_pid": "GANSW716192355",
    "tech_change_status": "Not Planned",
    "program_type": "Fixed Wireless and Satellite Upgrade Program",
    "target_eligibility_quarter": "NA"
   }
  },
  {
   "type": "Feature",
   "geometry": {
    "type": "Point",
    "coordinates": [
     149.58746288,
     -32.30971552
    ]
   },
   "properties": {
    "name": "10 BEELA ROAD STUBBO 2852",
    "locID": "LOC000029578660",
    "tech": "WIRELESS",
    "upgrade": "NULL_NA",
    "gnaf_pid": "GANSW716646683",
    "tech_change_status": "Not Planned",
    "program_type": "Fixed Wireless and Satellite Upgrade Program",
    "target_eligibility_quarter": "NA"
   }
  },
  {
   "type": "Feature",
   "geometry": {
    "type": "Point",
    "coordinates": [
     149.57725581,
     -32.31984897
    ]
   },
   "properties": {
    "name": "555 COPE ROAD STUBBO 2852",
    "locID": "LOC000029101968",
    "tech": "WIRELESS",
    "upgrade": "NULL_NA",
    "gnaf_pid": "GANSW716730412",
    "tech_change_status": "Not Planned",
    "program_type": "Fixed Wireless and Satellite Upgrade Program",
    "target_eligibility_quarter": "NA"
   }
  },
  {
   "type": "Feature",
   "geometry": {
    "type": "Point",
    "coordinates": [
     149.6070141,
     -32.3243391
    ]
   },
   "properties": {
    "name": "148 WYOMING ROAD STUBBO 2852",
    "locID": "LOC000094070076",
    "tech": "WIRELESS",
    "upgrade": "NULL_NA",
    "gnaf_pid": "GANSW716949528",
    "tech_change_status": "Not Planned",
    "program_type": "Fixed Wireless and Satellite Upgrade Program",
    "target_eligibility_quarter": "NA"
   }
  },
  {
   "type": "Feature",
   "geometry": {
    "type": "Point",
    "coordinates": [
     149.59905044,
     -32.31027638
    ]
   },
   "properties": {
    "name": "774 COPE ROAD STUBBO 2852",
    "locID": "LOC000042885028",
    "tech": "WIRELESS",
    "upgrade": "NULL_NA",
    "gnaf_pid": "GANSW716991119",
    "tech_change_status": "Not Planned",
    "program_type": "Fixed Wireless and Satellite Upgrade Program",
    "target_eligibility_quarter": "NA"
   }
  },
  {
   "type": "Feature",
   "geometry": {
    "type": "Point",
    "coordinates": [
     149.54645635,
     -32.29324329
    ]
   },
   "properties": {
    "name": "97 STUBBO ROAD STUBBO 2852",
    "locID": "LOC000018091536",
    "tech": "WIRELESS",
    "upgrade": "NULL_NA",
    "gnaf_pid": "GANSW717004832",
    "tech_change_status": "Not Planned",
    "program_type": "Fixed Wireless and Satellite Upgrade Program",
    "target_eligibility_quarter": "NA"
   }
  },
  {
   "type": "Feature",
   "geometry": {
    "type": "Point",
    "coordinates": [
     149.60534011,
     -32.30486912
    ]
   },
   "properties": {
    "name": "838 COPE ROAD STUBBO 2852",
    "locID": "LOC000095980912",
    "tech": "WIRELESS",
    "upgrade": "NULL_NA",
    "gnaf_pid": "GANSW717209796",
    "tech_change_status": "Not Planned",
    "program_type": "Fixed Wireless and Satellite Upgrade Program",
    "target_eligibility_quarter": "NA"
   }
  },
  {
   "type": "Feature",
   "geometry": {
    "type": "Point",
    "coordinates": [
     149.60752907,
     -32.27728851
    ]
   },
   "properties": {
    "name": "305 BLUE SPRINGS ROAD STUBBO 2852",
    "locID": "LOC000019856867",
    "tech": "WIRELESS",
    "upgrade": "NULL_NA",
    "gnaf_pid": "GANSW717591221",
    "tech_change_status": "Not Planned",
    "program_type": "Fixed Wireless and Satellite Upgrade Program",
    "target_eligibility_quarter": "NA"
   }
  },
  {
   "type": "Feature",
   "geometry": {
    "type": "Point",
    "coordinates": [
     149.57234573,
     -32.30660449
    ]
   },
   "properties": {
    "name": "44 ELOUERA ROAD STUBBO 2852",
    "locID": "LOC000075273331",
    "tech": "WIRELESS",
    "upgrade": "NULL_NA",
    "gnaf_pid": "GANSW717656902",
    "tech_change_status": "Not Planned",
    "program_type": "Fixed Wireless and Satellite Upgrade Program",
    "target_eligibility_quarter": "NA"
   }
  },
  {
   "type": "Feature",
   "geometry": {
    "type": "Point",
    "coordinates": [
     149.58523401,
     -32.31555484
    ]
   },
   "properties": {
    "name": "647 COPE ROAD STUBBO 2852",
    "locID": "LOC000080414148",
    "tech": "WIRELESS",
    "upgrade": "NULL_NA",
    "gnaf_pid": "GANSW717669263",
    "tech_change_status": "Not Planned",
    "program_type": "Fixed Wireless and Satellite Upgrade Program",
    "target_eligibility_quarter": "NA"
   }
  },
  {
   "type": "Feature",
   "geometry": {
    "type": "Point",
    "coordinates": [
     149.60739906,
     -32.30380763
    ]
   },
   "properties": {
    "name": "860 COPE ROAD STUBBO 2852",
    "locID": "LOC000082227308",
    "tech": "WIRELESS",
    "upgrade": "NULL_NA",
    "gnaf_pid": "GANSW717730413",
    "tech_change_status": "Not Planned",
    "program_type": "Fixed Wireless and Satellite Upgrade Program",
    "target_eligibility_quarter": "NA"
   }
  },
  {
   "type": "Feature",
   "geometry": {
    "type": "Point",
    "coordinates": [
     149.61012778,
     -32.30456872
    ]
   },
   "properties": {
    "name": "904 COPE ROAD STUBBO 2852",
    "locID": "LOC000091739961",
    "tech": "WIRELESS",
    "upgrade": "NULL_NA",
    "gnaf_pid": "GANSW717730414",
    "tech_change_status": "Not Planned",
    "program_type": "Fixed Wireless and Satellite Upgrade Program",
    "target_eligibility_quarter": "NA"
   }
  },
  {
   "type": "Feature",
   "geometry": {
    "type": "Point",
    "coordinates": [
     149.61798054,
     -32.25056776
    ]
   },
   "properties": {
    "name": "654 BLUE SPRINGS ROAD STUBBO 2852",
    "locID": "LOC000016395387",
    "tech": "WIRELESS",
    "upgrade": "NULL_NA",
    "gnaf_pid": "GANSW717917016",
    "tech_change_status": "Not Planned",
    "program_type": "Fixed Wireless and Satellite Upgrade Program",
    "target_eligibility_quarter": "NA"
   }
  },
  {
   "type": "Feature",
   "geometry": {
    "type": "Point",
    "coordinates": [
     149.60722821,
     -32.31140465
    ]
   },
   "properties": {
    "name": "63 WYOMING LANE STUBBO 2852",
    "locID": "LOC000064083746",
    "tech": "WIRELESS",
    "upgrade": "NULL_NA",
    "gnaf_pid": "GANSW717932589",
    "tech_change_status": "Not Planned",
    "program_type": "Fixed Wireless and Satellite Upgrade Program",
    "target_eligibility_quarter": "NA"
   }
  },
  {
   "type": "Feature",
   "geometry": {
    "type": "Point",
    "coordinates": [
     149.55947077,
     -32.29987187
    ]
   },
   "properties": {
    "name": "221 STUBBO ROAD STUBBO 2852",
    "locID": "LOC000114163845",
    "tech": "WIRELESS",
    "upgrade": "NULL_NA",
    "gnaf_pid": "GANSW717998579",
    "tech_change_status": "Not Planned",
    "program_type": "Fixed Wireless and Satellite Upgrade Program",
    "target_eligibility_quarter": "NA"
   }
  },
  {
   "type": "Feature",
   "geometry": {
    "type": "Point",
    "coordinates": [
     149.56339224,
     -32.3020938
    ]
   },
   "properties": {
    "name": "421 CARRAMAR ROAD STUBBO 2852",
    "locID": "LOC000027056729",
    "tech": "WIRELESS",
    "upgrade": "NULL_NA",
    "gnaf_pid": "GANSW718000196",
    "tech_change_status": "Not Planned",
    "program_type": "Fixed Wireless and Satellite Upgrade Program",
    "target_eligibility_quarter": "NA"
   }
  },
  {
   "type": "Feature",
   "geometry": {
    "type": "Point",
    "coordinates": [
     149.5980663,
     -32.31414193
    ]
   },
   "properties": {
    "name": "5 WYOMING LANE STUBBO 2852",
    "locID": "LOC000058996300",
    "tech": "WIRELESS",
    "upgrade": "NULL_NA",
    "gnaf_pid": "GANSW718040926",
    "tech_change_status": "Not Planned",
    "program_type": "Fixed Wireless and Satellite Upgrade Program",
    "target_eligibility_quarter": "NA"
   }
  },
  {
   "type": "Feature",
   "geometry": {
    "type": "Point",
    "coordinates": [
     149.55039961,
     -32.29025406
    ]
   },
   "properties": {
    "name": "101 STUBBO ROAD STUBBO 2852",
    "locID": "LOC000114538902",
    "tech": "WIRELESS",
    "upgrade": "NULL_NA",
    "gnaf_pid": "GANSW718091559",
    "tech_change_status": "Not Planned",
    "program_type": "Fixed Wireless and Satellite Upgrade Program",
    "target_eligibility_quarter": "NA"
   }
  },
  {
   "type": "Feature",
   "geometry": {
    "type": "Point",
    "coordinates": [
     149.55355705,
     -32.30137232
    ]
   },
   "properties": {
    "name": "106 STUBBO ROAD STUBBO 2852",
    "locID": "LOC000114544773",
    "tech": "WIRELESS",
    "upgrade": "NULL_NA",
    "gnaf_pid": "GANSW718091560",
    "tech_change_status": "Not Planned",
    "program_type": "Fixed Wireless and Satellite Upgrade Program",
    "target_eligibility_quarter": "NA"
   }
  },
  {
   "type": "Feature",
   "geometry": {
    "type": "Point",
    "coordinates": [
     149.5193007,
     -32.29145792
    ]
   },
   "properties": {
    "name": "681 BARNEYS REEF ROAD STUBBO 2852",
    "locID": "LOC000114026225",
    "tech": "WIRELESS",
    "upgrade": "NULL_NA",
    "gnaf_pid": "GANSW718094842",
    "tech_change_status": "Not Planned",
    "program_type": "Fixed Wireless and Satellite Upgrade Program",
    "target_eligibility_quarter": "NA"
   }
  },
  {
   "type": "Feature",
   "geometry": {
    "type": "Point",
    "coordinates": [
     149.59452061,
     -32.28564146
    ]
   },
   "properties": {
    "name": "156 GOVERNOR ROAD STUBBO 2852",
    "locID": "LOC000114272906",
    "tech": "WIRELESS",
    "upgrade": "NULL_NA",
    "gnaf_pid": "GANSW718099498",
    "tech_change_status": "Not Planned",
    "program_type": "Fixed Wireless and Satellite Upgrade Program",
    "target_eligibility_quarter": "NA"
   }
  },
  {
   "type": "Feature",
   "geometry": {
    "type": "Point",
    "coordinates": [
     149.59790213,
     -32.31283433
    ]
   },
   "properties": {
    "name": "7 WYOMING LANE STUBBO 2852",
    "locID": "LOC000122447056",
    "tech": "WIRELESS",
    "upgrade": "NULL_NA",
    "gnaf_pid": "GANSW718109415",
    "tech_change_status": "Not Planned",
    "program_type": "Fixed Wireless and Satellite Upgrade Program",
    "target_eligibility_quarter": "NA"
   }
  },
  {
   "type": "Feature",
   "geometry": {
    "type": "Point",
    "coordinates": [
     149.59779574,
     -32.3037637
    ]
   },
   "properties": {
    "name": "53 CARRAMAR ROAD STUBBO 2852",
    "locID": "LOC000122444195",
    "tech": "WIRELESS",
    "upgrade": "NULL_NA",
    "gnaf_pid": "GANSW718188832",
    "tech_change_status": "Not Planned",
    "program_type": "Fixed Wireless and Satellite Upgrade Program",
    "target_eligibility_quarter": "NA"
   }
  },
  {
   "type": "Feature",
   "geometry": {
    "type": "Point",
    "coordinates": [
     149.59255349,
     -32.29964377
    ]
   },
   "properties": {
    "name": "114 CARRAMAR ROAD STUBBO 2852",
    "locID": "LOC000115619417",
    "tech": "WIRELESS",
    "upgrade": "NULL_NA",
    "gnaf_pid": "GANSW718224717",
    "tech_change_status": "Not Planned",
    "program_type": "Fixed Wireless and Satellite Upgrade Program",
    "target_eligibility_quarter": "NA"
   }
  },
  {
   "type": "Feature",
   "geometry": {
    "type": "Point",
    "coordinates": [
     149.51281066,
     -32.31206441
    ]
   },
   "properties": {
    "name": "204 JACKSONS LANE STUBBO 2852",
    "locID": "LOC100078066418",
    "tech": "WIRELESS",
    "upgrade": "NULL_NA",
    "gnaf_pid": "GANSW718227684",
    "tech_change_status": "Not Planned",
    "program_type": "Fixed Wireless and Satellite Upgrade Program",
    "target_eligibility_quarter": "NA"
   }
  },
  {
   "type": "Feature",
   "geometry": {
    "type": "Point",
    "coordinates": [
     149.60904057,
     -32.3158253
    ]
   },
   "properties": {
    "name": "232 WYOMING ROAD STUBBO 2852",
    "locID": "LOC000001581512",
    "tech": "WIRELESS",
    "upgrade": "NULL_NA",
    "gnaf_pid": "GANSW718231452",
    "tech_change_status": "Not Planned",
    "program_type": "Fixed Wireless and Satellite Upgrade Program",
    "target_eligibility_quarter": "NA"
   }
  },
  {
   "type": "Feature",
   "geometry": {
    "type": "Point",
    "coordinates": [
     149.58743792,
     -32.31134538
    ]
   },
   "properties": {
    "name": "21 BEELA ROAD STUBBO 2852",
    "locID": "LOC000122471565",
    "tech": "WIRELESS",
    "upgrade": "NULL_NA",
    "gnaf_pid": "GANSW718257927",
    "tech_change_status": "Not Planned",
    "program_type": "Fixed Wireless and Satellite Upgrade Program",
    "target_eligibility_quarter": "NA"
   }
  },
  {
   "type": "Feature",
   "geometry": {
    "type": "Point",
    "coordinates": [
     149.61318901,
     -32.26794855
    ]
   },
   "properties": {
    "name": "384 BLUE SPRINGS ROAD STUBBO 2852",
    "locID": "LOC000122438261",
    "tech": "WIRELESS",
    "upgrade": "NULL_NA",
    "gnaf_pid": "GANSW718258207",
    "tech_change_status": "Not Planned",
    "program_type": "Fixed Wireless and Satellite Upgrade Program",
    "target_eligibility_quarter": "NA"
   }
  },
  {
   "type": "Feature",
   "geometry": {
    "type": "Point",
    "coordinates": [
     149.59379975,
     -32.32775434
    ]
   },
   "properties": {
    "name": "108 WYOMING ROAD STUBBO 2852",
    "locID": "LOC000122458800",
    "tech": "WIRELESS",
    "upgrade": "NULL_NA",
    "gnaf_pid": "GANSW718272002",
    "tech_change_status": "Not Planned",
    "program_type": "Fixed Wireless and Satellite Upgrade Program",
    "target_eligibility_quarter": "NA"
   }
  },
  {
   "type": "Feature",
   "geometry": {
    "type": "Point",
    "coordinates": [
     149.5826864,
     -32.2748846
    ]
   },
   "properties": {
    "name": "303 BLUE SPRINGS ROAD STUBBO 2852",
    "locID": "LOC000122435744",
    "tech": "WIRELESS",
    "upgrade": "NULL_NA",
    "gnaf_pid": "GANSW718306916",
    "tech_change_status": "Not Planned",
    "program_type": "Fixed Wireless and Satellite Upgrade Program",
    "target_eligibility_quarter": "NA"
   }
  },
  {
   "type": "Feature",
   "geometry": {
    "type": "Point",
    "coordinates": [
     149.59053941,
     -32.33532053
    ]
   },
   "properties": {
    "name": "486 COPE ROAD STUBBO 2852",
    "locID": "LOC000122444111",
    "tech": "WIRELESS",
    "upgrade": "NULL_NA",
    "gnaf_pid": "GANSW718323789",
    "tech_change_status": "Not Planned",
    "program_type": "Fixed Wireless and Satellite Upgrade Program",
    "target_eligibility_quarter": "NA"
   }
  },
  {
   "type": "Feature",
   "geometry": {
    "type": "Point",
    "coordinates": [
     149.53989749,
     -32.27985277
    ]
   },
   "properties": {
    "name": "810 BARNEYS REEF ROAD STUBBO 2852",
    "locID": "LOC100078066101",
    "tech": "WIRELESS",
    "upgrade": "NULL_NA",
    "gnaf_pid": "GANSW718349420",
    "tech_change_status": "Not Planned",
    "program_type": "Fixed Wireless and Satellite Upgrade Program",
    "target_eligibility_quarter": "NA"
   }
  },
  {
   "type": "Feature",
   "geometry": {
    "type": "Point",
    "coordinates": [
     149.55180516,
     -32.25913764
    ]
   },
   "properties": {
    "name": "986 BARNEYS REEF ROAD STUBBO 2852",
    "locID": "LOC100071952914",
    "tech": "WIRELESS",
    "upgrade": "NULL_NA",
    "gnaf_pid": "GANSW718454383",
    "tech_change_status": "Not Planned",
    "program_type": "Fixed Wireless and Satellite Upgrade Program",
    "target_eligibility_quarter": "NA"
   }
  },
  {
   "type": "Feature",
   "geometry": {
    "type": "Point",
    "coordinates": [
     149.52902355,
     -32.31423921
    ]
   },
   "properties": {
    "name": "441 BARNEYS REEF ROAD STUBBO 2852",
    "locID": "LOC000160759423",
    "tech": "WIRELESS",
    "upgrade": "NULL_NA",
    "gnaf_pid": "GANSW718473154",
    "tech_change_status": "Not Planned",
    "program_type": "Fixed Wireless and Satellite Upgrade Program",
    "target_eligibility_quarter": "NA"
   }
  },
  {
   "type": "Feature",
   "geometry": {
    "type": "Point",
    "coordinates": [
     149.59230493,
     -32.29133133
    ]
   },
   "properties": {
    "name": "137 GOVERNOR ROAD STUBBO 2852",
    "locID": "LOC100033418285",
    "tech": "WIRELESS",
    "upgrade": "NULL_NA",
    "gnaf_pid": "GANSW718474653",
    "tech_change_status": "Not Planned",
    "program_type": "Fixed Wireless and Satellite Upgrade Program",
    "target_eligibility_quarter": "NA"
   }
  },
  {
   "type": "Feature",
   "geometry": {
    "type": "Point",
    "coordinates": [
     149.58283458,
     -32.31986031
    ]
   },
   "properties": {
    "name": "556 COPE ROAD STUBBO 2852",
    "locID": "LOC100021535147",
    "tech": "WIRELESS",
    "upgrade": "NULL_NA",
    "gnaf_pid": "GANSW718598111",
    "tech_change_status": "Not Planned",
    "program_type": "Fixed Wireless and Satellite Upgrade Program",
    "target_eligibility_quarter": "NA"
   }
  },
  {
   "type": "Feature",
   "geometry": {
    "type": "Point",
    "coordinates": [
     149.55376355,
     -32.29708484
    ]
   },
   "properties": {
    "name": "151 STUBBO ROAD STUBBO 2852",
    "locID": "LOC000150357647",
    "tech": "WIRELESS",
    "upgrade": "NULL_NA",
    "gnaf_pid": "GANSW718649578",
    "tech_change_status": "Not Planned",
    "program_type": "Fixed Wireless and Satellite Upgrade Program",
    "target_eligibility_quarter": "NA"
   }
  },
  {
   "type": "Feature",
   "geometry": {
    "type": "Point",
    "coordinates": [
     149.58403464,
     -32.32353083
    ]
   },
   "properties": {
    "name": "596 COPE ROAD STUBBO 2852",
    "locID": "LOC000144301945",
    "tech": "WIRELESS",
    "upgrade": "NULL_NA",
    "gnaf_pid": "GANSW718722372",
    "tech_change_status": "Not Planned",
    "program_type": "Fixed Wireless and Satellite Upgrade Program",
    "target_eligibility_quarter": "NA"
   }
  },
  {
   "type": "Feature",
   "geometry": {
    "type": "Point",
    "coordinates": [
     149.61336548,
     -32.22141738
    ]
   },
   "properties": {
    "name": "86 RISSLER ROAD STUBBO 2852",
    "locID": "LOC000148103629",
    "tech": "SATELLITE",
    "upgrade": "NULL_NA",
    "gnaf_pid": "GANSW718806033",
    "tech_change_status": "Not Planned"
   }
  },
  {
   "type": "Feature",
   "geometry": {
    "type": "Point",
    "coordinates": [
     149.58434504,
     -32.30870519
    ]
   },
   "properties": {
    "name": "69A BEELA ROAD STUBBO 2852",
    "locID": "LOC000186916941",
    "tech": "WIRELESS",
    "upgrade": "NULL_NA",
    "gnaf_pid": "GANSW718896545",
    "tech_change_status": "Not Planned",
    "program_type": "Fixed Wireless and Satellite Upgrade Program",
    "target_eligibility_quarter": "NA"
   }
  },
  {
   "type": "Feature",
   "geometry": {
    "type": "Point",
    "coordinates": [
     149.58362538,
     -32.30395074
    ]
   },
   "properties": {
    "name": "15 CARRAMAR ROAD STUBBO 2852",
    "locID": "LOC000013289473",
    "tech": "WIRELESS",
    "upgrade": "NULL_NA",
    "gnaf_pid": "GANSW718969948",
    "tech_change_status": "Not Planned",
    "program_type": "Fixed Wireless and Satellite Upgrade Program",
    "target_eligibility_quarter": "NA"
   }
  },
  {
   "type": "Feature",
   "geometry": {
    "type": "Point",
    "coordinates": [
     149.61889455,
     -32.23201366
    ]
   },
   "properties": {
    "name": "873 BLUE SPRINGS ROAD STUBBO 2852",
    "locID": "LOC000172600780",
    "tech": "SATELLITE",
    "upgrade": "NULL_NA",
    "gnaf_pid": "GANSW719355991",
    "tech_change_status": "Not Planned"
   }
  },
  {
   "type": "Feature",
   "geometry": {
    "type": "Point",
    "coordinates": [
     149.53971051,
     -32.30016666
    ]
   },
   "properties": {
    "name": "96 STUBBO ROAD STUBBO 2852",
    "locID": "LOC000104978556",
    "tech": "WIRELESS",
    "upgrade": "NULL_NA",
    "gnaf_pid": "GANSW720151312",
    "tech_change_status": "Not Planned",
    "program_type": "Fixed Wireless and Satellite Upgrade Program",
    "target_eligibility_quarter": "NA"
   }
  },
  {
   "type": "Feature",
   "geometry": {
    "type": "Point",
    "coordinates": [
     149.55263994,
     -32.30796278
    ]
   },
   "properties": {
    "name": "108 STUBBO ROAD STUBBO 2852",
    "locID": "LOC000122458800",
    "tech": "WIRELESS",
    "upgrade": "NULL_NA",
    "gnaf_pid": "GANSW720808065",
    "tech_change_status": "Not Planned",
    "program_type": "Fixed Wireless and Satellite Upgrade Program",
    "target_eligibility_quarter": "NA"
   }
  },
  {
   "type": "Feature",
   "geometry": {
    "type": "Point",
    "coordinates": [
     149.61039307,
     -32.3041023
    ]
   },
   "properties": {
    "name": "902 COPE ROAD STUBBO 2852",
    "locID": "LOC100082047710",
    "tech": "WIRELESS",
    "upgrade": "NULL_NA",
    "gnaf_pid": "GANSW721243282",
    "tech_change_status": "Not Planned",
    "program_type": "Fixed Wireless and Satellite Upgrade Program",
    "target_eligibility_quarter": "NA"
   }
  }
 ]
}