{
 "type": "FeatureCollection",
 "generated": "2024-12-13T10:10:03.693112",
 "suburb": "SUNNY CORNER",
 "features": [
  {
   "type": "Feature",
   "geometry": {
    "type": "Point",
    "coordinates": [
     149.88702303,
     -33.38741224
    ]
   },
   "properties": {
    "name": "1038 BATHURST STREET SUNNY CORNER 2795",
    "locID": "LOC000057456690",
    "tech": "WIRELESS",
    "upgrade": "NULL_NA",
    "gnaf_pid": "GANSW717418028",
    "tech_change_status": "Not Planned",
    "program_type": "Fixed Wireless and Satellite Upgrade Program",
    "target_eligibility_quarter": "NA"
   }
  },
  {
   "type": "Feature",
   "geometry": {
    "type": "Point",
    "coordinates": [
     149.8848785,
     -33.38219544
    ]
   },
   "properties": {
    "name": "980 BATHURST STREET SUNNY CORNER 2795",
    "locID": "LOC000086945890",
    "tech": "WIRELESS",
    "upgrade": "NULL_NA",
    "gnaf_pid": "GANSW717418029",
    "tech_change_status": "Not Planned",
    "program_type": "Fixed Wireless and Satellite Upgrade Program",
    "target_eligibility_quarter": "NA"
   }
  },
  {
   "type": "Feature",
   "geometry": {
    "type": "Point",
    "coordinates": [
     149.88323866,
     -33.37270398
    ]
   },
   "properties": {
    "name": "91 DARK CORNER ROAD SUNNY CORNER 2795",
    "locID": "LOC000093525209",
    "tech": "WIRELESS",
    "upgrade": "NULL_NA",
    "gnaf_pid": "GANSW717425304",
    "tech_change_status": "Not Planned",
    "program_type": "Fixed Wireless and Satellite Upgrade Program",
    "target_eligibility_quarter": "NA"
   }
  },
  {
   "type": "Feature",
   "geometry": {
    "type": "Point",
    "coordinates": [
     149.88896149,
     -33.38539912
    ]
   },
   "properties": {
    "name": "2 SILVER STREET SUNNY CORNER 2795",
    "locID": "LOC000030128520",
    "tech": "WIRELESS",
    "upgrade": "NULL_NA",
    "gnaf_pid": "GANSW717448942",
    "tech_change_status": "Not Planned",
    "program_type": "Fixed Wireless and Satellite Upgrade Program",
    "target_eligibility_quarter": "NA"
   }
  },
  {
   "type": "Feature",
   "geometry": {
    "type": "Point",
    "coordinates": [
     149.89965497,
     -33.37990742
    ]
   },
   "properties": {
    "name": "143 BACK CREEK ROAD SUNNY CORNER 2795",
    "locID": "LOC000028779535",
    "tech": "WIRELESS",
    "upgrade": "NULL_NA",
    "gnaf_pid": "GANSW717455661",
    "tech_change_status": "Not Planned",
    "program_type": "Fixed Wireless and Satellite Upgrade Program",
    "target_eligibility_quarter": "NA"
   }
  },
  {
   "type": "Feature",
   "geometry": {
    "type": "Point",
    "coordinates": [
     149.90529311,
     -33.379195
    ]
   },
   "properties": {
    "name": "179 BACK CREEK ROAD SUNNY CORNER 2795",
    "locID": "LOC000098426001",
    "tech": "WIRELESS",
    "upgrade": "NULL_NA",
    "gnaf_pid": "GANSW717455663",
    "tech_change_status": "Not Planned",
    "program_type": "Fixed Wireless and Satellite Upgrade Program",
    "target_eligibility_quarter": "NA"
   }
  },
  {
   "type": "Feature",
   "geometry": {
    "type": "Point",
    "coordinates": [
     149.90503151,
     -33.38198692
    ]
   },
   "properties": {
    "name": "164 BACK CREEK ROAD SUNNY CORNER 2795",
    "locID": "LOC000002308251",
    "tech": "WIRELESS",
    "upgrade": "NULL_NA",
    "gnaf_pid": "GANSW717455664",
    "tech_change_status": "Not Planned",
    "program_type": "Fixed Wireless and Satellite Upgrade Program",
    "target_eligibility_quarter": "NA"
   }
  },
  {
   "type": "Feature",
   "geometry": {
    "type": "Point",
    "coordinates": [
     149.88951948,
     -33.38678205
    ]
   },
   "properties": {
    "name": "1054 BATHURST STREET SUNNY CORNER 2795",
    "locID": "LOC000024248032",
    "tech": "WIRELESS",
    "upgrade": "NULL_NA",
    "gnaf_pid": "GANSW717455703",
    "tech_change_status": "Not Planned",
    "program_type": "Fixed Wireless and Satellite Upgrade Program",
    "target_eligibility_quarter": "NA"
   }
  },
  {
   "type": "Feature",
   "geometry": {
    "type": "Point",
    "coordinates": [
     149.89001197,
     -33.38630302
    ]
   },
   "properties": {
    "name": "1047 BATHURST STREET SUNNY CORNER 2795",
    "locID": "LOC000102471060",
    "tech": "WIRELESS",
    "upgrade": "NULL_NA",
    "gnaf_pid": "GANSW717455704",
    "tech_change_status": "Not Planned",
    "program_type": "Fixed Wireless and Satellite Upgrade Program",
    "target_eligibility_quarter": "NA"
   }
  },
  {
   "type": "Feature",
   "geometry": {
    "type": "Point",
    "coordinates": [
     149.88668138,
     -33.38299516
    ]
   },
   "properties": {
    "name": "997 BATHURST STREET SUNNY CORNER 2795",
    "locID": "LOC000003178544",
    "tech": "WIRELESS",
    "upgrade": "NULL_NA",
    "gnaf_pid": "GANSW717455705",
    "tech_change_status": "Not Planned",
    "program_type": "Fixed Wireless and Satellite Upgrade Program",
    "target_eligibility_quarter": "NA"
   }
  },
  {
   "type": "Feature",
   "geometry": {
    "type": "Point",
    "coordinates": [
     149.88788901,
     -33.38542311
    ]
   },
   "properties": {
    "name": "1026 BATHURST STREET SUNNY CORNER 2795",
    "locID": "LOC000027185636",
    "tech": "WIRELESS",
    "upgrade": "NULL_NA",
    "gnaf_pid": "GANSW717455706",
    "tech_change_status": "Not Planned",
    "program_type": "Fixed Wireless and Satellite Upgrade Program",
    "target_eligibility_quarter": "NA"
   }
  },
  {
   "type": "Feature",
   "geometry": {
    "type": "Point",
    "coordinates": [
     149.87608444,
     -33.34748831
    ]
   },
   "properties": {
    "name": "25 CUPITTS LANE SUNNY CORNER 2795",
    "locID": "LOC000049726052",
    "tech": "WIRELESS",
    "upgrade": "NULL_NA",
    "gnaf_pid": "GANSW717456196",
    "tech_change_status": "Not Planned",
    "program_type": "Fixed Wireless and Satellite Upgrade Program",
    "target_eligibility_quarter": "NA"
   }
  },
  {
   "type": "Feature",
   "geometry": {
    "type": "Point",
    "coordinates": [
     149.87981758,
     -33.34367627
    ]
   },
   "properties": {
    "name": "464 DARK CORNER ROAD SUNNY CORNER 2795",
    "locID": "LOC000001384601",
    "tech": "WIRELESS",
    "upgrade": "NULL_NA",
    "gnaf_pid": "GANSW717456200",
    "tech_change_status": "Not Planned",
    "program_type": "Fixed Wireless and Satellite Upgrade Program",
    "target_eligibility_quarter": "NA"
   }
  },
  {
   "type": "Feature",
   "geometry": {
    "type": "Point",
    "coordinates": [
     149.88184802,
     -33.36008036
    ]
   },
   "properties": {
    "name": "256 DARK CORNER ROAD SUNNY CORNER 2795",
    "locID": "LOC000090112979",
    "tech": "WIRELESS",
    "upgrade": "NULL_NA",
    "gnaf_pid": "GANSW717456202",
    "tech_change_status": "Not Planned",
    "program_type": "Fixed Wireless and Satellite Upgrade Program",
    "target_eligibility_quarter": "NA"
   }
  },
  {
   "type": "Feature",
   "geometry": {
    "type": "Point",
    "coordinates": [
     149.88223848,
     -33.35833647
    ]
   },
   "properties": {
    "name": "282 DARK CORNER ROAD SUNNY CORNER 2795",
    "locID": "LOC000034996681",
    "tech": "WIRELESS",
    "upgrade": "NULL_NA",
    "gnaf_pid": "GANSW717456204",
    "tech_change_status": "Not Planned",
    "program_type": "Fixed Wireless and Satellite Upgrade Program",
    "target_eligibility_quarter": "NA"
   }
  },
  {
   "type": "Feature",
   "geometry": {
    "type": "Point",
    "coordinates": [
     149.8790902,
     -33.35007465
    ]
   },
   "properties": {
    "name": "395 DARK CORNER ROAD SUNNY CORNER 2795",
    "locID": "LOC000096383404",
    "tech": "WIRELESS",
    "upgrade": "NULL_NA",
    "gnaf_pid": "GANSW717456205",
    "tech_change_status": "Not Planned",
    "program_type": "Fixed Wireless and Satellite Upgrade Program",
    "target_eligibility_quarter": "NA"
   }
  },
  {
   "type": "Feature",
   "geometry": {
    "type": "Point",
    "coordinates": [
     149.87924314,
     -33.34560953
    ]
   },
   "properties": {
    "name": "444 DARK CORNER ROAD SUNNY CORNER 2795",
    "locID": "LOC000047297350",
    "tech": "WIRELESS",
    "upgrade": "NULL_NA",
    "gnaf_pid": "GANSW717456206",
    "tech_change_status": "Not Planned",
    "program_type": "Fixed Wireless and Satellite Upgrade Program",
    "target_eligibility_quarter": "NA"
   }
  },
  {
   "type": "Feature",
   "geometry": {
    "type": "Point",
    "coordinates": [
     149.88154236,
     -33.37547038
    ]
   },
   "properties": {
    "name": "83 DARK CORNER ROAD SUNNY CORNER 2795",
    "locID": "LOC000028838364",
    "tech": "WIRELESS",
    "upgrade": "NULL_NA",
    "gnaf_pid": "GANSW717456207",
    "tech_change_status": "Not Planned",
    "program_type": "Fixed Wireless and Satellite Upgrade Program",
    "target_eligibility_quarter": "NA"
   }
  },
  {
   "type": "Feature",
   "geometry": {
    "type": "Point",
    "coordinates": [
     149.87045121,
     -33.37651723
    ]
   },
   "properties": {
    "name": "829 SUNNY CORNER ROAD SUNNY CORNER 2795",
    "locID": "LOC000074896775",
    "tech": "WIRELESS",
    "upgrade": "NULL_NA",
    "gnaf_pid": "GANSW717458146",
    "tech_change_status": "Not Planned",
    "program_type": "Fixed Wireless and Satellite Upgrade Program",
    "target_eligibility_quarter": "NA"
   }
  },
  {
   "type": "Feature",
   "geometry": {
    "type": "Point",
    "coordinates": [
     149.90334512,
     -33.39767204
    ]
   },
   "properties": {
    "name": "1231 SUNNY CORNER ROAD SUNNY CORNER 2795",
    "locID": "LOC000010716185",
    "tech": "WIRELESS",
    "upgrade": "NULL_NA",
    "gnaf_pid": "GANSW717458147",
    "tech_change_status": "Not Planned",
    "program_type": "Fixed Wireless and Satellite Upgrade Program",
    "target_eligibility_quarter": "NA"
   }
  },
  {
   "type": "Feature",
   "geometry": {
    "type": "Point",
    "coordinates": [
     149.87720066,
     -33.37839604
    ]
   },
   "properties": {
    "name": "891 SUNNY CORNER ROAD SUNNY CORNER 2795",
    "locID": "LOC000049139720",
    "tech": "WIRELESS",
    "upgrade": "NULL_NA",
    "gnaf_pid": "GANSW717458148",
    "tech_change_status": "Not Planned",
    "program_type": "Fixed Wireless and Satellite Upgrade Program",
    "target_eligibility_quarter": "NA"
   }
  },
  {
   "type": "Feature",
   "geometry": {
    "type": "Point",
    "coordinates": [
     149.90674289,
     -33.40195178
    ]
   },
   "properties": {
    "name": "1268 SUNNY CORNER ROAD SUNNY CORNER 2795",
    "locID": "LOC000057408815",
    "tech": "WIRELESS",
    "upgrade": "NULL_NA",
    "gnaf_pid": "GANSW717458149",
    "tech_change_status": "Not Planned",
    "program_type": "Fixed Wireless and Satellite Upgrade Program",
    "target_eligibility_quarter": "NA"
   }
  },
  {
   "type": "Feature",
   "geometry": {
    "type": "Point",
    "coordinates": [
     149.90224305,
     -33.40061763
    ]
   },
   "properties": {
    "name": "1238 SUNNY CORNER ROAD SUNNY CORNER 2795",
    "locID": "LOC000064437427",
    "tech": "WIRELESS",
    "upgrade": "NULL_NA",
    "gnaf_pid": "GANSW717458150",
    "tech_change_status": "Not Planned",
    "program_type": "Fixed Wireless and Satellite Upgrade Program",
    "target_eligibility_quarter": "NA"
   }
  },
  {
   "type": "Feature",
   "geometry": {
    "type": "Point",
    "coordinates": [
     149.87171056,
     -33.37834623
    ]
   },
   "properties": {
    "name": "844 SUNNY CORNER ROAD SUNNY CORNER 2795",
    "locID": "LOC000104450771",
    "tech": "WIRELESS",
    "upgrade": "NULL_NA",
    "gnaf_pid": "GANSW717458151",
    "tech_change_status": "Not Planned",
    "program_type": "Fixed Wireless and Satellite Upgrade Program",
    "target_eligibility_quarter": "NA"
   }
  },
  {
   "type": "Feature",
   "geometry": {
    "type": "Point",
    "coordinates": [
     149.90507155,
     -33.39513487
    ]
   },
   "properties": {
    "name": "1243 SUNNY CORNER ROAD SUNNY CORNER 2795",
    "locID": "LOC000091902384",
    "tech": "SATELLITE",
    "upgrade": "WIRELESS",
    "gnaf_pid": "GANSW717458155",
    "tech_change_status": "Eligible to Order",
    "program_type": "Fixed Wireless and Satellite Upgrade Program",
    "target_eligibility_quarter": "NA"
   }
  },
  {
   "type": "Feature",
   "geometry": {
    "type": "Point",
    "coordinates": [
     149.90149827,
     -33.39457521
    ]
   },
   "properties": {
    "name": "1205 SUNNY CORNER ROAD SUNNY CORNER 2795",
    "locID": "LOC000024545700",
    "tech": "WIRELESS",
    "upgrade": "NULL_NA",
    "gnaf_pid": "GANSW717458156",
    "tech_change_status": "Not Planned",
    "program_type": "Fixed Wireless and Satellite Upgrade Program",
    "target_eligibility_quarter": "NA"
   }
  },
  {
   "type": "Feature",
   "geometry": {
    "type": "Point",
    "coordinates": [
     149.87052373,
     -33.37757468
    ]
   },
   "properties": {
    "name": "830 SUNNY CORNER ROAD SUNNY CORNER 2795",
    "locID": "LOC000078059437",
    "tech": "WIRELESS",
    "upgrade": "NULL_NA",
    "gnaf_pid": "GANSW717458157",
    "tech_change_status": "Not Planned",
    "program_type": "Fixed Wireless and Satellite Upgrade Program",
    "target_eligibility_quarter": "NA"
   }
  },
  {
   "type": "Feature",
   "geometry": {
    "type": "Point",
    "coordinates": [
     149.87685817,
     -33.35082154
    ]
   },
   "properties": {
    "name": "329 WEST MITCHELL ROAD SUNNY CORNER 2795",
    "locID": "LOC000061371335",
    "tech": "WIRELESS",
    "upgrade": "NULL_NA",
    "gnaf_pid": "GANSW717458332",
    "tech_change_status": "Not Planned",
    "program_type": "Fixed Wireless and Satellite Upgrade Program",
    "target_eligibility_quarter": "NA"
   }
  },
  {
   "type": "Feature",
   "geometry": {
    "type": "Point",
    "coordinates": [
     149.88761401,
     -33.38397232
    ]
   },
   "properties": {
    "name": "1013 BATHURST STREET SUNNY CORNER 2795",
    "locID": "LOC000046669261",
    "tech": "WIRELESS",
    "upgrade": "NULL_NA",
    "gnaf_pid": "GANSW717460173",
    "tech_change_status": "Not Planned",
    "program_type": "Fixed Wireless and Satellite Upgrade Program",
    "target_eligibility_quarter": "NA"
   }
  },
  {
   "type": "Feature",
   "geometry": {
    "type": "Point",
    "coordinates": [
     149.88725802,
     -33.38476453
    ]
   },
   "properties": {
    "name": "1016 BATHURST STREET SUNNY CORNER 2795",
    "locID": "LOC000078437514",
    "tech": "WIRELESS",
    "upgrade": "NULL_NA",
    "gnaf_pid": "GANSW717460174",
    "tech_change_status": "Not Planned",
    "program_type": "Fixed Wireless and Satellite Upgrade Program",
    "target_eligibility_quarter": "NA"
   }
  },
  {
   "type": "Feature",
   "geometry": {
    "type": "Point",
    "coordinates": [
     149.88753751,
     -33.38505878
    ]
   },
   "properties": {
    "name": "1018 BATHURST STREET SUNNY CORNER 2795",
    "locID": "LOC000104150306",
    "tech": "WIRELESS",
    "upgrade": "NULL_NA",
    "gnaf_pid": "GANSW717460175",
    "tech_change_status": "Not Planned",
    "program_type": "Fixed Wireless and Satellite Upgrade Program",
    "target_eligibility_quarter": "NA"
   }
  },
  {
   "type": "Feature",
   "geometry": {
    "type": "Point",
    "coordinates": [
     149.88909799,
     -33.38554294
    ]
   },
   "properties": {
    "name": "1035 BATHURST STREET SUNNY CORNER 2795",
    "locID": "LOC000052822989",
    "tech": "WIRELESS",
    "upgrade": "NULL_NA",
    "gnaf_pid": "GANSW717460176",
    "tech_change_status": "Not Planned",
    "program_type": "Fixed Wireless and Satellite Upgrade Program",
    "target_eligibility_quarter": "NA"
   }
  },
  {
   "type": "Feature",
   "geometry": {
    "type": "Point",
    "coordinates": [
     149.88929899,
     -33.38575965
    ]
   },
   "properties": {
    "name": "1037 BATHURST STREET SUNNY CORNER 2795",
    "locID": "LOC000071473414",
    "tech": "WIRELESS",
    "upgrade": "NULL_NA",
    "gnaf_pid": "GANSW717460177",
    "tech_change_status": "Not Planned",
    "program_type": "Fixed Wireless and Satellite Upgrade Program",
    "target_eligibility_quarter": "NA"
   }
  },
  {
   "type": "Feature",
   "geometry": {
    "type": "Point",
    "coordinates": [
     149.88541354,
     -33.381728
    ]
   },
   "properties": {
    "name": "981 BATHURST STREET SUNNY CORNER 2795",
    "locID": "LOC000002469468",
    "tech": "WIRELESS",
    "upgrade": "NULL_NA",
    "gnaf_pid": "GANSW717460178",
    "tech_change_status": "Not Planned",
    "program_type": "Fixed Wireless and Satellite Upgrade Program",
    "target_eligibility_quarter": "NA"
   }
  },
  {
   "type": "Feature",
   "geometry": {
    "type": "Point",
    "coordinates": [
     149.88546954,
     -33.38288334
    ]
   },
   "properties": {
    "name": "990 BATHURST STREET SUNNY CORNER 2795",
    "locID": "LOC000014038659",
    "tech": "WIRELESS",
    "upgrade": "NULL_NA",
    "gnaf_pid": "GANSW717460179",
    "tech_change_status": "Not Planned",
    "program_type": "Fixed Wireless and Satellite Upgrade Program",
    "target_eligibility_quarter": "NA"
   }
  },
  {
   "type": "Feature",
   "geometry": {
    "type": "Point",
    "coordinates": [
     149.88634852,
     -33.38264404
    ]
   },
   "properties": {
    "name": "993 BATHURST STREET SUNNY CORNER 2795",
    "locID": "LOC000042356529",
    "tech": "WIRELESS",
    "upgrade": "NULL_NA",
    "gnaf_pid": "GANSW717460180",
    "tech_change_status": "Not Planned",
    "program_type": "Fixed Wireless and Satellite Upgrade Program",
    "target_eligibility_quarter": "NA"
   }
  },
  {
   "type": "Feature",
   "geometry": {
    "type": "Point",
    "coordinates": [
     149.88587054,
     -33.38330626
    ]
   },
   "properties": {
    "name": "996 BATHURST STREET SUNNY CORNER 2795",
    "locID": "LOC000014123037",
    "tech": "WIRELESS",
    "upgrade": "NULL_NA",
    "gnaf_pid": "GANSW717460181",
    "tech_change_status": "Not Planned",
    "program_type": "Fixed Wireless and Satellite Upgrade Program",
    "target_eligibility_quarter": "NA"
   }
  },
  {
   "type": "Feature",
   "geometry": {
    "type": "Point",
    "coordinates": [
     149.88625265,
     -33.38371827
    ]
   },
   "properties": {
    "name": "998 BATHURST STREET SUNNY CORNER 2795",
    "locID": "LOC000046742591",
    "tech": "WIRELESS",
    "upgrade": "NULL_NA",
    "gnaf_pid": "GANSW717460182",
    "tech_change_status": "Not Planned",
    "program_type": "Fixed Wireless and Satellite Upgrade Program",
    "target_eligibility_quarter": "NA"
   }
  },
  {
   "type": "Feature",
   "geometry": {
    "type": "Point",
    "coordinates": [
     149.88155934,
     -33.3600752
    ]
   },
   "properties": {
    "name": "37 DARK CORNER ROAD SUNNY CORNER 2795",
    "locID": "LOC000101416314",
    "tech": "WIRELESS",
    "upgrade": "NULL_NA",
    "gnaf_pid": "GANSW717462700",
    "tech_change_status": "Not Planned",
    "program_type": "Fixed Wireless and Satellite Upgrade Program",
    "target_eligibility_quarter": "NA"
   }
  },
  {
   "type": "Feature",
   "geometry": {
    "type": "Point",
    "coordinates": [
     149.89017347,
     -33.38389807
    ]
   },
   "properties": {
    "name": "23 SILVER STREET SUNNY CORNER 2795",
    "locID": "LOC000071536958",
    "tech": "WIRELESS",
    "upgrade": "NULL_NA",
    "gnaf_pid": "GANSW717469608",
    "tech_change_status": "Not Planned",
    "program_type": "Fixed Wireless and Satellite Upgrade Program",
    "target_eligibility_quarter": "NA"
   }
  },
  {
   "type": "Feature",
   "geometry": {
    "type": "Point",
    "coordinates": [
     149.88499301,
     -33.38171811
    ]
   },
   "properties": {
    "name": "1068 SUNNY CORNER ROAD SUNNY CORNER 2795",
    "locID": "LOC000062904992",
    "tech": "WIRELESS",
    "upgrade": "NULL_NA",
    "gnaf_pid": "GANSW717470138",
    "tech_change_status": "Not Planned",
    "program_type": "Fixed Wireless and Satellite Upgrade Program",
    "target_eligibility_quarter": "NA"
   }
  },
  {
   "type": "Feature",
   "geometry": {
    "type": "Point",
    "coordinates": [
     149.87692182,
     -33.35363629
    ]
   },
   "properties": {
    "name": "297 WEST MITCHELL ROAD SUNNY CORNER 2795",
    "locID": "LOC000053475675",
    "tech": "WIRELESS",
    "upgrade": "NULL_NA",
    "gnaf_pid": "GANSW717471093",
    "tech_change_status": "Not Planned",
    "program_type": "Fixed Wireless and Satellite Upgrade Program",
    "target_eligibility_quarter": "NA"
   }
  },
  {
   "type": "Feature",
   "geometry": {
    "type": "Point",
    "coordinates": [
     149.88917299,
     -33.38363847
    ]
   },
   "properties": {
    "name": "10 AUSTRAL STREET SUNNY CORNER 2795",
    "locID": "LOC000052800491",
    "tech": "WIRELESS",
    "upgrade": "NULL_NA",
    "gnaf_pid": "GANSW717472155",
    "tech_change_status": "Not Planned",
    "program_type": "Fixed Wireless and Satellite Upgrade Program",
    "target_eligibility_quarter": "NA"
   }
  },
  {
   "type": "Feature",
   "geometry": {
    "type": "Point",
    "coordinates": [
     149.88791707,
     -33.38218935
    ]
   },
   "properties": {
    "name": "13 AUSTRAL STREET SUNNY CORNER 2795",
    "locID": "LOC000077731666",
    "tech": "WIRELESS",
    "upgrade": "NULL_NA",
    "gnaf_pid": "GANSW717472156",
    "tech_change_status": "Not Planned",
    "program_type": "Fixed Wireless and Satellite Upgrade Program",
    "target_eligibility_quarter": "NA"
   }
  },
  {
   "type": "Feature",
   "geometry": {
    "type": "Point",
    "coordinates": [
     149.8878005,
     -33.38185745
    ]
   },
   "properties": {
    "name": "15 AUSTRAL STREET SUNNY CORNER 2795",
    "locID": "LOC000035037826",
    "tech": "WIRELESS",
    "upgrade": "NULL_NA",
    "gnaf_pid": "GANSW717472157",
    "tech_change_status": "Not Planned",
    "program_type": "Fixed Wireless and Satellite Upgrade Program",
    "target_eligibility_quarter": "NA"
   }
  },
  {
   "type": "Feature",
   "geometry": {
    "type": "Point",
    "coordinates": [
     149.88654753,
     -33.38539423
    ]
   },
   "properties": {
    "name": "2 AUSTRAL STREET SUNNY CORNER 2795",
    "locID": "LOC000054428809",
    "tech": "WIRELESS",
    "upgrade": "NULL_NA",
    "gnaf_pid": "GANSW717472158",
    "tech_change_status": "Not Planned",
    "program_type": "Fixed Wireless and Satellite Upgrade Program",
    "target_eligibility_quarter": "NA"
   }
  },
  {
   "type": "Feature",
   "geometry": {
    "type": "Point",
    "coordinates": [
     149.88699292,
     -33.38511774
    ]
   },
   "properties": {
    "name": "4 AUSTRAL STREET SUNNY CORNER 2795",
    "locID": "LOC000003178544",
    "tech": "WIRELESS",
    "upgrade": "NULL_NA",
    "gnaf_pid": "GANSW717472159",
    "tech_change_status": "Not Planned",
    "program_type": "Fixed Wireless and Satellite Upgrade Program",
    "target_eligibility_quarter": "NA"
   }
  },
  {
   "type": "Feature",
   "geometry": {
    "type": "Point",
    "coordinates": [
     149.89006738,
     -33.38034455
    ]
   },
   "properties": {
    "name": "54 AUSTRAL STREET SUNNY CORNER 2795",
    "locID": "LOC000074402125",
    "tech": "WIRELESS",
    "upgrade": "NULL_NA",
    "gnaf_pid": "GANSW717472160",
    "tech_change_status": "Not Planned",
    "program_type": "Fixed Wireless and Satellite Upgrade Program",
    "target_eligibility_quarter": "NA"
   }
  },
  {
   "type": "Feature",
   "geometry": {
    "type": "Point",
    "coordinates": [
     149.88701885,
     -33.38335057
    ]
   },
   "properties": {
    "name": "5 AUSTRAL STREET SUNNY CORNER 2795",
    "locID": "LOC000070685472",
    "tech": "WIRELESS",
    "upgrade": "NULL_NA",
    "gnaf_pid": "GANSW717472161",
    "tech_change_status": "Not Planned",
    "program_type": "Fixed Wireless and Satellite Upgrade Program",
    "target_eligibility_quarter": "NA"
   }
  },
  {
   "type": "Feature",
   "geometry": {
    "type": "Point",
    "coordinates": [
     149.89038583,
     -33.37972376
    ]
   },
   "properties": {
    "name": "66 AUSTRAL STREET SUNNY CORNER 2795",
    "locID": "LOC000052222102",
    "tech": "SATELLITE",
    "upgrade": "NULL_NA",
    "gnaf_pid": "GANSW717472163",
    "tech_change_status": "Not Planned"
   }
  },
  {
   "type": "Feature",
   "geometry": {
    "type": "Point",
    "coordinates": [
     149.8883595,
     -33.38476223
    ]
   },
   "properties": {
    "name": "1021 BATHURST STREET SUNNY CORNER 2795",
    "locID": "LOC000023235284",
    "tech": "WIRELESS",
    "upgrade": "NULL_NA",
    "gnaf_pid": "GANSW717472515",
    "tech_change_status": "Not Planned",
    "program_type": "Fixed Wireless and Satellite Upgrade Program",
    "target_eligibility_quarter": "NA"
   }
  },
  {
   "type": "Feature",
   "geometry": {
    "type": "Point",
    "coordinates": [
     149.88560304,
     -33.38302477
    ]
   },
   "properties": {
    "name": "992 BATHURST STREET SUNNY CORNER 2795",
    "locID": "LOC000051506899",
    "tech": "WIRELESS",
    "upgrade": "NULL_NA",
    "gnaf_pid": "GANSW717472517",
    "tech_change_status": "Not Planned",
    "program_type": "Fixed Wireless and Satellite Upgrade Program",
    "target_eligibility_quarter": "NA"
   }
  },
  {
   "type": "Feature",
   "geometry": {
    "type": "Point",
    "coordinates": [
     149.88681665,
     -33.38313783
    ]
   },
   "properties": {
    "name": "999 BATHURST STREET SUNNY CORNER 2795",
    "locID": "LOC000022892899",
    "tech": "WIRELESS",
    "upgrade": "NULL_NA",
    "gnaf_pid": "GANSW717472518",
    "tech_change_status": "Not Planned",
    "program_type": "Fixed Wireless and Satellite Upgrade Program",
    "target_eligibility_quarter": "NA"
   }
  },
  {
   "type": "Feature",
   "geometry": {
    "type": "Point",
    "coordinates": [
     149.88499301,
     -33.38171811
    ]
   },
   "properties": {
    "name": "1500 SUNNY CORNER ROAD SUNNY CORNER 2795",
    "locID": "LOC000114092142",
    "tech": "WIRELESS",
    "upgrade": "NULL_NA",
    "gnaf_pid": "GANSW717484641",
    "tech_change_status": "Not Planned",
    "program_type": "Fixed Wireless and Satellite Upgrade Program",
    "target_eligibility_quarter": "NA"
   }
  },
  {
   "type": "Feature",
   "geometry": {
    "type": "Point",
    "coordinates": [
     149.88499301,
     -33.38171811
    ]
   },
   "properties": {
    "name": "987 SUNNY CORNER ROAD SUNNY CORNER 2795",
    "locID": "LOC000019893668",
    "tech": "WIRELESS",
    "upgrade": "NULL_NA",
    "gnaf_pid": "GANSW717679944",
    "tech_change_status": "Not Planned",
    "program_type": "Fixed Wireless and Satellite Upgrade Program",
    "target_eligibility_quarter": "NA"
   }
  },
  {
   "type": "Feature",
   "geometry": {
    "type": "Point",
    "coordinates": [
     149.88970198,
     -33.3853715
    ]
   },
   "properties": {
    "name": "46 NEWTON STREET SUNNY CORNER 2795",
    "locID": "LOC000122170834",
    "tech": "WIRELESS",
    "upgrade": "NULL_NA",
    "gnaf_pid": "GANSW717853122",
    "tech_change_status": "Not Planned",
    "program_type": "Fixed Wireless and Satellite Upgrade Program",
    "target_eligibility_quarter": "NA"
   }
  },
  {
   "type": "Feature",
   "geometry": {
    "type": "Point",
    "coordinates": [
     149.88750904,
     -33.38290415
    ]
   },
   "properties": {
    "name": "7 AUSTRAL STREET SUNNY CORNER 2795",
    "locID": "LOC000122159339",
    "tech": "WIRELESS",
    "upgrade": "NULL_NA",
    "gnaf_pid": "GANSW717942333",
    "tech_change_status": "Not Planned",
    "program_type": "Fixed Wireless and Satellite Upgrade Program",
    "target_eligibility_quarter": "NA"
   }
  },
  {
   "type": "Feature",
   "geometry": {
    "type": "Point",
    "coordinates": [
     149.8868335,
     -33.38410833
    ]
   },
   "properties": {
    "name": "14 AUSTRAL STREET SUNNY CORNER 2795",
    "locID": "LOC000142977325",
    "tech": "WIRELESS",
    "upgrade": "NULL_NA",
    "gnaf_pid": "GANSW718048547",
    "tech_change_status": "Not Planned",
    "program_type": "Fixed Wireless and Satellite Upgrade Program",
    "target_eligibility_quarter": "NA"
   }
  },
  {
   "type": "Feature",
   "geometry": {
    "type": "Point",
    "coordinates": [
     149.88830411,
     -33.3842253
    ]
   },
   "properties": {
    "name": "28 NEWTON STREET SUNNY CORNER 2795",
    "locID": "LOC000122170708",
    "tech": "WIRELESS",
    "upgrade": "NULL_NA",
    "gnaf_pid": "GANSW718072875",
    "tech_change_status": "Not Planned",
    "program_type": "Fixed Wireless and Satellite Upgrade Program",
    "target_eligibility_quarter": "NA"
   }
  },
  {
   "type": "Feature",
   "geometry": {
    "type": "Point",
    "coordinates": [
     149.88513404,
     -33.38333645
    ]
   },
   "properties": {
    "name": "1004 BATHURST STREET SUNNY CORNER 2795",
    "locID": "LOC000122136933",
    "tech": "WIRELESS",
    "upgrade": "NULL_NA",
    "gnaf_pid": "GANSW718185883",
    "tech_change_status": "Not Planned",
    "program_type": "Fixed Wireless and Satellite Upgrade Program",
    "target_eligibility_quarter": "NA"
   }
  },
  {
   "type": "Feature",
   "geometry": {
    "type": "Point",
    "coordinates": [
     149.90140886,
     -33.39765297
    ]
   },
   "properties": {
    "name": "1226 SUNNY CORNER ROAD SUNNY CORNER 2795",
    "locID": "LOC000185685432",
    "tech": "WIRELESS",
    "upgrade": "NULL_NA",
    "gnaf_pid": "GANSW718442778",
    "tech_change_status": "Not Planned",
    "program_type": "Fixed Wireless and Satellite Upgrade Program",
    "target_eligibility_quarter": "NA"
   }
  },
  {
   "type": "Feature",
   "geometry": {
    "type": "Point",
    "coordinates": [
     149.888492,
     -33.38490574
    ]
   },
   "properties": {
    "name": "2 BATHURST STREET SUNNY CORNER 2795",
    "locID": "LOC000086945890",
    "tech": "WIRELESS",
    "upgrade": "NULL_NA",
    "gnaf_pid": "GANSW721444745",
    "tech_change_status": "Not Planned",
    "program_type": "Fixed Wireless and Satellite Upgrade Program",
    "target_eligibility_quarter": "NA"
   }
  }
 ]
}