{
 "type": "FeatureCollection",
 "generated": "2026-08-30T23:57:32.613700",
 "suburb": "SWAN VALE",
 "features": [
  {
   "type": "Feature",
   "geometry": {
    "type": "Point",
    "coordinates": [
     151.50005764,
     -29.77470315
    ]
   },
   "properties": {
    "name": "2761 GWYDIR HIGHWAY SWAN VALE 2370",
    "locID": "LOC000069803591",
    "tech": "SATELLITE",
    "upgrade": "NULL_NA",
    "gnaf_pid": "GANSW716480179",
    "tech_change_status": "Not Planned"
   }
  },
  {
   "type": "Feature",
   "geometry": {
    "type": "Point",
    "coordinates": [
     151.48522151,
     -29.77581375
    ]
   },
   "properties": {
    "name": "2861 GWYDIR HIGHWAY SWAN VALE 2370",
    "locID": "LOC000046263207",
    "tech": "SATELLITE",
    "upgrade": "NULL_NA",
    "gnaf_pid": "GANSW716480180",
    "tech_change_status": "Not Planned"
   }
  },
  {
   "type": "Feature",
   "geometry": {
    "type": "Point",
    "coordinates": [
     151.47924819,
     -29.7673646
    ]
   },
   "properties": {
    "name": "2962 GWYDIR HIGHWAY SWAN VALE 2370",
    "locID": "LOC000051337381",
    "tech": "SATELLITE",
    "upgrade": "NULL_NA",
    "gnaf_pid": "GANSW716480181",
    "tech_change_status": "Not Planned"
   }
  },
  {
   "type": "Feature",
   "geometry": {
    "type": "Point",
    "coordinates": [
     151.47440317,
     -29.77092069
    ]
   },
   "properties": {
    "name": "2963 GWYDIR HIGHWAY SWAN VALE 2370",
    "locID": "LOC000051875794",
    "tech": "SATELLITE",
    "upgrade": "NULL_NA",
    "gnaf_pid": "GANSW716480182",
    "tech_change_status": "Not Planned"
   }
  },
  {
   "type": "Feature",
   "geometry": {
    "type": "Point",
    "coordinates": [
     151.46983435,
     -29.768596
    ]
   },
   "properties": {
    "name": "3018 GWYDIR HIGHWAY SWAN VALE 2370",
    "locID": "LOC000087336595",
    "tech": "SATELLITE",
    "upgrade": "NULL_NA",
    "gnaf_pid": "GANSW716480183",
    "tech_change_status": "Not Planned"
   }
  },
  {
   "type": "Feature",
   "geometry": {
    "type": "Point",
    "coordinates": [
     151.46317898,
     -29.7697604
    ]
   },
   "properties": {
    "name": "3071 GWYDIR HIGHWAY SWAN VALE 2370",
    "locID": "LOC000086417336",
    "tech": "SATELLITE",
    "upgrade": "NULL_NA",
    "gnaf_pid": "GANSW716480184",
    "tech_change_status": "Not Planned"
   }
  },
  {
   "type": "Feature",
   "geometry": {
    "type": "Point",
    "coordinates": [
     151.45475991,
     -29.76753669
    ]
   },
   "properties": {
    "name": "3163 GWYDIR HIGHWAY SWAN VALE 2370",
    "locID": "LOC000101944958",
    "tech": "SATELLITE",
    "upgrade": "NULL_NA",
    "gnaf_pid": "GANSW716480186",
    "tech_change_status": "Not Planned"
   }
  },
  {
   "type": "Feature",
   "geometry": {
    "type": "Point",
    "coordinates": [
     151.44913208,
     -29.76454385
    ]
   },
   "properties": {
    "name": "3236 GWYDIR HIGHWAY SWAN VALE 2370",
    "locID": "LOC000029738414",
    "tech": "SATELLITE",
    "upgrade": "NULL_NA",
    "gnaf_pid": "GANSW716480187",
    "tech_change_status": "Not Planned"
   }
  },
  {
   "type": "Feature",
   "geometry": {
    "type": "Point",
    "coordinates": [
     151.44515782,
     -29.76634042
    ]
   },
   "properties": {
    "name": "3256 GWYDIR HIGHWAY SWAN VALE 2370",
    "locID": "LOC000096146228",
    "tech": "SATELLITE",
    "upgrade": "NULL_NA",
    "gnaf_pid": "GANSW716480188",
    "tech_change_status": "Not Planned"
   }
  },
  {
   "type": "Feature",
   "geometry": {
    "type": "Point",
    "coordinates": [
     151.43282384,
     -29.76990124
    ]
   },
   "properties": {
    "name": "3382 GWYDIR HIGHWAY SWAN VALE 2370",
    "locID": "LOC000089104663",
    "tech": "SATELLITE",
    "upgrade": "NULL_NA",
    "gnaf_pid": "GANSW716480189",
    "tech_change_status": "Not Planned"
   }
  },
  {
   "type": "Feature",
   "geometry": {
    "type": "Point",
    "coordinates": [
     151.42403282,
     -29.77515333
    ]
   },
   "properties": {
    "name": "3598 GWYDIR HIGHWAY SWAN VALE 2370",
    "locID": "LOC000059030698",
    "tech": "SATELLITE",
    "upgrade": "NULL_NA",
    "gnaf_pid": "GANSW716480192",
    "tech_change_status": "Not Planned"
   }
  },
  {
   "type": "Feature",
   "geometry": {
    "type": "Point",
    "coordinates": [
     151.40423185,
     -29.77564539
    ]
   },
   "properties": {
    "name": "3692 GWYDIR HIGHWAY SWAN VALE 2370",
    "locID": "LOC000169852948",
    "tech": "SATELLITE",
    "upgrade": "NULL_NA",
    "gnaf_pid": "GANSW716480193",
    "tech_change_status": "Not Planned"
   }
  },
  {
   "type": "Feature",
   "geometry": {
    "type": "Point",
    "coordinates": [
     151.3818805,
     -29.77717608
    ]
   },
   "properties": {
    "name": "3874 GWYDIR HIGHWAY SWAN VALE 2370",
    "locID": "LOC000142494464",
    "tech": "SATELLITE",
    "upgrade": "NULL_NA",
    "gnaf_pid": "GANSW716480195",
    "tech_change_status": "Not Planned"
   }
  },
  {
   "type": "Feature",
   "geometry": {
    "type": "Point",
    "coordinates": [
     151.36205176,
     -29.78244406
    ]
   },
   "properties": {
    "name": "4108 GWYDIR HIGHWAY SWAN VALE 2370",
    "locID": "LOC000065212070",
    "tech": "SATELLITE",
    "upgrade": "NULL_NA",
    "gnaf_pid": "GANSW716480196",
    "tech_change_status": "Not Planned"
   }
  },
  {
   "type": "Feature",
   "geometry": {
    "type": "Point",
    "coordinates": [
     151.47471136,
     -29.78042824
    ]
   },
   "properties": {
    "name": "155 SPRING MOUNTAIN ROAD SWAN VALE 2370",
    "locID": "LOC000031394748",
    "tech": "SATELLITE",
    "upgrade": "NULL_NA",
    "gnaf_pid": "GANSW716485813",
    "tech_change_status": "Not Planned"
   }
  },
  {
   "type": "Feature",
   "geometry": {
    "type": "Point",
    "coordinates": [
     151.46577776,
     -29.77480852
    ]
   },
   "properties": {
    "name": "32 SPRING MOUNTAIN ROAD SWAN VALE 2370",
    "locID": "LOC000029688184",
    "tech": "SATELLITE",
    "upgrade": "NULL_NA",
    "gnaf_pid": "GANSW716485814",
    "tech_change_status": "Not Planned"
   }
  },
  {
   "type": "Feature",
   "geometry": {
    "type": "Point",
    "coordinates": [
     151.43499618,
     -29.77428951
    ]
   },
   "properties": {
    "name": "23 INVERNESS ROAD SWAN VALE 2370",
    "locID": "LOC000077572825",
    "tech": "SATELLITE",
    "upgrade": "NULL_NA",
    "gnaf_pid": "GANSW717619219",
    "tech_change_status": "Not Planned"
   }
  },
  {
   "type": "Feature",
   "geometry": {
    "type": "Point",
    "coordinates": [
     151.4400425,
     -29.77983366
    ]
   },
   "properties": {
    "name": "77 INVERNESS ROAD SWAN VALE 2370",
    "locID": "LOC000002325685",
    "tech": "SATELLITE",
    "upgrade": "NULL_NA",
    "gnaf_pid": "GANSW717619220",
    "tech_change_status": "Not Planned"
   }
  },
  {
   "type": "Feature",
   "geometry": {
    "type": "Point",
    "coordinates": [
     151.5126574,
     -29.76224968
    ]
   },
   "properties": {
    "name": "2576 GWYDIR HIGHWAY SWAN VALE 2370",
    "locID": "LOC000003246026",
    "tech": "SATELLITE",
    "upgrade": "NULL_NA",
    "gnaf_pid": "GANSW717874320",
    "tech_change_status": "Not Planned"
   }
  }
 ]
}