{
 "type": "FeatureCollection",
 "generated": "2024-11-04T18:16:37.524087",
 "suburb": "TERRY HIE HIE",
 "features": [
  {
   "type": "Feature",
   "geometry": {
    "type": "Point",
    "coordinates": [
     150.0826758,
     -29.74197175
    ]
   },
   "properties": {
    "name": "2791 GURLEY CREEK ROAD TERRY HIE HIE 2400",
    "locID": "LOC000091639017",
    "tech": "SATELLITE",
    "upgrade": "NULL_NA",
    "gnaf_pid": "GANSW717771755",
    "tech_change_status": "Not Planned"
   }
  },
  {
   "type": "Feature",
   "geometry": {
    "type": "Point",
    "coordinates": [
     150.09140825,
     -29.77491577
    ]
   },
   "properties": {
    "name": "2907 GURLEY CREEK ROAD TERRY HIE HIE 2400",
    "locID": "LOC000015657867",
    "tech": "NULL",
    "upgrade": "NULL_NA",
    "gnaf_pid": "GANSW717771756",
    "tech_change_status": "Not Planned"
   }
  },
  {
   "type": "Feature",
   "geometry": {
    "type": "Point",
    "coordinates": [
     150.17095915,
     -29.70610508
    ]
   },
   "properties": {
    "name": "2015 ROMAKA ROAD TERRY HIE HIE 2400",
    "locID": "LOC000076666153",
    "tech": "NULL",
    "upgrade": "NULL_NA",
    "gnaf_pid": "GANSW717784376",
    "tech_change_status": "Not Planned"
   }
  },
  {
   "type": "Feature",
   "geometry": {
    "type": "Point",
    "coordinates": [
     150.15129341,
     -29.79711657
    ]
   },
   "properties": {
    "name": "2619 TERRY HIE HIE ROAD TERRY HIE HIE 2400",
    "locID": "LOC100020809606",
    "tech": "SATELLITE",
    "upgrade": "NULL_NA",
    "gnaf_pid": "GANSW718657648",
    "tech_change_status": "Not Planned"
   }
  },
  {
   "type": "Feature",
   "geometry": {
    "type": "Point",
    "coordinates": [
     150.0797651,
     -29.66828393
    ]
   },
   "properties": {
    "name": "2871 TERRY HIE HIE ROAD TERRY HIE HIE 2400",
    "locID": "LOC000148078622",
    "tech": "NULL",
    "upgrade": "NULL_NA",
    "gnaf_pid": "GANSW718657649",
    "tech_change_status": "Not Planned"
   }
  },
  {
   "type": "Feature",
   "geometry": {
    "type": "Point",
    "coordinates": [
     150.05264814,
     -29.68779872
    ]
   },
   "properties": {
    "name": "2928 TERRY HIE HIE ROAD TERRY HIE HIE 2400",
    "locID": "LOC000142565758",
    "tech": "SATELLITE",
    "upgrade": "NULL_NA",
    "gnaf_pid": "GANSW718657650",
    "tech_change_status": "Not Planned"
   }
  },
  {
   "type": "Feature",
   "geometry": {
    "type": "Point",
    "coordinates": [
     150.10638302,
     -29.72607495
    ]
   },
   "properties": {
    "name": "3500 TERRY HIE HIE ROAD TERRY HIE HIE 2400",
    "locID": "LOC000160828141",
    "tech": "SATELLITE",
    "upgrade": "NULL_NA",
    "gnaf_pid": "GANSW718657651",
    "tech_change_status": "Not Planned"
   }
  },
  {
   "type": "Feature",
   "geometry": {
    "type": "Point",
    "coordinates": [
     150.13708065,
     -29.73542328
    ]
   },
   "properties": {
    "name": "3751 TERRY HIE HIE ROAD TERRY HIE HIE 2400",
    "locID": "LOC000148084872",
    "tech": "NULL",
    "upgrade": "NULL_NA",
    "gnaf_pid": "GANSW718657653",
    "tech_change_status": "Not Planned"
   }
  },
  {
   "type": "Feature",
   "geometry": {
    "type": "Point",
    "coordinates": [
     150.15129341,
     -29.79711657
    ]
   },
   "properties": {
    "name": "3 TERRY HIE HIE ROAD TERRY HIE HIE 2400",
    "locID": "LOC000148084872",
    "tech": "NULL",
    "upgrade": "NULL_NA",
    "gnaf_pid": "GANSW718657654",
    "tech_change_status": "Not Planned"
   }
  },
  {
   "type": "Feature",
   "geometry": {
    "type": "Point",
    "coordinates": [
     150.14297451,
     -29.7662726
    ]
   },
   "properties": {
    "name": "4077 TERRY HIE HIE ROAD TERRY HIE HIE 2400",
    "locID": "LOC000148392576",
    "tech": "SATELLITE",
    "upgrade": "NULL_NA",
    "gnaf_pid": "GANSW718657656",
    "tech_change_status": "Not Planned"
   }
  },
  {
   "type": "Feature",
   "geometry": {
    "type": "Point",
    "coordinates": [
     150.14792622,
     -29.77751633
    ]
   },
   "properties": {
    "name": "4220 TERRY HIE HIE ROAD TERRY HIE HIE 2400",
    "locID": "LOC000148087615",
    "tech": "NULL",
    "upgrade": "NULL_NA",
    "gnaf_pid": "GANSW718657658",
    "tech_change_status": "Not Planned"
   }
  },
  {
   "type": "Feature",
   "geometry": {
    "type": "Point",
    "coordinates": [
     150.1493837,
     -29.78945406
    ]
   },
   "properties": {
    "name": "4365 TERRY HIE HIE ROAD TERRY HIE HIE 2400",
    "locID": "LOC000175317621",
    "tech": "SATELLITE",
    "upgrade": "NULL_NA",
    "gnaf_pid": "GANSW718657659",
    "tech_change_status": "Not Planned"
   }
  },
  {
   "type": "Feature",
   "geometry": {
    "type": "Point",
    "coordinates": [
     150.14964697,
     -29.79030701
    ]
   },
   "properties": {
    "name": "4377 TERRY HIE HIE ROAD TERRY HIE HIE 2400",
    "locID": "LOC000177638844",
    "tech": "NULL",
    "upgrade": "NULL_NA",
    "gnaf_pid": "GANSW718657660",
    "tech_change_status": "Not Planned"
   }
  },
  {
   "type": "Feature",
   "geometry": {
    "type": "Point",
    "coordinates": [
     150.15119566,
     -29.79404525
    ]
   },
   "properties": {
    "name": "4415 TERRY HIE HIE ROAD TERRY HIE HIE 2400",
    "locID": "LOC000142493111",
    "tech": "NULL",
    "upgrade": "NULL_NA",
    "gnaf_pid": "GANSW718657661",
    "tech_change_status": "Not Planned"
   }
  },
  {
   "type": "Feature",
   "geometry": {
    "type": "Point",
    "coordinates": [
     150.15129341,
     -29.79711657
    ]
   },
   "properties": {
    "name": "4 TERRY HIE HIE ROAD TERRY HIE HIE 2400",
    "locID": "LOC100078043085",
    "tech": "NULL",
    "upgrade": "NULL_NA",
    "gnaf_pid": "GANSW718657662",
    "tech_change_status": "Not Planned"
   }
  },
  {
   "type": "Feature",
   "geometry": {
    "type": "Point",
    "coordinates": [
     150.15129341,
     -29.79711657
    ]
   },
   "properties": {
    "name": "6 TERRY HIE HIE ROAD TERRY HIE HIE 2400",
    "locID": "LOC000148096000",
    "tech": "NULL",
    "upgrade": "NULL_NA",
    "gnaf_pid": "GANSW718657663",
    "tech_change_status": "Not Planned"
   }
  },
  {
   "type": "Feature",
   "geometry": {
    "type": "Point",
    "coordinates": [
     150.23540644,
     -29.70969354
    ]
   },
   "properties": {
    "name": "1740 GRAVESEND ROAD TERRY HIE HIE 2400",
    "locID": "LOC000148066495",
    "tech": "NULL",
    "upgrade": "NULL_NA",
    "gnaf_pid": "GANSW718688470",
    "tech_change_status": "Not Planned"
   }
  },
  {
   "type": "Feature",
   "geometry": {
    "type": "Point",
    "coordinates": [
     150.17464295,
     -29.80477209
    ]
   },
   "properties": {
    "name": "3339 GRAVESEND ROAD TERRY HIE HIE 2400",
    "locID": "LOC000148082270",
    "tech": "NULL",
    "upgrade": "NULL_NA",
    "gnaf_pid": "GANSW718688472",
    "tech_change_status": "Not Planned"
   }
  },
  {
   "type": "Feature",
   "geometry": {
    "type": "Point",
    "coordinates": [
     150.05854726,
     -29.78932423
    ]
   },
   "properties": {
    "name": "2528 GURLEY CREEK ROAD TERRY HIE HIE 2400",
    "locID": "LOC000091639017",
    "tech": "SATELLITE",
    "upgrade": "NULL_NA",
    "gnaf_pid": "GANSW718688612",
    "tech_change_status": "Not Planned"
   }
  },
  {
   "type": "Feature",
   "geometry": {
    "type": "Point",
    "coordinates": [
     150.1466762,
     -29.78691099
    ]
   },
   "properties": {
    "name": "4324 TERRY HIE HIE ROAD TERRY HIE HIE 2400",
    "locID": "LOC000148088080",
    "tech": "NULL",
    "upgrade": "NULL_NA",
    "gnaf_pid": "GANSW718693850",
    "tech_change_status": "Not Planned"
   }
  },
  {
   "type": "Feature",
   "geometry": {
    "type": "Point",
    "coordinates": [
     150.15521027,
     -29.81228646
    ]
   },
   "properties": {
    "name": "4648 TERRY HIE HIE ROAD TERRY HIE HIE 2400",
    "locID": "LOC000148089854",
    "tech": "NULL",
    "upgrade": "NULL_NA",
    "gnaf_pid": "GANSW718693851",
    "tech_change_status": "Not Planned"
   }
  },
  {
   "type": "Feature",
   "geometry": {
    "type": "Point",
    "coordinates": [
     150.22585715,
     -29.88784002
    ]
   },
   "properties": {
    "name": "5810 TERRY HIE HIE ROAD TERRY HIE HIE 2400",
    "locID": "LOC000148393948",
    "tech": "NULL",
    "upgrade": "NULL_NA",
    "gnaf_pid": "GANSW718693853",
    "tech_change_status": "Not Planned"
   }
  },
  {
   "type": "Feature",
   "geometry": {
    "type": "Point",
    "coordinates": [
     150.28225797,
     -29.91176114
    ]
   },
   "properties": {
    "name": "6121 TERRY HIE HIE ROAD TERRY HIE HIE 2400",
    "locID": "LOC000148096000",
    "tech": "NULL",
    "upgrade": "NULL_NA",
    "gnaf_pid": "GANSW718693854",
    "tech_change_status": "Not Planned"
   }
  },
  {
   "type": "Feature",
   "geometry": {
    "type": "Point",
    "coordinates": [
     150.15121918,
     -29.79169029
    ]
   },
   "properties": {
    "name": "4383 TERRY HIE HIE ROAD TERRY HIE HIE 2400",
    "locID": "LOC100078043092",
    "tech": "NULL",
    "upgrade": "NULL_NA",
    "gnaf_pid": "GANSW718894357",
    "tech_change_status": "Not Planned"
   }
  },
  {
   "type": "Feature",
   "geometry": {
    "type": "Point",
    "coordinates": [
     150.1488689,
     -29.77560975
    ]
   },
   "properties": {
    "name": "4203 TERRY HIE HIE ROAD TERRY HIE HIE 2400",
    "locID": "LOC000153393816",
    "tech": "SATELLITE",
    "upgrade": "NULL_NA",
    "gnaf_pid": "GANSW718966665",
    "tech_change_status": "Not Planned"
   }
  },
  {
   "type": "Feature",
   "geometry": {
    "type": "Point",
    "coordinates": [
     150.15020614,
     -29.79022611
    ]
   },
   "properties": {
    "name": "4379 TERRY HIE HIE ROAD TERRY HIE HIE 2400",
    "locID": "LOC100078043085",
    "tech": "NULL",
    "upgrade": "NULL_NA",
    "gnaf_pid": "GANSW720146778",
    "tech_change_status": "Not Planned"
   }
  },
  {
   "type": "Feature",
   "geometry": {
    "type": "Point",
    "coordinates": [
     150.14937675,
     -29.78981663
    ]
   },
   "properties": {
    "name": "4375 TERRY HIE HIE ROAD TERRY HIE HIE 2400",
    "locID": "LOC000175317621",
    "tech": "SATELLITE",
    "upgrade": "NULL_NA",
    "gnaf_pid": "GANSW720154085",
    "tech_change_status": "Not Planned"
   }
  },
  {
   "type": "Feature",
   "geometry": {
    "type": "Point",
    "coordinates": [
     150.14363532,
     -29.77159992
    ]
   },
   "properties": {
    "name": "4270 TERRY HIE HIE ROAD TERRY HIE HIE 2400",
    "locID": "LOC100078042955",
    "tech": "NULL",
    "upgrade": "NULL_NA",
    "gnaf_pid": "GANSW720255221",
    "tech_change_status": "Not Planned"
   }
  },
  {
   "type": "Feature",
   "geometry": {
    "type": "Point",
    "coordinates": [
     150.15172414,
     -29.79378617
    ]
   },
   "properties": {
    "name": "4405 TERRY HIE HIE ROAD TERRY HIE HIE 2400",
    "locID": "LOC000178121522",
    "tech": "NULL",
    "upgrade": "NULL_NA",
    "gnaf_pid": "GANSW720259155",
    "tech_change_status": "Not Planned"
   }
  }
 ]
}