{
 "type": "FeatureCollection",
 "generated": "2026-05-07T08:23:34.640366",
 "suburb": "TINDERRY",
 "features": [
  {
   "type": "Feature",
   "geometry": {
    "type": "Point",
    "coordinates": [
     149.30624468,
     -35.58859002
    ]
   },
   "properties": {
    "name": "1120 URILA ROAD TINDERRY 2620",
    "locID": "LOC000047682605",
    "tech": "NULL",
    "upgrade": "NULL_NA",
    "gnaf_pid": "GANSW706114767",
    "tech_change_status": "Not Planned"
   }
  },
  {
   "type": "Feature",
   "geometry": {
    "type": "Point",
    "coordinates": [
     149.31542954,
     -35.58498573
    ]
   },
   "properties": {
    "name": "1146 URILA ROAD TINDERRY 2620",
    "locID": "LOC000001347707",
    "tech": "NULL",
    "upgrade": "NULL_NA",
    "gnaf_pid": "GANSW706114769",
    "tech_change_status": "Not Planned"
   }
  },
  {
   "type": "Feature",
   "geometry": {
    "type": "Point",
    "coordinates": [
     149.33637455,
     -35.58323609
    ]
   },
   "properties": {
    "name": "1315 URILA ROAD TINDERRY 2620",
    "locID": "LOC000078131187",
    "tech": "NULL",
    "upgrade": "NULL_NA",
    "gnaf_pid": "GANSW706114770",
    "tech_change_status": "Not Planned"
   }
  },
  {
   "type": "Feature",
   "geometry": {
    "type": "Point",
    "coordinates": [
     149.32426182,
     -35.59190875
    ]
   },
   "properties": {
    "name": "1386 URILA ROAD TINDERRY 2620",
    "locID": "LOC000028176171",
    "tech": "NULL",
    "upgrade": "NULL_NA",
    "gnaf_pid": "GANSW706114771",
    "tech_change_status": "Not Planned"
   }
  },
  {
   "type": "Feature",
   "geometry": {
    "type": "Point",
    "coordinates": [
     149.33443569,
     -35.59523809
    ]
   },
   "properties": {
    "name": "1397 URILA ROAD TINDERRY 2620",
    "locID": "LOC000107501066",
    "tech": "NULL",
    "upgrade": "NULL_NA",
    "gnaf_pid": "GANSW706114772",
    "tech_change_status": "Not Planned"
   }
  },
  {
   "type": "Feature",
   "geometry": {
    "type": "Point",
    "coordinates": [
     149.30729598,
     -35.62415659
    ]
   },
   "properties": {
    "name": "1662 URILA ROAD TINDERRY 2620",
    "locID": "LOC000096196553",
    "tech": "SATELLITE",
    "upgrade": "NULL_NA",
    "gnaf_pid": "GANSW706114778",
    "tech_change_status": "Not Planned"
   }
  },
  {
   "type": "Feature",
   "geometry": {
    "type": "Point",
    "coordinates": [
     149.3335663,
     -35.60561463
    ]
   },
   "properties": {
    "name": "1489 URILA ROAD TINDERRY 2620",
    "locID": "LOC000015458171",
    "tech": "SATELLITE",
    "upgrade": "NULL_NA",
    "gnaf_pid": "GANSW706125039",
    "tech_change_status": "Not Planned"
   }
  },
  {
   "type": "Feature",
   "geometry": {
    "type": "Point",
    "coordinates": [
     149.31694318,
     -35.6046872
    ]
   },
   "properties": {
    "name": "1538 URILA ROAD TINDERRY 2620",
    "locID": "LOC000093472252",
    "tech": "NULL",
    "upgrade": "NULL_NA",
    "gnaf_pid": "GANSW706125040",
    "tech_change_status": "Not Planned"
   }
  },
  {
   "type": "Feature",
   "geometry": {
    "type": "Point",
    "coordinates": [
     149.3375958,
     -35.60864531
    ]
   },
   "properties": {
    "name": "1539 URILA ROAD TINDERRY 2620",
    "locID": "LOC000076848745",
    "tech": "SATELLITE",
    "upgrade": "NULL_NA",
    "gnaf_pid": "GANSW706125041",
    "tech_change_status": "Not Planned"
   }
  },
  {
   "type": "Feature",
   "geometry": {
    "type": "Point",
    "coordinates": [
     149.33796982,
     -35.61255432
    ]
   },
   "properties": {
    "name": "1589 URILA ROAD TINDERRY 2620",
    "locID": "LOC000100154671",
    "tech": "NULL",
    "upgrade": "NULL_NA",
    "gnaf_pid": "GANSW706125042",
    "tech_change_status": "Not Planned"
   }
  },
  {
   "type": "Feature",
   "geometry": {
    "type": "Point",
    "coordinates": [
     149.32297912,
     -35.61594209
    ]
   },
   "properties": {
    "name": "1600 URILA ROAD TINDERRY 2620",
    "locID": "LOC000005439478",
    "tech": "SATELLITE",
    "upgrade": "NULL_NA",
    "gnaf_pid": "GANSW706125044",
    "tech_change_status": "Not Planned"
   }
  },
  {
   "type": "Feature",
   "geometry": {
    "type": "Point",
    "coordinates": [
     149.32151421,
     -35.62470407
    ]
   },
   "properties": {
    "name": "1726 URILA ROAD TINDERRY 2620",
    "locID": "LOC000074445318",
    "tech": "NULL",
    "upgrade": "NULL_NA",
    "gnaf_pid": "GANSW706125048",
    "tech_change_status": "Not Planned"
   }
  },
  {
   "type": "Feature",
   "geometry": {
    "type": "Point",
    "coordinates": [
     149.32793354,
     -35.61447729
    ]
   },
   "properties": {
    "name": "1896 URILA ROAD TINDERRY 2620",
    "locID": "LOC000092206579",
    "tech": "SATELLITE",
    "upgrade": "NULL_NA",
    "gnaf_pid": "GANSW706125049",
    "tech_change_status": "Not Planned"
   }
  },
  {
   "type": "Feature",
   "geometry": {
    "type": "Point",
    "coordinates": [
     149.28641695,
     -35.58232813
    ]
   },
   "properties": {
    "name": "716 URILA ROAD TINDERRY 2620",
    "locID": "LOC000014723874",
    "tech": "SATELLITE",
    "upgrade": "NULL_NA",
    "gnaf_pid": "GANSW706125051",
    "tech_change_status": "Not Planned"
   }
  },
  {
   "type": "Feature",
   "geometry": {
    "type": "Point",
    "coordinates": [
     149.29442881,
     -35.58594638
    ]
   },
   "properties": {
    "name": "718 URILA ROAD TINDERRY 2620",
    "locID": "LOC000044703436",
    "tech": "NULL",
    "upgrade": "NULL_NA",
    "gnaf_pid": "GANSW706125052",
    "tech_change_status": "Not Planned"
   }
  },
  {
   "type": "Feature",
   "geometry": {
    "type": "Point",
    "coordinates": [
     149.29100545,
     -35.59268463
    ]
   },
   "properties": {
    "name": "720 URILA ROAD TINDERRY 2620",
    "locID": "LOC000013234808",
    "tech": "NULL",
    "upgrade": "NULL_NA",
    "gnaf_pid": "GANSW706125053",
    "tech_change_status": "Not Planned"
   }
  },
  {
   "type": "Feature",
   "geometry": {
    "type": "Point",
    "coordinates": [
     149.28634158,
     -35.75297578
    ]
   },
   "properties": {
    "name": "135 CALABASH ROAD TINDERRY 2620",
    "locID": "LOC000107311930",
    "tech": "NULL",
    "upgrade": "NULL_NA",
    "gnaf_pid": "GANSW707627851",
    "tech_change_status": "Not Planned"
   }
  },
  {
   "type": "Feature",
   "geometry": {
    "type": "Point",
    "coordinates": [
     149.27322542,
     -35.75692654
    ]
   },
   "properties": {
    "name": "148 CALABASH ROAD TINDERRY 2620",
    "locID": "LOC000121667515",
    "tech": "NULL",
    "upgrade": "NULL_NA",
    "gnaf_pid": "GANSW707627852",
    "tech_change_status": "Not Planned"
   }
  },
  {
   "type": "Feature",
   "geometry": {
    "type": "Point",
    "coordinates": [
     149.27709642,
     -35.75814222
    ]
   },
   "properties": {
    "name": "166 CALABASH ROAD TINDERRY 2620",
    "locID": "LOC000022397214",
    "tech": "NULL",
    "upgrade": "NULL_NA",
    "gnaf_pid": "GANSW707638107",
    "tech_change_status": "Not Planned"
   }
  },
  {
   "type": "Feature",
   "geometry": {
    "type": "Point",
    "coordinates": [
     149.28081889,
     -35.7613046
    ]
   },
   "properties": {
    "name": "248 CALABASH ROAD TINDERRY 2620",
    "locID": "LOC000121654848",
    "tech": "NULL",
    "upgrade": "NULL_NA",
    "gnaf_pid": "GANSW707641869",
    "tech_change_status": "Not Planned"
   }
  },
  {
   "type": "Feature",
   "geometry": {
    "type": "Point",
    "coordinates": [
     149.29148058,
     -35.75731391
    ]
   },
   "properties": {
    "name": "257 CALABASH ROAD TINDERRY 2620",
    "locID": "LOC000095708223",
    "tech": "SATELLITE",
    "upgrade": "NULL_NA",
    "gnaf_pid": "GANSW707641870",
    "tech_change_status": "Not Planned"
   }
  },
  {
   "type": "Feature",
   "geometry": {
    "type": "Point",
    "coordinates": [
     149.29027607,
     -35.75466234
    ]
   },
   "properties": {
    "name": "259 CALABASH ROAD TINDERRY 2620",
    "locID": "LOC000024251883",
    "tech": "SATELLITE",
    "upgrade": "NULL_NA",
    "gnaf_pid": "GANSW707641871",
    "tech_change_status": "Not Planned"
   }
  },
  {
   "type": "Feature",
   "geometry": {
    "type": "Point",
    "coordinates": [
     149.28447109,
     -35.74940344
    ]
   },
   "properties": {
    "name": "71 CALABASH ROAD TINDERRY 2620",
    "locID": "LOC000076826394",
    "tech": "NULL",
    "upgrade": "NULL_NA",
    "gnaf_pid": "GANSW707641876",
    "tech_change_status": "Not Planned"
   }
  },
  {
   "type": "Feature",
   "geometry": {
    "type": "Point",
    "coordinates": [
     149.3511942,
     -35.74588321
    ]
   },
   "properties": {
    "name": "80 LEACHS ROAD TINDERRY 2620",
    "locID": "LOC000044068528",
    "tech": "SATELLITE",
    "upgrade": "NULL_NA",
    "gnaf_pid": "GANSW715383098",
    "tech_change_status": "Not Planned"
   }
  },
  {
   "type": "Feature",
   "geometry": {
    "type": "Point",
    "coordinates": [
     149.34974123,
     -35.6314921
    ]
   },
   "properties": {
    "name": "2156 URILA ROAD TINDERRY 2620",
    "locID": "LOC000084564130",
    "tech": "SATELLITE",
    "upgrade": "NULL_NA",
    "gnaf_pid": "GANSW715408721",
    "tech_change_status": "Not Planned"
   }
  },
  {
   "type": "Feature",
   "geometry": {
    "type": "Point",
    "coordinates": [
     149.31614238,
     -35.58959836
    ]
   },
   "properties": {
    "name": "1166 URILA ROAD TINDERRY 2620",
    "locID": "LOC000010640713",
    "tech": "SATELLITE",
    "upgrade": "NULL_NA",
    "gnaf_pid": "GANSW716474018",
    "tech_change_status": "Not Planned"
   }
  },
  {
   "type": "Feature",
   "geometry": {
    "type": "Point",
    "coordinates": [
     149.29432568,
     -35.73053837
    ]
   },
   "properties": {
    "name": "1433 TINDERRY ROAD TINDERRY 2620",
    "locID": "LOC000088203599",
    "tech": "SATELLITE",
    "upgrade": "NULL_NA",
    "gnaf_pid": "GANSW716744402",
    "tech_change_status": "Not Planned"
   }
  },
  {
   "type": "Feature",
   "geometry": {
    "type": "Point",
    "coordinates": [
     149.33349559,
     -35.74462231
    ]
   },
   "properties": {
    "name": "1888 TINDERRY ROAD TINDERRY 2620",
    "locID": "LOC000029017154",
    "tech": "SATELLITE",
    "upgrade": "NULL_NA",
    "gnaf_pid": "GANSW716744403",
    "tech_change_status": "Not Planned"
   }
  },
  {
   "type": "Feature",
   "geometry": {
    "type": "Point",
    "coordinates": [
     149.37018284,
     -35.74428204
    ]
   },
   "properties": {
    "name": "2235 TINDERRY ROAD TINDERRY 2620",
    "locID": "LOC000090505102",
    "tech": "SATELLITE",
    "upgrade": "NULL_NA",
    "gnaf_pid": "GANSW716744405",
    "tech_change_status": "Not Planned"
   }
  },
  {
   "type": "Feature",
   "geometry": {
    "type": "Point",
    "coordinates": [
     149.36411915,
     -35.6305224
    ]
   },
   "properties": {
    "name": "15 URILA ROAD TINDERRY 2620",
    "locID": "LOC000100154671",
    "tech": "NULL",
    "upgrade": "NULL_NA",
    "gnaf_pid": "GANSW716866580",
    "tech_change_status": "Not Planned"
   }
  },
  {
   "type": "Feature",
   "geometry": {
    "type": "Point",
    "coordinates": [
     149.29128265,
     -35.76233654
    ]
   },
   "properties": {
    "name": "258 CALABASH ROAD TINDERRY 2620",
    "locID": "LOC000088039302",
    "tech": "SATELLITE",
    "upgrade": "NULL_NA",
    "gnaf_pid": "GANSW717125962",
    "tech_change_status": "Not Planned"
   }
  },
  {
   "type": "Feature",
   "geometry": {
    "type": "Point",
    "coordinates": [
     149.28179902,
     -35.74514077
    ]
   },
   "properties": {
    "name": "5 CALABASH ROAD TINDERRY 2620",
    "locID": "LOC000067239134",
    "tech": "NULL",
    "upgrade": "NULL_NA",
    "gnaf_pid": "GANSW717125965",
    "tech_change_status": "Not Planned"
   }
  },
  {
   "type": "Feature",
   "geometry": {
    "type": "Point",
    "coordinates": [
     149.27303074,
     -35.74524437
    ]
   },
   "properties": {
    "name": "6 CALABASH ROAD TINDERRY 2620",
    "locID": "LOC000121654848",
    "tech": "NULL",
    "upgrade": "NULL_NA",
    "gnaf_pid": "GANSW717157473",
    "tech_change_status": "Not Planned"
   }
  },
  {
   "type": "Feature",
   "geometry": {
    "type": "Point",
    "coordinates": [
     149.27283482,
     -35.75009483
    ]
   },
   "properties": {
    "name": "96 CALABASH ROAD TINDERRY 2620",
    "locID": "LOC000014765995",
    "tech": "SATELLITE",
    "upgrade": "NULL_NA",
    "gnaf_pid": "GANSW717157474",
    "tech_change_status": "Not Planned"
   }
  },
  {
   "type": "Feature",
   "geometry": {
    "type": "Point",
    "coordinates": [
     149.24934561,
     -35.75693006
    ]
   },
   "properties": {
    "name": "1032 TINDERRY ROAD TINDERRY 2620",
    "locID": "LOC000121650453",
    "tech": "NULL",
    "upgrade": "NULL_NA",
    "gnaf_pid": "GANSW717653222",
    "tech_change_status": "Not Planned"
   }
  },
  {
   "type": "Feature",
   "geometry": {
    "type": "Point",
    "coordinates": [
     149.27901222,
     -35.79684308
    ]
   },
   "properties": {
    "name": "600 CALABASH ROAD TINDERRY 2620",
    "locID": "LOC000172448554",
    "tech": "SATELLITE",
    "upgrade": "NULL_NA",
    "gnaf_pid": "GANSW717844840",
    "tech_change_status": "Not Planned"
   }
  },
  {
   "type": "Feature",
   "geometry": {
    "type": "Point",
    "coordinates": [
     149.3054976,
     -35.59828255
    ]
   },
   "properties": {
    "name": "209 MCTERNAN ROAD TINDERRY 2620",
    "locID": "LOC000078851159",
    "tech": "NULL",
    "upgrade": "NULL_NA",
    "gnaf_pid": "GANSW718055427",
    "tech_change_status": "Not Planned"
   }
  },
  {
   "type": "Feature",
   "geometry": {
    "type": "Point",
    "coordinates": [
     149.33610798,
     -35.62857708
    ]
   },
   "properties": {
    "name": "1887 URILA ROAD TINDERRY 2620",
    "locID": "LOC000114880655",
    "tech": "SATELLITE",
    "upgrade": "NULL_NA",
    "gnaf_pid": "GANSW718137776",
    "tech_change_status": "Not Planned"
   }
  },
  {
   "type": "Feature",
   "geometry": {
    "type": "Point",
    "coordinates": [
     149.30293952,
     -35.7751894
    ]
   },
   "properties": {
    "name": "56 NAYLER LANE TINDERRY 2620",
    "locID": "LOC000121655173",
    "tech": "SATELLITE",
    "upgrade": "NULL_NA",
    "gnaf_pid": "GANSW718201355",
    "tech_change_status": "Not Planned"
   }
  },
  {
   "type": "Feature",
   "geometry": {
    "type": "Point",
    "coordinates": [
     149.29952338,
     -35.7745968
    ]
   },
   "properties": {
    "name": "174 NAYLER LANE TINDERRY 2620",
    "locID": "LOC100072017679",
    "tech": "NULL",
    "upgrade": "NULL_NA",
    "gnaf_pid": "GANSW719021838",
    "tech_change_status": "Not Planned"
   }
  },
  {
   "type": "Feature",
   "geometry": {
    "type": "Point",
    "coordinates": [
     149.23983119,
     -35.74425063
    ]
   },
   "properties": {
    "name": "586 TINDERRY ROAD TINDERRY 2620",
    "locID": "LOC000004597367",
    "tech": "SATELLITE",
    "upgrade": "NULL_NA",
    "gnaf_pid": "GANSW719471980",
    "tech_change_status": "Not Planned"
   }
  },
  {
   "type": "Feature",
   "geometry": {
    "type": "Point",
    "coordinates": [
     149.24612784,
     -35.77687454
    ]
   },
   "properties": {
    "name": "759 MICALAGO ROAD TINDERRY 2620",
    "locID": "LOC100086303299",
    "tech": "NULL",
    "upgrade": "NULL_NA",
    "gnaf_pid": "GANSW721443233",
    "tech_change_status": "Not Planned"
   }
  }
 ]
}