{
 "type": "FeatureCollection",
 "generated": "2026-05-06T06:36:20.831238",
 "suburb": "TOOGONG",
 "features": [
  {
   "type": "Feature",
   "geometry": {
    "type": "Point",
    "coordinates": [
     148.63387593,
     -33.33042351
    ]
   },
   "properties": {
    "name": "1 BARRACK STREET TOOGONG 2864",
    "locID": "LOC000033352800",
    "tech": "NULL",
    "upgrade": "NULL_NA",
    "gnaf_pid": "GANSW713034521",
    "tech_change_status": "Not Planned"
   }
  },
  {
   "type": "Feature",
   "geometry": {
    "type": "Point",
    "coordinates": [
     148.63092595,
     -33.33136506
    ]
   },
   "properties": {
    "name": "39 FORBES STREET TOOGONG 2864",
    "locID": "LOC000074511570",
    "tech": "SATELLITE",
    "upgrade": "NULL_NA",
    "gnaf_pid": "GANSW716397210",
    "tech_change_status": "Not Planned"
   }
  },
  {
   "type": "Feature",
   "geometry": {
    "type": "Point",
    "coordinates": [
     148.62713492,
     -33.3288802
    ]
   },
   "properties": {
    "name": "64 BARRACK STREET TOOGONG 2864",
    "locID": "LOC000086105140",
    "tech": "WIRELESS",
    "upgrade": "NULL_NA",
    "gnaf_pid": "GANSW716626317",
    "tech_change_status": "Not Planned",
    "program_type": "Fixed Wireless and Satellite Upgrade Program",
    "target_eligibility_quarter": "NA"
   }
  },
  {
   "type": "Feature",
   "geometry": {
    "type": "Point",
    "coordinates": [
     148.65254404,
     -33.39406068
    ]
   },
   "properties": {
    "name": "160 CRANBURY ROAD TOOGONG 2864",
    "locID": "LOC000013894684",
    "tech": "SATELLITE",
    "upgrade": "NULL_NA",
    "gnaf_pid": "GANSW716629316",
    "tech_change_status": "Not Planned"
   }
  },
  {
   "type": "Feature",
   "geometry": {
    "type": "Point",
    "coordinates": [
     148.64002858,
     -33.3589491
    ]
   },
   "properties": {
    "name": "201 TOOGONG ROAD TOOGONG 2864",
    "locID": "LOC000032126492",
    "tech": "WIRELESS",
    "upgrade": "NULL_NA",
    "gnaf_pid": "GANSW716641939",
    "tech_change_status": "Not Planned",
    "program_type": "Fixed Wireless and Satellite Upgrade Program",
    "target_eligibility_quarter": "NA"
   }
  },
  {
   "type": "Feature",
   "geometry": {
    "type": "Point",
    "coordinates": [
     148.62694383,
     -33.36613742
    ]
   },
   "properties": {
    "name": "320 TOOGONG ROAD TOOGONG 2864",
    "locID": "LOC000069410211",
    "tech": "WIRELESS",
    "upgrade": "NULL_NA",
    "gnaf_pid": "GANSW716641940",
    "tech_change_status": "Not Planned",
    "program_type": "Fixed Wireless and Satellite Upgrade Program",
    "target_eligibility_quarter": "NA"
   }
  },
  {
   "type": "Feature",
   "geometry": {
    "type": "Point",
    "coordinates": [
     148.64041898,
     -33.36829592
    ]
   },
   "properties": {
    "name": "327 TOOGONG ROAD TOOGONG 2864",
    "locID": "LOC000013044147",
    "tech": "WIRELESS",
    "upgrade": "NULL_NA",
    "gnaf_pid": "GANSW716641941",
    "tech_change_status": "Not Planned",
    "program_type": "Fixed Wireless and Satellite Upgrade Program",
    "target_eligibility_quarter": "NA"
   }
  },
  {
   "type": "Feature",
   "geometry": {
    "type": "Point",
    "coordinates": [
     148.63888919,
     -33.39481493
    ]
   },
   "properties": {
    "name": "624 TOOGONG ROAD TOOGONG 2864",
    "locID": "LOC000032994373",
    "tech": "SATELLITE",
    "upgrade": "NULL_NA",
    "gnaf_pid": "GANSW716641942",
    "tech_change_status": "Not Planned"
   }
  },
  {
   "type": "Feature",
   "geometry": {
    "type": "Point",
    "coordinates": [
     148.63337989,
     -33.32988054
    ]
   },
   "properties": {
    "name": "16 BARRACK STREET TOOGONG 2864",
    "locID": "LOC000033352800",
    "tech": "NULL",
    "upgrade": "NULL_NA",
    "gnaf_pid": "GANSW716890361",
    "tech_change_status": "Not Planned"
   }
  },
  {
   "type": "Feature",
   "geometry": {
    "type": "Point",
    "coordinates": [
     148.63143864,
     -33.32944184
    ]
   },
   "properties": {
    "name": "24 BARRACK STREET TOOGONG 2864",
    "locID": "LOC000039991558",
    "tech": "SATELLITE",
    "upgrade": "NULL_NA",
    "gnaf_pid": "GANSW716890363",
    "tech_change_status": "Not Planned"
   }
  },
  {
   "type": "Feature",
   "geometry": {
    "type": "Point",
    "coordinates": [
     148.63016611,
     -33.33052905
    ]
   },
   "properties": {
    "name": "28 FORBES STREET TOOGONG 2864",
    "locID": "LOC000069722809",
    "tech": "WIRELESS",
    "upgrade": "NULL_NA",
    "gnaf_pid": "GANSW716893859",
    "tech_change_status": "Eligible to Order",
    "program_type": "Fixed Wireless and Satellite Upgrade Program",
    "target_eligibility_quarter": "NA"
   }
  },
  {
   "type": "Feature",
   "geometry": {
    "type": "Point",
    "coordinates": [
     148.63720436,
     -33.38008322
    ]
   },
   "properties": {
    "name": "460 TOOGONG ROAD TOOGONG 2864",
    "locID": "LOC000019742870",
    "tech": "NULL",
    "upgrade": "NULL_NA",
    "gnaf_pid": "GANSW716903056",
    "tech_change_status": "Not Planned"
   }
  },
  {
   "type": "Feature",
   "geometry": {
    "type": "Point",
    "coordinates": [
     148.65727627,
     -33.31145968
    ]
   },
   "properties": {
    "name": "4748 THE ESCORT WAY TOOGONG 2864",
    "locID": "LOC000105222515",
    "tech": "NULL",
    "upgrade": "NULL_NA",
    "gnaf_pid": "GANSW716939355",
    "tech_change_status": "Not Planned"
   }
  },
  {
   "type": "Feature",
   "geometry": {
    "type": "Point",
    "coordinates": [
     148.66668614,
     -33.33492113
    ]
   },
   "properties": {
    "name": "4783 THE ESCORT WAY TOOGONG 2864",
    "locID": "LOC000160579592",
    "tech": "SATELLITE",
    "upgrade": "NULL_NA",
    "gnaf_pid": "GANSW716939356",
    "tech_change_status": "Not Planned"
   }
  },
  {
   "type": "Feature",
   "geometry": {
    "type": "Point",
    "coordinates": [
     148.62046271,
     -33.31837332
    ]
   },
   "properties": {
    "name": "4880 THE ESCORT WAY TOOGONG 2864",
    "locID": "LOC000142990442",
    "tech": "SATELLITE",
    "upgrade": "NULL_NA",
    "gnaf_pid": "GANSW716939359",
    "tech_change_status": "Not Planned"
   }
  },
  {
   "type": "Feature",
   "geometry": {
    "type": "Point",
    "coordinates": [
     148.63843557,
     -33.32594756
    ]
   },
   "properties": {
    "name": "4964 THE ESCORT WAY TOOGONG 2864",
    "locID": "LOC000008148371",
    "tech": "SATELLITE",
    "upgrade": "NULL_NA",
    "gnaf_pid": "GANSW716939360",
    "tech_change_status": "Not Planned"
   }
  },
  {
   "type": "Feature",
   "geometry": {
    "type": "Point",
    "coordinates": [
     148.6337708,
     -33.3322348
    ]
   },
   "properties": {
    "name": "5045 THE ESCORT WAY TOOGONG 2864",
    "locID": "LOC000084997691",
    "tech": "NULL",
    "upgrade": "NULL_NA",
    "gnaf_pid": "GANSW716939361",
    "tech_change_status": "Not Planned"
   }
  },
  {
   "type": "Feature",
   "geometry": {
    "type": "Point",
    "coordinates": [
     148.63233715,
     -33.33153488
    ]
   },
   "properties": {
    "name": "5048 THE ESCORT WAY TOOGONG 2864",
    "locID": "LOC000093476659",
    "tech": "NULL",
    "upgrade": "NULL_NA",
    "gnaf_pid": "GANSW716939362",
    "tech_change_status": "Not Planned"
   }
  },
  {
   "type": "Feature",
   "geometry": {
    "type": "Point",
    "coordinates": [
     148.63215746,
     -33.33268201
    ]
   },
   "properties": {
    "name": "5064 THE ESCORT WAY TOOGONG 2864",
    "locID": "LOC000018940252",
    "tech": "SATELLITE",
    "upgrade": "NULL_NA",
    "gnaf_pid": "GANSW716939363",
    "tech_change_status": "Not Planned"
   }
  },
  {
   "type": "Feature",
   "geometry": {
    "type": "Point",
    "coordinates": [
     148.59371773,
     -33.36841398
    ]
   },
   "properties": {
    "name": "5590 THE ESCORT WAY TOOGONG 2864",
    "locID": "LOC000038397517",
    "tech": "NULL",
    "upgrade": "NULL_NA",
    "gnaf_pid": "GANSW716939365",
    "tech_change_status": "Not Planned"
   }
  },
  {
   "type": "Feature",
   "geometry": {
    "type": "Point",
    "coordinates": [
     148.64121814,
     -33.33218148
    ]
   },
   "properties": {
    "name": "4981 THE ESCORT WAY TOOGONG 2864",
    "locID": "LOC100078081235",
    "tech": "NULL",
    "upgrade": "NULL_NA",
    "gnaf_pid": "GANSW716966967",
    "tech_change_status": "Not Planned"
   }
  },
  {
   "type": "Feature",
   "geometry": {
    "type": "Point",
    "coordinates": [
     148.63915821,
     -33.3340004
    ]
   },
   "properties": {
    "name": "5025 THE ESCORT WAY TOOGONG 2864",
    "locID": "LOC000142479369",
    "tech": "WIRELESS",
    "upgrade": "NULL_NA",
    "gnaf_pid": "GANSW716966968",
    "tech_change_status": "Previous Tech Disconnected",
    "program_type": "Fixed Wireless and Satellite Upgrade Program",
    "target_eligibility_quarter": "NA"
   }
  },
  {
   "type": "Feature",
   "geometry": {
    "type": "Point",
    "coordinates": [
     148.61002931,
     -33.34770822
    ]
   },
   "properties": {
    "name": "5436 THE ESCORT WAY TOOGONG 2864",
    "locID": "LOC000105284384",
    "tech": "WIRELESS",
    "upgrade": "NULL_NA",
    "gnaf_pid": "GANSW716966969",
    "tech_change_status": "Not Planned",
    "program_type": "Fixed Wireless and Satellite Upgrade Program",
    "target_eligibility_quarter": "NA"
   }
  },
  {
   "type": "Feature",
   "geometry": {
    "type": "Point",
    "coordinates": [
     148.68832963,
     -33.34788655
    ]
   },
   "properties": {
    "name": "5877 CANOWINDRA ROAD TOOGONG 2864",
    "locID": "LOC000044121546",
    "tech": "WIRELESS",
    "upgrade": "NULL_NA",
    "gnaf_pid": "GANSW717325934",
    "tech_change_status": "Not Planned",
    "program_type": "Fixed Wireless and Satellite Upgrade Program",
    "target_eligibility_quarter": "NA"
   }
  },
  {
   "type": "Feature",
   "geometry": {
    "type": "Point",
    "coordinates": [
     148.67014871,
     -33.3788159
    ]
   },
   "properties": {
    "name": "248 SUSSEX LANE TOOGONG 2864",
    "locID": "LOC000031843280",
    "tech": "SATELLITE",
    "upgrade": "WIRELESS",
    "gnaf_pid": "GANSW717614308",
    "tech_change_status": "Eligible to Order",
    "program_type": "Fixed Wireless and Satellite Upgrade Program",
    "target_eligibility_quarter": "NA"
   }
  },
  {
   "type": "Feature",
   "geometry": {
    "type": "Point",
    "coordinates": [
     148.64997508,
     -33.38229806
    ]
   },
   "properties": {
    "name": "443 SUSSEX LANE TOOGONG 2864",
    "locID": "LOC000090374017",
    "tech": "WIRELESS",
    "upgrade": "NULL_NA",
    "gnaf_pid": "GANSW717614309",
    "tech_change_status": "Not Planned",
    "program_type": "Fixed Wireless and Satellite Upgrade Program",
    "target_eligibility_quarter": "NA"
   }
  },
  {
   "type": "Feature",
   "geometry": {
    "type": "Point",
    "coordinates": [
     148.65027039,
     -33.29745127
    ]
   },
   "properties": {
    "name": "1381 YELLOWBOX ROAD TOOGONG 2864",
    "locID": "LOC000043130578",
    "tech": "NULL",
    "upgrade": "NULL_NA",
    "gnaf_pid": "GANSW717614401",
    "tech_change_status": "Not Planned"
   }
  },
  {
   "type": "Feature",
   "geometry": {
    "type": "Point",
    "coordinates": [
     148.68659264,
     -33.35054799
    ]
   },
   "properties": {
    "name": "5845 CANOWINDRA ROAD TOOGONG 2864",
    "locID": "LOC000058976574",
    "tech": "WIRELESS",
    "upgrade": "NULL_NA",
    "gnaf_pid": "GANSW717655396",
    "tech_change_status": "Eligible to Order",
    "program_type": "Fixed Wireless and Satellite Upgrade Program",
    "target_eligibility_quarter": "NA"
   }
  },
  {
   "type": "Feature",
   "geometry": {
    "type": "Point",
    "coordinates": [
     148.68386158,
     -33.3467986
    ]
   },
   "properties": {
    "name": "5875 CANOWINDRA ROAD TOOGONG 2864",
    "locID": "LOC100071968840",
    "tech": "WIRELESS",
    "upgrade": "NULL_NA",
    "gnaf_pid": "GANSW717655397"
   }
  },
  {
   "type": "Feature",
   "geometry": {
    "type": "Point",
    "coordinates": [
     148.7082706,
     -33.34582004
    ]
   },
   "properties": {
    "name": "5876 CANOWINDRA ROAD TOOGONG 2864",
    "locID": "LOC000002302369",
    "tech": "WIRELESS",
    "upgrade": "NULL_NA",
    "gnaf_pid": "GANSW717655398",
    "tech_change_status": "Not Planned",
    "program_type": "Fixed Wireless and Satellite Upgrade Program",
    "target_eligibility_quarter": "NA"
   }
  },
  {
   "type": "Feature",
   "geometry": {
    "type": "Point",
    "coordinates": [
     148.68226645,
     -33.35980291
    ]
   },
   "properties": {
    "name": "5645 CANOWINDRA ROAD TOOGONG 2864",
    "locID": "LOC000013128055",
    "tech": "WIRELESS",
    "upgrade": "NULL_NA",
    "gnaf_pid": "GANSW717668189",
    "tech_change_status": "Not Planned",
    "program_type": "Fixed Wireless and Satellite Upgrade Program",
    "target_eligibility_quarter": "NA"
   }
  },
  {
   "type": "Feature",
   "geometry": {
    "type": "Point",
    "coordinates": [
     148.68818419,
     -33.36209421
    ]
   },
   "properties": {
    "name": "5681 CANOWINDRA ROAD TOOGONG 2864",
    "locID": "LOC000101671465",
    "tech": "NULL",
    "upgrade": "NULL_NA",
    "gnaf_pid": "GANSW717668190",
    "tech_change_status": "Not Planned"
   }
  },
  {
   "type": "Feature",
   "geometry": {
    "type": "Point",
    "coordinates": [
     148.63589506,
     -33.41710962
    ]
   },
   "properties": {
    "name": "81 BONEYS ROCKS LANE TOOGONG 2864",
    "locID": "LOC000001498522",
    "tech": "WIRELESS",
    "upgrade": "NULL_NA",
    "gnaf_pid": "GANSW717870312",
    "tech_change_status": "Not Planned",
    "program_type": "Fixed Wireless and Satellite Upgrade Program",
    "target_eligibility_quarter": "NA"
   }
  },
  {
   "type": "Feature",
   "geometry": {
    "type": "Point",
    "coordinates": [
     148.62858179,
     -33.42242295
    ]
   },
   "properties": {
    "name": "128 BONEYS ROCKS LANE TOOGONG 2864",
    "locID": "LOC100078082312",
    "tech": "WIRELESS",
    "upgrade": "NULL_NA",
    "gnaf_pid": "GANSW718951421",
    "tech_change_status": "Not Planned",
    "program_type": "Fixed Wireless and Satellite Upgrade Program",
    "target_eligibility_quarter": "NA"
   }
  },
  {
   "type": "Feature",
   "geometry": {
    "type": "Point",
    "coordinates": [
     148.63142361,
     -33.38852469
    ]
   },
   "properties": {
    "name": "127 BRADFORDS ROAD TOOGONG 2864",
    "locID": "LOC100078081843",
    "tech": "NULL",
    "upgrade": "NULL_NA",
    "gnaf_pid": "GANSW718951571",
    "tech_change_status": "Not Planned"
   }
  }
 ]
}