{
 "type": "FeatureCollection",
 "generated": "2026-05-08T00:20:04.746459",
 "suburb": "TOTNES VALLEY",
 "features": [
  {
   "type": "Feature",
   "geometry": {
    "type": "Point",
    "coordinates": [
     149.92656959,
     -32.49525722
    ]
   },
   "properties": {
    "name": "1C TOTNES VALLEY ROAD TOTNES VALLEY 2850",
    "locID": "LOC000142482704",
    "tech": "SATELLITE",
    "upgrade": "NULL_NA",
    "gnaf_pid": "GANSW706101698",
    "tech_change_status": "Not Planned"
   }
  },
  {
   "type": "Feature",
   "geometry": {
    "type": "Point",
    "coordinates": [
     149.91239553,
     -32.49481647
    ]
   },
   "properties": {
    "name": "141 TOTNES VALLEY ROAD TOTNES VALLEY 2850",
    "locID": "LOC000042774974",
    "tech": "SATELLITE",
    "upgrade": "NULL_NA",
    "gnaf_pid": "GANSW706101699",
    "tech_change_status": "Not Planned"
   }
  },
  {
   "type": "Feature",
   "geometry": {
    "type": "Point",
    "coordinates": [
     149.9194779,
     -32.49218814
    ]
   },
   "properties": {
    "name": "85 TOTNES VALLEY ROAD TOTNES VALLEY 2850",
    "locID": "LOC000048360645",
    "tech": "SATELLITE",
    "upgrade": "NULL_NA",
    "gnaf_pid": "GANSW706580174",
    "tech_change_status": "Not Planned"
   }
  },
  {
   "type": "Feature",
   "geometry": {
    "type": "Point",
    "coordinates": [
     149.90927251,
     -32.5001993
    ]
   },
   "properties": {
    "name": "209 TOTNES VALLEY ROAD TOTNES VALLEY 2850",
    "locID": "LOC000045515080",
    "tech": "SATELLITE",
    "upgrade": "NULL_NA",
    "gnaf_pid": "GANSW706580175",
    "tech_change_status": "Not Planned"
   }
  },
  {
   "type": "Feature",
   "geometry": {
    "type": "Point",
    "coordinates": [
     149.9236438,
     -32.48332461
    ]
   },
   "properties": {
    "name": "945 WHITE CEDARS ROAD TOTNES VALLEY 2850",
    "locID": "LOC000033294478",
    "tech": "SATELLITE",
    "upgrade": "NULL_NA",
    "gnaf_pid": "GANSW715411438",
    "tech_change_status": "Not Planned"
   }
  },
  {
   "type": "Feature",
   "geometry": {
    "type": "Point",
    "coordinates": [
     149.90242462,
     -32.49208966
    ]
   },
   "properties": {
    "name": "136 TOTNES VALLEY ROAD TOTNES VALLEY 2850",
    "locID": "LOC000016745678",
    "tech": "SATELLITE",
    "upgrade": "NULL_NA",
    "gnaf_pid": "GANSW715691131",
    "tech_change_status": "Not Planned"
   }
  },
  {
   "type": "Feature",
   "geometry": {
    "type": "Point",
    "coordinates": [
     149.9282959,
     -32.50178553
    ]
   },
   "properties": {
    "name": "1 TOTNES VALLEY ROAD TOTNES VALLEY 2850",
    "locID": "LOC000174897742",
    "tech": "SATELLITE",
    "upgrade": "NULL_NA",
    "gnaf_pid": "GANSW715691132",
    "tech_change_status": "Not Planned"
   }
  },
  {
   "type": "Feature",
   "geometry": {
    "type": "Point",
    "coordinates": [
     149.90293054,
     -32.50248647
    ]
   },
   "properties": {
    "name": "236 TOTNES VALLEY ROAD TOTNES VALLEY 2850",
    "locID": "LOC000082683235",
    "tech": "SATELLITE",
    "upgrade": "NULL_NA",
    "gnaf_pid": "GANSW715691134",
    "tech_change_status": "Not Planned"
   }
  },
  {
   "type": "Feature",
   "geometry": {
    "type": "Point",
    "coordinates": [
     149.91636248,
     -32.48600861
    ]
   },
   "properties": {
    "name": "934 WHITE CEDARS ROAD TOTNES VALLEY 2850",
    "locID": "LOC000090244903",
    "tech": "NULL",
    "upgrade": "NULL_NA",
    "gnaf_pid": "GANSW715692419",
    "tech_change_status": "Not Planned"
   }
  },
  {
   "type": "Feature",
   "geometry": {
    "type": "Point",
    "coordinates": [
     149.90995658,
     -32.49562548
    ]
   },
   "properties": {
    "name": "172 TOTNES VALLEY ROAD TOTNES VALLEY 2850",
    "locID": "LOC000122468055",
    "tech": "SATELLITE",
    "upgrade": "NULL_NA",
    "gnaf_pid": "GANSW716129928",
    "tech_change_status": "Not Planned"
   }
  },
  {
   "type": "Feature",
   "geometry": {
    "type": "Point",
    "coordinates": [
     149.92450659,
     -32.48622716
    ]
   },
   "properties": {
    "name": "1A TOTNES VALLEY ROAD TOTNES VALLEY 2850",
    "locID": "LOC000086681014",
    "tech": "NULL",
    "upgrade": "NULL_NA",
    "gnaf_pid": "GANSW716129930",
    "tech_change_status": "Not Planned"
   }
  },
  {
   "type": "Feature",
   "geometry": {
    "type": "Point",
    "coordinates": [
     149.9282959,
     -32.50178553
    ]
   },
   "properties": {
    "name": "1D TOTNES VALLEY ROAD TOTNES VALLEY 2850",
    "locID": "LOC000122478061",
    "tech": "SATELLITE",
    "upgrade": "NULL_NA",
    "gnaf_pid": "GANSW716129931",
    "tech_change_status": "Not Planned"
   }
  },
  {
   "type": "Feature",
   "geometry": {
    "type": "Point",
    "coordinates": [
     149.90326675,
     -32.49896793
    ]
   },
   "properties": {
    "name": "218 TOTNES VALLEY ROAD TOTNES VALLEY 2850",
    "locID": "LOC000107360936",
    "tech": "SATELLITE",
    "upgrade": "NULL_NA",
    "gnaf_pid": "GANSW716129932",
    "tech_change_status": "Not Planned"
   }
  },
  {
   "type": "Feature",
   "geometry": {
    "type": "Point",
    "coordinates": [
     149.9022746,
     -32.50069415
    ]
   },
   "properties": {
    "name": "234 TOTNES VALLEY ROAD TOTNES VALLEY 2850",
    "locID": "LOC000027231242",
    "tech": "NULL",
    "upgrade": "NULL_NA",
    "gnaf_pid": "GANSW716129933",
    "tech_change_status": "Not Planned"
   }
  },
  {
   "type": "Feature",
   "geometry": {
    "type": "Point",
    "coordinates": [
     149.90829534,
     -32.50314182
    ]
   },
   "properties": {
    "name": "235 TOTNES VALLEY ROAD TOTNES VALLEY 2850",
    "locID": "LOC000122452228",
    "tech": "SATELLITE",
    "upgrade": "NULL_NA",
    "gnaf_pid": "GANSW716129934",
    "tech_change_status": "Not Planned"
   }
  },
  {
   "type": "Feature",
   "geometry": {
    "type": "Point",
    "coordinates": [
     149.91414443,
     -32.49636312
    ]
   },
   "properties": {
    "name": "171 TOTNES VALLEY ROAD TOTNES VALLEY 2850",
    "locID": "LOC000107090919",
    "tech": "SATELLITE",
    "upgrade": "NULL_NA",
    "gnaf_pid": "GANSW717349354",
    "tech_change_status": "Not Planned"
   }
  },
  {
   "type": "Feature",
   "geometry": {
    "type": "Point",
    "coordinates": [
     149.91181683,
     -32.49080351
    ]
   },
   "properties": {
    "name": "116 TOTNES VALLEY ROAD TOTNES VALLEY 2850",
    "locID": "LOC000026837871",
    "tech": "SATELLITE",
    "upgrade": "NULL_NA",
    "gnaf_pid": "GANSW717470464",
    "tech_change_status": "Not Planned"
   }
  },
  {
   "type": "Feature",
   "geometry": {
    "type": "Point",
    "coordinates": [
     149.91912103,
     -32.48257532
    ]
   },
   "properties": {
    "name": "941 WHITE CEDARS ROAD TOTNES VALLEY 2850",
    "locID": "LOC000114027282",
    "tech": "SATELLITE",
    "upgrade": "NULL_NA",
    "gnaf_pid": "GANSW717970504",
    "tech_change_status": "Not Planned"
   }
  },
  {
   "type": "Feature",
   "geometry": {
    "type": "Point",
    "coordinates": [
     149.90740279,
     -32.48601678
    ]
   },
   "properties": {
    "name": "102 TOTNES VALLEY ROAD TOTNES VALLEY 2850",
    "locID": "LOC000122470290",
    "tech": "SATELLITE",
    "upgrade": "NULL_NA",
    "gnaf_pid": "GANSW718107525",
    "tech_change_status": "Not Planned"
   }
  },
  {
   "type": "Feature",
   "geometry": {
    "type": "Point",
    "coordinates": [
     149.92843604,
     -32.47938089
    ]
   },
   "properties": {
    "name": "861 WHITE CEDARS ROAD TOTNES VALLEY 2850",
    "locID": "LOC000122464117",
    "tech": "NULL",
    "upgrade": "NULL_NA",
    "gnaf_pid": "GANSW718322184",
    "tech_change_status": "Not Planned"
   }
  },
  {
   "type": "Feature",
   "geometry": {
    "type": "Point",
    "coordinates": [
     149.91600519,
     -32.50028505
    ]
   },
   "properties": {
    "name": "189 TOTNES VALLEY ROAD TOTNES VALLEY 2850",
    "locID": "LOC000122473387",
    "tech": "NULL",
    "upgrade": "NULL_NA",
    "gnaf_pid": "GANSW718364188",
    "tech_change_status": "Not Planned"
   }
  },
  {
   "type": "Feature",
   "geometry": {
    "type": "Point",
    "coordinates": [
     149.90287843,
     -32.48955249
    ]
   },
   "properties": {
    "name": "134 TOTNES VALLEY ROAD TOTNES VALLEY 2850",
    "locID": "LOC000174897742",
    "tech": "SATELLITE",
    "upgrade": "NULL_NA",
    "gnaf_pid": "GANSW718958529",
    "tech_change_status": "Not Planned"
   }
  }
 ]
}