{
 "type": "FeatureCollection",
 "generated": "2024-10-31T16:46:14.574063",
 "suburb": "TUPPAL",
 "features": [
  {
   "type": "Feature",
   "geometry": {
    "type": "Point",
    "coordinates": [
     145.36082993,
     -35.67582774
    ]
   },
   "properties": {
    "name": "128 SAVAGES ROAD TUPPAL 2714",
    "locID": "LOC000100037109",
    "tech": "SATELLITE",
    "upgrade": "NULL_NA",
    "gnaf_pid": "GANSW717224248",
    "tech_change_status": "Not Planned"
   }
  },
  {
   "type": "Feature",
   "geometry": {
    "type": "Point",
    "coordinates": [
     145.36842235,
     -35.68804989
    ]
   },
   "properties": {
    "name": "295 SAVAGES ROAD TUPPAL 2714",
    "locID": "LOC000014904204",
    "tech": "NULL",
    "upgrade": "NULL_NA",
    "gnaf_pid": "GANSW717224249",
    "tech_change_status": "Not Planned"
   }
  },
  {
   "type": "Feature",
   "geometry": {
    "type": "Point",
    "coordinates": [
     145.36999238,
     -35.66744239
    ]
   },
   "properties": {
    "name": "65 SAVAGES ROAD TUPPAL 2714",
    "locID": "LOC000057039603",
    "tech": "NULL",
    "upgrade": "NULL_NA",
    "gnaf_pid": "GANSW717224251",
    "tech_change_status": "Not Planned"
   }
  },
  {
   "type": "Feature",
   "geometry": {
    "type": "Point",
    "coordinates": [
     145.2070806,
     -35.65169837
    ]
   },
   "properties": {
    "name": "1462 TOCUMWAL ROAD TUPPAL 2714",
    "locID": "LOC000080752023",
    "tech": "NULL",
    "upgrade": "NULL_NA",
    "gnaf_pid": "GANSW717226450",
    "tech_change_status": "Not Planned"
   }
  },
  {
   "type": "Feature",
   "geometry": {
    "type": "Point",
    "coordinates": [
     145.23313371,
     -35.66570764
    ]
   },
   "properties": {
    "name": "180 GOLLOPS ROAD TUPPAL 2714",
    "locID": "LOC000121845306",
    "tech": "SATELLITE",
    "upgrade": "NULL_NA",
    "gnaf_pid": "GANSW718068552",
    "tech_change_status": "Not Planned"
   }
  },
  {
   "type": "Feature",
   "geometry": {
    "type": "Point",
    "coordinates": [
     145.30160322,
     -35.66284462
    ]
   },
   "properties": {
    "name": "2370 TOCUMWAL ROAD TUPPAL 2714",
    "locID": "LOC000121817677",
    "tech": "SATELLITE",
    "upgrade": "NULL_NA",
    "gnaf_pid": "GANSW718077536",
    "tech_change_status": "Not Planned"
   }
  },
  {
   "type": "Feature",
   "geometry": {
    "type": "Point",
    "coordinates": [
     145.31169515,
     -35.66328704
    ]
   },
   "properties": {
    "name": "2450 TOCUMWAL ROAD TUPPAL 2714",
    "locID": "LOC000121817789",
    "tech": "NULL",
    "upgrade": "NULL_NA",
    "gnaf_pid": "GANSW718077537",
    "tech_change_status": "Not Planned"
   }
  },
  {
   "type": "Feature",
   "geometry": {
    "type": "Point",
    "coordinates": [
     145.33054652,
     -35.66607879
    ]
   },
   "properties": {
    "name": "2596 TOCUMWAL ROAD TUPPAL 2714",
    "locID": "LOC000121821810",
    "tech": "NULL",
    "upgrade": "NULL_NA",
    "gnaf_pid": "GANSW718077538",
    "tech_change_status": "Not Planned"
   }
  },
  {
   "type": "Feature",
   "geometry": {
    "type": "Point",
    "coordinates": [
     145.35189172,
     -35.66639629
    ]
   },
   "properties": {
    "name": "2694 TOCUMWAL ROAD TUPPAL 2714",
    "locID": "LOC000121821984",
    "tech": "NULL",
    "upgrade": "NULL_NA",
    "gnaf_pid": "GANSW718077539",
    "tech_change_status": "Not Planned"
   }
  },
  {
   "type": "Feature",
   "geometry": {
    "type": "Point",
    "coordinates": [
     145.37721254,
     -35.71839126
    ]
   },
   "properties": {
    "name": "2025 TUPPAL ROAD TUPPAL 2714",
    "locID": "LOC000121850715",
    "tech": "SATELLITE",
    "upgrade": "NULL_NA",
    "gnaf_pid": "GANSW718077691",
    "tech_change_status": "Not Planned"
   }
  },
  {
   "type": "Feature",
   "geometry": {
    "type": "Point",
    "coordinates": [
     145.39352064,
     -35.67194418
    ]
   },
   "properties": {
    "name": "2477 TUPPAL ROAD TUPPAL 2714",
    "locID": "LOC000121817817",
    "tech": "WIRELESS",
    "upgrade": "NULL_NA",
    "gnaf_pid": "GANSW718077692",
    "tech_change_status": "Not Planned",
    "program_type": "Fixed Wireless and Satellite Upgrade Program",
    "target_eligibility_quarter": "NA"
   }
  },
  {
   "type": "Feature",
   "geometry": {
    "type": "Point",
    "coordinates": [
     145.31605462,
     -35.66407448
    ]
   },
   "properties": {
    "name": "2452 TOCUMWAL ROAD TUPPAL 2714",
    "locID": "LOC100078131976",
    "tech": "NULL",
    "upgrade": "NULL_NA",
    "gnaf_pid": "GANSW719695710",
    "tech_change_status": "Not Planned"
   }
  },
  {
   "type": "Feature",
   "geometry": {
    "type": "Point",
    "coordinates": [
     145.21605799,
     -35.65851893
    ]
   },
   "properties": {
    "name": "1 TOCUMWAL ROAD TUPPAL 2714",
    "locID": "LOC000177171580",
    "tech": "WIRELESS",
    "upgrade": "NULL_NA",
    "gnaf_pid": "GANSW720080100",
    "tech_change_status": "Not Planned",
    "program_type": "Fixed Wireless and Satellite Upgrade Program",
    "target_eligibility_quarter": "NA"
   }
  },
  {
   "type": "Feature",
   "geometry": {
    "type": "Point",
    "coordinates": [
     145.36082993,
     -35.67582774
    ]
   },
   "properties": {
    "name": "2918 TOCUMWAL ROAD TUPPAL 2714",
    "locID": "LOC100079391969",
    "tech": "WIRELESS",
    "upgrade": "NULL_NA",
    "gnaf_pid": "GANSW720679245",
    "tech_change_status": "Not Planned",
    "program_type": "Fixed Wireless and Satellite Upgrade Program",
    "target_eligibility_quarter": "NA"
   }
  }
 ]
}