{
 "type": "FeatureCollection",
 "generated": "2024-10-16T17:36:07.107665",
 "suburb": "WATTAMOLLA",
 "features": [
  {
   "type": "Feature",
   "geometry": {
    "type": "Point",
    "coordinates": [
     150.64329335,
     -34.72688788
    ]
   },
   "properties": {
    "name": "545 WATTAMOLLA ROAD WATTAMOLLA 2535",
    "locID": "LOC000018420951",
    "tech": "SATELLITE",
    "upgrade": "NULL_NA",
    "gnaf_pid": "GANSW706211691",
    "tech_change_status": "Not Planned"
   }
  },
  {
   "type": "Feature",
   "geometry": {
    "type": "Point",
    "coordinates": [
     150.64194075,
     -34.72657182
    ]
   },
   "properties": {
    "name": "548 WATTAMOLLA ROAD WATTAMOLLA 2535",
    "locID": "LOC000001545291",
    "tech": "SATELLITE",
    "upgrade": "NULL_NA",
    "gnaf_pid": "GANSW706211692",
    "tech_change_status": "Not Planned"
   }
  },
  {
   "type": "Feature",
   "geometry": {
    "type": "Point",
    "coordinates": [
     150.65847133,
     -34.71116818
    ]
   },
   "properties": {
    "name": "109 PRIDDLES LANE WATTAMOLLA 2535",
    "locID": "LOC000021430999",
    "tech": "SATELLITE",
    "upgrade": "NULL_NA",
    "gnaf_pid": "GANSW706221944",
    "tech_change_status": "Not Planned"
   }
  },
  {
   "type": "Feature",
   "geometry": {
    "type": "Point",
    "coordinates": [
     150.64913904,
     -34.72102752
    ]
   },
   "properties": {
    "name": "29 PRIDDLES LANE WATTAMOLLA 2535",
    "locID": "LOC000078882281",
    "tech": "SATELLITE",
    "upgrade": "NULL_NA",
    "gnaf_pid": "GANSW706221946",
    "tech_change_status": "Not Planned"
   }
  },
  {
   "type": "Feature",
   "geometry": {
    "type": "Point",
    "coordinates": [
     150.65126427,
     -34.71997836
    ]
   },
   "properties": {
    "name": "36 PRIDDLES LANE WATTAMOLLA 2535",
    "locID": "LOC000065023293",
    "tech": "SATELLITE",
    "upgrade": "NULL_NA",
    "gnaf_pid": "GANSW706221947",
    "tech_change_status": "Not Planned"
   }
  },
  {
   "type": "Feature",
   "geometry": {
    "type": "Point",
    "coordinates": [
     150.65390062,
     -34.71896507
    ]
   },
   "properties": {
    "name": "58 PRIDDLES LANE WATTAMOLLA 2535",
    "locID": "LOC000036169991",
    "tech": "SATELLITE",
    "upgrade": "NULL_NA",
    "gnaf_pid": "GANSW706221948",
    "tech_change_status": "Not Planned"
   }
  },
  {
   "type": "Feature",
   "geometry": {
    "type": "Point",
    "coordinates": [
     150.64676727,
     -34.71008877
    ]
   },
   "properties": {
    "name": "61A PRIDDLES LANE WATTAMOLLA 2535",
    "locID": "LOC000035446991",
    "tech": "SATELLITE",
    "upgrade": "NULL_NA",
    "gnaf_pid": "GANSW706221949",
    "tech_change_status": "Not Planned"
   }
  },
  {
   "type": "Feature",
   "geometry": {
    "type": "Point",
    "coordinates": [
     150.60360234,
     -34.73925639
    ]
   },
   "properties": {
    "name": "1005 WATTAMOLLA ROAD WATTAMOLLA 2535",
    "locID": "LOC000090739516",
    "tech": "WIRELESS",
    "upgrade": "NULL_NA",
    "gnaf_pid": "GANSW706221951",
    "tech_change_status": "Not Planned",
    "program_type": "Fixed Wireless and Satellite Upgrade Program",
    "target_eligibility_quarter": "NA"
   }
  },
  {
   "type": "Feature",
   "geometry": {
    "type": "Point",
    "coordinates": [
     150.653253,
     -34.72955261
    ]
   },
   "properties": {
    "name": "369 WATTAMOLLA ROAD WATTAMOLLA 2535",
    "locID": "LOC000047314520",
    "tech": "SATELLITE",
    "upgrade": "NULL_NA",
    "gnaf_pid": "GANSW706221952",
    "tech_change_status": "Not Planned"
   }
  },
  {
   "type": "Feature",
   "geometry": {
    "type": "Point",
    "coordinates": [
     150.65645891,
     -34.72454517
    ]
   },
   "properties": {
    "name": "412 WATTAMOLLA ROAD WATTAMOLLA 2535",
    "locID": "LOC000035533721",
    "tech": "NULL",
    "upgrade": "NULL_NA",
    "gnaf_pid": "GANSW706221954",
    "tech_change_status": "Not Planned"
   }
  },
  {
   "type": "Feature",
   "geometry": {
    "type": "Point",
    "coordinates": [
     150.65234033,
     -34.72428261
    ]
   },
   "properties": {
    "name": "429 WATTAMOLLA ROAD WATTAMOLLA 2535",
    "locID": "LOC000077272583",
    "tech": "SATELLITE",
    "upgrade": "NULL_NA",
    "gnaf_pid": "GANSW706221955",
    "tech_change_status": "Not Planned"
   }
  },
  {
   "type": "Feature",
   "geometry": {
    "type": "Point",
    "coordinates": [
     150.64751472,
     -34.72406606
    ]
   },
   "properties": {
    "name": "500 WATTAMOLLA ROAD WATTAMOLLA 2535",
    "locID": "LOC000016301761",
    "tech": "SATELLITE",
    "upgrade": "NULL_NA",
    "gnaf_pid": "GANSW706221956",
    "tech_change_status": "Not Planned"
   }
  },
  {
   "type": "Feature",
   "geometry": {
    "type": "Point",
    "coordinates": [
     150.64520619,
     -34.72564392
    ]
   },
   "properties": {
    "name": "515 WATTAMOLLA ROAD WATTAMOLLA 2535",
    "locID": "LOC000083222253",
    "tech": "SATELLITE",
    "upgrade": "NULL_NA",
    "gnaf_pid": "GANSW706221957",
    "tech_change_status": "Not Planned"
   }
  },
  {
   "type": "Feature",
   "geometry": {
    "type": "Point",
    "coordinates": [
     150.64036864,
     -34.72061916
    ]
   },
   "properties": {
    "name": "526A WATTAMOLLA ROAD WATTAMOLLA 2535",
    "locID": "LOC000036984305",
    "tech": "SATELLITE",
    "upgrade": "NULL_NA",
    "gnaf_pid": "GANSW706221958",
    "tech_change_status": "Not Planned"
   }
  },
  {
   "type": "Feature",
   "geometry": {
    "type": "Point",
    "coordinates": [
     150.64390514,
     -34.72517081
    ]
   },
   "properties": {
    "name": "526B WATTAMOLLA ROAD WATTAMOLLA 2535",
    "locID": "LOC000037457664",
    "tech": "NULL",
    "upgrade": "NULL_NA",
    "gnaf_pid": "GANSW706221959",
    "tech_change_status": "Not Planned"
   }
  },
  {
   "type": "Feature",
   "geometry": {
    "type": "Point",
    "coordinates": [
     150.64413762,
     -34.72637806
    ]
   },
   "properties": {
    "name": "539 WATTAMOLLA ROAD WATTAMOLLA 2535",
    "locID": "LOC000051482570",
    "tech": "SATELLITE",
    "upgrade": "NULL_NA",
    "gnaf_pid": "GANSW706221960",
    "tech_change_status": "Not Planned"
   }
  },
  {
   "type": "Feature",
   "geometry": {
    "type": "Point",
    "coordinates": [
     150.64923315,
     -34.72838104
    ]
   },
   "properties": {
    "name": "543A WATTAMOLLA ROAD WATTAMOLLA 2535",
    "locID": "LOC000009729411",
    "tech": "NULL",
    "upgrade": "NULL_NA",
    "gnaf_pid": "GANSW706221961",
    "tech_change_status": "Not Planned"
   }
  },
  {
   "type": "Feature",
   "geometry": {
    "type": "Point",
    "coordinates": [
     150.64811956,
     -34.72751016
    ]
   },
   "properties": {
    "name": "543B WATTAMOLLA ROAD WATTAMOLLA 2535",
    "locID": "LOC000009844322",
    "tech": "NULL",
    "upgrade": "NULL_NA",
    "gnaf_pid": "GANSW706221962",
    "tech_change_status": "Not Planned"
   }
  },
  {
   "type": "Feature",
   "geometry": {
    "type": "Point",
    "coordinates": [
     150.63651391,
     -34.72488315
    ]
   },
   "properties": {
    "name": "580 WATTAMOLLA ROAD WATTAMOLLA 2535",
    "locID": "LOC000093384644",
    "tech": "SATELLITE",
    "upgrade": "NULL_NA",
    "gnaf_pid": "GANSW706221966",
    "tech_change_status": "Not Planned"
   }
  },
  {
   "type": "Feature",
   "geometry": {
    "type": "Point",
    "coordinates": [
     150.64137605,
     -34.72909703
    ]
   },
   "properties": {
    "name": "581 WATTAMOLLA ROAD WATTAMOLLA 2535",
    "locID": "LOC000025992843",
    "tech": "SATELLITE",
    "upgrade": "NULL_NA",
    "gnaf_pid": "GANSW706221967",
    "tech_change_status": "Not Planned"
   }
  },
  {
   "type": "Feature",
   "geometry": {
    "type": "Point",
    "coordinates": [
     150.63962402,
     -34.73030238
    ]
   },
   "properties": {
    "name": "605 WATTAMOLLA ROAD WATTAMOLLA 2535",
    "locID": "LOC000055774052",
    "tech": "SATELLITE",
    "upgrade": "NULL_NA",
    "gnaf_pid": "GANSW706221968",
    "tech_change_status": "Not Planned"
   }
  },
  {
   "type": "Feature",
   "geometry": {
    "type": "Point",
    "coordinates": [
     150.63414983,
     -34.72968408
    ]
   },
   "properties": {
    "name": "608 WATTAMOLLA ROAD WATTAMOLLA 2535",
    "locID": "LOC000017100099",
    "tech": "SATELLITE",
    "upgrade": "NULL_NA",
    "gnaf_pid": "GANSW706221969",
    "tech_change_status": "Not Planned"
   }
  },
  {
   "type": "Feature",
   "geometry": {
    "type": "Point",
    "coordinates": [
     150.63653291,
     -34.73249743
    ]
   },
   "properties": {
    "name": "635 WATTAMOLLA ROAD WATTAMOLLA 2535",
    "locID": "LOC000028222272",
    "tech": "SATELLITE",
    "upgrade": "NULL_NA",
    "gnaf_pid": "GANSW706221970",
    "tech_change_status": "Not Planned"
   }
  },
  {
   "type": "Feature",
   "geometry": {
    "type": "Point",
    "coordinates": [
     150.63358375,
     -34.73518073
    ]
   },
   "properties": {
    "name": "681 WATTAMOLLA ROAD WATTAMOLLA 2535",
    "locID": "LOC000064397090",
    "tech": "SATELLITE",
    "upgrade": "NULL_NA",
    "gnaf_pid": "GANSW706221971",
    "tech_change_status": "Not Planned"
   }
  },
  {
   "type": "Feature",
   "geometry": {
    "type": "Point",
    "coordinates": [
     150.63260299,
     -34.73567746
    ]
   },
   "properties": {
    "name": "705 WATTAMOLLA ROAD WATTAMOLLA 2535",
    "locID": "LOC000057833115",
    "tech": "SATELLITE",
    "upgrade": "NULL_NA",
    "gnaf_pid": "GANSW706221972",
    "tech_change_status": "Not Planned"
   }
  },
  {
   "type": "Feature",
   "geometry": {
    "type": "Point",
    "coordinates": [
     150.63045042,
     -34.73676649
    ]
   },
   "properties": {
    "name": "715 WATTAMOLLA ROAD WATTAMOLLA 2535",
    "locID": "LOC000036961263",
    "tech": "SATELLITE",
    "upgrade": "NULL_NA",
    "gnaf_pid": "GANSW706221973",
    "tech_change_status": "Not Planned"
   }
  },
  {
   "type": "Feature",
   "geometry": {
    "type": "Point",
    "coordinates": [
     150.62873728,
     -34.73839684
    ]
   },
   "properties": {
    "name": "741 WATTAMOLLA ROAD WATTAMOLLA 2535",
    "locID": "LOC000099000607",
    "tech": "WIRELESS",
    "upgrade": "NULL_NA",
    "gnaf_pid": "GANSW706221974",
    "tech_change_status": "Not Planned"
   }
  },
  {
   "type": "Feature",
   "geometry": {
    "type": "Point",
    "coordinates": [
     150.62364263,
     -34.73726669
    ]
   },
   "properties": {
    "name": "799 WATTAMOLLA ROAD WATTAMOLLA 2535",
    "locID": "LOC000048265685",
    "tech": "SATELLITE",
    "upgrade": "NULL_NA",
    "gnaf_pid": "GANSW706221975",
    "tech_change_status": "Not Planned"
   }
  },
  {
   "type": "Feature",
   "geometry": {
    "type": "Point",
    "coordinates": [
     150.62486329,
     -34.73429712
    ]
   },
   "properties": {
    "name": "800A WATTAMOLLA ROAD WATTAMOLLA 2535",
    "locID": "LOC000038231753",
    "tech": "SATELLITE",
    "upgrade": "NULL_NA",
    "gnaf_pid": "GANSW706232235",
    "tech_change_status": "Not Planned"
   }
  },
  {
   "type": "Feature",
   "geometry": {
    "type": "Point",
    "coordinates": [
     150.61810324,
     -34.73379743
    ]
   },
   "properties": {
    "name": "800 WATTAMOLLA ROAD WATTAMOLLA 2535",
    "locID": "LOC000038287581",
    "tech": "SATELLITE",
    "upgrade": "NULL_NA",
    "gnaf_pid": "GANSW706232236",
    "tech_change_status": "Not Planned"
   }
  },
  {
   "type": "Feature",
   "geometry": {
    "type": "Point",
    "coordinates": [
     150.62192228,
     -34.73767357
    ]
   },
   "properties": {
    "name": "819 WATTAMOLLA ROAD WATTAMOLLA 2535",
    "locID": "LOC000020605057",
    "tech": "SATELLITE",
    "upgrade": "NULL_NA",
    "gnaf_pid": "GANSW706232237",
    "tech_change_status": "Not Planned"
   }
  },
  {
   "type": "Feature",
   "geometry": {
    "type": "Point",
    "coordinates": [
     150.61891702,
     -34.73786631
    ]
   },
   "properties": {
    "name": "840 WATTAMOLLA ROAD WATTAMOLLA 2535",
    "locID": "LOC000052022704",
    "tech": "SATELLITE",
    "upgrade": "NULL_NA",
    "gnaf_pid": "GANSW706232238",
    "tech_change_status": "Not Planned"
   }
  },
  {
   "type": "Feature",
   "geometry": {
    "type": "Point",
    "coordinates": [
     150.61217125,
     -34.73750225
    ]
   },
   "properties": {
    "name": "928 WATTAMOLLA ROAD WATTAMOLLA 2535",
    "locID": "LOC000069394683",
    "tech": "SATELLITE",
    "upgrade": "NULL_NA",
    "gnaf_pid": "GANSW706232240",
    "tech_change_status": "Not Planned"
   }
  },
  {
   "type": "Feature",
   "geometry": {
    "type": "Point",
    "coordinates": [
     150.61023675,
     -34.73834458
    ]
   },
   "properties": {
    "name": "930 WATTAMOLLA ROAD WATTAMOLLA 2535",
    "locID": "LOC000104143224",
    "tech": "SATELLITE",
    "upgrade": "NULL_NA",
    "gnaf_pid": "GANSW706232241",
    "tech_change_status": "Not Planned"
   }
  },
  {
   "type": "Feature",
   "geometry": {
    "type": "Point",
    "coordinates": [
     150.60740032,
     -34.73911618
    ]
   },
   "properties": {
    "name": "957 WATTAMOLLA ROAD WATTAMOLLA 2535",
    "locID": "LOC000033072067",
    "tech": "SATELLITE",
    "upgrade": "WIRELESS",
    "gnaf_pid": "GANSW706232242",
    "tech_change_status": "Eligible to Order"
   }
  },
  {
   "type": "Feature",
   "geometry": {
    "type": "Point",
    "coordinates": [
     150.60606794,
     -34.74202085
    ]
   },
   "properties": {
    "name": "973 WATTAMOLLA ROAD WATTAMOLLA 2535",
    "locID": "LOC000069020308",
    "tech": "SATELLITE",
    "upgrade": "NULL_NA",
    "gnaf_pid": "GANSW706232243",
    "tech_change_status": "Not Planned"
   }
  },
  {
   "type": "Feature",
   "geometry": {
    "type": "Point",
    "coordinates": [
     150.60734571,
     -34.73770927
    ]
   },
   "properties": {
    "name": "974 WATTAMOLLA ROAD WATTAMOLLA 2535",
    "locID": "LOC000090772138",
    "tech": "SATELLITE",
    "upgrade": "NULL_NA",
    "gnaf_pid": "GANSW706232244",
    "tech_change_status": "Not Planned"
   }
  },
  {
   "type": "Feature",
   "geometry": {
    "type": "Point",
    "coordinates": [
     150.65715234,
     -34.72068055
    ]
   },
   "properties": {
    "name": "420 WATTAMOLLA ROAD WATTAMOLLA 2535",
    "locID": "LOC000020586665",
    "tech": "SATELLITE",
    "upgrade": "NULL_NA",
    "gnaf_pid": "GANSW707621948",
    "tech_change_status": "Not Planned"
   }
  },
  {
   "type": "Feature",
   "geometry": {
    "type": "Point",
    "coordinates": [
     150.6530039,
     -34.72291062
    ]
   },
   "properties": {
    "name": "428 WATTAMOLLA ROAD WATTAMOLLA 2535",
    "locID": "LOC000081133163",
    "tech": "SATELLITE",
    "upgrade": "NULL_NA",
    "gnaf_pid": "GANSW716170869",
    "tech_change_status": "Not Planned"
   }
  },
  {
   "type": "Feature",
   "geometry": {
    "type": "Point",
    "coordinates": [
     150.6535479,
     -34.71619481
    ]
   },
   "properties": {
    "name": "91 PRIDDLES LANE WATTAMOLLA 2535",
    "locID": "LOC000121370665",
    "tech": "SATELLITE",
    "upgrade": "NULL_NA",
    "gnaf_pid": "GANSW717344174",
    "tech_change_status": "Not Planned"
   }
  },
  {
   "type": "Feature",
   "geometry": {
    "type": "Point",
    "coordinates": [
     150.62137977,
     -34.73987219
    ]
   },
   "properties": {
    "name": "843 WATTAMOLLA ROAD WATTAMOLLA 2535",
    "locID": "LOC000080722233",
    "tech": "SATELLITE",
    "upgrade": "NULL_NA",
    "gnaf_pid": "GANSW717350623",
    "tech_change_status": "Not Planned"
   }
  },
  {
   "type": "Feature",
   "geometry": {
    "type": "Point",
    "coordinates": [
     150.64503409,
     -34.72273524
    ]
   },
   "properties": {
    "name": "526 WATTAMOLLA ROAD WATTAMOLLA 2535",
    "locID": "LOC000036984305",
    "tech": "SATELLITE",
    "upgrade": "NULL_NA",
    "gnaf_pid": "GANSW717565455",
    "tech_change_status": "Not Planned"
   }
  },
  {
   "type": "Feature",
   "geometry": {
    "type": "Point",
    "coordinates": [
     150.64923315,
     -34.72838104
    ]
   },
   "properties": {
    "name": "543 WATTAMOLLA ROAD WATTAMOLLA 2535",
    "locID": "LOC000010077335",
    "tech": "SATELLITE",
    "upgrade": "NULL_NA",
    "gnaf_pid": "GANSW717565456",
    "tech_change_status": "Not Planned"
   }
  },
  {
   "type": "Feature",
   "geometry": {
    "type": "Point",
    "coordinates": [
     150.65317078,
     -34.71273101
    ]
   },
   "properties": {
    "name": "61B PRIDDLES LANE WATTAMOLLA 2535",
    "locID": "LOC000035338412",
    "tech": "NULL",
    "upgrade": "NULL_NA",
    "gnaf_pid": "GANSW717603763",
    "tech_change_status": "Not Planned"
   }
  },
  {
   "type": "Feature",
   "geometry": {
    "type": "Point",
    "coordinates": [
     150.61455547,
     -34.73765216
    ]
   },
   "properties": {
    "name": "892 WATTAMOLLA ROAD WATTAMOLLA 2535",
    "locID": "LOC000020534233",
    "tech": "SATELLITE",
    "upgrade": "NULL_NA",
    "gnaf_pid": "GANSW717607980",
    "tech_change_status": "Not Planned"
   }
  },
  {
   "type": "Feature",
   "geometry": {
    "type": "Point",
    "coordinates": [
     150.65110338,
     -34.71678033
    ]
   },
   "properties": {
    "name": "61 PRIDDLES LANE WATTAMOLLA 2535",
    "locID": "LOC000035338412",
    "tech": "NULL",
    "upgrade": "NULL_NA",
    "gnaf_pid": "GANSW720937930",
    "tech_change_status": "Not Planned"
   }
  },
  {
   "type": "Feature",
   "geometry": {
    "type": "Point",
    "coordinates": [
     151.11365008,
     -34.13569777
    ]
   },
   "properties": {
    "name": "3017 WATTAMOLLA ROAD WATTAMOLLA 2232",
    "locID": "LOC000025992843",
    "tech": "SATELLITE",
    "upgrade": "NULL_NA",
    "gnaf_pid": "GANSW721047213",
    "tech_change_status": "Not Planned"
   }
  }
 ]
}