{
 "type": "FeatureCollection",
 "generated": "2026-04-23T07:07:58.608324",
 "suburb": "WOKO",
 "features": [
  {
   "type": "Feature",
   "geometry": {
    "type": "Point",
    "coordinates": [
     151.86648882,
     -31.82981476
    ]
   },
   "properties": {
    "name": "130 WOKO ROAD WOKO 2422",
    "locID": "LOC000099767141",
    "tech": "SATELLITE",
    "upgrade": "NULL_NA",
    "gnaf_pid": "GANSW706322495",
    "tech_change_status": "Not Planned"
   }
  },
  {
   "type": "Feature",
   "geometry": {
    "type": "Point",
    "coordinates": [
     151.86212828,
     -31.83055084
    ]
   },
   "properties": {
    "name": "260 WOKO ROAD WOKO 2422",
    "locID": "LOC000187517946",
    "tech": "NULL",
    "upgrade": "NULL_NA",
    "gnaf_pid": "GANSW706539744",
    "tech_change_status": "Not Planned"
   }
  }
 ]
}