{
 "type": "FeatureCollection",
 "generated": "2025-01-28T01:09:58.040980",
 "suburb": "WYLIE CREEK",
 "features": [
  {
   "type": "Feature",
   "geometry": {
    "type": "Point",
    "coordinates": [
     152.13162994,
     -28.5667036
    ]
   },
   "properties": {
    "name": "6066 MOUNT LINDESAY ROAD WYLIE CREEK 2372",
    "locID": "LOC000031325974",
    "tech": "NULL",
    "upgrade": "NULL_NA",
    "gnaf_pid": "GANSW717167652",
    "tech_change_status": "Not Planned"
   }
  },
  {
   "type": "Feature",
   "geometry": {
    "type": "Point",
    "coordinates": [
     152.15721941,
     -28.55293068
    ]
   },
   "properties": {
    "name": "133 FAGGS ROAD WYLIE CREEK 2372",
    "locID": "LOC000106810057",
    "tech": "SATELLITE",
    "upgrade": "NULL_NA",
    "gnaf_pid": "GANSW717476275",
    "tech_change_status": "Not Planned"
   }
  },
  {
   "type": "Feature",
   "geometry": {
    "type": "Point",
    "coordinates": [
     152.17393269,
     -28.54689111
    ]
   },
   "properties": {
    "name": "145 FAGGS ROAD WYLIE CREEK 2372",
    "locID": "LOC000087919763",
    "tech": "NULL",
    "upgrade": "NULL_NA",
    "gnaf_pid": "GANSW717476276",
    "tech_change_status": "Not Planned"
   }
  },
  {
   "type": "Feature",
   "geometry": {
    "type": "Point",
    "coordinates": [
     152.16233113,
     -28.57159445
    ]
   },
   "properties": {
    "name": "226 FAGGS ROAD WYLIE CREEK 2372",
    "locID": "LOC000062977349",
    "tech": "NULL",
    "upgrade": "NULL_NA",
    "gnaf_pid": "GANSW717476277",
    "tech_change_status": "Not Planned"
   }
  },
  {
   "type": "Feature",
   "geometry": {
    "type": "Point",
    "coordinates": [
     152.18051758,
     -28.55886286
    ]
   },
   "properties": {
    "name": "305 FAGGS ROAD WYLIE CREEK 2372",
    "locID": "LOC000063145414",
    "tech": "SATELLITE",
    "upgrade": "NULL_NA",
    "gnaf_pid": "GANSW717476278",
    "tech_change_status": "Not Planned"
   }
  },
  {
   "type": "Feature",
   "geometry": {
    "type": "Point",
    "coordinates": [
     152.19184541,
     -28.53294083
    ]
   },
   "properties": {
    "name": "360 OVERCLIFFE ROAD WYLIE CREEK 2372",
    "locID": "LOC000057257178",
    "tech": "NULL",
    "upgrade": "NULL_NA",
    "gnaf_pid": "GANSW717481820",
    "tech_change_status": "Not Planned"
   }
  },
  {
   "type": "Feature",
   "geometry": {
    "type": "Point",
    "coordinates": [
     152.12380109,
     -28.55714717
    ]
   },
   "properties": {
    "name": "6289 MOUNT LINDESAY ROAD WYLIE CREEK 2372",
    "locID": "LOC000005984156",
    "tech": "NULL",
    "upgrade": "NULL_NA",
    "gnaf_pid": "GANSW718055867",
    "tech_change_status": "Not Planned"
   }
  },
  {
   "type": "Feature",
   "geometry": {
    "type": "Point",
    "coordinates": [
     152.14190454,
     -28.55436066
    ]
   },
   "properties": {
    "name": "6360 MOUNT LINDESAY ROAD WYLIE CREEK 2372",
    "locID": "LOC000177492809",
    "tech": "SATELLITE",
    "upgrade": "NULL_NA",
    "gnaf_pid": "GANSW720429776",
    "tech_change_status": "Not Planned"
   }
  },
  {
   "type": "Feature",
   "geometry": {
    "type": "Point",
    "coordinates": [
     152.11330587,
     -28.56911106
    ]
   },
   "properties": {
    "name": "6065 MOUNT LINDESAY ROAD WYLIE CREEK 2372",
    "locID": "LOC100077054151",
    "tech": "SATELLITE",
    "upgrade": "NULL_NA",
    "gnaf_pid": "GANSW720528561",
    "tech_change_status": "Not Planned"
   }
  }
 ]
}