{
 "type": "FeatureCollection",
 "generated": "2026-06-27T15:51:27.100602",
 "suburb": "YULLUNDRY",
 "features": [
  {
   "type": "Feature",
   "geometry": {
    "type": "Point",
    "coordinates": [
     148.67749057,
     -32.86459577
    ]
   },
   "properties": {
    "name": "395 OLD YULLUNDRY ROAD YULLUNDRY 2867",
    "locID": "LOC000142532571",
    "tech": "WIRELESS",
    "upgrade": "NULL_NA",
    "gnaf_pid": "GANSW716637699",
    "tech_change_status": "Not Planned",
    "program_type": "Fixed Wireless and Satellite Upgrade Program",
    "target_eligibility_quarter": "NA"
   }
  },
  {
   "type": "Feature",
   "geometry": {
    "type": "Point",
    "coordinates": [
     148.63975041,
     -32.86831897
    ]
   },
   "properties": {
    "name": "804 OLD YULLUNDRY ROAD YULLUNDRY 2867",
    "locID": "LOC000076953450",
    "tech": "WIRELESS",
    "upgrade": "NULL_NA",
    "gnaf_pid": "GANSW716637700",
    "tech_change_status": "Not Planned",
    "program_type": "Fixed Wireless and Satellite Upgrade Program",
    "target_eligibility_quarter": "NA"
   }
  },
  {
   "type": "Feature",
   "geometry": {
    "type": "Point",
    "coordinates": [
     148.68253462,
     -32.85652193
    ]
   },
   "properties": {
    "name": "79 OLD YULLUNDRY ROAD YULLUNDRY 2867",
    "locID": "LOC000148841339",
    "tech": "WIRELESS",
    "upgrade": "NULL_NA",
    "gnaf_pid": "GANSW716759651",
    "tech_change_status": "Not Planned",
    "program_type": "Fixed Wireless and Satellite Upgrade Program",
    "target_eligibility_quarter": "NA"
   }
  },
  {
   "type": "Feature",
   "geometry": {
    "type": "Point",
    "coordinates": [
     148.68253462,
     -32.85652193
    ]
   },
   "properties": {
    "name": "39 OLD YULLUNDRY ROAD YULLUNDRY 2867",
    "locID": "LOC000142532571",
    "tech": "WIRELESS",
    "upgrade": "NULL_NA",
    "gnaf_pid": "GANSW717380204",
    "tech_change_status": "Not Planned",
    "program_type": "Fixed Wireless and Satellite Upgrade Program",
    "target_eligibility_quarter": "NA"
   }
  },
  {
   "type": "Feature",
   "geometry": {
    "type": "Point",
    "coordinates": [
     148.71581268,
     -32.85462512
    ]
   },
   "properties": {
    "name": "3191 BANJO PATERSON WAY YULLUNDRY 2867",
    "locID": "LOC000061587739",
    "tech": "WIRELESS",
    "upgrade": "NULL_NA",
    "gnaf_pid": "GANSW717460020",
    "tech_change_status": "Not Planned",
    "program_type": "Fixed Wireless and Satellite Upgrade Program",
    "target_eligibility_quarter": "NA"
   }
  },
  {
   "type": "Feature",
   "geometry": {
    "type": "Point",
    "coordinates": [
     148.71611314,
     -32.84586724
    ]
   },
   "properties": {
    "name": "3252 BANJO PATERSON WAY YULLUNDRY 2867",
    "locID": "LOC000056054351",
    "tech": "SATELLITE",
    "upgrade": "NULL_NA",
    "gnaf_pid": "GANSW717460021",
    "tech_change_status": "Not Planned"
   }
  },
  {
   "type": "Feature",
   "geometry": {
    "type": "Point",
    "coordinates": [
     148.7014812,
     -32.8317962
    ]
   },
   "properties": {
    "name": "3461 BANJO PATERSON WAY YULLUNDRY 2867",
    "locID": "LOC000068883553",
    "tech": "WIRELESS",
    "upgrade": "NULL_NA",
    "gnaf_pid": "GANSW717460022",
    "tech_change_status": "Not Planned",
    "program_type": "Fixed Wireless and Satellite Upgrade Program",
    "target_eligibility_quarter": "NA"
   }
  },
  {
   "type": "Feature",
   "geometry": {
    "type": "Point",
    "coordinates": [
     148.72136954,
     -32.85033228
    ]
   },
   "properties": {
    "name": "3040 BANJO PATERSON WAY YULLUNDRY 2867",
    "locID": "LOC000148080185",
    "tech": "SATELLITE",
    "upgrade": "NULL_NA",
    "gnaf_pid": "GANSW718490002",
    "tech_change_status": "Not Planned"
   }
  }
 ]
}