{
 "type": "FeatureCollection",
 "generated": "2024-11-14T11:23:55.273654",
 "suburb": "BRIDGENORTH",
 "features": [
  {
   "type": "Feature",
   "geometry": {
    "type": "Point",
    "coordinates": [
     146.94291076,
     -41.39166724
    ]
   },
   "properties": {
    "name": "1024 BRIDGENORTH ROAD BRIDGENORTH 7277",
    "locID": "LOC000098895437",
    "tech": "WIRELESS",
    "upgrade": "NULL_NA",
    "gnaf_pid": "GATAS702202470",
    "tech_change_status": "Not Planned",
    "program_type": "Fixed Wireless and Satellite Upgrade Program",
    "target_eligibility_quarter": "NA"
   }
  },
  {
   "type": "Feature",
   "geometry": {
    "type": "Point",
    "coordinates": [
     146.99612272,
     -41.38027978
    ]
   },
   "properties": {
    "name": "496 BRIDGENORTH ROAD BRIDGENORTH 7277",
    "locID": "LOC000100200053",
    "tech": "WIRELESS",
    "upgrade": "NULL_NA",
    "gnaf_pid": "GATAS702202471",
    "tech_change_status": "Not Planned",
    "program_type": "Fixed Wireless and Satellite Upgrade Program",
    "target_eligibility_quarter": "NA"
   }
  },
  {
   "type": "Feature",
   "geometry": {
    "type": "Point",
    "coordinates": [
     146.94081949,
     -41.3945763
    ]
   },
   "properties": {
    "name": "1063 BRIDGENORTH ROAD BRIDGENORTH 7277",
    "locID": "LOC000085456695",
    "tech": "WIRELESS",
    "upgrade": "NULL_NA",
    "gnaf_pid": "GATAS702202474",
    "tech_change_status": "Not Planned",
    "program_type": "Fixed Wireless and Satellite Upgrade Program",
    "target_eligibility_quarter": "NA"
   }
  },
  {
   "type": "Feature",
   "geometry": {
    "type": "Point",
    "coordinates": [
     146.99705979,
     -41.3797133
    ]
   },
   "properties": {
    "name": "486 BRIDGENORTH ROAD BRIDGENORTH 7277",
    "locID": "LOC000102239409",
    "tech": "WIRELESS",
    "upgrade": "NULL_NA",
    "gnaf_pid": "GATAS702202477",
    "tech_change_status": "Not Planned",
    "program_type": "Fixed Wireless and Satellite Upgrade Program",
    "target_eligibility_quarter": "NA"
   }
  },
  {
   "type": "Feature",
   "geometry": {
    "type": "Point",
    "coordinates": [
     146.99764792,
     -41.38080157
    ]
   },
   "properties": {
    "name": "487 BRIDGENORTH ROAD BRIDGENORTH 7277",
    "locID": "LOC000072153735",
    "tech": "WIRELESS",
    "upgrade": "NULL_NA",
    "gnaf_pid": "GATAS702202481",
    "tech_change_status": "Not Planned",
    "program_type": "Fixed Wireless and Satellite Upgrade Program",
    "target_eligibility_quarter": "NA"
   }
  },
  {
   "type": "Feature",
   "geometry": {
    "type": "Point",
    "coordinates": [
     146.9459605,
     -41.39297617
    ]
   },
   "properties": {
    "name": "1023 BRIDGENORTH ROAD BRIDGENORTH 7277",
    "locID": "LOC000142945971",
    "tech": "WIRELESS",
    "upgrade": "NULL_NA",
    "gnaf_pid": "GATAS702202548",
    "tech_change_status": "Not Planned",
    "program_type": "Fixed Wireless and Satellite Upgrade Program",
    "target_eligibility_quarter": "NA"
   }
  },
  {
   "type": "Feature",
   "geometry": {
    "type": "Point",
    "coordinates": [
     146.93719253,
     -41.4024461
    ]
   },
   "properties": {
    "name": "1157 BRIDGENORTH ROAD BRIDGENORTH 7277",
    "locID": "LOC000004258903",
    "tech": "WIRELESS",
    "upgrade": "NULL_NA",
    "gnaf_pid": "GATAS702202550",
    "tech_change_status": "Not Planned",
    "program_type": "Fixed Wireless and Satellite Upgrade Program",
    "target_eligibility_quarter": "NA"
   }
  },
  {
   "type": "Feature",
   "geometry": {
    "type": "Point",
    "coordinates": [
     147.00116389,
     -41.37587889
    ]
   },
   "properties": {
    "name": "452 BRIDGENORTH ROAD BRIDGENORTH 7277",
    "locID": "LOC000049051778",
    "tech": "WIRELESS",
    "upgrade": "NULL_NA",
    "gnaf_pid": "GATAS702202554",
    "tech_change_status": "Not Planned",
    "program_type": "Fixed Wireless and Satellite Upgrade Program",
    "target_eligibility_quarter": "NA"
   }
  },
  {
   "type": "Feature",
   "geometry": {
    "type": "Point",
    "coordinates": [
     146.93293082,
     -41.39627341
    ]
   },
   "properties": {
    "name": "1158 BRIDGENORTH ROAD BRIDGENORTH 7277",
    "locID": "LOC000052900221",
    "tech": "WIRELESS",
    "upgrade": "NULL_NA",
    "gnaf_pid": "GATAS702202556",
    "tech_change_status": "Not Planned",
    "program_type": "Fixed Wireless and Satellite Upgrade Program",
    "target_eligibility_quarter": "NA"
   }
  },
  {
   "type": "Feature",
   "geometry": {
    "type": "Point",
    "coordinates": [
     146.96491789,
     -41.37962969
    ]
   },
   "properties": {
    "name": "780 BRIDGENORTH ROAD BRIDGENORTH 7277",
    "locID": "LOC000047525516",
    "tech": "NULL",
    "upgrade": "NULL_NA",
    "gnaf_pid": "GATAS702202557",
    "tech_change_status": "Not Planned"
   }
  },
  {
   "type": "Feature",
   "geometry": {
    "type": "Point",
    "coordinates": [
     146.97276577,
     -41.38298324
    ]
   },
   "properties": {
    "name": "727 BRIDGENORTH ROAD BRIDGENORTH 7277",
    "locID": "LOC000033427219",
    "tech": "WIRELESS",
    "upgrade": "NULL_NA",
    "gnaf_pid": "GATAS702202563",
    "tech_change_status": "Not Planned",
    "program_type": "Fixed Wireless and Satellite Upgrade Program",
    "target_eligibility_quarter": "NA"
   }
  },
  {
   "type": "Feature",
   "geometry": {
    "type": "Point",
    "coordinates": [
     146.94683837,
     -41.38332716
    ]
   },
   "properties": {
    "name": "908 BRIDGENORTH ROAD BRIDGENORTH 7277",
    "locID": "LOC000103319044",
    "tech": "WIRELESS",
    "upgrade": "NULL_NA",
    "gnaf_pid": "GATAS702202564",
    "tech_change_status": "Not Planned",
    "program_type": "Fixed Wireless and Satellite Upgrade Program",
    "target_eligibility_quarter": "NA"
   }
  },
  {
   "type": "Feature",
   "geometry": {
    "type": "Point",
    "coordinates": [
     146.94881254,
     -41.38724743
    ]
   },
   "properties": {
    "name": "964 BRIDGENORTH ROAD BRIDGENORTH 7277",
    "locID": "LOC000026845306",
    "tech": "WIRELESS",
    "upgrade": "NULL_NA",
    "gnaf_pid": "GATAS702202567",
    "tech_change_status": "Not Planned",
    "program_type": "Fixed Wireless and Satellite Upgrade Program",
    "target_eligibility_quarter": "NA"
   }
  },
  {
   "type": "Feature",
   "geometry": {
    "type": "Point",
    "coordinates": [
     146.99182079,
     -41.38047425
    ]
   },
   "properties": {
    "name": "534 BRIDGENORTH ROAD BRIDGENORTH 7277",
    "locID": "LOC000039531737",
    "tech": "WIRELESS",
    "upgrade": "NULL_NA",
    "gnaf_pid": "GATAS702202625",
    "tech_change_status": "Not Planned",
    "program_type": "Fixed Wireless and Satellite Upgrade Program",
    "target_eligibility_quarter": "NA"
   }
  },
  {
   "type": "Feature",
   "geometry": {
    "type": "Point",
    "coordinates": [
     146.99336293,
     -41.38010565
    ]
   },
   "properties": {
    "name": "510 BRIDGENORTH ROAD BRIDGENORTH 7277",
    "locID": "LOC000040681875",
    "tech": "WIRELESS",
    "upgrade": "NULL_NA",
    "gnaf_pid": "GATAS702202626",
    "tech_change_status": "Not Planned",
    "program_type": "Fixed Wireless and Satellite Upgrade Program",
    "target_eligibility_quarter": "NA"
   }
  },
  {
   "type": "Feature",
   "geometry": {
    "type": "Point",
    "coordinates": [
     146.95414137,
     -41.38424487
    ]
   },
   "properties": {
    "name": "897 BRIDGENORTH ROAD BRIDGENORTH 7277",
    "locID": "LOC000093145798",
    "tech": "WIRELESS",
    "upgrade": "NULL_NA",
    "gnaf_pid": "GATAS702202627",
    "tech_change_status": "Not Planned",
    "program_type": "Fixed Wireless and Satellite Upgrade Program",
    "target_eligibility_quarter": "NA"
   }
  },
  {
   "type": "Feature",
   "geometry": {
    "type": "Point",
    "coordinates": [
     147.00507114,
     -41.38428752
    ]
   },
   "properties": {
    "name": "437 BRIDGENORTH ROAD BRIDGENORTH 7277",
    "locID": "LOC000068110831",
    "tech": "WIRELESS",
    "upgrade": "NULL_NA",
    "gnaf_pid": "GATAS702202746",
    "tech_change_status": "Not Planned",
    "program_type": "Fixed Wireless and Satellite Upgrade Program",
    "target_eligibility_quarter": "NA"
   }
  },
  {
   "type": "Feature",
   "geometry": {
    "type": "Point",
    "coordinates": [
     146.94547768,
     -41.39787739
    ]
   },
   "properties": {
    "name": "1089 BRIDGENORTH ROAD BRIDGENORTH 7277",
    "locID": "LOC000021750140",
    "tech": "WIRELESS",
    "upgrade": "NULL_NA",
    "gnaf_pid": "GATAS702202747",
    "tech_change_status": "Not Planned",
    "program_type": "Fixed Wireless and Satellite Upgrade Program",
    "target_eligibility_quarter": "NA"
   }
  },
  {
   "type": "Feature",
   "geometry": {
    "type": "Point",
    "coordinates": [
     146.93826318,
     -41.38984102
    ]
   },
   "properties": {
    "name": "1040 BRIDGENORTH ROAD BRIDGENORTH 7277",
    "locID": "LOC000040825199",
    "tech": "WIRELESS",
    "upgrade": "NULL_NA",
    "gnaf_pid": "GATAS702202750",
    "tech_change_status": "Not Planned",
    "program_type": "Fixed Wireless and Satellite Upgrade Program",
    "target_eligibility_quarter": "NA"
   }
  },
  {
   "type": "Feature",
   "geometry": {
    "type": "Point",
    "coordinates": [
     146.96026512,
     -41.38202842
    ]
   },
   "properties": {
    "name": "823 BRIDGENORTH ROAD BRIDGENORTH 7277",
    "locID": "LOC000037993355",
    "tech": "WIRELESS",
    "upgrade": "NULL_NA",
    "gnaf_pid": "GATAS702203728",
    "tech_change_status": "Not Planned",
    "program_type": "Fixed Wireless and Satellite Upgrade Program",
    "target_eligibility_quarter": "NA"
   }
  },
  {
   "type": "Feature",
   "geometry": {
    "type": "Point",
    "coordinates": [
     146.99936982,
     -41.3791278
    ]
   },
   "properties": {
    "name": "462 BRIDGENORTH ROAD BRIDGENORTH 7277",
    "locID": "LOC000069876024",
    "tech": "WIRELESS",
    "upgrade": "NULL_NA",
    "gnaf_pid": "GATAS702205899",
    "tech_change_status": "Not Planned",
    "program_type": "Fixed Wireless and Satellite Upgrade Program",
    "target_eligibility_quarter": "NA"
   }
  },
  {
   "type": "Feature",
   "geometry": {
    "type": "Point",
    "coordinates": [
     146.94843137,
     -41.38914846
    ]
   },
   "properties": {
    "name": "963 BRIDGENORTH ROAD BRIDGENORTH 7277",
    "locID": "LOC000093892922",
    "tech": "WIRELESS",
    "upgrade": "NULL_NA",
    "gnaf_pid": "GATAS702206048",
    "tech_change_status": "Not Planned",
    "program_type": "Fixed Wireless and Satellite Upgrade Program",
    "target_eligibility_quarter": "NA"
   }
  },
  {
   "type": "Feature",
   "geometry": {
    "type": "Point",
    "coordinates": [
     146.99616515,
     -41.37919146
    ]
   },
   "properties": {
    "name": "488 BRIDGENORTH ROAD BRIDGENORTH 7277",
    "locID": "LOC000179632641",
    "tech": "WIRELESS",
    "upgrade": "NULL_NA",
    "gnaf_pid": "GATAS702206053",
    "tech_change_status": "Not Planned",
    "program_type": "Fixed Wireless and Satellite Upgrade Program",
    "target_eligibility_quarter": "NA"
   }
  },
  {
   "type": "Feature",
   "geometry": {
    "type": "Point",
    "coordinates": [
     146.96308877,
     -41.38262585
    ]
   },
   "properties": {
    "name": "809 BRIDGENORTH ROAD BRIDGENORTH 7277",
    "locID": "LOC000012585640",
    "tech": "WIRELESS",
    "upgrade": "NULL_NA",
    "gnaf_pid": "GATAS702206055",
    "tech_change_status": "Not Planned",
    "program_type": "Fixed Wireless and Satellite Upgrade Program",
    "target_eligibility_quarter": "NA"
   }
  },
  {
   "type": "Feature",
   "geometry": {
    "type": "Point",
    "coordinates": [
     146.95961104,
     -41.37999115
    ]
   },
   "properties": {
    "name": "832 BRIDGENORTH ROAD BRIDGENORTH 7277",
    "locID": "LOC000058143708",
    "tech": "WIRELESS",
    "upgrade": "NULL_NA",
    "gnaf_pid": "GATAS702206056",
    "tech_change_status": "Not Planned",
    "program_type": "Fixed Wireless and Satellite Upgrade Program",
    "target_eligibility_quarter": "NA"
   }
  },
  {
   "type": "Feature",
   "geometry": {
    "type": "Point",
    "coordinates": [
     146.96473044,
     -41.38222069
    ]
   },
   "properties": {
    "name": "805 BRIDGENORTH ROAD BRIDGENORTH 7277",
    "locID": "LOC000045320607",
    "tech": "WIRELESS",
    "upgrade": "NULL_NA",
    "gnaf_pid": "GATAS702206057",
    "tech_change_status": "Not Planned",
    "program_type": "Fixed Wireless and Satellite Upgrade Program",
    "target_eligibility_quarter": "NA"
   }
  },
  {
   "type": "Feature",
   "geometry": {
    "type": "Point",
    "coordinates": [
     146.96662155,
     -41.38147566
    ]
   },
   "properties": {
    "name": "797 BRIDGENORTH ROAD BRIDGENORTH 7277",
    "locID": "LOC000093698380",
    "tech": "WIRELESS",
    "upgrade": "NULL_NA",
    "gnaf_pid": "GATAS702206060",
    "tech_change_status": "Not Planned",
    "program_type": "Fixed Wireless and Satellite Upgrade Program",
    "target_eligibility_quarter": "NA"
   }
  },
  {
   "type": "Feature",
   "geometry": {
    "type": "Point",
    "coordinates": [
     146.98358383,
     -41.38051864
    ]
   },
   "properties": {
    "name": "629 BRIDGENORTH ROAD BRIDGENORTH 7277",
    "locID": "LOC000002727726",
    "tech": "WIRELESS",
    "upgrade": "NULL_NA",
    "gnaf_pid": "GATAS702206061",
    "tech_change_status": "Not Planned",
    "program_type": "Fixed Wireless and Satellite Upgrade Program",
    "target_eligibility_quarter": "NA"
   }
  },
  {
   "type": "Feature",
   "geometry": {
    "type": "Point",
    "coordinates": [
     146.96733434,
     -41.37843999
    ]
   },
   "properties": {
    "name": "754 BRIDGENORTH ROAD BRIDGENORTH 7277",
    "locID": "LOC000046888188",
    "tech": "WIRELESS",
    "upgrade": "NULL_NA",
    "gnaf_pid": "GATAS702206064",
    "tech_change_status": "Not Planned",
    "program_type": "Fixed Wireless and Satellite Upgrade Program",
    "target_eligibility_quarter": "NA"
   }
  },
  {
   "type": "Feature",
   "geometry": {
    "type": "Point",
    "coordinates": [
     146.95747099,
     -41.38245761
    ]
   },
   "properties": {
    "name": "845 BRIDGENORTH ROAD BRIDGENORTH 7277",
    "locID": "LOC000071727789",
    "tech": "WIRELESS",
    "upgrade": "NULL_NA",
    "gnaf_pid": "GATAS702206066",
    "tech_change_status": "Not Planned",
    "program_type": "Fixed Wireless and Satellite Upgrade Program",
    "target_eligibility_quarter": "NA"
   }
  },
  {
   "type": "Feature",
   "geometry": {
    "type": "Point",
    "coordinates": [
     146.95536247,
     -41.3834411
    ]
   },
   "properties": {
    "name": "883 BRIDGENORTH ROAD BRIDGENORTH 7277",
    "locID": "LOC000006249809",
    "tech": "WIRELESS",
    "upgrade": "NULL_NA",
    "gnaf_pid": "GATAS702207198",
    "tech_change_status": "Not Planned",
    "program_type": "Fixed Wireless and Satellite Upgrade Program",
    "target_eligibility_quarter": "NA"
   }
  },
  {
   "type": "Feature",
   "geometry": {
    "type": "Point",
    "coordinates": [
     146.96902864,
     -41.37978689
    ]
   },
   "properties": {
    "name": "753 BRIDGENORTH ROAD BRIDGENORTH 7277",
    "locID": "LOC000007602039",
    "tech": "WIRELESS",
    "upgrade": "NULL_NA",
    "gnaf_pid": "GATAS702207342",
    "tech_change_status": "Not Planned",
    "program_type": "Fixed Wireless and Satellite Upgrade Program",
    "target_eligibility_quarter": "NA"
   }
  },
  {
   "type": "Feature",
   "geometry": {
    "type": "Point",
    "coordinates": [
     146.99134975,
     -41.38203215
    ]
   },
   "properties": {
    "name": "551 BRIDGENORTH ROAD BRIDGENORTH 7277",
    "locID": "LOC000029231396",
    "tech": "WIRELESS",
    "upgrade": "NULL_NA",
    "gnaf_pid": "GATAS702207370",
    "tech_change_status": "Not Planned",
    "program_type": "Fixed Wireless and Satellite Upgrade Program",
    "target_eligibility_quarter": "NA"
   }
  },
  {
   "type": "Feature",
   "geometry": {
    "type": "Point",
    "coordinates": [
     146.95588257,
     -41.36505583
    ]
   },
   "properties": {
    "name": "30 CAREYS ROAD BRIDGENORTH 7277",
    "locID": "LOC000032454298",
    "tech": "WIRELESS",
    "upgrade": "NULL_NA",
    "gnaf_pid": "GATAS702208202",
    "tech_change_status": "Not Planned",
    "program_type": "Fixed Wireless and Satellite Upgrade Program",
    "target_eligibility_quarter": "NA"
   }
  },
  {
   "type": "Feature",
   "geometry": {
    "type": "Point",
    "coordinates": [
     146.96008514,
     -41.36584132
    ]
   },
   "properties": {
    "name": "29 CAREYS ROAD BRIDGENORTH 7277",
    "locID": "LOC000073960451",
    "tech": "WIRELESS",
    "upgrade": "NULL_NA",
    "gnaf_pid": "GATAS702208206",
    "tech_change_status": "Not Planned",
    "program_type": "Fixed Wireless and Satellite Upgrade Program",
    "target_eligibility_quarter": "NA"
   }
  },
  {
   "type": "Feature",
   "geometry": {
    "type": "Point",
    "coordinates": [
     146.96116989,
     -41.36316016
    ]
   },
   "properties": {
    "name": "28 CAREYS ROAD BRIDGENORTH 7277",
    "locID": "LOC000004250044",
    "tech": "WIRELESS",
    "upgrade": "NULL_NA",
    "gnaf_pid": "GATAS702210084",
    "tech_change_status": "Not Planned",
    "program_type": "Fixed Wireless and Satellite Upgrade Program",
    "target_eligibility_quarter": "NA"
   }
  },
  {
   "type": "Feature",
   "geometry": {
    "type": "Point",
    "coordinates": [
     146.94211598,
     -41.36486463
    ]
   },
   "properties": {
    "name": "109 JENNYFIELD ROAD BRIDGENORTH 7277",
    "locID": "LOC000004181933",
    "tech": "WIRELESS",
    "upgrade": "NULL_NA",
    "gnaf_pid": "GATAS702278046",
    "tech_change_status": "Not Planned",
    "program_type": "Fixed Wireless and Satellite Upgrade Program",
    "target_eligibility_quarter": "NA"
   }
  },
  {
   "type": "Feature",
   "geometry": {
    "type": "Point",
    "coordinates": [
     146.97290247,
     -41.37687333
    ]
   },
   "properties": {
    "name": "808 LONG PLAINS ROAD BRIDGENORTH 7277",
    "locID": "LOC000001868112",
    "tech": "WIRELESS",
    "upgrade": "NULL_NA",
    "gnaf_pid": "GATAS702279503",
    "tech_change_status": "Not Planned",
    "program_type": "Fixed Wireless and Satellite Upgrade Program",
    "target_eligibility_quarter": "NA"
   }
  },
  {
   "type": "Feature",
   "geometry": {
    "type": "Point",
    "coordinates": [
     146.95078206,
     -41.33814683
    ]
   },
   "properties": {
    "name": "327 LONG PLAINS ROAD BRIDGENORTH 7277",
    "locID": "LOC000056562954",
    "tech": "WIRELESS",
    "upgrade": "NULL_NA",
    "gnaf_pid": "GATAS702279504",
    "tech_change_status": "Not Planned",
    "program_type": "Fixed Wireless and Satellite Upgrade Program",
    "target_eligibility_quarter": "NA"
   }
  },
  {
   "type": "Feature",
   "geometry": {
    "type": "Point",
    "coordinates": [
     146.96618689,
     -41.3647355
    ]
   },
   "properties": {
    "name": "657 LONG PLAINS ROAD BRIDGENORTH 7277",
    "locID": "LOC000059460405",
    "tech": "WIRELESS",
    "upgrade": "NULL_NA",
    "gnaf_pid": "GATAS702279507",
    "tech_change_status": "Not Planned",
    "program_type": "Fixed Wireless and Satellite Upgrade Program",
    "target_eligibility_quarter": "NA"
   }
  },
  {
   "type": "Feature",
   "geometry": {
    "type": "Point",
    "coordinates": [
     146.96346237,
     -41.36377864
    ]
   },
   "properties": {
    "name": "644 LONG PLAINS ROAD BRIDGENORTH 7277",
    "locID": "LOC000104514897",
    "tech": "WIRELESS",
    "upgrade": "NULL_NA",
    "gnaf_pid": "GATAS702279509",
    "tech_change_status": "Not Planned",
    "program_type": "Fixed Wireless and Satellite Upgrade Program",
    "target_eligibility_quarter": "NA"
   }
  },
  {
   "type": "Feature",
   "geometry": {
    "type": "Point",
    "coordinates": [
     146.96813222,
     -41.36864864
    ]
   },
   "properties": {
    "name": "699 LONG PLAINS ROAD BRIDGENORTH 7277",
    "locID": "LOC000059938635",
    "tech": "WIRELESS",
    "upgrade": "NULL_NA",
    "gnaf_pid": "GATAS702279510",
    "tech_change_status": "Not Planned",
    "program_type": "Fixed Wireless and Satellite Upgrade Program",
    "target_eligibility_quarter": "NA"
   }
  },
  {
   "type": "Feature",
   "geometry": {
    "type": "Point",
    "coordinates": [
     146.95475174,
     -41.35526676
    ]
   },
   "properties": {
    "name": "518 LONG PLAINS ROAD BRIDGENORTH 7277",
    "locID": "LOC000073942860",
    "tech": "WIRELESS",
    "upgrade": "NULL_NA",
    "gnaf_pid": "GATAS702279511",
    "tech_change_status": "Not Planned",
    "program_type": "Fixed Wireless and Satellite Upgrade Program",
    "target_eligibility_quarter": "NA"
   }
  },
  {
   "type": "Feature",
   "geometry": {
    "type": "Point",
    "coordinates": [
     146.95549701,
     -41.35261339
    ]
   },
   "properties": {
    "name": "495 LONG PLAINS ROAD BRIDGENORTH 7277",
    "locID": "LOC000017094943",
    "tech": "WIRELESS",
    "upgrade": "NULL_NA",
    "gnaf_pid": "GATAS702279512",
    "tech_change_status": "Not Planned",
    "program_type": "Fixed Wireless and Satellite Upgrade Program",
    "target_eligibility_quarter": "NA"
   }
  },
  {
   "type": "Feature",
   "geometry": {
    "type": "Point",
    "coordinates": [
     146.94840324,
     -41.33733734
    ]
   },
   "properties": {
    "name": "298 LONG PLAINS ROAD BRIDGENORTH 7277",
    "locID": "LOC000053218275",
    "tech": "WIRELESS",
    "upgrade": "NULL_NA",
    "gnaf_pid": "GATAS702279514",
    "tech_change_status": "Not Planned",
    "program_type": "Fixed Wireless and Satellite Upgrade Program",
    "target_eligibility_quarter": "NA"
   }
  },
  {
   "type": "Feature",
   "geometry": {
    "type": "Point",
    "coordinates": [
     146.96764532,
     -41.36551652
    ]
   },
   "properties": {
    "name": "671 LONG PLAINS ROAD BRIDGENORTH 7277",
    "locID": "LOC000072098849",
    "tech": "WIRELESS",
    "upgrade": "NULL_NA",
    "gnaf_pid": "GATAS702279515",
    "tech_change_status": "Not Planned",
    "program_type": "Fixed Wireless and Satellite Upgrade Program",
    "target_eligibility_quarter": "NA"
   }
  },
  {
   "type": "Feature",
   "geometry": {
    "type": "Point",
    "coordinates": [
     146.95212792,
     -41.34596328
    ]
   },
   "properties": {
    "name": "400 LONG PLAINS ROAD BRIDGENORTH 7277",
    "locID": "LOC000026738633",
    "tech": "WIRELESS",
    "upgrade": "NULL_NA",
    "gnaf_pid": "GATAS702279517",
    "tech_change_status": "Not Planned",
    "program_type": "Fixed Wireless and Satellite Upgrade Program",
    "target_eligibility_quarter": "NA"
   }
  },
  {
   "type": "Feature",
   "geometry": {
    "type": "Point",
    "coordinates": [
     146.9514645,
     -41.34743939
    ]
   },
   "properties": {
    "name": "456 LONG PLAINS ROAD BRIDGENORTH 7277",
    "locID": "LOC000079540854",
    "tech": "WIRELESS",
    "upgrade": "NULL_NA",
    "gnaf_pid": "GATAS702280339",
    "tech_change_status": "Not Planned",
    "program_type": "Fixed Wireless and Satellite Upgrade Program",
    "target_eligibility_quarter": "NA"
   }
  },
  {
   "type": "Feature",
   "geometry": {
    "type": "Point",
    "coordinates": [
     146.96556023,
     -41.3692968
    ]
   },
   "properties": {
    "name": "700 LONG PLAINS ROAD BRIDGENORTH 7277",
    "locID": "LOC000044619984",
    "tech": "WIRELESS",
    "upgrade": "NULL_NA",
    "gnaf_pid": "GATAS702280341",
    "tech_change_status": "Not Planned",
    "program_type": "Fixed Wireless and Satellite Upgrade Program",
    "target_eligibility_quarter": "NA"
   }
  },
  {
   "type": "Feature",
   "geometry": {
    "type": "Point",
    "coordinates": [
     146.99806055,
     -41.37920328
    ]
   },
   "properties": {
    "name": "2 MANEYS ROAD BRIDGENORTH 7277",
    "locID": "LOC000027664366",
    "tech": "WIRELESS",
    "upgrade": "NULL_NA",
    "gnaf_pid": "GATAS702284462",
    "tech_change_status": "Not Planned",
    "program_type": "Fixed Wireless and Satellite Upgrade Program",
    "target_eligibility_quarter": "NA"
   }
  },
  {
   "type": "Feature",
   "geometry": {
    "type": "Point",
    "coordinates": [
     146.99004776,
     -41.3766274
    ]
   },
   "properties": {
    "name": "73 MANEYS ROAD BRIDGENORTH 7277",
    "locID": "LOC000017037706",
    "tech": "WIRELESS",
    "upgrade": "NULL_NA",
    "gnaf_pid": "GATAS702284463",
    "tech_change_status": "Not Planned",
    "program_type": "Fixed Wireless and Satellite Upgrade Program",
    "target_eligibility_quarter": "NA"
   }
  },
  {
   "type": "Feature",
   "geometry": {
    "type": "Point",
    "coordinates": [
     146.99713699,
     -41.37623116
    ]
   },
   "properties": {
    "name": "26 MANEYS ROAD BRIDGENORTH 7277",
    "locID": "LOC000097062652",
    "tech": "WIRELESS",
    "upgrade": "NULL_NA",
    "gnaf_pid": "GATAS702284464",
    "tech_change_status": "Not Planned",
    "program_type": "Fixed Wireless and Satellite Upgrade Program",
    "target_eligibility_quarter": "NA"
   }
  },
  {
   "type": "Feature",
   "geometry": {
    "type": "Point",
    "coordinates": [
     146.99250296,
     -41.36856265
    ]
   },
   "properties": {
    "name": "132 MANEYS ROAD BRIDGENORTH 7277",
    "locID": "LOC000073027421",
    "tech": "WIRELESS",
    "upgrade": "NULL_NA",
    "gnaf_pid": "GATAS702284465",
    "tech_change_status": "Not Planned",
    "program_type": "Fixed Wireless and Satellite Upgrade Program",
    "target_eligibility_quarter": "NA"
   }
  },
  {
   "type": "Feature",
   "geometry": {
    "type": "Point",
    "coordinates": [
     146.99443242,
     -41.37047076
    ]
   },
   "properties": {
    "name": "90 MANEYS ROAD BRIDGENORTH 7277",
    "locID": "LOC000095099788",
    "tech": "WIRELESS",
    "upgrade": "NULL_NA",
    "gnaf_pid": "GATAS702284466",
    "tech_change_status": "Not Planned",
    "program_type": "Fixed Wireless and Satellite Upgrade Program",
    "target_eligibility_quarter": "NA"
   }
  },
  {
   "type": "Feature",
   "geometry": {
    "type": "Point",
    "coordinates": [
     146.99171627,
     -41.37850968
    ]
   },
   "properties": {
    "name": "51 MANEYS ROAD BRIDGENORTH 7277",
    "locID": "LOC000018772827",
    "tech": "WIRELESS",
    "upgrade": "NULL_NA",
    "gnaf_pid": "GATAS702284467",
    "tech_change_status": "Not Planned",
    "program_type": "Fixed Wireless and Satellite Upgrade Program",
    "target_eligibility_quarter": "NA"
   }
  },
  {
   "type": "Feature",
   "geometry": {
    "type": "Point",
    "coordinates": [
     146.94992596,
     -41.34364244
    ]
   },
   "properties": {
    "name": "372 LONG PLAINS ROAD BRIDGENORTH 7277",
    "locID": "LOC000078634360",
    "tech": "WIRELESS",
    "upgrade": "NULL_NA",
    "gnaf_pid": "GATAS702284654",
    "tech_change_status": "Not Planned",
    "program_type": "Fixed Wireless and Satellite Upgrade Program",
    "target_eligibility_quarter": "NA"
   }
  },
  {
   "type": "Feature",
   "geometry": {
    "type": "Point",
    "coordinates": [
     146.95141753,
     -41.35259685
    ]
   },
   "properties": {
    "name": "470 LONG PLAINS ROAD BRIDGENORTH 7277",
    "locID": "LOC000093232652",
    "tech": "WIRELESS",
    "upgrade": "NULL_NA",
    "gnaf_pid": "GATAS702284655",
    "tech_change_status": "Not Planned",
    "program_type": "Fixed Wireless and Satellite Upgrade Program",
    "target_eligibility_quarter": "NA"
   }
  },
  {
   "type": "Feature",
   "geometry": {
    "type": "Point",
    "coordinates": [
     146.94967341,
     -41.3512152
    ]
   },
   "properties": {
    "name": "464 LONG PLAINS ROAD BRIDGENORTH 7277",
    "locID": "LOC000049961075",
    "tech": "WIRELESS",
    "upgrade": "NULL_NA",
    "gnaf_pid": "GATAS702284656",
    "tech_change_status": "Not Planned",
    "program_type": "Fixed Wireless and Satellite Upgrade Program",
    "target_eligibility_quarter": "NA"
   }
  },
  {
   "type": "Feature",
   "geometry": {
    "type": "Point",
    "coordinates": [
     146.95254154,
     -41.35511721
    ]
   },
   "properties": {
    "name": "494 LONG PLAINS ROAD BRIDGENORTH 7277",
    "locID": "LOC000001863946",
    "tech": "WIRELESS",
    "upgrade": "NULL_NA",
    "gnaf_pid": "GATAS702284657",
    "tech_change_status": "Not Planned",
    "program_type": "Fixed Wireless and Satellite Upgrade Program",
    "target_eligibility_quarter": "NA"
   }
  },
  {
   "type": "Feature",
   "geometry": {
    "type": "Point",
    "coordinates": [
     146.96388798,
     -41.36638612
    ]
   },
   "properties": {
    "name": "646 LONG PLAINS ROAD BRIDGENORTH 7277",
    "locID": "LOC000031840540",
    "tech": "WIRELESS",
    "upgrade": "NULL_NA",
    "gnaf_pid": "GATAS702284659",
    "tech_change_status": "Not Planned",
    "program_type": "Fixed Wireless and Satellite Upgrade Program",
    "target_eligibility_quarter": "NA"
   }
  },
  {
   "type": "Feature",
   "geometry": {
    "type": "Point",
    "coordinates": [
     146.94752573,
     -41.34017451
    ]
   },
   "properties": {
    "name": "350 LONG PLAINS ROAD BRIDGENORTH 7277",
    "locID": "LOC000003544642",
    "tech": "WIRELESS",
    "upgrade": "NULL_NA",
    "gnaf_pid": "GATAS702284661",
    "tech_change_status": "Not Planned",
    "program_type": "Fixed Wireless and Satellite Upgrade Program",
    "target_eligibility_quarter": "NA"
   }
  },
  {
   "type": "Feature",
   "geometry": {
    "type": "Point",
    "coordinates": [
     146.95457747,
     -41.36335969
    ]
   },
   "properties": {
    "name": "584 LONG PLAINS ROAD BRIDGENORTH 7277",
    "locID": "LOC000012596634",
    "tech": "WIRELESS",
    "upgrade": "NULL_NA",
    "gnaf_pid": "GATAS702284806",
    "tech_change_status": "Not Planned",
    "program_type": "Fixed Wireless and Satellite Upgrade Program",
    "target_eligibility_quarter": "NA"
   }
  },
  {
   "type": "Feature",
   "geometry": {
    "type": "Point",
    "coordinates": [
     146.94913138,
     -41.35836389
    ]
   },
   "properties": {
    "name": "530 LONG PLAINS ROAD BRIDGENORTH 7277",
    "locID": "LOC000019553709",
    "tech": "WIRELESS",
    "upgrade": "NULL_NA",
    "gnaf_pid": "GATAS702284808",
    "tech_change_status": "Not Planned",
    "program_type": "Fixed Wireless and Satellite Upgrade Program",
    "target_eligibility_quarter": "NA"
   }
  },
  {
   "type": "Feature",
   "geometry": {
    "type": "Point",
    "coordinates": [
     146.96703719,
     -41.35961895
    ]
   },
   "properties": {
    "name": "637 LONG PLAINS ROAD BRIDGENORTH 7277",
    "locID": "LOC000094565083",
    "tech": "WIRELESS",
    "upgrade": "NULL_NA",
    "gnaf_pid": "GATAS702284810",
    "tech_change_status": "Not Planned",
    "program_type": "Fixed Wireless and Satellite Upgrade Program",
    "target_eligibility_quarter": "NA"
   }
  },
  {
   "type": "Feature",
   "geometry": {
    "type": "Point",
    "coordinates": [
     147.0011017,
     -41.37020188
    ]
   },
   "properties": {
    "name": "88 MANEYS ROAD BRIDGENORTH 7277",
    "locID": "LOC000006749820",
    "tech": "WIRELESS",
    "upgrade": "NULL_NA",
    "gnaf_pid": "GATAS702286404",
    "tech_change_status": "Not Planned",
    "program_type": "Fixed Wireless and Satellite Upgrade Program",
    "target_eligibility_quarter": "NA"
   }
  },
  {
   "type": "Feature",
   "geometry": {
    "type": "Point",
    "coordinates": [
     146.98698091,
     -41.37418931
    ]
   },
   "properties": {
    "name": "103 MANEYS ROAD BRIDGENORTH 7277",
    "locID": "LOC000004266656",
    "tech": "WIRELESS",
    "upgrade": "NULL_NA",
    "gnaf_pid": "GATAS702286405",
    "tech_change_status": "Not Planned",
    "program_type": "Fixed Wireless and Satellite Upgrade Program",
    "target_eligibility_quarter": "NA"
   }
  },
  {
   "type": "Feature",
   "geometry": {
    "type": "Point",
    "coordinates": [
     146.98031446,
     -41.36860757
    ]
   },
   "properties": {
    "name": "141 MANEYS ROAD BRIDGENORTH 7277",
    "locID": "LOC000048479216",
    "tech": "WIRELESS",
    "upgrade": "NULL_NA",
    "gnaf_pid": "GATAS702286406",
    "tech_change_status": "Not Planned",
    "program_type": "Fixed Wireless and Satellite Upgrade Program",
    "target_eligibility_quarter": "NA"
   }
  },
  {
   "type": "Feature",
   "geometry": {
    "type": "Point",
    "coordinates": [
     146.95308183,
     -41.34903952
    ]
   },
   "properties": {
    "name": "444 LONG PLAINS ROAD BRIDGENORTH 7277",
    "locID": "LOC000063503590",
    "tech": "WIRELESS",
    "upgrade": "NULL_NA",
    "gnaf_pid": "GATAS702286755",
    "tech_change_status": "Not Planned",
    "program_type": "Fixed Wireless and Satellite Upgrade Program",
    "target_eligibility_quarter": "NA"
   }
  },
  {
   "type": "Feature",
   "geometry": {
    "type": "Point",
    "coordinates": [
     146.95276878,
     -41.38105122
    ]
   },
   "properties": {
    "name": "41 NOTLEY GORGE ROAD BRIDGENORTH 7277",
    "locID": "LOC000017118874",
    "tech": "WIRELESS",
    "upgrade": "NULL_NA",
    "gnaf_pid": "GATAS702299124",
    "tech_change_status": "Not Planned",
    "program_type": "Fixed Wireless and Satellite Upgrade Program",
    "target_eligibility_quarter": "NA"
   }
  },
  {
   "type": "Feature",
   "geometry": {
    "type": "Point",
    "coordinates": [
     146.94535905,
     -41.37668428
    ]
   },
   "properties": {
    "name": "79 NOTLEY GORGE ROAD BRIDGENORTH 7277",
    "locID": "LOC000023397725",
    "tech": "WIRELESS",
    "upgrade": "NULL_NA",
    "gnaf_pid": "GATAS702299125",
    "tech_change_status": "Not Planned",
    "program_type": "Fixed Wireless and Satellite Upgrade Program",
    "target_eligibility_quarter": "NA"
   }
  },
  {
   "type": "Feature",
   "geometry": {
    "type": "Point",
    "coordinates": [
     146.9548382,
     -41.37738579
    ]
   },
   "properties": {
    "name": "22 NOTLEY GORGE ROAD BRIDGENORTH 7277",
    "locID": "LOC000106662185",
    "tech": "WIRELESS",
    "upgrade": "NULL_NA",
    "gnaf_pid": "GATAS702299127",
    "tech_change_status": "Not Planned",
    "program_type": "Fixed Wireless and Satellite Upgrade Program",
    "target_eligibility_quarter": "NA"
   }
  },
  {
   "type": "Feature",
   "geometry": {
    "type": "Point",
    "coordinates": [
     146.95042964,
     -41.37751549
    ]
   },
   "properties": {
    "name": "66 NOTLEY GORGE ROAD BRIDGENORTH 7277",
    "locID": "LOC000106893636",
    "tech": "WIRELESS",
    "upgrade": "NULL_NA",
    "gnaf_pid": "GATAS702314279",
    "tech_change_status": "Not Planned",
    "program_type": "Fixed Wireless and Satellite Upgrade Program",
    "target_eligibility_quarter": "NA"
   }
  },
  {
   "type": "Feature",
   "geometry": {
    "type": "Point",
    "coordinates": [
     146.94234426,
     -41.37167567
    ]
   },
   "properties": {
    "name": "167 NOTLEY GORGE ROAD BRIDGENORTH 7277",
    "locID": "LOC000014276194",
    "tech": "WIRELESS",
    "upgrade": "NULL_NA",
    "gnaf_pid": "GATAS702314281",
    "tech_change_status": "Not Planned",
    "program_type": "Fixed Wireless and Satellite Upgrade Program",
    "target_eligibility_quarter": "NA"
   }
  },
  {
   "type": "Feature",
   "geometry": {
    "type": "Point",
    "coordinates": [
     146.94456176,
     -41.36865799
    ]
   },
   "properties": {
    "name": "178 NOTLEY GORGE ROAD BRIDGENORTH 7277",
    "locID": "LOC000024315150",
    "tech": "WIRELESS",
    "upgrade": "NULL_NA",
    "gnaf_pid": "GATAS702314282",
    "tech_change_status": "Not Planned",
    "program_type": "Fixed Wireless and Satellite Upgrade Program",
    "target_eligibility_quarter": "NA"
   }
  },
  {
   "type": "Feature",
   "geometry": {
    "type": "Point",
    "coordinates": [
     146.9423244,
     -41.36815737
    ]
   },
   "properties": {
    "name": "200 NOTLEY GORGE ROAD BRIDGENORTH 7277",
    "locID": "LOC000026690229",
    "tech": "WIRELESS",
    "upgrade": "NULL_NA",
    "gnaf_pid": "GATAS702314283",
    "tech_change_status": "Not Planned",
    "program_type": "Fixed Wireless and Satellite Upgrade Program",
    "target_eligibility_quarter": "NA"
   }
  },
  {
   "type": "Feature",
   "geometry": {
    "type": "Point",
    "coordinates": [
     146.9985743,
     -41.38171659
    ]
   },
   "properties": {
    "name": "16 SOUTH BRIDGENORTH ROAD BRIDGENORTH 7277",
    "locID": "LOC000082625811",
    "tech": "WIRELESS",
    "upgrade": "NULL_NA",
    "gnaf_pid": "GATAS702343175",
    "tech_change_status": "Not Planned",
    "program_type": "Fixed Wireless and Satellite Upgrade Program",
    "target_eligibility_quarter": "NA"
   }
  },
  {
   "type": "Feature",
   "geometry": {
    "type": "Point",
    "coordinates": [
     147.00301498,
     -41.38491574
    ]
   },
   "properties": {
    "name": "61 SOUTH BRIDGENORTH ROAD BRIDGENORTH 7277",
    "locID": "LOC000027569397",
    "tech": "WIRELESS",
    "upgrade": "NULL_NA",
    "gnaf_pid": "GATAS702343176",
    "tech_change_status": "Not Planned",
    "program_type": "Fixed Wireless and Satellite Upgrade Program",
    "target_eligibility_quarter": "NA"
   }
  },
  {
   "type": "Feature",
   "geometry": {
    "type": "Point",
    "coordinates": [
     146.99464865,
     -41.39132041
    ]
   },
   "properties": {
    "name": "160 SOUTH BRIDGENORTH ROAD BRIDGENORTH 7277",
    "locID": "LOC000018756746",
    "tech": "WIRELESS",
    "upgrade": "NULL_NA",
    "gnaf_pid": "GATAS702343177",
    "tech_change_status": "Not Planned",
    "program_type": "Fixed Wireless and Satellite Upgrade Program",
    "target_eligibility_quarter": "NA"
   }
  },
  {
   "type": "Feature",
   "geometry": {
    "type": "Point",
    "coordinates": [
     146.99904135,
     -41.39167491
    ]
   },
   "properties": {
    "name": "141 SOUTH BRIDGENORTH ROAD BRIDGENORTH 7277",
    "locID": "LOC000084844302",
    "tech": "WIRELESS",
    "upgrade": "NULL_NA",
    "gnaf_pid": "GATAS702343178",
    "tech_change_status": "Not Planned",
    "program_type": "Fixed Wireless and Satellite Upgrade Program",
    "target_eligibility_quarter": "NA"
   }
  },
  {
   "type": "Feature",
   "geometry": {
    "type": "Point",
    "coordinates": [
     146.96453903,
     -41.42380086
    ]
   },
   "properties": {
    "name": "616 SOUTH BRIDGENORTH ROAD BRIDGENORTH 7277",
    "locID": "LOC000043979685",
    "tech": "SATELLITE",
    "upgrade": "NULL_NA",
    "gnaf_pid": "GATAS702343179",
    "tech_change_status": "Not Planned"
   }
  },
  {
   "type": "Feature",
   "geometry": {
    "type": "Point",
    "coordinates": [
     146.96846325,
     -41.42586741
    ]
   },
   "properties": {
    "name": "636 SOUTH BRIDGENORTH ROAD BRIDGENORTH 7277",
    "locID": "LOC000009306765",
    "tech": "WIRELESS",
    "upgrade": "NULL_NA",
    "gnaf_pid": "GATAS702343180",
    "tech_change_status": "Not Planned",
    "program_type": "Fixed Wireless and Satellite Upgrade Program",
    "target_eligibility_quarter": "NA"
   }
  },
  {
   "type": "Feature",
   "geometry": {
    "type": "Point",
    "coordinates": [
     146.96923729,
     -41.41341223
    ]
   },
   "properties": {
    "name": "496 SOUTH BRIDGENORTH ROAD BRIDGENORTH 7277",
    "locID": "LOC000027706033",
    "tech": "SATELLITE",
    "upgrade": "NULL_NA",
    "gnaf_pid": "GATAS702343182",
    "tech_change_status": "Not Planned"
   }
  },
  {
   "type": "Feature",
   "geometry": {
    "type": "Point",
    "coordinates": [
     146.97372282,
     -41.40900875
    ]
   },
   "properties": {
    "name": "426 SOUTH BRIDGENORTH ROAD BRIDGENORTH 7277",
    "locID": "LOC000098438177",
    "tech": "WIRELESS",
    "upgrade": "NULL_NA",
    "gnaf_pid": "GATAS702343864",
    "tech_change_status": "Not Planned",
    "program_type": "Fixed Wireless and Satellite Upgrade Program",
    "target_eligibility_quarter": "NA"
   }
  },
  {
   "type": "Feature",
   "geometry": {
    "type": "Point",
    "coordinates": [
     146.99050886,
     -41.3971773
    ]
   },
   "properties": {
    "name": "255 SOUTH BRIDGENORTH ROAD BRIDGENORTH 7277",
    "locID": "LOC000077103006",
    "tech": "WIRELESS",
    "upgrade": "NULL_NA",
    "gnaf_pid": "GATAS702343865",
    "tech_change_status": "Not Planned",
    "program_type": "Fixed Wireless and Satellite Upgrade Program",
    "target_eligibility_quarter": "NA"
   }
  },
  {
   "type": "Feature",
   "geometry": {
    "type": "Point",
    "coordinates": [
     146.98828962,
     -41.39343822
    ]
   },
   "properties": {
    "name": "240 SOUTH BRIDGENORTH ROAD BRIDGENORTH 7277",
    "locID": "LOC000060742913",
    "tech": "WIRELESS",
    "upgrade": "NULL_NA",
    "gnaf_pid": "GATAS702343866",
    "tech_change_status": "Not Planned",
    "program_type": "Fixed Wireless and Satellite Upgrade Program",
    "target_eligibility_quarter": "NA"
   }
  },
  {
   "type": "Feature",
   "geometry": {
    "type": "Point",
    "coordinates": [
     146.99592384,
     -41.38847059
    ]
   },
   "properties": {
    "name": "142 SOUTH BRIDGENORTH ROAD BRIDGENORTH 7277",
    "locID": "LOC000049943952",
    "tech": "WIRELESS",
    "upgrade": "NULL_NA",
    "gnaf_pid": "GATAS702343867",
    "tech_change_status": "Not Planned",
    "program_type": "Fixed Wireless and Satellite Upgrade Program",
    "target_eligibility_quarter": "NA"
   }
  },
  {
   "type": "Feature",
   "geometry": {
    "type": "Point",
    "coordinates": [
     146.98293707,
     -41.39264825
    ]
   },
   "properties": {
    "name": "138 STOKES LANE BRIDGENORTH 7277",
    "locID": "LOC000048129930",
    "tech": "WIRELESS",
    "upgrade": "NULL_NA",
    "gnaf_pid": "GATAS702347840",
    "tech_change_status": "Not Planned",
    "program_type": "Fixed Wireless and Satellite Upgrade Program",
    "target_eligibility_quarter": "NA"
   }
  },
  {
   "type": "Feature",
   "geometry": {
    "type": "Point",
    "coordinates": [
     146.98853811,
     -41.38983815
    ]
   },
   "properties": {
    "name": "166 STOKES LANE BRIDGENORTH 7277",
    "locID": "LOC000030010786",
    "tech": "WIRELESS",
    "upgrade": "NULL_NA",
    "gnaf_pid": "GATAS702348665",
    "tech_change_status": "Not Planned",
    "program_type": "Fixed Wireless and Satellite Upgrade Program",
    "target_eligibility_quarter": "NA"
   }
  },
  {
   "type": "Feature",
   "geometry": {
    "type": "Point",
    "coordinates": [
     146.98017708,
     -41.38704689
    ]
   },
   "properties": {
    "name": "110 STOKES LANE BRIDGENORTH 7277",
    "locID": "LOC000066827629",
    "tech": "WIRELESS",
    "upgrade": "NULL_NA",
    "gnaf_pid": "GATAS702350595",
    "tech_change_status": "Not Planned",
    "program_type": "Fixed Wireless and Satellite Upgrade Program",
    "target_eligibility_quarter": "NA"
   }
  },
  {
   "type": "Feature",
   "geometry": {
    "type": "Point",
    "coordinates": [
     146.98762082,
     -41.38539846
    ]
   },
   "properties": {
    "name": "87 STOKES LANE BRIDGENORTH 7277",
    "locID": "LOC000085866432",
    "tech": "WIRELESS",
    "upgrade": "NULL_NA",
    "gnaf_pid": "GATAS702350596",
    "tech_change_status": "Not Planned",
    "program_type": "Fixed Wireless and Satellite Upgrade Program",
    "target_eligibility_quarter": "NA"
   }
  },
  {
   "type": "Feature",
   "geometry": {
    "type": "Point",
    "coordinates": [
     146.90555614,
     -41.38629081
    ]
   },
   "properties": {
    "name": "680 TURKEY FARM ROAD BRIDGENORTH 7277",
    "locID": "LOC000006327215",
    "tech": "SATELLITE",
    "upgrade": "NULL_NA",
    "gnaf_pid": "GATAS702359746",
    "tech_change_status": "Not Planned"
   }
  },
  {
   "type": "Feature",
   "geometry": {
    "type": "Point",
    "coordinates": [
     146.97076243,
     -41.39116952
    ]
   },
   "properties": {
    "name": "328 SOUTH BRIDGENORTH ROAD BRIDGENORTH 7277",
    "locID": "LOC000026790540",
    "tech": "NULL",
    "upgrade": "NULL_NA",
    "gnaf_pid": "GATAS702393790",
    "tech_change_status": "Not Planned"
   }
  },
  {
   "type": "Feature",
   "geometry": {
    "type": "Point",
    "coordinates": [
     146.9758101,
     -41.37923093
    ]
   },
   "properties": {
    "name": "13 STOKES LANE BRIDGENORTH 7277",
    "locID": "LOC000094463321",
    "tech": "WIRELESS",
    "upgrade": "NULL_NA",
    "gnaf_pid": "GATAS702394254",
    "tech_change_status": "Not Planned",
    "program_type": "Fixed Wireless and Satellite Upgrade Program",
    "target_eligibility_quarter": "NA"
   }
  },
  {
   "type": "Feature",
   "geometry": {
    "type": "Point",
    "coordinates": [
     146.97233822,
     -41.39887623
    ]
   },
   "properties": {
    "name": "260 SOUTH BRIDGENORTH ROAD BRIDGENORTH 7277",
    "locID": "LOC000039726147",
    "tech": "SATELLITE",
    "upgrade": "NULL_NA",
    "gnaf_pid": "GATAS702394256",
    "tech_change_status": "Not Planned"
   }
  },
  {
   "type": "Feature",
   "geometry": {
    "type": "Point",
    "coordinates": [
     146.91128186,
     -41.38998015
    ]
   },
   "properties": {
    "name": "682 TURKEY FARM ROAD BRIDGENORTH 7277",
    "locID": "LOC000043653510",
    "tech": "NULL",
    "upgrade": "NULL_NA",
    "gnaf_pid": "GATAS702396470",
    "tech_change_status": "Not Planned"
   }
  },
  {
   "type": "Feature",
   "geometry": {
    "type": "Point",
    "coordinates": [
     146.91907889,
     -41.38863353
    ]
   },
   "properties": {
    "name": "788 TURKEY FARM ROAD BRIDGENORTH 7277",
    "locID": "LOC000083134158",
    "tech": "WIRELESS",
    "upgrade": "NULL_NA",
    "gnaf_pid": "GATAS702397662",
    "tech_change_status": "Not Planned",
    "program_type": "Fixed Wireless and Satellite Upgrade Program",
    "target_eligibility_quarter": "NA"
   }
  },
  {
   "type": "Feature",
   "geometry": {
    "type": "Point",
    "coordinates": [
     146.92962076,
     -41.3910277
    ]
   },
   "properties": {
    "name": "795 TURKEY FARM ROAD BRIDGENORTH 7277",
    "locID": "LOC000061658662",
    "tech": "WIRELESS",
    "upgrade": "NULL_NA",
    "gnaf_pid": "GATAS702399125",
    "tech_change_status": "Not Planned",
    "program_type": "Fixed Wireless and Satellite Upgrade Program",
    "target_eligibility_quarter": "NA"
   }
  },
  {
   "type": "Feature",
   "geometry": {
    "type": "Point",
    "coordinates": [
     146.9378974,
     -41.37763168
    ]
   },
   "properties": {
    "name": "151 NOTLEY GORGE ROAD BRIDGENORTH 7277",
    "locID": "LOC000059780385",
    "tech": "WIRELESS",
    "upgrade": "NULL_NA",
    "gnaf_pid": "GATAS702399126",
    "tech_change_status": "Not Planned",
    "program_type": "Fixed Wireless and Satellite Upgrade Program",
    "target_eligibility_quarter": "NA"
   }
  },
  {
   "type": "Feature",
   "geometry": {
    "type": "Point",
    "coordinates": [
     146.92854672,
     -41.39127845
    ]
   },
   "properties": {
    "name": "808 TURKEY FARM ROAD BRIDGENORTH 7277",
    "locID": "LOC000075985877",
    "tech": "SATELLITE",
    "upgrade": "WIRELESS",
    "gnaf_pid": "GATAS702399127",
    "tech_change_status": "Eligible to Order",
    "program_type": "Fixed Wireless and Satellite Upgrade Program",
    "target_eligibility_quarter": "NA"
   }
  },
  {
   "type": "Feature",
   "geometry": {
    "type": "Point",
    "coordinates": [
     146.96738963,
     -41.41026388
    ]
   },
   "properties": {
    "name": "450 SOUTH BRIDGENORTH ROAD BRIDGENORTH 7277",
    "locID": "LOC000097358238",
    "tech": "WIRELESS",
    "upgrade": "NULL_NA",
    "gnaf_pid": "GATAS702400324",
    "tech_change_status": "Not Planned",
    "program_type": "Fixed Wireless and Satellite Upgrade Program",
    "target_eligibility_quarter": "NA"
   }
  },
  {
   "type": "Feature",
   "geometry": {
    "type": "Point",
    "coordinates": [
     146.99325192,
     -41.37528761
    ]
   },
   "properties": {
    "name": "1 MANEYS ROAD BRIDGENORTH 7277",
    "locID": "LOC000190276458",
    "tech": "WIRELESS",
    "upgrade": "NULL_NA",
    "gnaf_pid": "GATAS702400577",
    "tech_change_status": "Not Planned",
    "program_type": "Fixed Wireless and Satellite Upgrade Program",
    "target_eligibility_quarter": "NA"
   }
  },
  {
   "type": "Feature",
   "geometry": {
    "type": "Point",
    "coordinates": [
     146.9703265,
     -41.38522004
    ]
   },
   "properties": {
    "name": "819 BRIDGENORTH ROAD BRIDGENORTH 7277",
    "locID": "LOC000019247913",
    "tech": "WIRELESS",
    "upgrade": "NULL_NA",
    "gnaf_pid": "GATAS702400791",
    "tech_change_status": "Not Planned",
    "program_type": "Fixed Wireless and Satellite Upgrade Program",
    "target_eligibility_quarter": "NA"
   }
  },
  {
   "type": "Feature",
   "geometry": {
    "type": "Point",
    "coordinates": [
     146.96742185,
     -41.40745247
    ]
   },
   "properties": {
    "name": "452 SOUTH BRIDGENORTH ROAD BRIDGENORTH 7277",
    "locID": "LOC000104748563",
    "tech": "SATELLITE",
    "upgrade": "WIRELESS",
    "gnaf_pid": "GATAS702400795",
    "tech_change_status": "Eligible to Order",
    "program_type": "Fixed Wireless and Satellite Upgrade Program",
    "target_eligibility_quarter": "NA"
   }
  },
  {
   "type": "Feature",
   "geometry": {
    "type": "Point",
    "coordinates": [
     146.96681088,
     -41.42165391
    ]
   },
   "properties": {
    "name": "576 SOUTH BRIDGENORTH ROAD BRIDGENORTH 7277",
    "locID": "LOC000034926252",
    "tech": "NULL",
    "upgrade": "NULL_NA",
    "gnaf_pid": "GATAS702400797",
    "tech_change_status": "Not Planned"
   }
  },
  {
   "type": "Feature",
   "geometry": {
    "type": "Point",
    "coordinates": [
     146.97602829,
     -41.37978711
    ]
   },
   "properties": {
    "name": "20 STOKES LANE BRIDGENORTH 7277",
    "locID": "LOC000032563734",
    "tech": "WIRELESS",
    "upgrade": "NULL_NA",
    "gnaf_pid": "GATAS702400804",
    "tech_change_status": "Not Planned",
    "program_type": "Fixed Wireless and Satellite Upgrade Program",
    "target_eligibility_quarter": "NA"
   }
  },
  {
   "type": "Feature",
   "geometry": {
    "type": "Point",
    "coordinates": [
     146.97230614,
     -41.40543906
    ]
   },
   "properties": {
    "name": "396 SOUTH BRIDGENORTH ROAD BRIDGENORTH 7277",
    "locID": "LOC000077221187",
    "tech": "SATELLITE",
    "upgrade": "NULL_NA",
    "gnaf_pid": "GATAS702400995",
    "tech_change_status": "Not Planned"
   }
  },
  {
   "type": "Feature",
   "geometry": {
    "type": "Point",
    "coordinates": [
     146.97933168,
     -41.38182018
    ]
   },
   "properties": {
    "name": "51 STOKES LANE BRIDGENORTH 7277",
    "locID": "LOC000064705026",
    "tech": "WIRELESS",
    "upgrade": "NULL_NA",
    "gnaf_pid": "GATAS702400998",
    "tech_change_status": "Not Planned",
    "program_type": "Fixed Wireless and Satellite Upgrade Program",
    "target_eligibility_quarter": "NA"
   }
  },
  {
   "type": "Feature",
   "geometry": {
    "type": "Point",
    "coordinates": [
     146.99662527,
     -41.38398989
    ]
   },
   "properties": {
    "name": "505 BRIDGENORTH ROAD BRIDGENORTH 7277",
    "locID": "LOC000084895531",
    "tech": "SATELLITE",
    "upgrade": "WIRELESS",
    "gnaf_pid": "GATAS702401000",
    "tech_change_status": "Eligible to Order",
    "program_type": "Fixed Wireless and Satellite Upgrade Program",
    "target_eligibility_quarter": "NA"
   }
  },
  {
   "type": "Feature",
   "geometry": {
    "type": "Point",
    "coordinates": [
     147.00982572,
     -41.39082695
    ]
   },
   "properties": {
    "name": "63 SOUTH BRIDGENORTH ROAD BRIDGENORTH 7277",
    "locID": "LOC000059757672",
    "tech": "SATELLITE",
    "upgrade": "NULL_NA",
    "gnaf_pid": "GATAS702401757",
    "tech_change_status": "Not Planned"
   }
  },
  {
   "type": "Feature",
   "geometry": {
    "type": "Point",
    "coordinates": [
     146.96224383,
     -41.41339409
    ]
   },
   "properties": {
    "name": "33 SHAWS ROAD BRIDGENORTH 7277",
    "locID": "LOC000098172613",
    "tech": "WIRELESS",
    "upgrade": "NULL_NA",
    "gnaf_pid": "GATAS702401866",
    "tech_change_status": "Not Planned",
    "program_type": "Fixed Wireless and Satellite Upgrade Program",
    "target_eligibility_quarter": "NA"
   }
  },
  {
   "type": "Feature",
   "geometry": {
    "type": "Point",
    "coordinates": [
     146.95684209,
     -41.37931272
    ]
   },
   "properties": {
    "name": "856 BRIDGENORTH ROAD BRIDGENORTH 7277",
    "locID": "LOC000033533688",
    "tech": "WIRELESS",
    "upgrade": "NULL_NA",
    "gnaf_pid": "GATAS702401867",
    "tech_change_status": "Not Planned",
    "program_type": "Fixed Wireless and Satellite Upgrade Program",
    "target_eligibility_quarter": "NA"
   }
  },
  {
   "type": "Feature",
   "geometry": {
    "type": "Point",
    "coordinates": [
     146.94705051,
     -41.40371594
    ]
   },
   "properties": {
    "name": "1097 BRIDGENORTH ROAD BRIDGENORTH 7277",
    "locID": "LOC000013520103",
    "tech": "WIRELESS",
    "upgrade": "NULL_NA",
    "gnaf_pid": "GATAS702401875",
    "tech_change_status": "Not Planned",
    "program_type": "Fixed Wireless and Satellite Upgrade Program",
    "target_eligibility_quarter": "NA"
   }
  },
  {
   "type": "Feature",
   "geometry": {
    "type": "Point",
    "coordinates": [
     147.00241855,
     -41.38624012
    ]
   },
   "properties": {
    "name": "79 SOUTH BRIDGENORTH ROAD BRIDGENORTH 7277",
    "locID": "LOC000084601986",
    "tech": "SATELLITE",
    "upgrade": "NULL_NA",
    "gnaf_pid": "GATAS702401878",
    "tech_change_status": "Not Planned"
   }
  },
  {
   "type": "Feature",
   "geometry": {
    "type": "Point",
    "coordinates": [
     146.98612369,
     -41.38979358
    ]
   },
   "properties": {
    "name": "140 STOKES LANE BRIDGENORTH 7277",
    "locID": "LOC000081960023",
    "tech": "WIRELESS",
    "upgrade": "NULL_NA",
    "gnaf_pid": "GATAS702401881",
    "tech_change_status": "Not Planned",
    "program_type": "Fixed Wireless and Satellite Upgrade Program",
    "target_eligibility_quarter": "NA"
   }
  },
  {
   "type": "Feature",
   "geometry": {
    "type": "Point",
    "coordinates": [
     146.94160371,
     -41.3958156
    ]
   },
   "properties": {
    "name": "1067 BRIDGENORTH ROAD BRIDGENORTH 7277",
    "locID": "LOC000060618510",
    "tech": "WIRELESS",
    "upgrade": "NULL_NA",
    "gnaf_pid": "GATAS702401882",
    "tech_change_status": "Not Planned",
    "program_type": "Fixed Wireless and Satellite Upgrade Program",
    "target_eligibility_quarter": "NA"
   }
  },
  {
   "type": "Feature",
   "geometry": {
    "type": "Point",
    "coordinates": [
     146.96206564,
     -41.40916032
    ]
   },
   "properties": {
    "name": "1 SHAWS ROAD BRIDGENORTH 7277",
    "locID": "LOC000049972249",
    "tech": "SATELLITE",
    "upgrade": "NULL_NA",
    "gnaf_pid": "GATAS702402507",
    "tech_change_status": "Not Planned"
   }
  },
  {
   "type": "Feature",
   "geometry": {
    "type": "Point",
    "coordinates": [
     146.94133385,
     -41.40052912
    ]
   },
   "properties": {
    "name": "1111 BRIDGENORTH ROAD BRIDGENORTH 7277",
    "locID": "LOC000082561346",
    "tech": "WIRELESS",
    "upgrade": "NULL_NA",
    "gnaf_pid": "GATAS702402509",
    "tech_change_status": "Not Planned",
    "program_type": "Fixed Wireless and Satellite Upgrade Program",
    "target_eligibility_quarter": "NA"
   }
  },
  {
   "type": "Feature",
   "geometry": {
    "type": "Point",
    "coordinates": [
     146.95185499,
     -41.40326678
    ]
   },
   "properties": {
    "name": "1095 BRIDGENORTH ROAD BRIDGENORTH 7277",
    "locID": "LOC000023399530",
    "tech": "WIRELESS",
    "upgrade": "NULL_NA",
    "gnaf_pid": "GATAS702402510",
    "tech_change_status": "Not Planned",
    "program_type": "Fixed Wireless and Satellite Upgrade Program",
    "target_eligibility_quarter": "NA"
   }
  },
  {
   "type": "Feature",
   "geometry": {
    "type": "Point",
    "coordinates": [
     146.94678067,
     -41.40102876
    ]
   },
   "properties": {
    "name": "1093 BRIDGENORTH ROAD BRIDGENORTH 7277",
    "locID": "LOC000071686826",
    "tech": "SATELLITE",
    "upgrade": "WIRELESS",
    "gnaf_pid": "GATAS702402515",
    "tech_change_status": "Eligible to Order",
    "program_type": "Fixed Wireless and Satellite Upgrade Program",
    "target_eligibility_quarter": "NA"
   }
  },
  {
   "type": "Feature",
   "geometry": {
    "type": "Point",
    "coordinates": [
     146.97494393,
     -41.3773991
    ]
   },
   "properties": {
    "name": "823 LONG PLAINS ROAD BRIDGENORTH 7277",
    "locID": "LOC000065854420",
    "tech": "WIRELESS",
    "upgrade": "NULL_NA",
    "gnaf_pid": "GATAS702402671",
    "tech_change_status": "Not Planned",
    "program_type": "Fixed Wireless and Satellite Upgrade Program",
    "target_eligibility_quarter": "NA"
   }
  },
  {
   "type": "Feature",
   "geometry": {
    "type": "Point",
    "coordinates": [
     146.93737855,
     -41.40644618
    ]
   },
   "properties": {
    "name": "1183 BRIDGENORTH ROAD BRIDGENORTH 7277",
    "locID": "LOC000010130796",
    "tech": "WIRELESS",
    "upgrade": "NULL_NA",
    "gnaf_pid": "GATAS702796313",
    "tech_change_status": "Not Planned",
    "program_type": "Fixed Wireless and Satellite Upgrade Program",
    "target_eligibility_quarter": "NA"
   }
  },
  {
   "type": "Feature",
   "geometry": {
    "type": "Point",
    "coordinates": [
     146.97350963,
     -41.37836559
    ]
   },
   "properties": {
    "name": "706 BRIDGENORTH ROAD BRIDGENORTH 7277",
    "locID": "LOC000050212062",
    "tech": "WIRELESS",
    "upgrade": "NULL_NA",
    "gnaf_pid": "GATAS702796335",
    "tech_change_status": "Not Planned",
    "program_type": "Fixed Wireless and Satellite Upgrade Program",
    "target_eligibility_quarter": "NA"
   }
  },
  {
   "type": "Feature",
   "geometry": {
    "type": "Point",
    "coordinates": [
     146.94975515,
     -41.39709278
    ]
   },
   "properties": {
    "name": "1091 BRIDGENORTH ROAD BRIDGENORTH 7277",
    "locID": "LOC000106983262",
    "tech": "WIRELESS",
    "upgrade": "NULL_NA",
    "gnaf_pid": "GATAS702800478",
    "tech_change_status": "Not Planned",
    "program_type": "Fixed Wireless and Satellite Upgrade Program",
    "target_eligibility_quarter": "NA"
   }
  },
  {
   "type": "Feature",
   "geometry": {
    "type": "Point",
    "coordinates": [
     146.94593868,
     -41.37086522
    ]
   },
   "properties": {
    "name": "154 NOTLEY GORGE ROAD BRIDGENORTH 7277",
    "locID": "LOC000039364007",
    "tech": "WIRELESS",
    "upgrade": "NULL_NA",
    "gnaf_pid": "GATAS715256426",
    "tech_change_status": "Not Planned",
    "program_type": "Fixed Wireless and Satellite Upgrade Program",
    "target_eligibility_quarter": "NA"
   }
  },
  {
   "type": "Feature",
   "geometry": {
    "type": "Point",
    "coordinates": [
     146.9354814,
     -41.39057254
    ]
   },
   "properties": {
    "name": "1060 BRIDGENORTH ROAD BRIDGENORTH 7277",
    "locID": "LOC000002672084",
    "tech": "WIRELESS",
    "upgrade": "NULL_NA",
    "gnaf_pid": "GATAS715258029",
    "tech_change_status": "Not Planned",
    "program_type": "Fixed Wireless and Satellite Upgrade Program",
    "target_eligibility_quarter": "NA"
   }
  },
  {
   "type": "Feature",
   "geometry": {
    "type": "Point",
    "coordinates": [
     146.91063144,
     -41.38171212
    ]
   },
   "properties": {
    "name": "678 TURKEY FARM ROAD BRIDGENORTH 7277",
    "locID": "LOC000100422969",
    "tech": "NULL",
    "upgrade": "NULL_NA",
    "gnaf_pid": "GATAS715277964",
    "tech_change_status": "Not Planned"
   }
  },
  {
   "type": "Feature",
   "geometry": {
    "type": "Point",
    "coordinates": [
     146.94197105,
     -41.38805559
    ]
   },
   "properties": {
    "name": "1002 BRIDGENORTH ROAD BRIDGENORTH 7277",
    "locID": "LOC000103386947",
    "tech": "WIRELESS",
    "upgrade": "NULL_NA",
    "gnaf_pid": "GATAS716458692",
    "tech_change_status": "Not Planned",
    "program_type": "Fixed Wireless and Satellite Upgrade Program",
    "target_eligibility_quarter": "NA"
   }
  },
  {
   "type": "Feature",
   "geometry": {
    "type": "Point",
    "coordinates": [
     146.98081566,
     -41.38080893
    ]
   },
   "properties": {
    "name": "631 BRIDGENORTH ROAD BRIDGENORTH 7277",
    "locID": "LOC000096950933",
    "tech": "WIRELESS",
    "upgrade": "NULL_NA",
    "gnaf_pid": "GATAS716458694",
    "tech_change_status": "Not Planned",
    "program_type": "Fixed Wireless and Satellite Upgrade Program",
    "target_eligibility_quarter": "NA"
   }
  },
  {
   "type": "Feature",
   "geometry": {
    "type": "Point",
    "coordinates": [
     146.96086215,
     -41.3872698
    ]
   },
   "properties": {
    "name": "889 BRIDGENORTH ROAD BRIDGENORTH 7277",
    "locID": "LOC000103983821",
    "tech": "WIRELESS",
    "upgrade": "NULL_NA",
    "gnaf_pid": "GATAS716458695",
    "tech_change_status": "Not Planned",
    "program_type": "Fixed Wireless and Satellite Upgrade Program",
    "target_eligibility_quarter": "NA"
   }
  },
  {
   "type": "Feature",
   "geometry": {
    "type": "Point",
    "coordinates": [
     146.95496009,
     -41.33755151
    ]
   },
   "properties": {
    "name": "295 LONG PLAINS ROAD BRIDGENORTH 7277",
    "locID": "LOC000094208887",
    "tech": "WIRELESS",
    "upgrade": "NULL_NA",
    "gnaf_pid": "GATAS716460756",
    "tech_change_status": "Not Planned",
    "program_type": "Fixed Wireless and Satellite Upgrade Program",
    "target_eligibility_quarter": "NA"
   }
  },
  {
   "type": "Feature",
   "geometry": {
    "type": "Point",
    "coordinates": [
     146.95273429,
     -41.34159923
    ]
   },
   "properties": {
    "name": "371 LONG PLAINS ROAD BRIDGENORTH 7277",
    "locID": "LOC000033453444",
    "tech": "WIRELESS",
    "upgrade": "NULL_NA",
    "gnaf_pid": "GATAS716460757",
    "tech_change_status": "Not Planned",
    "program_type": "Fixed Wireless and Satellite Upgrade Program",
    "target_eligibility_quarter": "NA"
   }
  },
  {
   "type": "Feature",
   "geometry": {
    "type": "Point",
    "coordinates": [
     146.95512013,
     -41.34563254
    ]
   },
   "properties": {
    "name": "421 LONG PLAINS ROAD BRIDGENORTH 7277",
    "locID": "LOC000023503573",
    "tech": "WIRELESS",
    "upgrade": "NULL_NA",
    "gnaf_pid": "GATAS716460758",
    "tech_change_status": "Not Planned",
    "program_type": "Fixed Wireless and Satellite Upgrade Program",
    "target_eligibility_quarter": "NA"
   }
  },
  {
   "type": "Feature",
   "geometry": {
    "type": "Point",
    "coordinates": [
     146.96263886,
     -41.41850781
    ]
   },
   "properties": {
    "name": "530 SOUTH BRIDGENORTH ROAD BRIDGENORTH 7277",
    "locID": "LOC000042542267",
    "tech": "WIRELESS",
    "upgrade": "NULL_NA",
    "gnaf_pid": "GATAS716462268",
    "tech_change_status": "Not Planned",
    "program_type": "Fixed Wireless and Satellite Upgrade Program",
    "target_eligibility_quarter": "NA"
   }
  },
  {
   "type": "Feature",
   "geometry": {
    "type": "Point",
    "coordinates": [
     146.99587362,
     -41.37400568
    ]
   },
   "properties": {
    "name": "58 MANEYS ROAD BRIDGENORTH 7277",
    "locID": "LOC000051101519",
    "tech": "WIRELESS",
    "upgrade": "NULL_NA",
    "gnaf_pid": "GATAS716464232",
    "tech_change_status": "Not Planned",
    "program_type": "Fixed Wireless and Satellite Upgrade Program",
    "target_eligibility_quarter": "NA"
   }
  },
  {
   "type": "Feature",
   "geometry": {
    "type": "Point",
    "coordinates": [
     146.94305406,
     -41.40999579
    ]
   },
   "properties": {
    "name": "1173 BRIDGENORTH ROAD BRIDGENORTH 7277",
    "locID": "LOC000003603319",
    "tech": "WIRELESS",
    "upgrade": "NULL_NA",
    "gnaf_pid": "GATAS716619470",
    "tech_change_status": "Not Planned",
    "program_type": "Fixed Wireless and Satellite Upgrade Program",
    "target_eligibility_quarter": "NA"
   }
  },
  {
   "type": "Feature",
   "geometry": {
    "type": "Point",
    "coordinates": [
     146.93970691,
     -41.40791213
    ]
   },
   "properties": {
    "name": "1175 BRIDGENORTH ROAD BRIDGENORTH 7277",
    "locID": "LOC000012157050",
    "tech": "WIRELESS",
    "upgrade": "NULL_NA",
    "gnaf_pid": "GATAS716619471",
    "tech_change_status": "Not Planned",
    "program_type": "Fixed Wireless and Satellite Upgrade Program",
    "target_eligibility_quarter": "NA"
   }
  },
  {
   "type": "Feature",
   "geometry": {
    "type": "Point",
    "coordinates": [
     146.97259375,
     -41.36962241
    ]
   },
   "properties": {
    "name": "715 LONG PLAINS ROAD BRIDGENORTH 7277",
    "locID": "LOC000072191454",
    "tech": "WIRELESS",
    "upgrade": "NULL_NA",
    "gnaf_pid": "GATAS716907949",
    "tech_change_status": "Not Planned",
    "program_type": "Fixed Wireless and Satellite Upgrade Program",
    "target_eligibility_quarter": "NA"
   }
  },
  {
   "type": "Feature",
   "geometry": {
    "type": "Point",
    "coordinates": [
     146.94824172,
     -41.37000118
    ]
   },
   "properties": {
    "name": "47 JENNYFIELD ROAD BRIDGENORTH 7277",
    "locID": "LOC000038098557",
    "tech": "WIRELESS",
    "upgrade": "NULL_NA",
    "gnaf_pid": "GATAS716977374",
    "tech_change_status": "Not Planned",
    "program_type": "Fixed Wireless and Satellite Upgrade Program",
    "target_eligibility_quarter": "NA"
   }
  },
  {
   "type": "Feature",
   "geometry": {
    "type": "Point",
    "coordinates": [
     146.97685812,
     -41.38832421
    ]
   },
   "properties": {
    "name": "78 STOKES LANE BRIDGENORTH 7277",
    "locID": "LOC000091678655",
    "tech": "WIRELESS",
    "upgrade": "NULL_NA",
    "gnaf_pid": "GATAS716977680",
    "tech_change_status": "Not Planned",
    "program_type": "Fixed Wireless and Satellite Upgrade Program",
    "target_eligibility_quarter": "NA"
   }
  },
  {
   "type": "Feature",
   "geometry": {
    "type": "Point",
    "coordinates": [
     146.96488209,
     -41.39319806
    ]
   },
   "properties": {
    "name": "821 BRIDGENORTH ROAD BRIDGENORTH 7277",
    "locID": "LOC000070022376",
    "tech": "WIRELESS",
    "upgrade": "NULL_NA",
    "gnaf_pid": "GATAS717122840",
    "tech_change_status": "Not Planned",
    "program_type": "Fixed Wireless and Satellite Upgrade Program",
    "target_eligibility_quarter": "NA"
   }
  },
  {
   "type": "Feature",
   "geometry": {
    "type": "Point",
    "coordinates": [
     146.95912637,
     -41.41097334
    ]
   },
   "properties": {
    "name": "111 SHAWS ROAD BRIDGENORTH 7277",
    "locID": "LOC000105782920",
    "tech": "SATELLITE",
    "upgrade": "NULL_NA",
    "gnaf_pid": "GATAS717239884",
    "tech_change_status": "Not Planned"
   }
  },
  {
   "type": "Feature",
   "geometry": {
    "type": "Point",
    "coordinates": [
     146.9283863,
     -41.39253191
    ]
   },
   "properties": {
    "name": "818 TURKEY FARM ROAD BRIDGENORTH 7277",
    "locID": "LOC000087517087",
    "tech": "SATELLITE",
    "upgrade": "WIRELESS",
    "gnaf_pid": "GATAS717319231",
    "tech_change_status": "Eligible to Order",
    "program_type": "Fixed Wireless and Satellite Upgrade Program",
    "target_eligibility_quarter": "NA"
   }
  },
  {
   "type": "Feature",
   "geometry": {
    "type": "Point",
    "coordinates": [
     146.93794372,
     -41.38262697
    ]
   },
   "properties": {
    "name": "867 TURKEY FARM ROAD BRIDGENORTH 7277",
    "locID": "LOC000039419738",
    "tech": "WIRELESS",
    "upgrade": "NULL_NA",
    "gnaf_pid": "GATAS717413686",
    "tech_change_status": "Not Planned",
    "program_type": "Fixed Wireless and Satellite Upgrade Program",
    "target_eligibility_quarter": "NA"
   }
  },
  {
   "type": "Feature",
   "geometry": {
    "type": "Point",
    "coordinates": [
     146.9473166,
     -41.36742021
    ]
   },
   "properties": {
    "name": "105 JENNYFIELD ROAD BRIDGENORTH 7277",
    "locID": "LOC000006723228",
    "tech": "WIRELESS",
    "upgrade": "NULL_NA",
    "gnaf_pid": "GATAS717913039",
    "tech_change_status": "Not Planned",
    "program_type": "Fixed Wireless and Satellite Upgrade Program",
    "target_eligibility_quarter": "NA"
   }
  },
  {
   "type": "Feature",
   "geometry": {
    "type": "Point",
    "coordinates": [
     146.95183802,
     -41.36054743
    ]
   },
   "properties": {
    "name": "544 LONG PLAINS ROAD BRIDGENORTH 7277",
    "locID": "LOC000051148139",
    "tech": "WIRELESS",
    "upgrade": "NULL_NA",
    "gnaf_pid": "GATAS717913370",
    "tech_change_status": "Not Planned",
    "program_type": "Fixed Wireless and Satellite Upgrade Program",
    "target_eligibility_quarter": "NA"
   }
  },
  {
   "type": "Feature",
   "geometry": {
    "type": "Point",
    "coordinates": [
     146.98478348,
     -41.37807549
    ]
   },
   "properties": {
    "name": "610 BRIDGENORTH ROAD BRIDGENORTH 7277",
    "locID": "LOC000056620501",
    "tech": "WIRELESS",
    "upgrade": "NULL_NA",
    "gnaf_pid": "GATAS717939757",
    "tech_change_status": "Not Planned",
    "program_type": "Fixed Wireless and Satellite Upgrade Program",
    "target_eligibility_quarter": "NA"
   }
  },
  {
   "type": "Feature",
   "geometry": {
    "type": "Point",
    "coordinates": [
     146.99467322,
     -41.37984402
    ]
   },
   "properties": {
    "name": "506 BRIDGENORTH ROAD BRIDGENORTH 7277",
    "locID": "LOC000043738124",
    "tech": "WIRELESS",
    "upgrade": "NULL_NA",
    "gnaf_pid": "GATAS717990876",
    "tech_change_status": "Not Planned",
    "program_type": "Fixed Wireless and Satellite Upgrade Program",
    "target_eligibility_quarter": "NA"
   }
  },
  {
   "type": "Feature",
   "geometry": {
    "type": "Point",
    "coordinates": [
     146.98506938,
     -41.37497372
    ]
   },
   "properties": {
    "name": "107 MANEYS ROAD BRIDGENORTH 7277",
    "locID": "LOC000110975767",
    "tech": "WIRELESS",
    "upgrade": "NULL_NA",
    "gnaf_pid": "GATAS718109895",
    "tech_change_status": "Not Planned",
    "program_type": "Fixed Wireless and Satellite Upgrade Program",
    "target_eligibility_quarter": "NA"
   }
  },
  {
   "type": "Feature",
   "geometry": {
    "type": "Point",
    "coordinates": [
     146.97067409,
     -41.37688421
    ]
   },
   "properties": {
    "name": "780 LONG PLAINS ROAD BRIDGENORTH 7277",
    "locID": "LOC000113546797",
    "tech": "WIRELESS",
    "upgrade": "NULL_NA",
    "gnaf_pid": "GATAS718182375",
    "tech_change_status": "Not Planned",
    "program_type": "Fixed Wireless and Satellite Upgrade Program",
    "target_eligibility_quarter": "NA"
   }
  },
  {
   "type": "Feature",
   "geometry": {
    "type": "Point",
    "coordinates": [
     146.94222025,
     -41.37568803
    ]
   },
   "properties": {
    "name": "147 NOTLEY GORGE ROAD BRIDGENORTH 7277",
    "locID": "LOC100072052644",
    "tech": "WIRELESS",
    "upgrade": "NULL_NA",
    "gnaf_pid": "GATAS718479787",
    "tech_change_status": "Not Planned",
    "program_type": "Fixed Wireless and Satellite Upgrade Program",
    "target_eligibility_quarter": "NA"
   }
  },
  {
   "type": "Feature",
   "geometry": {
    "type": "Point",
    "coordinates": [
     146.96311435,
     -41.41149084
    ]
   },
   "properties": {
    "name": "55 SHAWS ROAD BRIDGENORTH 7277",
    "locID": "LOC000150782553",
    "tech": "WIRELESS",
    "upgrade": "NULL_NA",
    "gnaf_pid": "GATAS718482169",
    "tech_change_status": "Not Planned",
    "program_type": "Fixed Wireless and Satellite Upgrade Program",
    "target_eligibility_quarter": "NA"
   }
  },
  {
   "type": "Feature",
   "geometry": {
    "type": "Point",
    "coordinates": [
     146.94045027,
     -41.39330175
    ]
   },
   "properties": {
    "name": "899 TURKEY FARM ROAD BRIDGENORTH 7277",
    "locID": "LOC000043490366",
    "tech": "WIRELESS",
    "upgrade": "NULL_NA",
    "gnaf_pid": "GATAS718571076",
    "tech_change_status": "Not Planned",
    "program_type": "Fixed Wireless and Satellite Upgrade Program",
    "target_eligibility_quarter": "NA"
   }
  },
  {
   "type": "Feature",
   "geometry": {
    "type": "Point",
    "coordinates": [
     146.94456176,
     -41.36865799
    ]
   },
   "properties": {
    "name": "178A NOTLEY GORGE ROAD BRIDGENORTH 7277",
    "locID": "LOC000024315150",
    "tech": "WIRELESS",
    "upgrade": "NULL_NA",
    "gnaf_pid": "GATAS718579671",
    "tech_change_status": "Not Planned",
    "program_type": "Fixed Wireless and Satellite Upgrade Program",
    "target_eligibility_quarter": "NA"
   }
  },
  {
   "type": "Feature",
   "geometry": {
    "type": "Point",
    "coordinates": [
     146.95619934,
     -41.3710826
    ]
   },
   "properties": {
    "name": "70 JENNYFIELD ROAD BRIDGENORTH 7277",
    "locID": "LOC100079393932",
    "tech": "WIRELESS",
    "upgrade": "NULL_NA",
    "gnaf_pid": "GATAS719065549",
    "tech_change_status": "Not Planned",
    "program_type": "Fixed Wireless and Satellite Upgrade Program",
    "target_eligibility_quarter": "NA"
   }
  },
  {
   "type": "Feature",
   "geometry": {
    "type": "Point",
    "coordinates": [
     146.94914848,
     -41.37218659
    ]
   },
   "properties": {
    "name": "32 JENNYFIELD ROAD BRIDGENORTH 7277",
    "locID": "LOC100078161145",
    "tech": "WIRELESS",
    "upgrade": "NULL_NA",
    "gnaf_pid": "GATAS719066206",
    "tech_change_status": "Not Planned",
    "program_type": "Fixed Wireless and Satellite Upgrade Program",
    "target_eligibility_quarter": "NA"
   }
  },
  {
   "type": "Feature",
   "geometry": {
    "type": "Point",
    "coordinates": [
     146.94842119,
     -41.37504965
    ]
   },
   "properties": {
    "name": "146 NOTLEY GORGE ROAD BRIDGENORTH 7277",
    "locID": "LOC100072052637",
    "tech": "WIRELESS",
    "upgrade": "NULL_NA",
    "gnaf_pid": "GATAS719145855",
    "tech_change_status": "Not Planned",
    "program_type": "Fixed Wireless and Satellite Upgrade Program",
    "target_eligibility_quarter": "NA"
   }
  },
  {
   "type": "Feature",
   "geometry": {
    "type": "Point",
    "coordinates": [
     147.0002302,
     -41.38730163
    ]
   },
   "properties": {
    "name": "78 SOUTH BRIDGENORTH ROAD BRIDGENORTH 7277",
    "locID": "LOC000070289090",
    "tech": "WIRELESS",
    "upgrade": "NULL_NA",
    "gnaf_pid": "GATAS719381672",
    "tech_change_status": "Not Planned",
    "program_type": "Fixed Wireless and Satellite Upgrade Program",
    "target_eligibility_quarter": "NA"
   }
  },
  {
   "type": "Feature",
   "geometry": {
    "type": "Point",
    "coordinates": [
     146.93711224,
     -41.39441081
    ]
   },
   "properties": {
    "name": "890 TURKEY FARM ROAD BRIDGENORTH 7277",
    "locID": "LOC000090966083",
    "tech": "WIRELESS",
    "upgrade": "NULL_NA",
    "gnaf_pid": "GATAS719381998",
    "tech_change_status": "Not Planned",
    "program_type": "Fixed Wireless and Satellite Upgrade Program",
    "target_eligibility_quarter": "NA"
   }
  },
  {
   "type": "Feature",
   "geometry": {
    "type": "Point",
    "coordinates": [
     146.96775299,
     -41.38347517
    ]
   },
   "properties": {
    "name": "817 BRIDGENORTH ROAD BRIDGENORTH 7277",
    "locID": "LOC100081991074",
    "tech": "WIRELESS",
    "upgrade": "NULL_NA",
    "gnaf_pid": "GATAS721011640",
    "tech_change_status": "Not Planned",
    "program_type": "Fixed Wireless and Satellite Upgrade Program",
    "target_eligibility_quarter": "NA"
   }
  }
 ]
}