{
 "type": "FeatureCollection",
 "generated": "2024-10-27T16:26:04.621860",
 "suburb": "BRONTE PARK",
 "features": [
  {
   "type": "Feature",
   "geometry": {
    "type": "Point",
    "coordinates": [
     146.42494388,
     -42.1604944
    ]
   },
   "properties": {
    "name": "1873 FOURTEEN MILE ROAD BRONTE PARK 7140",
    "locID": "LOC000002680348",
    "tech": "NULL",
    "upgrade": "NULL_NA",
    "gnaf_pid": "GATAS702246995",
    "tech_change_status": "Not Planned"
   }
  },
  {
   "type": "Feature",
   "geometry": {
    "type": "Point",
    "coordinates": [
     146.49172968,
     -42.13579556
    ]
   },
   "properties": {
    "name": "378 MARLBOROUGH ROAD BRONTE PARK 7140",
    "locID": "LOC000181109199",
    "tech": "SATELLITE",
    "upgrade": "NULL_NA",
    "gnaf_pid": "GATAS702288184",
    "tech_change_status": "Not Planned"
   }
  },
  {
   "type": "Feature",
   "geometry": {
    "type": "Point",
    "coordinates": [
     146.43113295,
     -42.1488847
    ]
   },
   "properties": {
    "name": "13545 LYELL HIGHWAY BRONTE PARK 7140",
    "locID": "LOC000079881603",
    "tech": "SATELLITE",
    "upgrade": "NULL_NA",
    "gnaf_pid": "GATAS702289253",
    "tech_change_status": "Not Planned"
   }
  },
  {
   "type": "Feature",
   "geometry": {
    "type": "Point",
    "coordinates": [
     146.39490229,
     -42.14498009
    ]
   },
   "properties": {
    "name": "13762 LYELL HIGHWAY BRONTE PARK 7140",
    "locID": "LOC000107012128",
    "tech": "NULL",
    "upgrade": "NULL_NA",
    "gnaf_pid": "GATAS702399030",
    "tech_change_status": "Not Planned"
   }
  },
  {
   "type": "Feature",
   "geometry": {
    "type": "Point",
    "coordinates": [
     146.49090014,
     -42.1354811
    ]
   },
   "properties": {
    "name": "381 MARLBOROUGH ROAD BRONTE PARK 7140",
    "locID": "LOC000070480914",
    "tech": "SATELLITE",
    "upgrade": "NULL_NA",
    "gnaf_pid": "GATAS702715139",
    "tech_change_status": "Not Planned"
   }
  },
  {
   "type": "Feature",
   "geometry": {
    "type": "Point",
    "coordinates": [
     146.49096632,
     -42.13767311
    ]
   },
   "properties": {
    "name": "10 BRONTE ESTATE ROAD BRONTE PARK 7140",
    "locID": "LOC000081819731",
    "tech": "NULL",
    "upgrade": "NULL_NA",
    "gnaf_pid": "GATAS717239108",
    "tech_change_status": "Not Planned"
   }
  },
  {
   "type": "Feature",
   "geometry": {
    "type": "Point",
    "coordinates": [
     146.49166432,
     -42.13735988
    ]
   },
   "properties": {
    "name": "11 BRONTE ESTATE ROAD BRONTE PARK 7140",
    "locID": "LOC000095211996",
    "tech": "SATELLITE",
    "upgrade": "NULL_NA",
    "gnaf_pid": "GATAS717239109",
    "tech_change_status": "Not Planned"
   }
  },
  {
   "type": "Feature",
   "geometry": {
    "type": "Point",
    "coordinates": [
     146.49193551,
     -42.13731127
    ]
   },
   "properties": {
    "name": "13 BRONTE ESTATE ROAD BRONTE PARK 7140",
    "locID": "LOC000062499519",
    "tech": "NULL",
    "upgrade": "NULL_NA",
    "gnaf_pid": "GATAS717239111",
    "tech_change_status": "Not Planned"
   }
  },
  {
   "type": "Feature",
   "geometry": {
    "type": "Point",
    "coordinates": [
     146.49089056,
     -42.13813089
    ]
   },
   "properties": {
    "name": "16 BRONTE ESTATE ROAD BRONTE PARK 7140",
    "locID": "LOC000068245884",
    "tech": "SATELLITE",
    "upgrade": "NULL_NA",
    "gnaf_pid": "GATAS717239114",
    "tech_change_status": "Not Planned"
   }
  },
  {
   "type": "Feature",
   "geometry": {
    "type": "Point",
    "coordinates": [
     146.49113216,
     -42.13818285
    ]
   },
   "properties": {
    "name": "18 BRONTE ESTATE ROAD BRONTE PARK 7140",
    "locID": "LOC000074336203",
    "tech": "SATELLITE",
    "upgrade": "NULL_NA",
    "gnaf_pid": "GATAS717239115",
    "tech_change_status": "Not Planned"
   }
  },
  {
   "type": "Feature",
   "geometry": {
    "type": "Point",
    "coordinates": [
     146.49247394,
     -42.13730642
    ]
   },
   "properties": {
    "name": "19 BRONTE ESTATE ROAD BRONTE PARK 7140",
    "locID": "LOC000009239253",
    "tech": "NULL",
    "upgrade": "NULL_NA",
    "gnaf_pid": "GATAS717239116",
    "tech_change_status": "Not Planned"
   }
  },
  {
   "type": "Feature",
   "geometry": {
    "type": "Point",
    "coordinates": [
     146.49114712,
     -42.13655427
    ]
   },
   "properties": {
    "name": "1 BRONTE ESTATE ROAD BRONTE PARK 7140",
    "locID": "LOC000073878795",
    "tech": "SATELLITE",
    "upgrade": "NULL_NA",
    "gnaf_pid": "GATAS717239117",
    "tech_change_status": "Not Planned"
   }
  },
  {
   "type": "Feature",
   "geometry": {
    "type": "Point",
    "coordinates": [
     146.49136646,
     -42.13818316
    ]
   },
   "properties": {
    "name": "20 BRONTE ESTATE ROAD BRONTE PARK 7140",
    "locID": "LOC000052315675",
    "tech": "NULL",
    "upgrade": "NULL_NA",
    "gnaf_pid": "GATAS717239118",
    "tech_change_status": "Not Planned"
   }
  },
  {
   "type": "Feature",
   "geometry": {
    "type": "Point",
    "coordinates": [
     146.49270272,
     -42.13735585
    ]
   },
   "properties": {
    "name": "21 BRONTE ESTATE ROAD BRONTE PARK 7140",
    "locID": "LOC000034374715",
    "tech": "SATELLITE",
    "upgrade": "NULL_NA",
    "gnaf_pid": "GATAS717239119",
    "tech_change_status": "Not Planned"
   }
  },
  {
   "type": "Feature",
   "geometry": {
    "type": "Point",
    "coordinates": [
     146.49158714,
     -42.13820309
    ]
   },
   "properties": {
    "name": "22 BRONTE ESTATE ROAD BRONTE PARK 7140",
    "locID": "LOC000103639078",
    "tech": "NULL",
    "upgrade": "NULL_NA",
    "gnaf_pid": "GATAS717239120",
    "tech_change_status": "Not Planned"
   }
  },
  {
   "type": "Feature",
   "geometry": {
    "type": "Point",
    "coordinates": [
     146.49293766,
     -42.13738536
    ]
   },
   "properties": {
    "name": "23 BRONTE ESTATE ROAD BRONTE PARK 7140",
    "locID": "LOC000102775300",
    "tech": "NULL",
    "upgrade": "NULL_NA",
    "gnaf_pid": "GATAS717239121",
    "tech_change_status": "Not Planned"
   }
  },
  {
   "type": "Feature",
   "geometry": {
    "type": "Point",
    "coordinates": [
     146.49152012,
     -42.13792112
    ]
   },
   "properties": {
    "name": "24 BRONTE ESTATE ROAD BRONTE PARK 7140",
    "locID": "LOC000079689538",
    "tech": "NULL",
    "upgrade": "NULL_NA",
    "gnaf_pid": "GATAS717239122",
    "tech_change_status": "Not Planned"
   }
  },
  {
   "type": "Feature",
   "geometry": {
    "type": "Point",
    "coordinates": [
     146.49315365,
     -42.13744725
    ]
   },
   "properties": {
    "name": "25 BRONTE ESTATE ROAD BRONTE PARK 7140",
    "locID": "LOC000032499449",
    "tech": "SATELLITE",
    "upgrade": "NULL_NA",
    "gnaf_pid": "GATAS717239123",
    "tech_change_status": "Not Planned"
   }
  },
  {
   "type": "Feature",
   "geometry": {
    "type": "Point",
    "coordinates": [
     146.49153824,
     -42.13773653
    ]
   },
   "properties": {
    "name": "26 BRONTE ESTATE ROAD BRONTE PARK 7140",
    "locID": "LOC000063558366",
    "tech": "NULL",
    "upgrade": "NULL_NA",
    "gnaf_pid": "GATAS717239124",
    "tech_change_status": "Not Planned"
   }
  },
  {
   "type": "Feature",
   "geometry": {
    "type": "Point",
    "coordinates": [
     146.49180591,
     -42.13782885
    ]
   },
   "properties": {
    "name": "28 BRONTE ESTATE ROAD BRONTE PARK 7140",
    "locID": "LOC000057283797",
    "tech": "SATELLITE",
    "upgrade": "NULL_NA",
    "gnaf_pid": "GATAS717239126",
    "tech_change_status": "Not Planned"
   }
  },
  {
   "type": "Feature",
   "geometry": {
    "type": "Point",
    "coordinates": [
     146.49089924,
     -42.13701703
    ]
   },
   "properties": {
    "name": "2 BRONTE ESTATE ROAD BRONTE PARK 7140",
    "locID": "LOC000021307974",
    "tech": "NULL",
    "upgrade": "NULL_NA",
    "gnaf_pid": "GATAS717239127",
    "tech_change_status": "Not Planned"
   }
  },
  {
   "type": "Feature",
   "geometry": {
    "type": "Point",
    "coordinates": [
     146.4920426,
     -42.13780695
    ]
   },
   "properties": {
    "name": "30 BRONTE ESTATE ROAD BRONTE PARK 7140",
    "locID": "LOC000060104766",
    "tech": "NULL",
    "upgrade": "NULL_NA",
    "gnaf_pid": "GATAS717239128",
    "tech_change_status": "Not Planned"
   }
  },
  {
   "type": "Feature",
   "geometry": {
    "type": "Point",
    "coordinates": [
     146.49186728,
     -42.13804139
    ]
   },
   "properties": {
    "name": "32 BRONTE ESTATE ROAD BRONTE PARK 7140",
    "locID": "LOC000008533738",
    "tech": "NULL",
    "upgrade": "NULL_NA",
    "gnaf_pid": "GATAS717239129",
    "tech_change_status": "Not Planned"
   }
  },
  {
   "type": "Feature",
   "geometry": {
    "type": "Point",
    "coordinates": [
     146.49187953,
     -42.13824258
    ]
   },
   "properties": {
    "name": "34 BRONTE ESTATE ROAD BRONTE PARK 7140",
    "locID": "LOC000028454135",
    "tech": "NULL",
    "upgrade": "NULL_NA",
    "gnaf_pid": "GATAS717239130",
    "tech_change_status": "Not Planned"
   }
  },
  {
   "type": "Feature",
   "geometry": {
    "type": "Point",
    "coordinates": [
     146.49132529,
     -42.13667171
    ]
   },
   "properties": {
    "name": "3 BRONTE ESTATE ROAD BRONTE PARK 7140",
    "locID": "LOC000017113187",
    "tech": "NULL",
    "upgrade": "NULL_NA",
    "gnaf_pid": "GATAS717239131",
    "tech_change_status": "Not Planned"
   }
  },
  {
   "type": "Feature",
   "geometry": {
    "type": "Point",
    "coordinates": [
     146.49260572,
     -42.13805622
    ]
   },
   "properties": {
    "name": "42 BRONTE ESTATE ROAD BRONTE PARK 7140",
    "locID": "LOC000091942260",
    "tech": "NULL",
    "upgrade": "NULL_NA",
    "gnaf_pid": "GATAS717239133",
    "tech_change_status": "Not Planned"
   }
  },
  {
   "type": "Feature",
   "geometry": {
    "type": "Point",
    "coordinates": [
     146.49263517,
     -42.13787281
    ]
   },
   "properties": {
    "name": "44 BRONTE ESTATE ROAD BRONTE PARK 7140",
    "locID": "LOC000015152859",
    "tech": "SATELLITE",
    "upgrade": "NULL_NA",
    "gnaf_pid": "GATAS717239134",
    "tech_change_status": "Not Planned"
   }
  },
  {
   "type": "Feature",
   "geometry": {
    "type": "Point",
    "coordinates": [
     146.49088605,
     -42.13724422
    ]
   },
   "properties": {
    "name": "4 BRONTE ESTATE ROAD BRONTE PARK 7140",
    "locID": "LOC000001852089",
    "tech": "NULL",
    "upgrade": "NULL_NA",
    "gnaf_pid": "GATAS717239136",
    "tech_change_status": "Not Planned"
   }
  },
  {
   "type": "Feature",
   "geometry": {
    "type": "Point",
    "coordinates": [
     146.49314433,
     -42.13798063
    ]
   },
   "properties": {
    "name": "50 BRONTE ESTATE ROAD BRONTE PARK 7140",
    "locID": "LOC000072697533",
    "tech": "NULL",
    "upgrade": "NULL_NA",
    "gnaf_pid": "GATAS717239137",
    "tech_change_status": "Not Planned"
   }
  },
  {
   "type": "Feature",
   "geometry": {
    "type": "Point",
    "coordinates": [
     146.49148291,
     -42.13680548
    ]
   },
   "properties": {
    "name": "5 BRONTE ESTATE ROAD BRONTE PARK 7140",
    "locID": "LOC000106625712",
    "tech": "SATELLITE",
    "upgrade": "NULL_NA",
    "gnaf_pid": "GATAS717239138",
    "tech_change_status": "Not Planned"
   }
  },
  {
   "type": "Feature",
   "geometry": {
    "type": "Point",
    "coordinates": [
     146.49150328,
     -42.13698277
    ]
   },
   "properties": {
    "name": "7 BRONTE ESTATE ROAD BRONTE PARK 7140",
    "locID": "LOC000040546960",
    "tech": "SATELLITE",
    "upgrade": "NULL_NA",
    "gnaf_pid": "GATAS717239140",
    "tech_change_status": "Not Planned"
   }
  },
  {
   "type": "Feature",
   "geometry": {
    "type": "Point",
    "coordinates": [
     146.4909872,
     -42.13748396
    ]
   },
   "properties": {
    "name": "8 BRONTE ESTATE ROAD BRONTE PARK 7140",
    "locID": "LOC000060212018",
    "tech": "NULL",
    "upgrade": "NULL_NA",
    "gnaf_pid": "GATAS717239141",
    "tech_change_status": "Not Planned"
   }
  },
  {
   "type": "Feature",
   "geometry": {
    "type": "Point",
    "coordinates": [
     146.49152583,
     -42.1371632
    ]
   },
   "properties": {
    "name": "9 BRONTE ESTATE ROAD BRONTE PARK 7140",
    "locID": "LOC000082613688",
    "tech": "SATELLITE",
    "upgrade": "NULL_NA",
    "gnaf_pid": "GATAS717239142",
    "tech_change_status": "Not Planned"
   }
  },
  {
   "type": "Feature",
   "geometry": {
    "type": "Point",
    "coordinates": [
     146.4906599,
     -42.14266403
    ]
   },
   "properties": {
    "name": "1 BRONTE HEIGHTS BRONTE PARK 7140",
    "locID": "LOC000006767009",
    "tech": "NULL",
    "upgrade": "NULL_NA",
    "gnaf_pid": "GATAS717239143",
    "tech_change_status": "Not Planned"
   }
  },
  {
   "type": "Feature",
   "geometry": {
    "type": "Point",
    "coordinates": [
     146.49112002,
     -42.14404838
    ]
   },
   "properties": {
    "name": "2 BRONTE HEIGHTS BRONTE PARK 7140",
    "locID": "LOC000057285433",
    "tech": "SATELLITE",
    "upgrade": "NULL_NA",
    "gnaf_pid": "GATAS717239144",
    "tech_change_status": "Not Planned"
   }
  },
  {
   "type": "Feature",
   "geometry": {
    "type": "Point",
    "coordinates": [
     146.49145718,
     -42.14250769
    ]
   },
   "properties": {
    "name": "3 BRONTE HEIGHTS BRONTE PARK 7140",
    "locID": "LOC000106753372",
    "tech": "NULL",
    "upgrade": "NULL_NA",
    "gnaf_pid": "GATAS717239145",
    "tech_change_status": "Not Planned"
   }
  },
  {
   "type": "Feature",
   "geometry": {
    "type": "Point",
    "coordinates": [
     146.49198705,
     -42.14396985
    ]
   },
   "properties": {
    "name": "4 BRONTE HEIGHTS BRONTE PARK 7140",
    "locID": "LOC000059573675",
    "tech": "NULL",
    "upgrade": "NULL_NA",
    "gnaf_pid": "GATAS717239146",
    "tech_change_status": "Not Planned"
   }
  },
  {
   "type": "Feature",
   "geometry": {
    "type": "Point",
    "coordinates": [
     146.49259357,
     -42.14203914
    ]
   },
   "properties": {
    "name": "5 BRONTE HEIGHTS BRONTE PARK 7140",
    "locID": "LOC000034185766",
    "tech": "SATELLITE",
    "upgrade": "NULL_NA",
    "gnaf_pid": "GATAS717239147",
    "tech_change_status": "Not Planned"
   }
  },
  {
   "type": "Feature",
   "geometry": {
    "type": "Point",
    "coordinates": [
     146.49315692,
     -42.14412854
    ]
   },
   "properties": {
    "name": "6 BRONTE HEIGHTS BRONTE PARK 7140",
    "locID": "LOC000142971077",
    "tech": "NULL",
    "upgrade": "NULL_NA",
    "gnaf_pid": "GATAS717239148",
    "tech_change_status": "Not Planned"
   }
  },
  {
   "type": "Feature",
   "geometry": {
    "type": "Point",
    "coordinates": [
     146.49284263,
     -42.14262197
    ]
   },
   "properties": {
    "name": "7 BRONTE HEIGHTS BRONTE PARK 7140",
    "locID": "LOC000066019929",
    "tech": "NULL",
    "upgrade": "NULL_NA",
    "gnaf_pid": "GATAS717239149",
    "tech_change_status": "Not Planned"
   }
  },
  {
   "type": "Feature",
   "geometry": {
    "type": "Point",
    "coordinates": [
     146.49306281,
     -42.14331111
    ]
   },
   "properties": {
    "name": "8 BRONTE HEIGHTS BRONTE PARK 7140",
    "locID": "LOC000040945265",
    "tech": "NULL",
    "upgrade": "NULL_NA",
    "gnaf_pid": "GATAS717239150",
    "tech_change_status": "Not Planned"
   }
  },
  {
   "type": "Feature",
   "geometry": {
    "type": "Point",
    "coordinates": [
     146.49220021,
     -42.13835752
    ]
   },
   "properties": {
    "name": "38 BRONTE ESTATE ROAD BRONTE PARK 7140",
    "locID": "LOC000106531568",
    "tech": "NULL",
    "upgrade": "NULL_NA",
    "gnaf_pid": "GATAS717240473",
    "tech_change_status": "Not Planned"
   }
  },
  {
   "type": "Feature",
   "geometry": {
    "type": "Point",
    "coordinates": [
     146.49249516,
     -42.14503793
    ]
   },
   "properties": {
    "name": "270 MARLBOROUGH ROAD BRONTE PARK 7140",
    "locID": "LOC100078164694",
    "tech": "NULL",
    "upgrade": "NULL_NA",
    "gnaf_pid": "GATAS717318311",
    "tech_change_status": "Not Planned"
   }
  },
  {
   "type": "Feature",
   "geometry": {
    "type": "Point",
    "coordinates": [
     146.48991281,
     -42.12582048
    ]
   },
   "properties": {
    "name": "317 MARLBOROUGH ROAD BRONTE PARK 7140",
    "locID": "LOC000042708294",
    "tech": "SATELLITE",
    "upgrade": "NULL_NA",
    "gnaf_pid": "GATAS717318312",
    "tech_change_status": "Not Planned"
   }
  },
  {
   "type": "Feature",
   "geometry": {
    "type": "Point",
    "coordinates": [
     146.46954383,
     -42.18919128
    ]
   },
   "properties": {
    "name": "294 BRONTE LAGOON ROAD BRONTE PARK 7140",
    "locID": "LOC000087223598",
    "tech": "NULL",
    "upgrade": "NULL_NA",
    "gnaf_pid": "GATAS717648539",
    "tech_change_status": "Not Planned"
   }
  },
  {
   "type": "Feature",
   "geometry": {
    "type": "Point",
    "coordinates": [
     146.47072422,
     -42.19050216
    ]
   },
   "properties": {
    "name": "295 BRONTE LAGOON ROAD BRONTE PARK 7140",
    "locID": "LOC000003595170",
    "tech": "NULL",
    "upgrade": "NULL_NA",
    "gnaf_pid": "GATAS717648540",
    "tech_change_status": "Not Planned"
   }
  },
  {
   "type": "Feature",
   "geometry": {
    "type": "Point",
    "coordinates": [
     146.46931432,
     -42.18943597
    ]
   },
   "properties": {
    "name": "296 BRONTE LAGOON ROAD BRONTE PARK 7140",
    "locID": "LOC000012129672",
    "tech": "NULL",
    "upgrade": "NULL_NA",
    "gnaf_pid": "GATAS717648541",
    "tech_change_status": "Not Planned"
   }
  },
  {
   "type": "Feature",
   "geometry": {
    "type": "Point",
    "coordinates": [
     146.47044078,
     -42.1903077
    ]
   },
   "properties": {
    "name": "297 BRONTE LAGOON ROAD BRONTE PARK 7140",
    "locID": "LOC000083605857",
    "tech": "NULL",
    "upgrade": "NULL_NA",
    "gnaf_pid": "GATAS717648542",
    "tech_change_status": "Not Planned"
   }
  },
  {
   "type": "Feature",
   "geometry": {
    "type": "Point",
    "coordinates": [
     146.46919115,
     -42.18957675
    ]
   },
   "properties": {
    "name": "298 BRONTE LAGOON ROAD BRONTE PARK 7140",
    "locID": "LOC000023432637",
    "tech": "NULL",
    "upgrade": "NULL_NA",
    "gnaf_pid": "GATAS717648543",
    "tech_change_status": "Not Planned"
   }
  },
  {
   "type": "Feature",
   "geometry": {
    "type": "Point",
    "coordinates": [
     146.46886413,
     -42.18970601
    ]
   },
   "properties": {
    "name": "300 BRONTE LAGOON ROAD BRONTE PARK 7140",
    "locID": "LOC000019238390",
    "tech": "NULL",
    "upgrade": "NULL_NA",
    "gnaf_pid": "GATAS717648544",
    "tech_change_status": "Not Planned"
   }
  },
  {
   "type": "Feature",
   "geometry": {
    "type": "Point",
    "coordinates": [
     146.46999255,
     -42.19003316
    ]
   },
   "properties": {
    "name": "301 BRONTE LAGOON ROAD BRONTE PARK 7140",
    "locID": "LOC000041433476",
    "tech": "NULL",
    "upgrade": "NULL_NA",
    "gnaf_pid": "GATAS717648545",
    "tech_change_status": "Not Planned"
   }
  },
  {
   "type": "Feature",
   "geometry": {
    "type": "Point",
    "coordinates": [
     146.4690365,
     -42.18993323
    ]
   },
   "properties": {
    "name": "302 BRONTE LAGOON ROAD BRONTE PARK 7140",
    "locID": "LOC000098823782",
    "tech": "NULL",
    "upgrade": "NULL_NA",
    "gnaf_pid": "GATAS717648546",
    "tech_change_status": "Not Planned"
   }
  },
  {
   "type": "Feature",
   "geometry": {
    "type": "Point",
    "coordinates": [
     146.4697934,
     -42.19035081
    ]
   },
   "properties": {
    "name": "303 BRONTE LAGOON ROAD BRONTE PARK 7140",
    "locID": "LOC000068300643",
    "tech": "NULL",
    "upgrade": "NULL_NA",
    "gnaf_pid": "GATAS717648547",
    "tech_change_status": "Not Planned"
   }
  },
  {
   "type": "Feature",
   "geometry": {
    "type": "Point",
    "coordinates": [
     146.46893566,
     -42.19009619
    ]
   },
   "properties": {
    "name": "304 BRONTE LAGOON ROAD BRONTE PARK 7140",
    "locID": "LOC000038410139",
    "tech": "NULL",
    "upgrade": "NULL_NA",
    "gnaf_pid": "GATAS717648548",
    "tech_change_status": "Not Planned"
   }
  },
  {
   "type": "Feature",
   "geometry": {
    "type": "Point",
    "coordinates": [
     146.46968216,
     -42.19051336
    ]
   },
   "properties": {
    "name": "305 BRONTE LAGOON ROAD BRONTE PARK 7140",
    "locID": "LOC000041742640",
    "tech": "NULL",
    "upgrade": "NULL_NA",
    "gnaf_pid": "GATAS717648549",
    "tech_change_status": "Not Planned"
   }
  },
  {
   "type": "Feature",
   "geometry": {
    "type": "Point",
    "coordinates": [
     146.46961909,
     -42.19065597
    ]
   },
   "properties": {
    "name": "307 BRONTE LAGOON ROAD BRONTE PARK 7140",
    "locID": "LOC000047676800",
    "tech": "NULL",
    "upgrade": "NULL_NA",
    "gnaf_pid": "GATAS717648550",
    "tech_change_status": "Not Planned"
   }
  },
  {
   "type": "Feature",
   "geometry": {
    "type": "Point",
    "coordinates": [
     146.46886202,
     -42.19028337
    ]
   },
   "properties": {
    "name": "308 BRONTE LAGOON ROAD BRONTE PARK 7140",
    "locID": "LOC000096917628",
    "tech": "NULL",
    "upgrade": "NULL_NA",
    "gnaf_pid": "GATAS717648551",
    "tech_change_status": "Not Planned"
   }
  },
  {
   "type": "Feature",
   "geometry": {
    "type": "Point",
    "coordinates": [
     146.46877453,
     -42.19059048
    ]
   },
   "properties": {
    "name": "310 BRONTE LAGOON ROAD BRONTE PARK 7140",
    "locID": "LOC000061033925",
    "tech": "NULL",
    "upgrade": "NULL_NA",
    "gnaf_pid": "GATAS717648552",
    "tech_change_status": "Not Planned"
   }
  },
  {
   "type": "Feature",
   "geometry": {
    "type": "Point",
    "coordinates": [
     146.47010167,
     -42.19077562
    ]
   },
   "properties": {
    "name": "311 BRONTE LAGOON ROAD BRONTE PARK 7140",
    "locID": "LOC000060056497",
    "tech": "NULL",
    "upgrade": "NULL_NA",
    "gnaf_pid": "GATAS717648553",
    "tech_change_status": "Not Planned"
   }
  },
  {
   "type": "Feature",
   "geometry": {
    "type": "Point",
    "coordinates": [
     146.47038717,
     -42.19090657
    ]
   },
   "properties": {
    "name": "315 BRONTE LAGOON ROAD BRONTE PARK 7140",
    "locID": "LOC000106982220",
    "tech": "NULL",
    "upgrade": "NULL_NA",
    "gnaf_pid": "GATAS717648554",
    "tech_change_status": "Not Planned"
   }
  },
  {
   "type": "Feature",
   "geometry": {
    "type": "Point",
    "coordinates": [
     146.4697393,
     -42.19108083
    ]
   },
   "properties": {
    "name": "317 BRONTE LAGOON ROAD BRONTE PARK 7140",
    "locID": "LOC000010134651",
    "tech": "NULL",
    "upgrade": "NULL_NA",
    "gnaf_pid": "GATAS717648555",
    "tech_change_status": "Not Planned"
   }
  },
  {
   "type": "Feature",
   "geometry": {
    "type": "Point",
    "coordinates": [
     146.46953403,
     -42.19117846
    ]
   },
   "properties": {
    "name": "319 BRONTE LAGOON ROAD BRONTE PARK 7140",
    "locID": "LOC000077268938",
    "tech": "NULL",
    "upgrade": "NULL_NA",
    "gnaf_pid": "GATAS717648556",
    "tech_change_status": "Not Planned"
   }
  },
  {
   "type": "Feature",
   "geometry": {
    "type": "Point",
    "coordinates": [
     146.4692356,
     -42.19137357
    ]
   },
   "properties": {
    "name": "321 BRONTE LAGOON ROAD BRONTE PARK 7140",
    "locID": "LOC000020131910",
    "tech": "NULL",
    "upgrade": "NULL_NA",
    "gnaf_pid": "GATAS717648557",
    "tech_change_status": "Not Planned"
   }
  },
  {
   "type": "Feature",
   "geometry": {
    "type": "Point",
    "coordinates": [
     146.47031787,
     -42.18967737
    ]
   },
   "properties": {
    "name": "293 BRONTE LAGOON ROAD BRONTE PARK 7140",
    "locID": "LOC000032764580",
    "tech": "NULL",
    "upgrade": "NULL_NA",
    "gnaf_pid": "GATAS717683721",
    "tech_change_status": "Not Planned"
   }
  },
  {
   "type": "Feature",
   "geometry": {
    "type": "Point",
    "coordinates": [
     146.47026181,
     -42.19018799
    ]
   },
   "properties": {
    "name": "299 BRONTE LAGOON ROAD BRONTE PARK 7140",
    "locID": "LOC000093695849",
    "tech": "NULL",
    "upgrade": "NULL_NA",
    "gnaf_pid": "GATAS717683722",
    "tech_change_status": "Not Planned"
   }
  },
  {
   "type": "Feature",
   "geometry": {
    "type": "Point",
    "coordinates": [
     146.46945843,
     -42.19024578
    ]
   },
   "properties": {
    "name": "306 BRONTE LAGOON ROAD BRONTE PARK 7140",
    "locID": "LOC000099399446",
    "tech": "NULL",
    "upgrade": "NULL_NA",
    "gnaf_pid": "GATAS717683723",
    "tech_change_status": "Not Planned"
   }
  },
  {
   "type": "Feature",
   "geometry": {
    "type": "Point",
    "coordinates": [
     146.46994794,
     -42.19062692
    ]
   },
   "properties": {
    "name": "309 BRONTE LAGOON ROAD BRONTE PARK 7140",
    "locID": "LOC000025085060",
    "tech": "NULL",
    "upgrade": "NULL_NA",
    "gnaf_pid": "GATAS717683724",
    "tech_change_status": "Not Planned"
   }
  },
  {
   "type": "Feature",
   "geometry": {
    "type": "Point",
    "coordinates": [
     146.49430513,
     -42.13627026
    ]
   },
   "properties": {
    "name": "UNIT 100, 378 MARLBOROUGH ROAD BRONTE PARK 7140",
    "locID": "LOC000133815173",
    "tech": "SATELLITE",
    "upgrade": "NULL_NA",
    "gnaf_pid": "GATAS718235811",
    "tech_change_status": "Not Planned"
   }
  },
  {
   "type": "Feature",
   "geometry": {
    "type": "Point",
    "coordinates": [
     146.49306949,
     -42.13509373
    ]
   },
   "properties": {
    "name": "UNIT 18, 378 MARLBOROUGH ROAD BRONTE PARK 7140",
    "locID": "LOC000133815187",
    "tech": "SATELLITE",
    "upgrade": "NULL_NA",
    "gnaf_pid": "GATAS718235812",
    "tech_change_status": "Not Planned"
   }
  },
  {
   "type": "Feature",
   "geometry": {
    "type": "Point",
    "coordinates": [
     146.49280553,
     -42.13507479
    ]
   },
   "properties": {
    "name": "UNIT 19, 378 MARLBOROUGH ROAD BRONTE PARK 7140",
    "locID": "LOC000181109199",
    "tech": "SATELLITE",
    "upgrade": "NULL_NA",
    "gnaf_pid": "GATAS718235813",
    "tech_change_status": "Not Planned"
   }
  },
  {
   "type": "Feature",
   "geometry": {
    "type": "Point",
    "coordinates": [
     146.49254022,
     -42.13504221
    ]
   },
   "properties": {
    "name": "UNIT 20, 378 MARLBOROUGH ROAD BRONTE PARK 7140",
    "locID": "LOC000133815207",
    "tech": "SATELLITE",
    "upgrade": "NULL_NA",
    "gnaf_pid": "GATAS718235814",
    "tech_change_status": "Not Planned"
   }
  },
  {
   "type": "Feature",
   "geometry": {
    "type": "Point",
    "coordinates": [
     146.49264883,
     -42.13577522
    ]
   },
   "properties": {
    "name": "UNIT 4, 378 MARLBOROUGH ROAD BRONTE PARK 7140",
    "locID": "LOC000133815211",
    "tech": "SATELLITE",
    "upgrade": "NULL_NA",
    "gnaf_pid": "GATAS718235815",
    "tech_change_status": "Not Planned"
   }
  },
  {
   "type": "Feature",
   "geometry": {
    "type": "Point",
    "coordinates": [
     146.49295287,
     -42.13573796
    ]
   },
   "properties": {
    "name": "UNIT 5, 378 MARLBOROUGH ROAD BRONTE PARK 7140",
    "locID": "LOC000133815224",
    "tech": "SATELLITE",
    "upgrade": "NULL_NA",
    "gnaf_pid": "GATAS718235816",
    "tech_change_status": "Not Planned"
   }
  },
  {
   "type": "Feature",
   "geometry": {
    "type": "Point",
    "coordinates": [
     146.49322642,
     -42.13570832
    ]
   },
   "properties": {
    "name": "UNIT 6, 378 MARLBOROUGH ROAD BRONTE PARK 7140",
    "locID": "LOC100076349869",
    "tech": "SATELLITE",
    "upgrade": "NULL_NA",
    "gnaf_pid": "GATAS718235817",
    "tech_change_status": "Not Planned"
   }
  },
  {
   "type": "Feature",
   "geometry": {
    "type": "Point",
    "coordinates": [
     146.49359986,
     -42.13566269
    ]
   },
   "properties": {
    "name": "UNIT 7, 378 MARLBOROUGH ROAD BRONTE PARK 7140",
    "locID": "LOC000133815248",
    "tech": "SATELLITE",
    "upgrade": "NULL_NA",
    "gnaf_pid": "GATAS718235818",
    "tech_change_status": "Not Planned"
   }
  },
  {
   "type": "Feature",
   "geometry": {
    "type": "Point",
    "coordinates": [
     146.49438506,
     -42.13676775
    ]
   },
   "properties": {
    "name": "UNIT 13, 378 MARLBOROUGH ROAD BRONTE PARK 7140",
    "locID": "LOC000150907051",
    "tech": "SATELLITE",
    "upgrade": "NULL_NA",
    "gnaf_pid": "GATAS718670739",
    "tech_change_status": "Not Planned"
   }
  },
  {
   "type": "Feature",
   "geometry": {
    "type": "Point",
    "coordinates": [
     146.49253059,
     -42.13677275
    ]
   },
   "properties": {
    "name": "UNIT 102, 378 MARLBOROUGH ROAD BRONTE PARK 7140",
    "locID": "LOC000181109199",
    "tech": "SATELLITE",
    "upgrade": "NULL_NA",
    "gnaf_pid": "GATAS719065592",
    "tech_change_status": "Not Planned"
   }
  },
  {
   "type": "Feature",
   "geometry": {
    "type": "Point",
    "coordinates": [
     146.49478776,
     -42.13712255
    ]
   },
   "properties": {
    "name": "UNIT 103, 378 MARLBOROUGH ROAD BRONTE PARK 7140",
    "locID": "LOC000181109199",
    "tech": "SATELLITE",
    "upgrade": "NULL_NA",
    "gnaf_pid": "GATAS719065904",
    "tech_change_status": "Not Planned"
   }
  },
  {
   "type": "Feature",
   "geometry": {
    "type": "Point",
    "coordinates": [
     146.49172968,
     -42.13579556
    ]
   },
   "properties": {
    "name": "UNIT 1, 378 MARLBOROUGH ROAD BRONTE PARK 7140",
    "locID": "LOC000180795520",
    "tech": "SATELLITE",
    "upgrade": "NULL_NA",
    "gnaf_pid": "GATAS719065953",
    "tech_change_status": "Not Planned"
   }
  },
  {
   "type": "Feature",
   "geometry": {
    "type": "Point",
    "coordinates": [
     146.49232182,
     -42.13580641
    ]
   },
   "properties": {
    "name": "UNIT 3, 378 MARLBOROUGH ROAD BRONTE PARK 7140",
    "locID": "LOC000180795499",
    "tech": "SATELLITE",
    "upgrade": "NULL_NA",
    "gnaf_pid": "GATAS719066045",
    "tech_change_status": "Not Planned"
   }
  },
  {
   "type": "Feature",
   "geometry": {
    "type": "Point",
    "coordinates": [
     146.49203323,
     -42.13583267
    ]
   },
   "properties": {
    "name": "UNIT 2, 378 MARLBOROUGH ROAD BRONTE PARK 7140",
    "locID": "LOC000150781470",
    "tech": "SATELLITE",
    "upgrade": "NULL_NA",
    "gnaf_pid": "GATAS719066080",
    "tech_change_status": "Not Planned"
   }
  },
  {
   "type": "Feature",
   "geometry": {
    "type": "Point",
    "coordinates": [
     146.49151924,
     -42.13634872
    ]
   },
   "properties": {
    "name": "UNIT 101, 378 MARLBOROUGH ROAD BRONTE PARK 7140",
    "locID": "LOC000181109199",
    "tech": "SATELLITE",
    "upgrade": "NULL_NA",
    "gnaf_pid": "GATAS719066185",
    "tech_change_status": "Not Planned"
   }
  },
  {
   "type": "Feature",
   "geometry": {
    "type": "Point",
    "coordinates": [
     146.49473949,
     -42.13583854
    ]
   },
   "properties": {
    "name": "UNIT 9, 378 MARLBOROUGH ROAD BRONTE PARK 7140",
    "locID": "LOC000179351896",
    "tech": "SATELLITE",
    "upgrade": "NULL_NA",
    "gnaf_pid": "GATAS719072640",
    "tech_change_status": "Not Planned"
   }
  },
  {
   "type": "Feature",
   "geometry": {
    "type": "Point",
    "coordinates": [
     146.4933704,
     -42.13851977
    ]
   },
   "properties": {
    "name": "51 BRONTE ESTATE ROAD BRONTE PARK 7140",
    "locID": "LOC000181771188",
    "tech": "SATELLITE",
    "upgrade": "NULL_NA",
    "gnaf_pid": "GATAS719850948",
    "tech_change_status": "Not Planned"
   }
  },
  {
   "type": "Feature",
   "geometry": {
    "type": "Point",
    "coordinates": [
     146.49300314,
     -42.13854589
    ]
   },
   "properties": {
    "name": "58 BRONTE ESTATE ROAD BRONTE PARK 7140",
    "locID": "LOC100078164687",
    "tech": "NULL",
    "upgrade": "NULL_NA",
    "gnaf_pid": "GATAS719851854",
    "tech_change_status": "Not Planned"
   }
  },
  {
   "type": "Feature",
   "geometry": {
    "type": "Point",
    "coordinates": [
     146.49447885,
     -42.13566301
    ]
   },
   "properties": {
    "name": "UNIT 8, 378 MARLBOROUGH ROAD BRONTE PARK 7140",
    "locID": "LOC000180795499",
    "tech": "SATELLITE",
    "upgrade": "NULL_NA",
    "gnaf_pid": "GATAS720193202",
    "tech_change_status": "Not Planned"
   }
  },
  {
   "type": "Feature",
   "geometry": {
    "type": "Point",
    "coordinates": [
     146.49414358,
     -42.13563467
    ]
   },
   "properties": {
    "name": "UNIT 17, 378 MARLBOROUGH ROAD BRONTE PARK 7140",
    "locID": "LOC000181109199",
    "tech": "SATELLITE",
    "upgrade": "NULL_NA",
    "gnaf_pid": "GATAS720193356",
    "tech_change_status": "Not Planned"
   }
  },
  {
   "type": "Feature",
   "geometry": {
    "type": "Point",
    "coordinates": [
     146.49493433,
     -42.1363843
    ]
   },
   "properties": {
    "name": "UNIT 11, 378 MARLBOROUGH ROAD BRONTE PARK 7140",
    "locID": "LOC000180795512",
    "tech": "SATELLITE",
    "upgrade": "NULL_NA",
    "gnaf_pid": "GATAS720811100",
    "tech_change_status": "Not Planned"
   }
  },
  {
   "type": "Feature",
   "geometry": {
    "type": "Point",
    "coordinates": [
     146.49494849,
     -42.13671506
    ]
   },
   "properties": {
    "name": "UNIT 12, 378 MARLBOROUGH ROAD BRONTE PARK 7140",
    "locID": "LOC000181109199",
    "tech": "SATELLITE",
    "upgrade": "NULL_NA",
    "gnaf_pid": "GATAS720811254",
    "tech_change_status": "Not Planned"
   }
  },
  {
   "type": "Feature",
   "geometry": {
    "type": "Point",
    "coordinates": [
     146.49365871,
     -42.13686488
    ]
   },
   "properties": {
    "name": "UNIT 15, 378 MARLBOROUGH ROAD BRONTE PARK 7140",
    "locID": "LOC000180795531",
    "tech": "SATELLITE",
    "upgrade": "NULL_NA",
    "gnaf_pid": "GATAS720811691",
    "tech_change_status": "Not Planned"
   }
  },
  {
   "type": "Feature",
   "geometry": {
    "type": "Point",
    "coordinates": [
     146.49488961,
     -42.13607916
    ]
   },
   "properties": {
    "name": "UNIT 10, 378 MARLBOROUGH ROAD BRONTE PARK 7140",
    "locID": "LOC000180795508",
    "tech": "SATELLITE",
    "upgrade": "NULL_NA",
    "gnaf_pid": "GATAS720811845",
    "tech_change_status": "Not Planned"
   }
  },
  {
   "type": "Feature",
   "geometry": {
    "type": "Point",
    "coordinates": [
     146.49406448,
     -42.1368464
    ]
   },
   "properties": {
    "name": "UNIT 14, 378 MARLBOROUGH ROAD BRONTE PARK 7140",
    "locID": "LOC000180795520",
    "tech": "SATELLITE",
    "upgrade": "NULL_NA",
    "gnaf_pid": "GATAS720811875",
    "tech_change_status": "Not Planned"
   }
  },
  {
   "type": "Feature",
   "geometry": {
    "type": "Point",
    "coordinates": [
     146.49172968,
     -42.13579556
    ]
   },
   "properties": {
    "name": "UNIT 16, 378 MARLBOROUGH ROAD BRONTE PARK 7140",
    "locID": "LOC000180795549",
    "tech": "SATELLITE",
    "upgrade": "NULL_NA",
    "gnaf_pid": "GATAS720816521",
    "tech_change_status": "Not Planned"
   }
  },
  {
   "type": "Feature",
   "geometry": {
    "type": "Point",
    "coordinates": [
     146.49420053,
     -42.13417372
    ]
   },
   "properties": {
    "name": "UNIT 104, 378 MARLBOROUGH ROAD BRONTE PARK 7140",
    "locID": "LOC000181109199",
    "tech": "SATELLITE",
    "upgrade": "NULL_NA",
    "gnaf_pid": "GATAS720882897",
    "tech_change_status": "Not Planned"
   }
  },
  {
   "type": "Feature",
   "geometry": {
    "type": "Point",
    "coordinates": [
     146.49312852,
     -42.13444978
    ]
   },
   "properties": {
    "name": "UNIT 105, 378 MARLBOROUGH ROAD BRONTE PARK 7140",
    "locID": "LOC000181109199",
    "tech": "SATELLITE",
    "upgrade": "NULL_NA",
    "gnaf_pid": "GATAS720882948",
    "tech_change_status": "Not Planned"
   }
  },
  {
   "type": "Feature",
   "geometry": {
    "type": "Point",
    "coordinates": [
     146.49228719,
     -42.13542715
    ]
   },
   "properties": {
    "name": "UNIT 110, 378 MARLBOROUGH ROAD BRONTE PARK 7140",
    "locID": "LOC000181109199",
    "tech": "SATELLITE",
    "upgrade": "NULL_NA",
    "gnaf_pid": "GATAS721190358",
    "tech_change_status": "Not Planned"
   }
  },
  {
   "type": "Feature",
   "geometry": {
    "type": "Point",
    "coordinates": [
     146.49335851,
     -42.13540635
    ]
   },
   "properties": {
    "name": "UNIT 107, 378 MARLBOROUGH ROAD BRONTE PARK 7140",
    "locID": "LOC000181109199",
    "tech": "SATELLITE",
    "upgrade": "NULL_NA",
    "gnaf_pid": "GATAS721190372",
    "tech_change_status": "Not Planned"
   }
  },
  {
   "type": "Feature",
   "geometry": {
    "type": "Point",
    "coordinates": [
     146.49266898,
     -42.1354441
    ]
   },
   "properties": {
    "name": "UNIT 109, 378 MARLBOROUGH ROAD BRONTE PARK 7140",
    "locID": "LOC000181109199",
    "tech": "SATELLITE",
    "upgrade": "NULL_NA",
    "gnaf_pid": "GATAS721190482",
    "tech_change_status": "Not Planned"
   }
  },
  {
   "type": "Feature",
   "geometry": {
    "type": "Point",
    "coordinates": [
     146.49195239,
     -42.1354293
    ]
   },
   "properties": {
    "name": "UNIT 111, 378 MARLBOROUGH ROAD BRONTE PARK 7140",
    "locID": "LOC000181109199",
    "tech": "SATELLITE",
    "upgrade": "NULL_NA",
    "gnaf_pid": "GATAS721190492",
    "tech_change_status": "Not Planned"
   }
  },
  {
   "type": "Feature",
   "geometry": {
    "type": "Point",
    "coordinates": [
     146.4942831,
     -42.13600825
    ]
   },
   "properties": {
    "name": "UNIT 112, 378 MARLBOROUGH ROAD BRONTE PARK 7140",
    "locID": "LOC000181109199",
    "tech": "SATELLITE",
    "upgrade": "NULL_NA",
    "gnaf_pid": "GATAS721190574",
    "tech_change_status": "Not Planned"
   }
  },
  {
   "type": "Feature",
   "geometry": {
    "type": "Point",
    "coordinates": [
     146.49366362,
     -42.13535443
    ]
   },
   "properties": {
    "name": "UNIT 106, 378 MARLBOROUGH ROAD BRONTE PARK 7140",
    "locID": "LOC000181109199",
    "tech": "SATELLITE",
    "upgrade": "NULL_NA",
    "gnaf_pid": "GATAS721190744",
    "tech_change_status": "Not Planned"
   }
  },
  {
   "type": "Feature",
   "geometry": {
    "type": "Point",
    "coordinates": [
     146.49304075,
     -42.13544779
    ]
   },
   "properties": {
    "name": "UNIT 108, 378 MARLBOROUGH ROAD BRONTE PARK 7140",
    "locID": "LOC000181109199",
    "tech": "SATELLITE",
    "upgrade": "NULL_NA",
    "gnaf_pid": "GATAS721190746",
    "tech_change_status": "Not Planned"
   }
  }
 ]
}