{
 "type": "FeatureCollection",
 "generated": "2026-04-18T20:25:29.740572",
 "suburb": "CHUDLEIGH",
 "features": [
  {
   "type": "Feature",
   "geometry": {
    "type": "Point",
    "coordinates": [
     146.48205857,
     -41.55870597
    ]
   },
   "properties": {
    "name": "10 ARCHER STREET CHUDLEIGH 7304",
    "locID": "LOC000081468184",
    "tech": "WIRELESS",
    "upgrade": "NULL_NA",
    "gnaf_pid": "GATAS702186412",
    "tech_change_status": "Not Planned",
    "program_type": "Fixed Wireless and Satellite Upgrade Program",
    "target_eligibility_quarter": "NA"
   }
  },
  {
   "type": "Feature",
   "geometry": {
    "type": "Point",
    "coordinates": [
     146.48181458,
     -41.55997926
    ]
   },
   "properties": {
    "name": "17 ARCHER STREET CHUDLEIGH 7304",
    "locID": "LOC000057311791",
    "tech": "WIRELESS",
    "upgrade": "NULL_NA",
    "gnaf_pid": "GATAS702186413",
    "tech_change_status": "Not Planned",
    "program_type": "Fixed Wireless and Satellite Upgrade Program",
    "target_eligibility_quarter": "NA"
   }
  },
  {
   "type": "Feature",
   "geometry": {
    "type": "Point",
    "coordinates": [
     146.48302038,
     -41.55830525
    ]
   },
   "properties": {
    "name": "12 BURNETT STREET CHUDLEIGH 7304",
    "locID": "LOC000082536214",
    "tech": "WIRELESS",
    "upgrade": "NULL_NA",
    "gnaf_pid": "GATAS702201963",
    "tech_change_status": "Not Planned",
    "program_type": "Fixed Wireless and Satellite Upgrade Program",
    "target_eligibility_quarter": "NA"
   }
  },
  {
   "type": "Feature",
   "geometry": {
    "type": "Point",
    "coordinates": [
     146.48382738,
     -41.56036067
    ]
   },
   "properties": {
    "name": "40 BURNETT STREET CHUDLEIGH 7304",
    "locID": "LOC000079051514",
    "tech": "WIRELESS",
    "upgrade": "NULL_NA",
    "gnaf_pid": "GATAS702204602",
    "tech_change_status": "Not Planned",
    "program_type": "Fixed Wireless and Satellite Upgrade Program",
    "target_eligibility_quarter": "NA"
   }
  },
  {
   "type": "Feature",
   "geometry": {
    "type": "Point",
    "coordinates": [
     146.48325013,
     -41.5595234
    ]
   },
   "properties": {
    "name": "30 BURNETT STREET CHUDLEIGH 7304",
    "locID": "LOC000054182341",
    "tech": "WIRELESS",
    "upgrade": "NULL_NA",
    "gnaf_pid": "GATAS702204604",
    "tech_change_status": "Not Planned",
    "program_type": "Fixed Wireless and Satellite Upgrade Program",
    "target_eligibility_quarter": "NA"
   }
  },
  {
   "type": "Feature",
   "geometry": {
    "type": "Point",
    "coordinates": [
     146.4847434,
     -41.55813734
    ]
   },
   "properties": {
    "name": "19 BURNETT STREET CHUDLEIGH 7304",
    "locID": "LOC000103422782",
    "tech": "WIRELESS",
    "upgrade": "NULL_NA",
    "gnaf_pid": "GATAS702204605",
    "tech_change_status": "Not Planned",
    "program_type": "Fixed Wireless and Satellite Upgrade Program",
    "target_eligibility_quarter": "NA"
   }
  },
  {
   "type": "Feature",
   "geometry": {
    "type": "Point",
    "coordinates": [
     146.4832786,
     -41.55428879
    ]
   },
   "properties": {
    "name": "1 BURNETT STREET CHUDLEIGH 7304",
    "locID": "LOC000013513134",
    "tech": "WIRELESS",
    "upgrade": "NULL_NA",
    "gnaf_pid": "GATAS702204606",
    "tech_change_status": "Not Planned",
    "program_type": "Fixed Wireless and Satellite Upgrade Program",
    "target_eligibility_quarter": "NA"
   }
  },
  {
   "type": "Feature",
   "geometry": {
    "type": "Point",
    "coordinates": [
     146.48317411,
     -41.55869774
    ]
   },
   "properties": {
    "name": "20 BURNETT STREET CHUDLEIGH 7304",
    "locID": "LOC000102978708",
    "tech": "WIRELESS",
    "upgrade": "NULL_NA",
    "gnaf_pid": "GATAS702205588",
    "tech_change_status": "Not Planned",
    "program_type": "Fixed Wireless and Satellite Upgrade Program",
    "target_eligibility_quarter": "NA"
   }
  },
  {
   "type": "Feature",
   "geometry": {
    "type": "Point",
    "coordinates": [
     146.47999285,
     -41.56590087
    ]
   },
   "properties": {
    "name": "1424 CAVESIDE ROAD CHUDLEIGH 7304",
    "locID": "LOC000097968393",
    "tech": "WIRELESS",
    "upgrade": "NULL_NA",
    "gnaf_pid": "GATAS702215384",
    "tech_change_status": "Not Planned",
    "program_type": "Fixed Wireless and Satellite Upgrade Program",
    "target_eligibility_quarter": "NA"
   }
  },
  {
   "type": "Feature",
   "geometry": {
    "type": "Point",
    "coordinates": [
     146.48195821,
     -41.57532861
    ]
   },
   "properties": {
    "name": "1346 CAVESIDE ROAD CHUDLEIGH 7304",
    "locID": "LOC000106822627",
    "tech": "WIRELESS",
    "upgrade": "NULL_NA",
    "gnaf_pid": "GATAS702218145",
    "tech_change_status": "Not Planned",
    "program_type": "Fixed Wireless and Satellite Upgrade Program",
    "target_eligibility_quarter": "NA"
   }
  },
  {
   "type": "Feature",
   "geometry": {
    "type": "Point",
    "coordinates": [
     146.46746134,
     -41.57937147
    ]
   },
   "properties": {
    "name": "1202 CAVESIDE ROAD CHUDLEIGH 7304",
    "locID": "LOC000073936078",
    "tech": "WIRELESS",
    "upgrade": "NULL_NA",
    "gnaf_pid": "GATAS702218147",
    "tech_change_status": "Not Planned",
    "program_type": "Fixed Wireless and Satellite Upgrade Program",
    "target_eligibility_quarter": "NA"
   }
  },
  {
   "type": "Feature",
   "geometry": {
    "type": "Point",
    "coordinates": [
     146.47547722,
     -41.57893133
    ]
   },
   "properties": {
    "name": "1256 CAVESIDE ROAD CHUDLEIGH 7304",
    "locID": "LOC000030020140",
    "tech": "WIRELESS",
    "upgrade": "NULL_NA",
    "gnaf_pid": "GATAS702218871",
    "tech_change_status": "Not Planned",
    "program_type": "Fixed Wireless and Satellite Upgrade Program",
    "target_eligibility_quarter": "NA"
   }
  },
  {
   "type": "Feature",
   "geometry": {
    "type": "Point",
    "coordinates": [
     146.47170592,
     -41.54003227
    ]
   },
   "properties": {
    "name": "150 COOPERS ROAD CHUDLEIGH 7304",
    "locID": "LOC000075632770",
    "tech": "WIRELESS",
    "upgrade": "NULL_NA",
    "gnaf_pid": "GATAS702228498",
    "tech_change_status": "Not Planned",
    "program_type": "Fixed Wireless and Satellite Upgrade Program",
    "target_eligibility_quarter": "NA"
   }
  },
  {
   "type": "Feature",
   "geometry": {
    "type": "Point",
    "coordinates": [
     146.48104941,
     -41.53773924
    ]
   },
   "properties": {
    "name": "98 COOPERS ROAD CHUDLEIGH 7304",
    "locID": "LOC000041701092",
    "tech": "WIRELESS",
    "upgrade": "NULL_NA",
    "gnaf_pid": "GATAS702228540",
    "tech_change_status": "Not Planned",
    "program_type": "Fixed Wireless and Satellite Upgrade Program",
    "target_eligibility_quarter": "NA"
   }
  },
  {
   "type": "Feature",
   "geometry": {
    "type": "Point",
    "coordinates": [
     146.47642273,
     -41.55072743
    ]
   },
   "properties": {
    "name": "2 COOPERS ROAD CHUDLEIGH 7304",
    "locID": "LOC000075403129",
    "tech": "WIRELESS",
    "upgrade": "NULL_NA",
    "gnaf_pid": "GATAS702229367",
    "tech_change_status": "Not Planned",
    "program_type": "Fixed Wireless and Satellite Upgrade Program",
    "target_eligibility_quarter": "NA"
   }
  },
  {
   "type": "Feature",
   "geometry": {
    "type": "Point",
    "coordinates": [
     146.47763663,
     -41.54969971
    ]
   },
   "properties": {
    "name": "28 COOPERS ROAD CHUDLEIGH 7304",
    "locID": "LOC000073889774",
    "tech": "SATELLITE",
    "upgrade": "WIRELESS",
    "gnaf_pid": "GATAS702229369",
    "tech_change_status": "Eligible to Order",
    "program_type": "Fixed Wireless and Satellite Upgrade Program",
    "target_eligibility_quarter": "NA"
   }
  },
  {
   "type": "Feature",
   "geometry": {
    "type": "Point",
    "coordinates": [
     146.47834466,
     -41.54728716
    ]
   },
   "properties": {
    "name": "44 COOPERS ROAD CHUDLEIGH 7304",
    "locID": "LOC000090997146",
    "tech": "NULL",
    "upgrade": "NULL_NA",
    "gnaf_pid": "GATAS702229370",
    "tech_change_status": "Not Planned"
   }
  },
  {
   "type": "Feature",
   "geometry": {
    "type": "Point",
    "coordinates": [
     146.47551588,
     -41.54602036
    ]
   },
   "properties": {
    "name": "69 COOPERS ROAD CHUDLEIGH 7304",
    "locID": "LOC000094572928",
    "tech": "NULL",
    "upgrade": "NULL_NA",
    "gnaf_pid": "GATAS702229371",
    "tech_change_status": "Not Planned"
   }
  },
  {
   "type": "Feature",
   "geometry": {
    "type": "Point",
    "coordinates": [
     146.4723395,
     -41.53764642
    ]
   },
   "properties": {
    "name": "144 COOPERS ROAD CHUDLEIGH 7304",
    "locID": "LOC000049845392",
    "tech": "WIRELESS",
    "upgrade": "NULL_NA",
    "gnaf_pid": "GATAS702229377",
    "tech_change_status": "Not Planned",
    "program_type": "Fixed Wireless and Satellite Upgrade Program",
    "target_eligibility_quarter": "NA"
   }
  },
  {
   "type": "Feature",
   "geometry": {
    "type": "Point",
    "coordinates": [
     146.48210012,
     -41.56555933
    ]
   },
   "properties": {
    "name": "49 DRY STREET CHUDLEIGH 7304",
    "locID": "LOC000050950427",
    "tech": "WIRELESS",
    "upgrade": "NULL_NA",
    "gnaf_pid": "GATAS702234653",
    "tech_change_status": "Not Planned",
    "program_type": "Fixed Wireless and Satellite Upgrade Program",
    "target_eligibility_quarter": "NA"
   }
  },
  {
   "type": "Feature",
   "geometry": {
    "type": "Point",
    "coordinates": [
     146.4818702,
     -41.56233201
    ]
   },
   "properties": {
    "name": "42 DRY STREET CHUDLEIGH 7304",
    "locID": "LOC000037968182",
    "tech": "WIRELESS",
    "upgrade": "NULL_NA",
    "gnaf_pid": "GATAS702234654",
    "tech_change_status": "Not Planned",
    "program_type": "Fixed Wireless and Satellite Upgrade Program",
    "target_eligibility_quarter": "NA"
   }
  },
  {
   "type": "Feature",
   "geometry": {
    "type": "Point",
    "coordinates": [
     146.47717204,
     -41.56017393
    ]
   },
   "properties": {
    "name": "24 GARDNER STREET CHUDLEIGH 7304",
    "locID": "LOC000102797122",
    "tech": "WIRELESS",
    "upgrade": "NULL_NA",
    "gnaf_pid": "GATAS702239152",
    "tech_change_status": "Not Planned",
    "program_type": "Fixed Wireless and Satellite Upgrade Program",
    "target_eligibility_quarter": "NA"
   }
  },
  {
   "type": "Feature",
   "geometry": {
    "type": "Point",
    "coordinates": [
     146.47723217,
     -41.55862032
    ]
   },
   "properties": {
    "name": "8 GARDNER STREET CHUDLEIGH 7304",
    "locID": "LOC000097010147",
    "tech": "WIRELESS",
    "upgrade": "NULL_NA",
    "gnaf_pid": "GATAS702239153",
    "tech_change_status": "Not Planned",
    "program_type": "Fixed Wireless and Satellite Upgrade Program",
    "target_eligibility_quarter": "NA"
   }
  },
  {
   "type": "Feature",
   "geometry": {
    "type": "Point",
    "coordinates": [
     146.47698497,
     -41.5597584
    ]
   },
   "properties": {
    "name": "20 GARDNER STREET CHUDLEIGH 7304",
    "locID": "LOC000060596724",
    "tech": "WIRELESS",
    "upgrade": "NULL_NA",
    "gnaf_pid": "GATAS702241769",
    "tech_change_status": "Not Planned",
    "program_type": "Fixed Wireless and Satellite Upgrade Program",
    "target_eligibility_quarter": "NA"
   }
  },
  {
   "type": "Feature",
   "geometry": {
    "type": "Point",
    "coordinates": [
     146.47347383,
     -41.55530502
    ]
   },
   "properties": {
    "name": "2 HOW STREET CHUDLEIGH 7304",
    "locID": "LOC000025164795",
    "tech": "WIRELESS",
    "upgrade": "NULL_NA",
    "gnaf_pid": "GATAS702260514",
    "tech_change_status": "Not Planned",
    "program_type": "Fixed Wireless and Satellite Upgrade Program",
    "target_eligibility_quarter": "NA"
   }
  },
  {
   "type": "Feature",
   "geometry": {
    "type": "Point",
    "coordinates": [
     146.48035216,
     -41.55688124
    ]
   },
   "properties": {
    "name": "55 JONES STREET CHUDLEIGH 7304",
    "locID": "LOC000066729147",
    "tech": "WIRELESS",
    "upgrade": "NULL_NA",
    "gnaf_pid": "GATAS702270920",
    "tech_change_status": "Not Planned",
    "program_type": "Fixed Wireless and Satellite Upgrade Program",
    "target_eligibility_quarter": "NA"
   }
  },
  {
   "type": "Feature",
   "geometry": {
    "type": "Point",
    "coordinates": [
     146.47971659,
     -41.55740981
    ]
   },
   "properties": {
    "name": "56 JONES STREET CHUDLEIGH 7304",
    "locID": "LOC000049351009",
    "tech": "WIRELESS",
    "upgrade": "NULL_NA",
    "gnaf_pid": "GATAS702274601",
    "tech_change_status": "Not Planned",
    "program_type": "Fixed Wireless and Satellite Upgrade Program",
    "target_eligibility_quarter": "NA"
   }
  },
  {
   "type": "Feature",
   "geometry": {
    "type": "Point",
    "coordinates": [
     146.49801095,
     -41.54964498
    ]
   },
   "properties": {
    "name": "1420 MOLE CREEK ROAD CHUDLEIGH 7304",
    "locID": "LOC000093830704",
    "tech": "WIRELESS",
    "upgrade": "NULL_NA",
    "gnaf_pid": "GATAS702296081",
    "tech_change_status": "Not Planned",
    "program_type": "Fixed Wireless and Satellite Upgrade Program",
    "target_eligibility_quarter": "NA"
   }
  },
  {
   "type": "Feature",
   "geometry": {
    "type": "Point",
    "coordinates": [
     146.46644613,
     -41.54835828
    ]
   },
   "properties": {
    "name": "1754 MOLE CREEK ROAD CHUDLEIGH 7304",
    "locID": "LOC000021192627",
    "tech": "WIRELESS",
    "upgrade": "NULL_NA",
    "gnaf_pid": "GATAS702296082",
    "tech_change_status": "Not Planned",
    "program_type": "Fixed Wireless and Satellite Upgrade Program",
    "target_eligibility_quarter": "NA"
   }
  },
  {
   "type": "Feature",
   "geometry": {
    "type": "Point",
    "coordinates": [
     146.48271857,
     -41.54659745
    ]
   },
   "properties": {
    "name": "51 MOTTON LANE CHUDLEIGH 7304",
    "locID": "LOC000006219490",
    "tech": "SATELLITE",
    "upgrade": "NULL_NA",
    "gnaf_pid": "GATAS702301253",
    "tech_change_status": "Not Planned"
   }
  },
  {
   "type": "Feature",
   "geometry": {
    "type": "Point",
    "coordinates": [
     146.48364323,
     -41.5453868
    ]
   },
   "properties": {
    "name": "52 MOTTON LANE CHUDLEIGH 7304",
    "locID": "LOC000107127692",
    "tech": "SATELLITE",
    "upgrade": "NULL_NA",
    "gnaf_pid": "GATAS702301254",
    "tech_change_status": "Not Planned"
   }
  },
  {
   "type": "Feature",
   "geometry": {
    "type": "Point",
    "coordinates": [
     146.45220114,
     -41.54120017
    ]
   },
   "properties": {
    "name": "184 MERSEY HILL ROAD CHUDLEIGH 7304",
    "locID": "LOC000038123155",
    "tech": "WIRELESS",
    "upgrade": "NULL_NA",
    "gnaf_pid": "GATAS702304109",
    "tech_change_status": "Not Planned",
    "program_type": "Fixed Wireless and Satellite Upgrade Program",
    "target_eligibility_quarter": "NA"
   }
  },
  {
   "type": "Feature",
   "geometry": {
    "type": "Point",
    "coordinates": [
     146.46402185,
     -41.54396987
    ]
   },
   "properties": {
    "name": "84 MERSEY HILL ROAD CHUDLEIGH 7304",
    "locID": "LOC000061973808",
    "tech": "WIRELESS",
    "upgrade": "NULL_NA",
    "gnaf_pid": "GATAS702304110",
    "tech_change_status": "Not Planned",
    "program_type": "Fixed Wireless and Satellite Upgrade Program",
    "target_eligibility_quarter": "NA"
   }
  },
  {
   "type": "Feature",
   "geometry": {
    "type": "Point",
    "coordinates": [
     146.482897,
     -41.5605684
    ]
   },
   "properties": {
    "name": "10 OAKDEN STREET CHUDLEIGH 7304",
    "locID": "LOC000068108275",
    "tech": "WIRELESS",
    "upgrade": "NULL_NA",
    "gnaf_pid": "GATAS702304390",
    "tech_change_status": "Not Planned",
    "program_type": "Fixed Wireless and Satellite Upgrade Program",
    "target_eligibility_quarter": "NA"
   }
  },
  {
   "type": "Feature",
   "geometry": {
    "type": "Point",
    "coordinates": [
     146.45916532,
     -41.54665529
    ]
   },
   "properties": {
    "name": "107 MERSEY HILL ROAD CHUDLEIGH 7304",
    "locID": "LOC000047157147",
    "tech": "WIRELESS",
    "upgrade": "NULL_NA",
    "gnaf_pid": "GATAS702304939",
    "tech_change_status": "Not Planned",
    "program_type": "Fixed Wireless and Satellite Upgrade Program",
    "target_eligibility_quarter": "NA"
   }
  },
  {
   "type": "Feature",
   "geometry": {
    "type": "Point",
    "coordinates": [
     146.44473529,
     -41.53983069
    ]
   },
   "properties": {
    "name": "244 MERSEY HILL ROAD CHUDLEIGH 7304",
    "locID": "LOC000081965811",
    "tech": "WIRELESS",
    "upgrade": "NULL_NA",
    "gnaf_pid": "GATAS702304940",
    "tech_change_status": "Not Planned",
    "program_type": "Fixed Wireless and Satellite Upgrade Program",
    "target_eligibility_quarter": "NA"
   }
  },
  {
   "type": "Feature",
   "geometry": {
    "type": "Point",
    "coordinates": [
     146.44480265,
     -41.54526008
    ]
   },
   "properties": {
    "name": "245 MERSEY HILL ROAD CHUDLEIGH 7304",
    "locID": "LOC000090933410",
    "tech": "WIRELESS",
    "upgrade": "NULL_NA",
    "gnaf_pid": "GATAS702304941",
    "tech_change_status": "Not Planned",
    "program_type": "Fixed Wireless and Satellite Upgrade Program",
    "target_eligibility_quarter": "NA"
   }
  },
  {
   "type": "Feature",
   "geometry": {
    "type": "Point",
    "coordinates": [
     146.46327481,
     -41.55034594
    ]
   },
   "properties": {
    "name": "1780 MOLE CREEK ROAD CHUDLEIGH 7304",
    "locID": "LOC000054312568",
    "tech": "WIRELESS",
    "upgrade": "NULL_NA",
    "gnaf_pid": "GATAS702305881",
    "tech_change_status": "Not Planned",
    "program_type": "Fixed Wireless and Satellite Upgrade Program",
    "target_eligibility_quarter": "NA"
   }
  },
  {
   "type": "Feature",
   "geometry": {
    "type": "Point",
    "coordinates": [
     146.47022064,
     -41.54907093
    ]
   },
   "properties": {
    "name": "1714 MOLE CREEK ROAD CHUDLEIGH 7304",
    "locID": "LOC000075358250",
    "tech": "SATELLITE",
    "upgrade": "WIRELESS",
    "gnaf_pid": "GATAS702305890",
    "tech_change_status": "Eligible to Order",
    "program_type": "Fixed Wireless and Satellite Upgrade Program",
    "target_eligibility_quarter": "NA"
   }
  },
  {
   "type": "Feature",
   "geometry": {
    "type": "Point",
    "coordinates": [
     146.46352082,
     -41.55123239
    ]
   },
   "properties": {
    "name": "1793 MOLE CREEK ROAD CHUDLEIGH 7304",
    "locID": "LOC000019222463",
    "tech": "NULL",
    "upgrade": "NULL_NA",
    "gnaf_pid": "GATAS702306720",
    "tech_change_status": "Not Planned"
   }
  },
  {
   "type": "Feature",
   "geometry": {
    "type": "Point",
    "coordinates": [
     146.49576786,
     -41.55161146
    ]
   },
   "properties": {
    "name": "1442 MOLE CREEK ROAD CHUDLEIGH 7304",
    "locID": "LOC000071085577",
    "tech": "WIRELESS",
    "upgrade": "NULL_NA",
    "gnaf_pid": "GATAS702306722",
    "tech_change_status": "Not Planned",
    "program_type": "Fixed Wireless and Satellite Upgrade Program",
    "target_eligibility_quarter": "NA"
   }
  },
  {
   "type": "Feature",
   "geometry": {
    "type": "Point",
    "coordinates": [
     146.52319999,
     -41.54524037
    ]
   },
   "properties": {
    "name": "1185 MOLE CREEK ROAD CHUDLEIGH 7304",
    "locID": "LOC000056632824",
    "tech": "WIRELESS",
    "upgrade": "NULL_NA",
    "gnaf_pid": "GATAS702306730",
    "tech_change_status": "Not Planned",
    "program_type": "Fixed Wireless and Satellite Upgrade Program",
    "target_eligibility_quarter": "NA"
   }
  },
  {
   "type": "Feature",
   "geometry": {
    "type": "Point",
    "coordinates": [
     146.51231585,
     -41.55106367
    ]
   },
   "properties": {
    "name": "1335 MOLE CREEK ROAD CHUDLEIGH 7304",
    "locID": "LOC000022658895",
    "tech": "WIRELESS",
    "upgrade": "NULL_NA",
    "gnaf_pid": "GATAS702306731",
    "tech_change_status": "Not Planned",
    "program_type": "Fixed Wireless and Satellite Upgrade Program",
    "target_eligibility_quarter": "NA"
   }
  },
  {
   "type": "Feature",
   "geometry": {
    "type": "Point",
    "coordinates": [
     146.50759187,
     -41.5538175
    ]
   },
   "properties": {
    "name": "1345 MOLE CREEK ROAD CHUDLEIGH 7304",
    "locID": "LOC000081961760",
    "tech": "WIRELESS",
    "upgrade": "NULL_NA",
    "gnaf_pid": "GATAS702306732",
    "tech_change_status": "Not Planned",
    "program_type": "Fixed Wireless and Satellite Upgrade Program",
    "target_eligibility_quarter": "NA"
   }
  },
  {
   "type": "Feature",
   "geometry": {
    "type": "Point",
    "coordinates": [
     146.47262102,
     -41.54790602
    ]
   },
   "properties": {
    "name": "1684 MOLE CREEK ROAD CHUDLEIGH 7304",
    "locID": "LOC000020196079",
    "tech": "WIRELESS",
    "upgrade": "NULL_NA",
    "gnaf_pid": "GATAS702306737",
    "tech_change_status": "Not Planned",
    "program_type": "Fixed Wireless and Satellite Upgrade Program",
    "target_eligibility_quarter": "NA"
   }
  },
  {
   "type": "Feature",
   "geometry": {
    "type": "Point",
    "coordinates": [
     146.47383399,
     -41.55622724
    ]
   },
   "properties": {
    "name": "2 STANLEY STREET CHUDLEIGH 7304",
    "locID": "LOC000015162321",
    "tech": "WIRELESS",
    "upgrade": "NULL_NA",
    "gnaf_pid": "GATAS702324119",
    "tech_change_status": "Eligible to Order",
    "program_type": "Fixed Wireless and Satellite Upgrade Program",
    "target_eligibility_quarter": "NA"
   }
  },
  {
   "type": "Feature",
   "geometry": {
    "type": "Point",
    "coordinates": [
     146.47291682,
     -41.55641418
    ]
   },
   "properties": {
    "name": "14 STANLEY STREET CHUDLEIGH 7304",
    "locID": "LOC000011819725",
    "tech": "WIRELESS",
    "upgrade": "NULL_NA",
    "gnaf_pid": "GATAS702324120",
    "tech_change_status": "Not Planned",
    "program_type": "Fixed Wireless and Satellite Upgrade Program",
    "target_eligibility_quarter": "NA"
   }
  },
  {
   "type": "Feature",
   "geometry": {
    "type": "Point",
    "coordinates": [
     146.47952717,
     -41.55813696
    ]
   },
   "properties": {
    "name": "73 SORELL STREET CHUDLEIGH 7304",
    "locID": "LOC000076127658",
    "tech": "WIRELESS",
    "upgrade": "NULL_NA",
    "gnaf_pid": "GATAS702324213",
    "tech_change_status": "Not Planned",
    "program_type": "Fixed Wireless and Satellite Upgrade Program",
    "target_eligibility_quarter": "NA"
   }
  },
  {
   "type": "Feature",
   "geometry": {
    "type": "Point",
    "coordinates": [
     146.48180678,
     -41.55776436
    ]
   },
   "properties": {
    "name": "51 SORELL STREET CHUDLEIGH 7304",
    "locID": "LOC000093361229",
    "tech": "WIRELESS",
    "upgrade": "NULL_NA",
    "gnaf_pid": "GATAS702324214",
    "tech_change_status": "Not Planned",
    "program_type": "Fixed Wireless and Satellite Upgrade Program",
    "target_eligibility_quarter": "NA"
   }
  },
  {
   "type": "Feature",
   "geometry": {
    "type": "Point",
    "coordinates": [
     146.4860034,
     -41.55681893
    ]
   },
   "properties": {
    "name": "17 SORELL STREET CHUDLEIGH 7304",
    "locID": "LOC000006744271",
    "tech": "WIRELESS",
    "upgrade": "NULL_NA",
    "gnaf_pid": "GATAS702324217",
    "tech_change_status": "Not Planned",
    "program_type": "Fixed Wireless and Satellite Upgrade Program",
    "target_eligibility_quarter": "NA"
   }
  },
  {
   "type": "Feature",
   "geometry": {
    "type": "Point",
    "coordinates": [
     146.4842964,
     -41.55718961
    ]
   },
   "properties": {
    "name": "29 SORELL STREET CHUDLEIGH 7304",
    "locID": "LOC000069626049",
    "tech": "WIRELESS",
    "upgrade": "NULL_NA",
    "gnaf_pid": "GATAS702324218",
    "tech_change_status": "Not Planned",
    "program_type": "Fixed Wireless and Satellite Upgrade Program",
    "target_eligibility_quarter": "NA"
   }
  },
  {
   "type": "Feature",
   "geometry": {
    "type": "Point",
    "coordinates": [
     146.48383626,
     -41.55725978
    ]
   },
   "properties": {
    "name": "33 SORELL STREET CHUDLEIGH 7304",
    "locID": "LOC000052355341",
    "tech": "WIRELESS",
    "upgrade": "NULL_NA",
    "gnaf_pid": "GATAS702324219",
    "tech_change_status": "Not Planned",
    "program_type": "Fixed Wireless and Satellite Upgrade Program",
    "target_eligibility_quarter": "NA"
   }
  },
  {
   "type": "Feature",
   "geometry": {
    "type": "Point",
    "coordinates": [
     146.47856517,
     -41.55835062
    ]
   },
   "properties": {
    "name": "79 SORELL STREET CHUDLEIGH 7304",
    "locID": "LOC000048975986",
    "tech": "WIRELESS",
    "upgrade": "NULL_NA",
    "gnaf_pid": "GATAS702324220",
    "tech_change_status": "Not Planned",
    "program_type": "Fixed Wireless and Satellite Upgrade Program",
    "target_eligibility_quarter": "NA"
   }
  },
  {
   "type": "Feature",
   "geometry": {
    "type": "Point",
    "coordinates": [
     146.48250547,
     -41.55761172
    ]
   },
   "properties": {
    "name": "45 SORELL STREET CHUDLEIGH 7304",
    "locID": "LOC000082625732",
    "tech": "WIRELESS",
    "upgrade": "NULL_NA",
    "gnaf_pid": "GATAS702324221",
    "tech_change_status": "Not Planned",
    "program_type": "Fixed Wireless and Satellite Upgrade Program",
    "target_eligibility_quarter": "NA"
   }
  },
  {
   "type": "Feature",
   "geometry": {
    "type": "Point",
    "coordinates": [
     146.48487271,
     -41.55724811
    ]
   },
   "properties": {
    "name": "25 SORELL STREET CHUDLEIGH 7304",
    "locID": "LOC000041273865",
    "tech": "WIRELESS",
    "upgrade": "NULL_NA",
    "gnaf_pid": "GATAS702324222",
    "tech_change_status": "Not Planned",
    "program_type": "Fixed Wireless and Satellite Upgrade Program",
    "target_eligibility_quarter": "NA"
   }
  },
  {
   "type": "Feature",
   "geometry": {
    "type": "Point",
    "coordinates": [
     146.4783531,
     -41.55738459
    ]
   },
   "properties": {
    "name": "78 SORELL STREET CHUDLEIGH 7304",
    "locID": "LOC000026248271",
    "tech": "WIRELESS",
    "upgrade": "NULL_NA",
    "gnaf_pid": "GATAS702324223",
    "tech_change_status": "Not Planned",
    "program_type": "Fixed Wireless and Satellite Upgrade Program",
    "target_eligibility_quarter": "NA"
   }
  },
  {
   "type": "Feature",
   "geometry": {
    "type": "Point",
    "coordinates": [
     146.47920792,
     -41.55796038
    ]
   },
   "properties": {
    "name": "75 SORELL STREET CHUDLEIGH 7304",
    "locID": "LOC000045926181",
    "tech": "WIRELESS",
    "upgrade": "NULL_NA",
    "gnaf_pid": "GATAS702332711",
    "tech_change_status": "Not Planned",
    "program_type": "Fixed Wireless and Satellite Upgrade Program",
    "target_eligibility_quarter": "NA"
   }
  },
  {
   "type": "Feature",
   "geometry": {
    "type": "Point",
    "coordinates": [
     146.47910242,
     -41.5575508
    ]
   },
   "properties": {
    "name": "74 SORELL STREET CHUDLEIGH 7304",
    "locID": "LOC000047151273",
    "tech": "WIRELESS",
    "upgrade": "NULL_NA",
    "gnaf_pid": "GATAS702338653",
    "tech_change_status": "Not Planned",
    "program_type": "Fixed Wireless and Satellite Upgrade Program",
    "target_eligibility_quarter": "NA"
   }
  },
  {
   "type": "Feature",
   "geometry": {
    "type": "Point",
    "coordinates": [
     146.48046599,
     -41.55717438
    ]
   },
   "properties": {
    "name": "64 SORELL STREET CHUDLEIGH 7304",
    "locID": "LOC000003543889",
    "tech": "WIRELESS",
    "upgrade": "NULL_NA",
    "gnaf_pid": "GATAS702338656",
    "tech_change_status": "Not Planned",
    "program_type": "Fixed Wireless and Satellite Upgrade Program",
    "target_eligibility_quarter": "NA"
   }
  },
  {
   "type": "Feature",
   "geometry": {
    "type": "Point",
    "coordinates": [
     146.4790405,
     -41.55812528
    ]
   },
   "properties": {
    "name": "77 SORELL STREET CHUDLEIGH 7304",
    "locID": "LOC000037951827",
    "tech": "WIRELESS",
    "upgrade": "NULL_NA",
    "gnaf_pid": "GATAS702338657",
    "tech_change_status": "Not Planned",
    "program_type": "Fixed Wireless and Satellite Upgrade Program",
    "target_eligibility_quarter": "NA"
   }
  },
  {
   "type": "Feature",
   "geometry": {
    "type": "Point",
    "coordinates": [
     146.47608559,
     -41.55897971
    ]
   },
   "properties": {
    "name": "105 SORELL STREET CHUDLEIGH 7304",
    "locID": "LOC000010180925",
    "tech": "WIRELESS",
    "upgrade": "NULL_NA",
    "gnaf_pid": "GATAS702339124",
    "tech_change_status": "Not Planned",
    "program_type": "Fixed Wireless and Satellite Upgrade Program",
    "target_eligibility_quarter": "NA"
   }
  },
  {
   "type": "Feature",
   "geometry": {
    "type": "Point",
    "coordinates": [
     146.48316489,
     -41.55567885
    ]
   },
   "properties": {
    "name": "40 SORELL STREET CHUDLEIGH 7304",
    "locID": "LOC000106642918",
    "tech": "WIRELESS",
    "upgrade": "NULL_NA",
    "gnaf_pid": "GATAS702339125",
    "tech_change_status": "Eligible to Order",
    "program_type": "Fixed Wireless and Satellite Upgrade Program",
    "target_eligibility_quarter": "NA"
   }
  },
  {
   "type": "Feature",
   "geometry": {
    "type": "Point",
    "coordinates": [
     146.4843436,
     -41.55575422
    ]
   },
   "properties": {
    "name": "20 SORELL STREET CHUDLEIGH 7304",
    "locID": "LOC000033466588",
    "tech": "WIRELESS",
    "upgrade": "NULL_NA",
    "gnaf_pid": "GATAS702339127",
    "tech_change_status": "Not Planned",
    "program_type": "Fixed Wireless and Satellite Upgrade Program",
    "target_eligibility_quarter": "NA"
   }
  },
  {
   "type": "Feature",
   "geometry": {
    "type": "Point",
    "coordinates": [
     146.48130901,
     -41.55618603
    ]
   },
   "properties": {
    "name": "50 SORELL STREET CHUDLEIGH 7304",
    "locID": "LOC000096895343",
    "tech": "WIRELESS",
    "upgrade": "NULL_NA",
    "gnaf_pid": "GATAS702339129",
    "tech_change_status": "Not Planned",
    "program_type": "Fixed Wireless and Satellite Upgrade Program",
    "target_eligibility_quarter": "NA"
   }
  },
  {
   "type": "Feature",
   "geometry": {
    "type": "Point",
    "coordinates": [
     146.48342944,
     -41.55733638
    ]
   },
   "properties": {
    "name": "39 SORELL STREET CHUDLEIGH 7304",
    "locID": "LOC000031227427",
    "tech": "WIRELESS",
    "upgrade": "NULL_NA",
    "gnaf_pid": "GATAS702343023",
    "tech_change_status": "Not Planned",
    "program_type": "Fixed Wireless and Satellite Upgrade Program",
    "target_eligibility_quarter": "NA"
   }
  },
  {
   "type": "Feature",
   "geometry": {
    "type": "Point",
    "coordinates": [
     146.47991802,
     -41.55803457
    ]
   },
   "properties": {
    "name": "69 SORELL STREET CHUDLEIGH 7304",
    "locID": "LOC000099419859",
    "tech": "WIRELESS",
    "upgrade": "NULL_NA",
    "gnaf_pid": "GATAS702343156",
    "tech_change_status": "Not Planned",
    "program_type": "Fixed Wireless and Satellite Upgrade Program",
    "target_eligibility_quarter": "NA"
   }
  },
  {
   "type": "Feature",
   "geometry": {
    "type": "Point",
    "coordinates": [
     146.48020473,
     -41.55797641
    ]
   },
   "properties": {
    "name": "67 SORELL STREET CHUDLEIGH 7304",
    "locID": "LOC000062389340",
    "tech": "WIRELESS",
    "upgrade": "NULL_NA",
    "gnaf_pid": "GATAS702343161",
    "tech_change_status": "Not Planned",
    "program_type": "Fixed Wireless and Satellite Upgrade Program",
    "target_eligibility_quarter": "NA"
   }
  },
  {
   "type": "Feature",
   "geometry": {
    "type": "Point",
    "coordinates": [
     146.48371698,
     -41.55651341
    ]
   },
   "properties": {
    "name": "34 SORELL STREET CHUDLEIGH 7304",
    "locID": "LOC000005076093",
    "tech": "WIRELESS",
    "upgrade": "NULL_NA",
    "gnaf_pid": "GATAS702343168",
    "tech_change_status": "Not Planned",
    "program_type": "Fixed Wireless and Satellite Upgrade Program",
    "target_eligibility_quarter": "NA"
   }
  },
  {
   "type": "Feature",
   "geometry": {
    "type": "Point",
    "coordinates": [
     146.47794023,
     -41.55770025
    ]
   },
   "properties": {
    "name": "86 SORELL STREET CHUDLEIGH 7304",
    "locID": "LOC000066922549",
    "tech": "WIRELESS",
    "upgrade": "NULL_NA",
    "gnaf_pid": "GATAS702345771",
    "tech_change_status": "Not Planned",
    "program_type": "Fixed Wireless and Satellite Upgrade Program",
    "target_eligibility_quarter": "NA"
   }
  },
  {
   "type": "Feature",
   "geometry": {
    "type": "Point",
    "coordinates": [
     146.47489289,
     -41.57883338
    ]
   },
   "properties": {
    "name": "1178 CAVESIDE ROAD CHUDLEIGH 7304",
    "locID": "LOC000060609385",
    "tech": "WIRELESS",
    "upgrade": "NULL_NA",
    "gnaf_pid": "GATAS702408130",
    "tech_change_status": "Not Planned",
    "program_type": "Fixed Wireless and Satellite Upgrade Program",
    "target_eligibility_quarter": "NA"
   }
  },
  {
   "type": "Feature",
   "geometry": {
    "type": "Point",
    "coordinates": [
     146.47891422,
     -41.55905208
    ]
   },
   "properties": {
    "name": "11 GARDNER STREET CHUDLEIGH 7304",
    "locID": "LOC000083390172",
    "tech": "WIRELESS",
    "upgrade": "NULL_NA",
    "gnaf_pid": "GATAS702408135",
    "tech_change_status": "Not Planned",
    "program_type": "Fixed Wireless and Satellite Upgrade Program",
    "target_eligibility_quarter": "NA"
   }
  },
  {
   "type": "Feature",
   "geometry": {
    "type": "Point",
    "coordinates": [
     146.49670292,
     -41.56270904
    ]
   },
   "properties": {
    "name": "1519 MOLE CREEK ROAD CHUDLEIGH 7304",
    "locID": "LOC000012645489",
    "tech": "WIRELESS",
    "upgrade": "NULL_NA",
    "gnaf_pid": "GATAS702408137",
    "tech_change_status": "Not Planned",
    "program_type": "Fixed Wireless and Satellite Upgrade Program",
    "target_eligibility_quarter": "NA"
   }
  },
  {
   "type": "Feature",
   "geometry": {
    "type": "Point",
    "coordinates": [
     146.47763819,
     -41.56125998
    ]
   },
   "properties": {
    "name": "40 GARDNER STREET CHUDLEIGH 7304",
    "locID": "LOC000058366408",
    "tech": "WIRELESS",
    "upgrade": "NULL_NA",
    "gnaf_pid": "GATAS702411627",
    "tech_change_status": "Not Planned",
    "program_type": "Fixed Wireless and Satellite Upgrade Program",
    "target_eligibility_quarter": "NA"
   }
  },
  {
   "type": "Feature",
   "geometry": {
    "type": "Point",
    "coordinates": [
     146.46865859,
     -41.53308367
    ]
   },
   "properties": {
    "name": "146 COOPERS ROAD CHUDLEIGH 7304",
    "locID": "LOC000044036244",
    "tech": "NULL",
    "upgrade": "NULL_NA",
    "gnaf_pid": "GATAS702411628",
    "tech_change_status": "Not Planned"
   }
  },
  {
   "type": "Feature",
   "geometry": {
    "type": "Point",
    "coordinates": [
     146.48100007,
     -41.55794956
    ]
   },
   "properties": {
    "name": "63 SORELL STREET CHUDLEIGH 7304",
    "locID": "LOC000017110910",
    "tech": "WIRELESS",
    "upgrade": "NULL_NA",
    "gnaf_pid": "GATAS702416220",
    "tech_change_status": "Not Planned",
    "program_type": "Fixed Wireless and Satellite Upgrade Program",
    "target_eligibility_quarter": "NA"
   }
  },
  {
   "type": "Feature",
   "geometry": {
    "type": "Point",
    "coordinates": [
     146.52000656,
     -41.56028023
    ]
   },
   "properties": {
    "name": "1267 MOLE CREEK ROAD CHUDLEIGH 7304",
    "locID": "LOC000182152994",
    "tech": "WIRELESS",
    "upgrade": "NULL_NA",
    "gnaf_pid": "GATAS702416221",
    "tech_change_status": "Not Planned",
    "program_type": "Fixed Wireless and Satellite Upgrade Program",
    "target_eligibility_quarter": "NA"
   }
  },
  {
   "type": "Feature",
   "geometry": {
    "type": "Point",
    "coordinates": [
     146.47858125,
     -41.55646762
    ]
   },
   "properties": {
    "name": "52 JONES STREET CHUDLEIGH 7304",
    "locID": "LOC000011812119",
    "tech": "WIRELESS",
    "upgrade": "NULL_NA",
    "gnaf_pid": "GATAS702416222",
    "tech_change_status": "Not Planned",
    "program_type": "Fixed Wireless and Satellite Upgrade Program",
    "target_eligibility_quarter": "NA"
   }
  },
  {
   "type": "Feature",
   "geometry": {
    "type": "Point",
    "coordinates": [
     146.4861718,
     -41.54524107
    ]
   },
   "properties": {
    "name": "1440 MOLE CREEK ROAD CHUDLEIGH 7304",
    "locID": "LOC000009292801",
    "tech": "NULL",
    "upgrade": "NULL_NA",
    "gnaf_pid": "GATAS702422468",
    "tech_change_status": "Not Planned"
   }
  },
  {
   "type": "Feature",
   "geometry": {
    "type": "Point",
    "coordinates": [
     146.47926959,
     -41.55709652
    ]
   },
   "properties": {
    "name": "54 JONES STREET CHUDLEIGH 7304",
    "locID": "LOC000026237529",
    "tech": "WIRELESS",
    "upgrade": "NULL_NA",
    "gnaf_pid": "GATAS702815639",
    "tech_change_status": "Not Planned",
    "program_type": "Fixed Wireless and Satellite Upgrade Program",
    "target_eligibility_quarter": "NA"
   }
  },
  {
   "type": "Feature",
   "geometry": {
    "type": "Point",
    "coordinates": [
     146.48132371,
     -41.55699206
    ]
   },
   "properties": {
    "name": "54 SORELL STREET CHUDLEIGH 7304",
    "locID": "LOC000053156120",
    "tech": "WIRELESS",
    "upgrade": "NULL_NA",
    "gnaf_pid": "GATAS702815660",
    "tech_change_status": "Not Planned",
    "program_type": "Fixed Wireless and Satellite Upgrade Program",
    "target_eligibility_quarter": "NA"
   }
  },
  {
   "type": "Feature",
   "geometry": {
    "type": "Point",
    "coordinates": [
     146.48085941,
     -41.55709172
    ]
   },
   "properties": {
    "name": "60 SORELL STREET CHUDLEIGH 7304",
    "locID": "LOC000006821657",
    "tech": "WIRELESS",
    "upgrade": "NULL_NA",
    "gnaf_pid": "GATAS716462254",
    "tech_change_status": "Not Planned",
    "program_type": "Fixed Wireless and Satellite Upgrade Program",
    "target_eligibility_quarter": "NA"
   }
  },
  {
   "type": "Feature",
   "geometry": {
    "type": "Point",
    "coordinates": [
     146.48276026,
     -41.5531764
    ]
   },
   "properties": {
    "name": "1A BURNETT STREET CHUDLEIGH 7304",
    "locID": "LOC000013464011",
    "tech": "WIRELESS",
    "upgrade": "NULL_NA",
    "gnaf_pid": "GATAS716711506",
    "tech_change_status": "Not Planned",
    "program_type": "Fixed Wireless and Satellite Upgrade Program",
    "target_eligibility_quarter": "NA"
   }
  },
  {
   "type": "Feature",
   "geometry": {
    "type": "Point",
    "coordinates": [
     146.48462666,
     -41.56500403
    ]
   },
   "properties": {
    "name": "141 JONES STREET SOUTH CHUDLEIGH 7304",
    "locID": "LOC000133717931",
    "tech": "WIRELESS",
    "upgrade": "NULL_NA",
    "gnaf_pid": "GATAS717913092",
    "tech_change_status": "Not Planned",
    "program_type": "Fixed Wireless and Satellite Upgrade Program",
    "target_eligibility_quarter": "NA"
   }
  },
  {
   "type": "Feature",
   "geometry": {
    "type": "Point",
    "coordinates": [
     146.48538943,
     -41.56693997
    ]
   },
   "properties": {
    "name": "143 JONES STREET SOUTH CHUDLEIGH 7304",
    "locID": "LOC000133717949",
    "tech": "WIRELESS",
    "upgrade": "NULL_NA",
    "gnaf_pid": "GATAS717913093",
    "tech_change_status": "Not Planned",
    "program_type": "Fixed Wireless and Satellite Upgrade Program",
    "target_eligibility_quarter": "NA"
   }
  },
  {
   "type": "Feature",
   "geometry": {
    "type": "Point",
    "coordinates": [
     146.48264165,
     -41.56747602
    ]
   },
   "properties": {
    "name": "152 JONES STREET SOUTH CHUDLEIGH 7304",
    "locID": "LOC000133718013",
    "tech": "WIRELESS",
    "upgrade": "NULL_NA",
    "gnaf_pid": "GATAS717913094",
    "tech_change_status": "Not Planned",
    "program_type": "Fixed Wireless and Satellite Upgrade Program",
    "target_eligibility_quarter": "NA"
   }
  },
  {
   "type": "Feature",
   "geometry": {
    "type": "Point",
    "coordinates": [
     146.48394164,
     -41.56923527
    ]
   },
   "properties": {
    "name": "170 JONES STREET SOUTH CHUDLEIGH 7304",
    "locID": "LOC000133718097",
    "tech": "WIRELESS",
    "upgrade": "NULL_NA",
    "gnaf_pid": "GATAS717913096",
    "tech_change_status": "Not Planned",
    "program_type": "Fixed Wireless and Satellite Upgrade Program",
    "target_eligibility_quarter": "NA"
   }
  },
  {
   "type": "Feature",
   "geometry": {
    "type": "Point",
    "coordinates": [
     146.48657503,
     -41.57071255
    ]
   },
   "properties": {
    "name": "171 JONES STREET SOUTH CHUDLEIGH 7304",
    "locID": "LOC000056222060",
    "tech": "WIRELESS",
    "upgrade": "NULL_NA",
    "gnaf_pid": "GATAS717913097",
    "tech_change_status": "Not Planned",
    "program_type": "Fixed Wireless and Satellite Upgrade Program",
    "target_eligibility_quarter": "NA"
   }
  },
  {
   "type": "Feature",
   "geometry": {
    "type": "Point",
    "coordinates": [
     146.4811881,
     -41.55843832
    ]
   },
   "properties": {
    "name": "75 JONES STREET CHUDLEIGH 7304",
    "locID": "LOC000133735012",
    "tech": "WIRELESS",
    "upgrade": "NULL_NA",
    "gnaf_pid": "GATAS718292388",
    "tech_change_status": "Not Planned",
    "program_type": "Fixed Wireless and Satellite Upgrade Program",
    "target_eligibility_quarter": "NA"
   }
  },
  {
   "type": "Feature",
   "geometry": {
    "type": "Point",
    "coordinates": [
     146.48141559,
     -41.55773325
    ]
   },
   "properties": {
    "name": "59 SORELL STREET CHUDLEIGH 7304",
    "locID": "LOC000133730809",
    "tech": "WIRELESS",
    "upgrade": "NULL_NA",
    "gnaf_pid": "GATAS718292524",
    "tech_change_status": "Not Planned",
    "program_type": "Fixed Wireless and Satellite Upgrade Program",
    "target_eligibility_quarter": "NA"
   }
  },
  {
   "type": "Feature",
   "geometry": {
    "type": "Point",
    "coordinates": [
     146.48118538,
     -41.55778348
    ]
   },
   "properties": {
    "name": "61 SORELL STREET CHUDLEIGH 7304",
    "locID": "LOC000133734840",
    "tech": "WIRELESS",
    "upgrade": "NULL_NA",
    "gnaf_pid": "GATAS718292525",
    "tech_change_status": "Not Planned",
    "program_type": "Fixed Wireless and Satellite Upgrade Program",
    "target_eligibility_quarter": "NA"
   }
  },
  {
   "type": "Feature",
   "geometry": {
    "type": "Point",
    "coordinates": [
     146.51309312,
     -41.55379215
    ]
   },
   "properties": {
    "name": "1343 MOLE CREEK ROAD CHUDLEIGH 7304",
    "locID": "LOC100019755651",
    "tech": "WIRELESS",
    "upgrade": "NULL_NA",
    "gnaf_pid": "GATAS718517852",
    "tech_change_status": "Not Planned",
    "program_type": "Fixed Wireless and Satellite Upgrade Program",
    "target_eligibility_quarter": "NA"
   }
  },
  {
   "type": "Feature",
   "geometry": {
    "type": "Point",
    "coordinates": [
     146.51871843,
     -41.54667685
    ]
   },
   "properties": {
    "name": "1275 MOLE CREEK ROAD CHUDLEIGH 7304",
    "locID": "LOC000150784740",
    "tech": "WIRELESS",
    "upgrade": "NULL_NA",
    "gnaf_pid": "GATAS718711214",
    "tech_change_status": "Not Planned",
    "program_type": "Fixed Wireless and Satellite Upgrade Program",
    "target_eligibility_quarter": "NA"
   }
  },
  {
   "type": "Feature",
   "geometry": {
    "type": "Point",
    "coordinates": [
     146.45844897,
     -41.53344361
    ]
   },
   "properties": {
    "name": "202 MERSEY HILL ROAD CHUDLEIGH 7304",
    "locID": "LOC000150786243",
    "tech": "NULL",
    "upgrade": "NULL_NA",
    "gnaf_pid": "GATAS718819981",
    "tech_change_status": "Not Planned"
   }
  },
  {
   "type": "Feature",
   "geometry": {
    "type": "Point",
    "coordinates": [
     146.48175964,
     -41.55828278
    ]
   },
   "properties": {
    "name": "73 JONES STREET CHUDLEIGH 7304",
    "locID": "LOC100077378738",
    "tech": "WIRELESS",
    "upgrade": "NULL_NA",
    "gnaf_pid": "GATAS718910017",
    "tech_change_status": "Not Planned",
    "program_type": "Fixed Wireless and Satellite Upgrade Program",
    "target_eligibility_quarter": "NA"
   }
  },
  {
   "type": "Feature",
   "geometry": {
    "type": "Point",
    "coordinates": [
     146.47966999,
     -41.5593622
    ]
   },
   "properties": {
    "name": "74 JONES STREET CHUDLEIGH 7304",
    "locID": "LOC000052094161",
    "tech": "WIRELESS",
    "upgrade": "NULL_NA",
    "gnaf_pid": "GATAS719601891",
    "tech_change_status": "Not Planned",
    "program_type": "Fixed Wireless and Satellite Upgrade Program",
    "target_eligibility_quarter": "NA"
   }
  },
  {
   "type": "Feature",
   "geometry": {
    "type": "Point",
    "coordinates": [
     146.48254601,
     -41.55968354
    ]
   },
   "properties": {
    "name": "11 ARCHER STREET CHUDLEIGH 7304",
    "locID": "LOC100072053408",
    "tech": "WIRELESS",
    "upgrade": "NULL_NA",
    "gnaf_pid": "GATAS719771507",
    "tech_change_status": "Not Planned",
    "program_type": "Fixed Wireless and Satellite Upgrade Program",
    "target_eligibility_quarter": "NA"
   }
  },
  {
   "type": "Feature",
   "geometry": {
    "type": "Point",
    "coordinates": [
     146.45429982,
     -41.54685122
    ]
   },
   "properties": {
    "name": "147 MERSEY HILL ROAD CHUDLEIGH 7304",
    "locID": "LOC000186026443",
    "tech": "WIRELESS",
    "upgrade": "NULL_NA",
    "gnaf_pid": "GATAS720433738",
    "tech_change_status": "Not Planned",
    "program_type": "Fixed Wireless and Satellite Upgrade Program",
    "target_eligibility_quarter": "NA"
   }
  },
  {
   "type": "Feature",
   "geometry": {
    "type": "Point",
    "coordinates": [
     146.48045693,
     -41.55249465
    ]
   },
   "properties": {
    "name": "2 BURNETT STREET CHUDLEIGH 7304",
    "locID": "LOC000102978708",
    "tech": "WIRELESS",
    "upgrade": "NULL_NA",
    "gnaf_pid": "GATAS721272996",
    "tech_change_status": "Not Planned",
    "program_type": "Fixed Wireless and Satellite Upgrade Program",
    "target_eligibility_quarter": "NA"
   }
  }
 ]
}