{
 "type": "FeatureCollection",
 "generated": "2026-04-18T20:31:16.110158",
 "suburb": "CLUAN",
 "features": [
  {
   "type": "Feature",
   "geometry": {
    "type": "Point",
    "coordinates": [
     146.85563385,
     -41.59690422
    ]
   },
   "properties": {
    "name": "567 CLUAN ROAD CLUAN 7303",
    "locID": "LOC000094922920",
    "tech": "SATELLITE",
    "upgrade": "NULL_NA",
    "gnaf_pid": "GATAS702207673",
    "tech_change_status": "Not Planned"
   }
  },
  {
   "type": "Feature",
   "geometry": {
    "type": "Point",
    "coordinates": [
     146.85164305,
     -41.61992297
    ]
   },
   "properties": {
    "name": "720 CLUAN ROAD CLUAN 7303",
    "locID": "LOC000081996739",
    "tech": "NULL",
    "upgrade": "NULL_NA",
    "gnaf_pid": "GATAS702207674",
    "tech_change_status": "Not Planned"
   }
  },
  {
   "type": "Feature",
   "geometry": {
    "type": "Point",
    "coordinates": [
     146.83991553,
     -41.60931954
    ]
   },
   "properties": {
    "name": "588 CLUAN ROAD CLUAN 7303",
    "locID": "LOC000065910138",
    "tech": "NULL",
    "upgrade": "NULL_NA",
    "gnaf_pid": "GATAS702207675",
    "tech_change_status": "Not Planned"
   }
  },
  {
   "type": "Feature",
   "geometry": {
    "type": "Point",
    "coordinates": [
     146.84695139,
     -41.59622264
    ]
   },
   "properties": {
    "name": "536 CLUAN ROAD CLUAN 7303",
    "locID": "LOC000052900266",
    "tech": "WIRELESS",
    "upgrade": "NULL_NA",
    "gnaf_pid": "GATAS702218532",
    "tech_change_status": "Not Planned",
    "program_type": "Fixed Wireless and Satellite Upgrade Program",
    "target_eligibility_quarter": "NA"
   }
  },
  {
   "type": "Feature",
   "geometry": {
    "type": "Point",
    "coordinates": [
     146.84139194,
     -41.59134238
    ]
   },
   "properties": {
    "name": "460 CLUAN ROAD CLUAN 7303",
    "locID": "LOC000042649025",
    "tech": "SATELLITE",
    "upgrade": "NULL_NA",
    "gnaf_pid": "GATAS702219356",
    "tech_change_status": "Not Planned"
   }
  },
  {
   "type": "Feature",
   "geometry": {
    "type": "Point",
    "coordinates": [
     146.81929392,
     -41.57238873
    ]
   },
   "properties": {
    "name": "180 CLUAN ROAD CLUAN 7303",
    "locID": "LOC000080148190",
    "tech": "WIRELESS",
    "upgrade": "NULL_NA",
    "gnaf_pid": "GATAS702219357",
    "tech_change_status": "Not Planned",
    "program_type": "Fixed Wireless and Satellite Upgrade Program",
    "target_eligibility_quarter": "NA"
   }
  },
  {
   "type": "Feature",
   "geometry": {
    "type": "Point",
    "coordinates": [
     146.84799799,
     -41.59830854
    ]
   },
   "properties": {
    "name": "568 CLUAN ROAD CLUAN 7303",
    "locID": "LOC000085534132",
    "tech": "SATELLITE",
    "upgrade": "WIRELESS",
    "gnaf_pid": "GATAS702219358",
    "tech_change_status": "Eligible to Order",
    "program_type": "Fixed Wireless and Satellite Upgrade Program",
    "target_eligibility_quarter": "NA"
   }
  },
  {
   "type": "Feature",
   "geometry": {
    "type": "Point",
    "coordinates": [
     146.84904136,
     -41.59318713
    ]
   },
   "properties": {
    "name": "525 CLUAN ROAD CLUAN 7303",
    "locID": "LOC000078650186",
    "tech": "WIRELESS",
    "upgrade": "NULL_NA",
    "gnaf_pid": "GATAS702219359",
    "tech_change_status": "Not Planned",
    "program_type": "Fixed Wireless and Satellite Upgrade Program",
    "target_eligibility_quarter": "NA"
   }
  },
  {
   "type": "Feature",
   "geometry": {
    "type": "Point",
    "coordinates": [
     146.82610881,
     -41.568137
    ]
   },
   "properties": {
    "name": "155 CLUAN ROAD CLUAN 7303",
    "locID": "LOC000061725116",
    "tech": "WIRELESS",
    "upgrade": "NULL_NA",
    "gnaf_pid": "GATAS702219360",
    "tech_change_status": "Not Planned",
    "program_type": "Fixed Wireless and Satellite Upgrade Program",
    "target_eligibility_quarter": "NA"
   }
  },
  {
   "type": "Feature",
   "geometry": {
    "type": "Point",
    "coordinates": [
     146.8559558,
     -41.60253742
    ]
   },
   "properties": {
    "name": "4 GLENORE ROAD CLUAN 7303",
    "locID": "LOC000102428703",
    "tech": "SATELLITE",
    "upgrade": "NULL_NA",
    "gnaf_pid": "GATAS702256064",
    "tech_change_status": "Not Planned"
   }
  },
  {
   "type": "Feature",
   "geometry": {
    "type": "Point",
    "coordinates": [
     146.84375068,
     -41.59181304
    ]
   },
   "properties": {
    "name": "487 CLUAN ROAD CLUAN 7303",
    "locID": "LOC000063359150",
    "tech": "SATELLITE",
    "upgrade": "NULL_NA",
    "gnaf_pid": "GATAS702416332",
    "tech_change_status": "Not Planned"
   }
  },
  {
   "type": "Feature",
   "geometry": {
    "type": "Point",
    "coordinates": [
     146.82782495,
     -41.58811688
    ]
   },
   "properties": {
    "name": "462 CLUAN ROAD CLUAN 7303",
    "locID": "LOC000104229369",
    "tech": "SATELLITE",
    "upgrade": "NULL_NA",
    "gnaf_pid": "GATAS702416333",
    "tech_change_status": "Not Planned"
   }
  },
  {
   "type": "Feature",
   "geometry": {
    "type": "Point",
    "coordinates": [
     146.86332166,
     -41.61042945
    ]
   },
   "properties": {
    "name": "740 CLUAN ROAD CLUAN 7303",
    "locID": "LOC000073896199",
    "tech": "SATELLITE",
    "upgrade": "NULL_NA",
    "gnaf_pid": "GATAS702416336",
    "tech_change_status": "Not Planned"
   }
  },
  {
   "type": "Feature",
   "geometry": {
    "type": "Point",
    "coordinates": [
     146.86672431,
     -41.61387722
    ]
   },
   "properties": {
    "name": "780 CLUAN ROAD CLUAN 7303",
    "locID": "LOC000091995478",
    "tech": "SATELLITE",
    "upgrade": "NULL_NA",
    "gnaf_pid": "GATAS702416339",
    "tech_change_status": "Not Planned"
   }
  },
  {
   "type": "Feature",
   "geometry": {
    "type": "Point",
    "coordinates": [
     146.85251582,
     -41.60062021
    ]
   },
   "properties": {
    "name": "604 CLUAN ROAD CLUAN 7303",
    "locID": "LOC000016030505",
    "tech": "SATELLITE",
    "upgrade": "NULL_NA",
    "gnaf_pid": "GATAS702416340",
    "tech_change_status": "Not Planned"
   }
  },
  {
   "type": "Feature",
   "geometry": {
    "type": "Point",
    "coordinates": [
     146.83561363,
     -41.58236557
    ]
   },
   "properties": {
    "name": "263 CLUAN ROAD CLUAN 7303",
    "locID": "LOC000042676812",
    "tech": "WIRELESS",
    "upgrade": "NULL_NA",
    "gnaf_pid": "GATAS702799446",
    "tech_change_status": "Not Planned",
    "program_type": "Fixed Wireless and Satellite Upgrade Program",
    "target_eligibility_quarter": "NA"
   }
  },
  {
   "type": "Feature",
   "geometry": {
    "type": "Point",
    "coordinates": [
     146.80291713,
     -41.56344712
    ]
   },
   "properties": {
    "name": "263 OSMASTON ROAD CLUAN 7303",
    "locID": "LOC000042676812",
    "tech": "WIRELESS",
    "upgrade": "NULL_NA",
    "gnaf_pid": "GATAS716621629",
    "tech_change_status": "Not Planned",
    "program_type": "Fixed Wireless and Satellite Upgrade Program",
    "target_eligibility_quarter": "NA"
   }
  },
  {
   "type": "Feature",
   "geometry": {
    "type": "Point",
    "coordinates": [
     146.87264695,
     -41.60001964
    ]
   },
   "properties": {
    "name": "280 GLENORE ROAD CLUAN 7303",
    "locID": "LOC000133706160",
    "tech": "WIRELESS",
    "upgrade": "NULL_NA",
    "gnaf_pid": "GATAS718235677",
    "tech_change_status": "Not Planned",
    "program_type": "Fixed Wireless and Satellite Upgrade Program",
    "target_eligibility_quarter": "NA"
   }
  },
  {
   "type": "Feature",
   "geometry": {
    "type": "Point",
    "coordinates": [
     146.8333747,
     -41.57830875
    ]
   },
   "properties": {
    "name": "179 CLUAN ROAD CLUAN 7303",
    "locID": "LOC000098393128",
    "tech": "NULL",
    "upgrade": "NULL_NA",
    "gnaf_pid": "GATAS720712918",
    "tech_change_status": "Not Planned"
   }
  },
  {
   "type": "Feature",
   "geometry": {
    "type": "Point",
    "coordinates": [
     146.82782495,
     -41.58811688
    ]
   },
   "properties": {
    "name": "462A CLUAN ROAD CLUAN 7303",
    "locID": "LOC000175661568",
    "tech": "SATELLITE",
    "upgrade": "NULL_NA",
    "gnaf_pid": "GATAS721012781",
    "tech_change_status": "Not Planned"
   }
  },
  {
   "type": "Feature",
   "geometry": {
    "type": "Point",
    "coordinates": [
     146.82782495,
     -41.58811688
    ]
   },
   "properties": {
    "name": "462B CLUAN ROAD CLUAN 7303",
    "locID": "LOC000104229369",
    "tech": "SATELLITE",
    "upgrade": "NULL_NA",
    "gnaf_pid": "GATAS721012786",
    "tech_change_status": "Not Planned"
   }
  }
 ]
}