{
 "type": "FeatureCollection",
 "generated": "2026-05-19T03:36:26.821645",
 "suburb": "GOULDS COUNTRY",
 "features": [
  {
   "type": "Feature",
   "geometry": {
    "type": "Point",
    "coordinates": [
     148.07068675,
     -41.24601414
    ]
   },
   "properties": {
    "name": "24 FITZGERALDS ROAD GOULDS COUNTRY 7216",
    "locID": "LOC000106625796",
    "tech": "SATELLITE",
    "upgrade": "NULL_NA",
    "gnaf_pid": "GATAS702249637",
    "tech_change_status": "Not Planned"
   }
  },
  {
   "type": "Feature",
   "geometry": {
    "type": "Point",
    "coordinates": [
     148.04409752,
     -41.24205807
    ]
   },
   "properties": {
    "name": "59 JOHNSONS ROAD GOULDS COUNTRY 7216",
    "locID": "LOC000041022694",
    "tech": "SATELLITE",
    "upgrade": "NULL_NA",
    "gnaf_pid": "GATAS702267423",
    "tech_change_status": "Not Planned"
   }
  },
  {
   "type": "Feature",
   "geometry": {
    "type": "Point",
    "coordinates": [
     148.05902919,
     -41.24173266
    ]
   },
   "properties": {
    "name": "316 LOTTAH ROAD GOULDS COUNTRY 7216",
    "locID": "LOC000032442493",
    "tech": "SATELLITE",
    "upgrade": "NULL_NA",
    "gnaf_pid": "GATAS702280318",
    "tech_change_status": "Not Planned"
   }
  },
  {
   "type": "Feature",
   "geometry": {
    "type": "Point",
    "coordinates": [
     148.0511431,
     -41.23995823
    ]
   },
   "properties": {
    "name": "425 LOTTAH ROAD GOULDS COUNTRY 7216",
    "locID": "LOC000069710103",
    "tech": "NULL",
    "upgrade": "NULL_NA",
    "gnaf_pid": "GATAS702280319",
    "tech_change_status": "Not Planned"
   }
  },
  {
   "type": "Feature",
   "geometry": {
    "type": "Point",
    "coordinates": [
     148.06448475,
     -41.24617995
    ]
   },
   "properties": {
    "name": "238 LOTTAH ROAD GOULDS COUNTRY 7216",
    "locID": "LOC000038035535",
    "tech": "SATELLITE",
    "upgrade": "NULL_NA",
    "gnaf_pid": "GATAS702280320",
    "tech_change_status": "Not Planned"
   }
  },
  {
   "type": "Feature",
   "geometry": {
    "type": "Point",
    "coordinates": [
     148.06120753,
     -41.24449362
    ]
   },
   "properties": {
    "name": "274 LOTTAH ROAD GOULDS COUNTRY 7216",
    "locID": "LOC000075528124",
    "tech": "SATELLITE",
    "upgrade": "NULL_NA",
    "gnaf_pid": "GATAS702280322",
    "tech_change_status": "Not Planned"
   }
  },
  {
   "type": "Feature",
   "geometry": {
    "type": "Point",
    "coordinates": [
     148.0585213,
     -41.24217043
    ]
   },
   "properties": {
    "name": "320 LOTTAH ROAD GOULDS COUNTRY 7216",
    "locID": "LOC000031243152",
    "tech": "NULL",
    "upgrade": "NULL_NA",
    "gnaf_pid": "GATAS702283832",
    "tech_change_status": "Not Planned"
   }
  },
  {
   "type": "Feature",
   "geometry": {
    "type": "Point",
    "coordinates": [
     148.0586626,
     -41.24255156
    ]
   },
   "properties": {
    "name": "317 LOTTAH ROAD GOULDS COUNTRY 7216",
    "locID": "LOC000093678955",
    "tech": "NULL",
    "upgrade": "NULL_NA",
    "gnaf_pid": "GATAS702283833",
    "tech_change_status": "Not Planned"
   }
  },
  {
   "type": "Feature",
   "geometry": {
    "type": "Point",
    "coordinates": [
     148.06008853,
     -41.24232251
    ]
   },
   "properties": {
    "name": "310 LOTTAH ROAD GOULDS COUNTRY 7216",
    "locID": "LOC000027714091",
    "tech": "NULL",
    "upgrade": "NULL_NA",
    "gnaf_pid": "GATAS702285530",
    "tech_change_status": "Not Planned"
   }
  },
  {
   "type": "Feature",
   "geometry": {
    "type": "Point",
    "coordinates": [
     148.07167476,
     -41.24808727
    ]
   },
   "properties": {
    "name": "165 LOTTAH ROAD GOULDS COUNTRY 7216",
    "locID": "LOC000096495720",
    "tech": "NULL",
    "upgrade": "NULL_NA",
    "gnaf_pid": "GATAS702285531",
    "tech_change_status": "Not Planned"
   }
  },
  {
   "type": "Feature",
   "geometry": {
    "type": "Point",
    "coordinates": [
     148.05914737,
     -41.24293862
    ]
   },
   "properties": {
    "name": "311 LOTTAH ROAD GOULDS COUNTRY 7216",
    "locID": "LOC000036070547",
    "tech": "SATELLITE",
    "upgrade": "NULL_NA",
    "gnaf_pid": "GATAS702285532",
    "tech_change_status": "Not Planned"
   }
  },
  {
   "type": "Feature",
   "geometry": {
    "type": "Point",
    "coordinates": [
     148.06745619,
     -41.2470081
    ]
   },
   "properties": {
    "name": "184 LOTTAH ROAD GOULDS COUNTRY 7216",
    "locID": "LOC000007695773",
    "tech": "NULL",
    "upgrade": "NULL_NA",
    "gnaf_pid": "GATAS702285533",
    "tech_change_status": "Not Planned"
   }
  },
  {
   "type": "Feature",
   "geometry": {
    "type": "Point",
    "coordinates": [
     148.0673059,
     -41.24847647
    ]
   },
   "properties": {
    "name": "189 LOTTAH ROAD GOULDS COUNTRY 7216",
    "locID": "LOC000025066783",
    "tech": "SATELLITE",
    "upgrade": "NULL_NA",
    "gnaf_pid": "GATAS702287417",
    "tech_change_status": "Not Planned"
   }
  },
  {
   "type": "Feature",
   "geometry": {
    "type": "Point",
    "coordinates": [
     148.06065077,
     -41.24682201
    ]
   },
   "properties": {
    "name": "239 LOTTAH ROAD GOULDS COUNTRY 7216",
    "locID": "LOC000022540193",
    "tech": "SATELLITE",
    "upgrade": "NULL_NA",
    "gnaf_pid": "GATAS702287420",
    "tech_change_status": "Not Planned"
   }
  },
  {
   "type": "Feature",
   "geometry": {
    "type": "Point",
    "coordinates": [
     148.07436422,
     -41.25109297
    ]
   },
   "properties": {
    "name": "71 LOTTAH ROAD GOULDS COUNTRY 7216",
    "locID": "LOC000060442174",
    "tech": "SATELLITE",
    "upgrade": "NULL_NA",
    "gnaf_pid": "GATAS702287421",
    "tech_change_status": "Not Planned"
   }
  },
  {
   "type": "Feature",
   "geometry": {
    "type": "Point",
    "coordinates": [
     148.05595119,
     -41.24478701
    ]
   },
   "properties": {
    "name": "313 LOTTAH ROAD GOULDS COUNTRY 7216",
    "locID": "LOC000037182079",
    "tech": "NULL",
    "upgrade": "NULL_NA",
    "gnaf_pid": "GATAS702287422",
    "tech_change_status": "Not Planned"
   }
  },
  {
   "type": "Feature",
   "geometry": {
    "type": "Point",
    "coordinates": [
     148.04797175,
     -41.23882793
    ]
   },
   "properties": {
    "name": "497 LOTTAH ROAD GOULDS COUNTRY 7216",
    "locID": "LOC000056261815",
    "tech": "SATELLITE",
    "upgrade": "NULL_NA",
    "gnaf_pid": "GATAS702287460",
    "tech_change_status": "Not Planned"
   }
  },
  {
   "type": "Feature",
   "geometry": {
    "type": "Point",
    "coordinates": [
     148.07345679,
     -41.2536245
    ]
   },
   "properties": {
    "name": "55 LOTTAH ROAD GOULDS COUNTRY 7216",
    "locID": "LOC000028471913",
    "tech": "NULL",
    "upgrade": "NULL_NA",
    "gnaf_pid": "GATAS702287461",
    "tech_change_status": "Not Planned"
   }
  },
  {
   "type": "Feature",
   "geometry": {
    "type": "Point",
    "coordinates": [
     148.07007355,
     -41.15537828
    ]
   },
   "properties": {
    "name": "141 RICHARDS ROAD GOULDS COUNTRY 7216",
    "locID": "LOC000014308705",
    "tech": "NULL",
    "upgrade": "NULL_NA",
    "gnaf_pid": "GATAS702329228",
    "tech_change_status": "Not Planned"
   }
  },
  {
   "type": "Feature",
   "geometry": {
    "type": "Point",
    "coordinates": [
     148.06481404,
     -41.25904909
    ]
   },
   "properties": {
    "name": "27235 TASMAN HIGHWAY GOULDS COUNTRY 7216",
    "locID": "LOC000039001201",
    "tech": "SATELLITE",
    "upgrade": "NULL_NA",
    "gnaf_pid": "GATAS702336440",
    "tech_change_status": "Not Planned"
   }
  },
  {
   "type": "Feature",
   "geometry": {
    "type": "Point",
    "coordinates": [
     148.06790295,
     -41.25542641
    ]
   },
   "properties": {
    "name": "9 SWEETS HILL ROAD GOULDS COUNTRY 7216",
    "locID": "LOC000062961275",
    "tech": "SATELLITE",
    "upgrade": "NULL_NA",
    "gnaf_pid": "GATAS702337270",
    "tech_change_status": "Not Planned"
   }
  },
  {
   "type": "Feature",
   "geometry": {
    "type": "Point",
    "coordinates": [
     148.06580747,
     -41.25358991
    ]
   },
   "properties": {
    "name": "65 SWEETS HILL ROAD GOULDS COUNTRY 7216",
    "locID": "LOC000056697729",
    "tech": "NULL",
    "upgrade": "NULL_NA",
    "gnaf_pid": "GATAS702337271",
    "tech_change_status": "Not Planned"
   }
  },
  {
   "type": "Feature",
   "geometry": {
    "type": "Point",
    "coordinates": [
     148.05366719,
     -41.25878056
    ]
   },
   "properties": {
    "name": "27355 TASMAN HIGHWAY GOULDS COUNTRY 7216",
    "locID": "LOC000088961439",
    "tech": "SATELLITE",
    "upgrade": "NULL_NA",
    "gnaf_pid": "GATAS702338995",
    "tech_change_status": "Not Planned"
   }
  },
  {
   "type": "Feature",
   "geometry": {
    "type": "Point",
    "coordinates": [
     148.05735266,
     -41.25549965
    ]
   },
   "properties": {
    "name": "27322 TASMAN HIGHWAY GOULDS COUNTRY 7216",
    "locID": "LOC000088894636",
    "tech": "SATELLITE",
    "upgrade": "NULL_NA",
    "gnaf_pid": "GATAS702341625",
    "tech_change_status": "Not Planned"
   }
  },
  {
   "type": "Feature",
   "geometry": {
    "type": "Point",
    "coordinates": [
     148.06779954,
     -41.25849398
    ]
   },
   "properties": {
    "name": "27193 TASMAN HIGHWAY GOULDS COUNTRY 7216",
    "locID": "LOC000083318356",
    "tech": "SATELLITE",
    "upgrade": "NULL_NA",
    "gnaf_pid": "GATAS702344435",
    "tech_change_status": "Not Planned"
   }
  },
  {
   "type": "Feature",
   "geometry": {
    "type": "Point",
    "coordinates": [
     148.04785064,
     -41.25768661
    ]
   },
   "properties": {
    "name": "27401 TASMAN HIGHWAY GOULDS COUNTRY 7216",
    "locID": "LOC000006271666",
    "tech": "SATELLITE",
    "upgrade": "NULL_NA",
    "gnaf_pid": "GATAS702349034",
    "tech_change_status": "Not Planned"
   }
  },
  {
   "type": "Feature",
   "geometry": {
    "type": "Point",
    "coordinates": [
     148.06024489,
     -41.25900441
    ]
   },
   "properties": {
    "name": "27261 TASMAN HIGHWAY GOULDS COUNTRY 7216",
    "locID": "LOC000035117700",
    "tech": "SATELLITE",
    "upgrade": "NULL_NA",
    "gnaf_pid": "GATAS702353864",
    "tech_change_status": "Not Planned"
   }
  },
  {
   "type": "Feature",
   "geometry": {
    "type": "Point",
    "coordinates": [
     148.04520814,
     -41.25758373
    ]
   },
   "properties": {
    "name": "27437 TASMAN HIGHWAY GOULDS COUNTRY 7216",
    "locID": "LOC000094412070",
    "tech": "SATELLITE",
    "upgrade": "NULL_NA",
    "gnaf_pid": "GATAS702358248",
    "tech_change_status": "Not Planned"
   }
  },
  {
   "type": "Feature",
   "geometry": {
    "type": "Point",
    "coordinates": [
     148.05018902,
     -41.25178473
    ]
   },
   "properties": {
    "name": "27392 TASMAN HIGHWAY GOULDS COUNTRY 7216",
    "locID": "LOC000058636079",
    "tech": "SATELLITE",
    "upgrade": "NULL_NA",
    "gnaf_pid": "GATAS702363707",
    "tech_change_status": "Not Planned"
   }
  },
  {
   "type": "Feature",
   "geometry": {
    "type": "Point",
    "coordinates": [
     148.05419059,
     -41.25190373
    ]
   },
   "properties": {
    "name": "27346 TASMAN HIGHWAY GOULDS COUNTRY 7216",
    "locID": "LOC000104694863",
    "tech": "SATELLITE",
    "upgrade": "NULL_NA",
    "gnaf_pid": "GATAS702363708",
    "tech_change_status": "Not Planned"
   }
  },
  {
   "type": "Feature",
   "geometry": {
    "type": "Point",
    "coordinates": [
     148.04630713,
     -41.25145695
    ]
   },
   "properties": {
    "name": "27420 TASMAN HIGHWAY GOULDS COUNTRY 7216",
    "locID": "LOC000074100055",
    "tech": "SATELLITE",
    "upgrade": "NULL_NA",
    "gnaf_pid": "GATAS702438183",
    "tech_change_status": "Not Planned"
   }
  },
  {
   "type": "Feature",
   "geometry": {
    "type": "Point",
    "coordinates": [
     148.04122791,
     -41.25310215
    ]
   },
   "properties": {
    "name": "27464 TASMAN HIGHWAY GOULDS COUNTRY 7216",
    "locID": "LOC000008468649",
    "tech": "SATELLITE",
    "upgrade": "NULL_NA",
    "gnaf_pid": "GATAS702443627",
    "tech_change_status": "Not Planned"
   }
  },
  {
   "type": "Feature",
   "geometry": {
    "type": "Point",
    "coordinates": [
     148.06280984,
     -41.24912841
    ]
   },
   "properties": {
    "name": "217 LOTTAH ROAD GOULDS COUNTRY 7216",
    "locID": "LOC000093266830",
    "tech": "SATELLITE",
    "upgrade": "NULL_NA",
    "gnaf_pid": "GATAS702443632",
    "tech_change_status": "Not Planned"
   }
  },
  {
   "type": "Feature",
   "geometry": {
    "type": "Point",
    "coordinates": [
     148.0673521,
     -41.25996895
    ]
   },
   "properties": {
    "name": "27201 TASMAN HIGHWAY GOULDS COUNTRY 7216",
    "locID": "LOC000035022773",
    "tech": "SATELLITE",
    "upgrade": "NULL_NA",
    "gnaf_pid": "GATAS702448912",
    "tech_change_status": "Not Planned"
   }
  },
  {
   "type": "Feature",
   "geometry": {
    "type": "Point",
    "coordinates": [
     148.05761244,
     -41.25703366
    ]
   },
   "properties": {
    "name": "27321 TASMAN HIGHWAY GOULDS COUNTRY 7216",
    "locID": "LOC000048142100",
    "tech": "SATELLITE",
    "upgrade": "NULL_NA",
    "gnaf_pid": "GATAS702448914",
    "tech_change_status": "Not Planned"
   }
  },
  {
   "type": "Feature",
   "geometry": {
    "type": "Point",
    "coordinates": [
     148.06535713,
     -41.24771736
    ]
   },
   "properties": {
    "name": "191 LOTTAH ROAD GOULDS COUNTRY 7216",
    "locID": "LOC000104339941",
    "tech": "SATELLITE",
    "upgrade": "NULL_NA",
    "gnaf_pid": "GATAS702747780",
    "tech_change_status": "Not Planned"
   }
  },
  {
   "type": "Feature",
   "geometry": {
    "type": "Point",
    "coordinates": [
     148.06265073,
     -41.24093089
    ]
   },
   "properties": {
    "name": "18 CHURCH HILL ROAD GOULDS COUNTRY 7216",
    "locID": "LOC000054172393",
    "tech": "NULL",
    "upgrade": "NULL_NA",
    "gnaf_pid": "GATAS717233297",
    "tech_change_status": "Not Planned"
   }
  },
  {
   "type": "Feature",
   "geometry": {
    "type": "Point",
    "coordinates": [
     148.05941708,
     -41.24024735
    ]
   },
   "properties": {
    "name": "20 CHURCH HILL ROAD GOULDS COUNTRY 7216",
    "locID": "LOC000044860756",
    "tech": "SATELLITE",
    "upgrade": "NULL_NA",
    "gnaf_pid": "GATAS717233298",
    "tech_change_status": "Not Planned"
   }
  },
  {
   "type": "Feature",
   "geometry": {
    "type": "Point",
    "coordinates": [
     148.06158812,
     -41.25439624
    ]
   },
   "properties": {
    "name": "27302 TASMAN HIGHWAY GOULDS COUNTRY 7216",
    "locID": "LOC000133807969",
    "tech": "SATELLITE",
    "upgrade": "NULL_NA",
    "gnaf_pid": "GATAS717914368",
    "tech_change_status": "Not Planned"
   }
  },
  {
   "type": "Feature",
   "geometry": {
    "type": "Point",
    "coordinates": [
     148.03724168,
     -41.26007678
    ]
   },
   "properties": {
    "name": "27466 TASMAN HIGHWAY GOULDS COUNTRY 7216",
    "locID": "LOC000046813402",
    "tech": "SATELLITE",
    "upgrade": "NULL_NA",
    "gnaf_pid": "GATAS717914369",
    "tech_change_status": "Not Planned"
   }
  },
  {
   "type": "Feature",
   "geometry": {
    "type": "Point",
    "coordinates": [
     148.05131501,
     -41.24457403
    ]
   },
   "properties": {
    "name": "315 LOTTAH ROAD GOULDS COUNTRY 7216",
    "locID": "LOC000133812416",
    "tech": "SATELLITE",
    "upgrade": "NULL_NA",
    "gnaf_pid": "GATAS717937842",
    "tech_change_status": "Not Planned"
   }
  },
  {
   "type": "Feature",
   "geometry": {
    "type": "Point",
    "coordinates": [
     148.05985339,
     -41.24456283
    ]
   },
   "properties": {
    "name": "511 LOTTAH ROAD GOULDS COUNTRY 7216",
    "locID": "LOC000006779826",
    "tech": "SATELLITE",
    "upgrade": "NULL_NA",
    "gnaf_pid": "GATAS718019782"
   }
  },
  {
   "type": "Feature",
   "geometry": {
    "type": "Point",
    "coordinates": [
     148.04395218,
     -41.24300812
    ]
   },
   "properties": {
    "name": "35 JOHNSONS ROAD GOULDS COUNTRY 7216",
    "locID": "LOC000116528089",
    "tech": "SATELLITE",
    "upgrade": "NULL_NA",
    "gnaf_pid": "GATAS718236458",
    "tech_change_status": "Not Planned"
   }
  },
  {
   "type": "Feature",
   "geometry": {
    "type": "Point",
    "coordinates": [
     148.04695112,
     -41.24299811
    ]
   },
   "properties": {
    "name": "37 JOHNSONS ROAD GOULDS COUNTRY 7216",
    "locID": "LOC000150259033",
    "tech": "NULL",
    "upgrade": "NULL_NA",
    "gnaf_pid": "GATAS718386076",
    "tech_change_status": "Not Planned"
   }
  },
  {
   "type": "Feature",
   "geometry": {
    "type": "Point",
    "coordinates": [
     148.06984578,
     -41.23534014
    ]
   },
   "properties": {
    "name": "57 FITZGERALDS ROAD GOULDS COUNTRY 7216",
    "locID": "LOC100078160151",
    "tech": "NULL",
    "upgrade": "NULL_NA",
    "gnaf_pid": "GATAS719771482",
    "tech_change_status": "Not Planned"
   }
  },
  {
   "type": "Feature",
   "geometry": {
    "type": "Point",
    "coordinates": [
     148.0458925,
     -41.23525331
    ]
   },
   "properties": {
    "name": "500 LOTTAH ROAD GOULDS COUNTRY 7216",
    "locID": "LOC100085815529",
    "tech": "SATELLITE",
    "upgrade": "NULL_NA",
    "gnaf_pid": "GATAS721536223",
    "tech_change_status": "Not Planned"
   }
  }
 ]
}