{
 "type": "FeatureCollection",
 "generated": "2024-11-14T15:33:28.021884",
 "suburb": "LOWER TURNERS MARSH",
 "features": [
  {
   "type": "Feature",
   "geometry": {
    "type": "Point",
    "coordinates": [
     147.1025277,
     -41.21900997
    ]
   },
   "properties": {
    "name": "118 ARNOLDS ROAD LOWER TURNERS MARSH 7267",
    "locID": "LOC000074241000",
    "tech": "WIRELESS",
    "upgrade": "NULL_NA",
    "gnaf_pid": "GATAS702188864",
    "tech_change_status": "Not Planned",
    "program_type": "Fixed Wireless and Satellite Upgrade Program",
    "target_eligibility_quarter": "NA"
   }
  },
  {
   "type": "Feature",
   "geometry": {
    "type": "Point",
    "coordinates": [
     147.10965776,
     -41.20522838
    ]
   },
   "properties": {
    "name": "891 OLD BANGOR TRAM ROAD LOWER TURNERS MARSH 7267",
    "locID": "LOC000070878909",
    "tech": "WIRELESS",
    "upgrade": "NULL_NA",
    "gnaf_pid": "GATAS702296285",
    "tech_change_status": "Not Planned",
    "program_type": "Fixed Wireless and Satellite Upgrade Program",
    "target_eligibility_quarter": "NA"
   }
  },
  {
   "type": "Feature",
   "geometry": {
    "type": "Point",
    "coordinates": [
     147.12144363,
     -41.20237594
    ]
   },
   "properties": {
    "name": "1866 PIPERS RIVER ROAD LOWER TURNERS MARSH 7267",
    "locID": "LOC000083705283",
    "tech": "WIRELESS",
    "upgrade": "NULL_NA",
    "gnaf_pid": "GATAS702309627",
    "tech_change_status": "Not Planned",
    "program_type": "Fixed Wireless and Satellite Upgrade Program",
    "target_eligibility_quarter": "NA"
   }
  },
  {
   "type": "Feature",
   "geometry": {
    "type": "Point",
    "coordinates": [
     147.11917786,
     -41.20588741
    ]
   },
   "properties": {
    "name": "1794 PIPERS RIVER ROAD LOWER TURNERS MARSH 7267",
    "locID": "LOC000084863825",
    "tech": "WIRELESS",
    "upgrade": "NULL_NA",
    "gnaf_pid": "GATAS702311273",
    "tech_change_status": "Not Planned",
    "program_type": "Fixed Wireless and Satellite Upgrade Program",
    "target_eligibility_quarter": "NA"
   }
  },
  {
   "type": "Feature",
   "geometry": {
    "type": "Point",
    "coordinates": [
     147.11781105,
     -41.20442005
    ]
   },
   "properties": {
    "name": "1796 PIPERS RIVER ROAD LOWER TURNERS MARSH 7267",
    "locID": "LOC000043163953",
    "tech": "WIRELESS",
    "upgrade": "NULL_NA",
    "gnaf_pid": "GATAS702311280",
    "tech_change_status": "Not Planned",
    "program_type": "Fixed Wireless and Satellite Upgrade Program",
    "target_eligibility_quarter": "NA"
   }
  },
  {
   "type": "Feature",
   "geometry": {
    "type": "Point",
    "coordinates": [
     147.11639681,
     -41.20337008
    ]
   },
   "properties": {
    "name": "1813 PIPERS RIVER ROAD LOWER TURNERS MARSH 7267",
    "locID": "LOC000012662859",
    "tech": "WIRELESS",
    "upgrade": "NULL_NA",
    "gnaf_pid": "GATAS702311281",
    "tech_change_status": "Not Planned",
    "program_type": "Fixed Wireless and Satellite Upgrade Program",
    "target_eligibility_quarter": "NA"
   }
  },
  {
   "type": "Feature",
   "geometry": {
    "type": "Point",
    "coordinates": [
     147.11738613,
     -41.20281658
    ]
   },
   "properties": {
    "name": "1838 PIPERS RIVER ROAD LOWER TURNERS MARSH 7267",
    "locID": "LOC000051372312",
    "tech": "WIRELESS",
    "upgrade": "NULL_NA",
    "gnaf_pid": "GATAS702311285",
    "tech_change_status": "Not Planned",
    "program_type": "Fixed Wireless and Satellite Upgrade Program",
    "target_eligibility_quarter": "NA"
   }
  },
  {
   "type": "Feature",
   "geometry": {
    "type": "Point",
    "coordinates": [
     147.11654233,
     -41.1976067
    ]
   },
   "properties": {
    "name": "1886 PIPERS RIVER ROAD LOWER TURNERS MARSH 7267",
    "locID": "LOC000106596846",
    "tech": "WIRELESS",
    "upgrade": "NULL_NA",
    "gnaf_pid": "GATAS702311289",
    "tech_change_status": "Not Planned",
    "program_type": "Fixed Wireless and Satellite Upgrade Program",
    "target_eligibility_quarter": "NA"
   }
  },
  {
   "type": "Feature",
   "geometry": {
    "type": "Point",
    "coordinates": [
     147.11912233,
     -41.20688158
    ]
   },
   "properties": {
    "name": "1774 PIPERS RIVER ROAD LOWER TURNERS MARSH 7267",
    "locID": "LOC000034206773",
    "tech": "WIRELESS",
    "upgrade": "NULL_NA",
    "gnaf_pid": "GATAS702328770",
    "tech_change_status": "Not Planned",
    "program_type": "Fixed Wireless and Satellite Upgrade Program",
    "target_eligibility_quarter": "NA"
   }
  },
  {
   "type": "Feature",
   "geometry": {
    "type": "Point",
    "coordinates": [
     147.11681619,
     -41.21237641
    ]
   },
   "properties": {
    "name": "950 OLD BANGOR TRAM ROAD LOWER TURNERS MARSH 7267",
    "locID": "LOC000070946105",
    "tech": "WIRELESS",
    "upgrade": "NULL_NA",
    "gnaf_pid": "GATAS702481865",
    "tech_change_status": "Not Planned",
    "program_type": "Fixed Wireless and Satellite Upgrade Program",
    "target_eligibility_quarter": "NA"
   }
  },
  {
   "type": "Feature",
   "geometry": {
    "type": "Point",
    "coordinates": [
     147.08652812,
     -41.22125422
    ]
   },
   "properties": {
    "name": "792 OLD BANGOR TRAM ROAD LOWER TURNERS MARSH 7267",
    "locID": "LOC000045831937",
    "tech": "WIRELESS",
    "upgrade": "NULL_NA",
    "gnaf_pid": "GATAS702482768",
    "tech_change_status": "Not Planned",
    "program_type": "Fixed Wireless and Satellite Upgrade Program",
    "target_eligibility_quarter": "NA"
   }
  },
  {
   "type": "Feature",
   "geometry": {
    "type": "Point",
    "coordinates": [
     147.09547949,
     -41.203311
    ]
   },
   "properties": {
    "name": "741 OLD BANGOR TRAM ROAD LOWER TURNERS MARSH 7267",
    "locID": "LOC000011760608",
    "tech": "WIRELESS",
    "upgrade": "NULL_NA",
    "gnaf_pid": "GATAS702804744",
    "tech_change_status": "Not Planned",
    "program_type": "Fixed Wireless and Satellite Upgrade Program",
    "target_eligibility_quarter": "NA"
   }
  },
  {
   "type": "Feature",
   "geometry": {
    "type": "Point",
    "coordinates": [
     147.10177454,
     -41.21842969
    ]
   },
   "properties": {
    "name": "858 OLD BANGOR TRAM ROAD LOWER TURNERS MARSH 7267",
    "locID": "LOC000047392076",
    "tech": "WIRELESS",
    "upgrade": "NULL_NA",
    "gnaf_pid": "GATAS716461532",
    "tech_change_status": "Not Planned",
    "program_type": "Fixed Wireless and Satellite Upgrade Program",
    "target_eligibility_quarter": "NA"
   }
  },
  {
   "type": "Feature",
   "geometry": {
    "type": "Point",
    "coordinates": [
     147.1237622,
     -41.21150616
    ]
   },
   "properties": {
    "name": "1690 PIPERS RIVER ROAD LOWER TURNERS MARSH 7267",
    "locID": "LOC000053227752",
    "tech": "WIRELESS",
    "upgrade": "NULL_NA",
    "gnaf_pid": "GATAS716461747",
    "tech_change_status": "Not Planned",
    "program_type": "Fixed Wireless and Satellite Upgrade Program",
    "target_eligibility_quarter": "NA"
   }
  },
  {
   "type": "Feature",
   "geometry": {
    "type": "Point",
    "coordinates": [
     147.12167563,
     -41.20568831
    ]
   },
   "properties": {
    "name": "1792 PIPERS RIVER ROAD LOWER TURNERS MARSH 7267",
    "locID": "LOC000084923150",
    "tech": "WIRELESS",
    "upgrade": "NULL_NA",
    "gnaf_pid": "GATAS716461748",
    "tech_change_status": "Not Planned",
    "program_type": "Fixed Wireless and Satellite Upgrade Program",
    "target_eligibility_quarter": "NA"
   }
  }
 ]
}