{
 "type": "FeatureCollection",
 "generated": "2025-02-11T08:05:59.217149",
 "suburb": "LUNE RIVER",
 "features": [
  {
   "type": "Feature",
   "geometry": {
    "type": "Point",
    "coordinates": [
     146.90546162,
     -43.42774254
    ]
   },
   "properties": {
    "name": "142 LUNE RIVER ROAD LUNE RIVER 7109",
    "locID": "LOC000026223916",
    "tech": "WIRELESS",
    "upgrade": "NULL_NA",
    "gnaf_pid": "GATAS702286042",
    "tech_change_status": "Not Planned",
    "program_type": "Fixed Wireless and Satellite Upgrade Program",
    "target_eligibility_quarter": "Jun 2025"
   }
  },
  {
   "type": "Feature",
   "geometry": {
    "type": "Point",
    "coordinates": [
     146.90423953,
     -43.43086063
    ]
   },
   "properties": {
    "name": "179 LUNE RIVER ROAD LUNE RIVER 7109",
    "locID": "LOC000075381037",
    "tech": "WIRELESS",
    "upgrade": "NULL_NA",
    "gnaf_pid": "GATAS702286043",
    "tech_change_status": "Not Planned",
    "program_type": "Fixed Wireless and Satellite Upgrade Program",
    "target_eligibility_quarter": "Jun 2025"
   }
  },
  {
   "type": "Feature",
   "geometry": {
    "type": "Point",
    "coordinates": [
     146.90080734,
     -43.43483811
    ]
   },
   "properties": {
    "name": "230 LUNE RIVER ROAD LUNE RIVER 7109",
    "locID": "LOC000094262612",
    "tech": "WIRELESS",
    "upgrade": "NULL_NA",
    "gnaf_pid": "GATAS702286050",
    "tech_change_status": "Not Planned",
    "program_type": "Fixed Wireless and Satellite Upgrade Program",
    "target_eligibility_quarter": "Jun 2025"
   }
  },
  {
   "type": "Feature",
   "geometry": {
    "type": "Point",
    "coordinates": [
     146.90412083,
     -43.42945889
    ]
   },
   "properties": {
    "name": "175 LUNE RIVER ROAD LUNE RIVER 7109",
    "locID": "LOC000004260937",
    "tech": "WIRELESS",
    "upgrade": "NULL_NA",
    "gnaf_pid": "GATAS702286052",
    "tech_change_status": "Not Planned",
    "program_type": "Fixed Wireless and Satellite Upgrade Program",
    "target_eligibility_quarter": "Jun 2025"
   }
  },
  {
   "type": "Feature",
   "geometry": {
    "type": "Point",
    "coordinates": [
     146.90260752,
     -43.42747902
    ]
   },
   "properties": {
    "name": "144 LUNE RIVER ROAD LUNE RIVER 7109",
    "locID": "LOC000080071848",
    "tech": "WIRELESS",
    "upgrade": "NULL_NA",
    "gnaf_pid": "GATAS702286053",
    "tech_change_status": "Not Planned",
    "program_type": "Fixed Wireless and Satellite Upgrade Program",
    "target_eligibility_quarter": "Jun 2025"
   }
  },
  {
   "type": "Feature",
   "geometry": {
    "type": "Point",
    "coordinates": [
     146.9022239,
     -43.42028779
    ]
   },
   "properties": {
    "name": "70 LUNE RIVER ROAD LUNE RIVER 7109",
    "locID": "LOC000083192712",
    "tech": "WIRELESS",
    "upgrade": "NULL_NA",
    "gnaf_pid": "GATAS702286054",
    "tech_change_status": "Not Planned",
    "program_type": "Fixed Wireless and Satellite Upgrade Program",
    "target_eligibility_quarter": "Jun 2025"
   }
  },
  {
   "type": "Feature",
   "geometry": {
    "type": "Point",
    "coordinates": [
     146.91073896,
     -43.43774174
    ]
   },
   "properties": {
    "name": "235 LUNE RIVER ROAD LUNE RIVER 7109",
    "locID": "LOC000006780179",
    "tech": "WIRELESS",
    "upgrade": "NULL_NA",
    "gnaf_pid": "GATAS702286056",
    "tech_change_status": "Not Planned",
    "program_type": "Fixed Wireless and Satellite Upgrade Program",
    "target_eligibility_quarter": "Jun 2025"
   }
  },
  {
   "type": "Feature",
   "geometry": {
    "type": "Point",
    "coordinates": [
     146.90360177,
     -43.433948
    ]
   },
   "properties": {
    "name": "239 LUNE RIVER ROAD LUNE RIVER 7109",
    "locID": "LOC000032128208",
    "tech": "WIRELESS",
    "upgrade": "NULL_NA",
    "gnaf_pid": "GATAS702480902",
    "tech_change_status": "Not Planned",
    "program_type": "Fixed Wireless and Satellite Upgrade Program",
    "target_eligibility_quarter": "Jun 2025"
   }
  },
  {
   "type": "Feature",
   "geometry": {
    "type": "Point",
    "coordinates": [
     146.90523402,
     -43.43238423
    ]
   },
   "properties": {
    "name": "199 LUNE RIVER ROAD LUNE RIVER 7109",
    "locID": "LOC000012588921",
    "tech": "WIRELESS",
    "upgrade": "NULL_NA",
    "gnaf_pid": "GATAS715255369",
    "tech_change_status": "Not Planned",
    "program_type": "Fixed Wireless and Satellite Upgrade Program",
    "target_eligibility_quarter": "Jun 2025"
   }
  },
  {
   "type": "Feature",
   "geometry": {
    "type": "Point",
    "coordinates": [
     146.90165249,
     -43.43394813
    ]
   },
   "properties": {
    "name": "216 LUNE RIVER ROAD LUNE RIVER 7109",
    "locID": "LOC100077379489",
    "tech": "WIRELESS",
    "upgrade": "NULL_NA",
    "gnaf_pid": "GATAS717318277",
    "tech_change_status": "Not Planned",
    "program_type": "Fixed Wireless and Satellite Upgrade Program",
    "target_eligibility_quarter": "Jun 2025"
   }
  },
  {
   "type": "Feature",
   "geometry": {
    "type": "Point",
    "coordinates": [
     146.90584254,
     -43.43100284
    ]
   },
   "properties": {
    "name": "23 LUNE MILL ROAD LUNE RIVER 7109",
    "locID": "LOC000071727432",
    "tech": "WIRELESS",
    "upgrade": "NULL_NA",
    "gnaf_pid": "GATAS717615637",
    "tech_change_status": "Not Planned",
    "program_type": "Fixed Wireless and Satellite Upgrade Program",
    "target_eligibility_quarter": "Jun 2025"
   }
  },
  {
   "type": "Feature",
   "geometry": {
    "type": "Point",
    "coordinates": [
     146.90528869,
     -43.43339905
    ]
   },
   "properties": {
    "name": "211 LUNE RIVER ROAD LUNE RIVER 7109",
    "locID": "LOC000083628606",
    "tech": "SATELLITE",
    "upgrade": "WIRELESS",
    "gnaf_pid": "GATAS717616376",
    "tech_change_status": "Eligible to Order",
    "program_type": "Fixed Wireless and Satellite Upgrade Program",
    "target_eligibility_quarter": "Jun 2025"
   }
  },
  {
   "type": "Feature",
   "geometry": {
    "type": "Point",
    "coordinates": [
     146.90713001,
     -43.43406656
    ]
   },
   "properties": {
    "name": "213 LUNE RIVER ROAD LUNE RIVER 7109",
    "locID": "LOC000077280437",
    "tech": "WIRELESS",
    "upgrade": "NULL_NA",
    "gnaf_pid": "GATAS717616377",
    "tech_change_status": "Not Planned",
    "program_type": "Fixed Wireless and Satellite Upgrade Program",
    "target_eligibility_quarter": "Jun 2025"
   }
  },
  {
   "type": "Feature",
   "geometry": {
    "type": "Point",
    "coordinates": [
     146.89869224,
     -43.43295005
    ]
   },
   "properties": {
    "name": "214 LUNE RIVER ROAD LUNE RIVER 7109",
    "locID": "LOC000083575664",
    "tech": "WIRELESS",
    "upgrade": "NULL_NA",
    "gnaf_pid": "GATAS717616378",
    "tech_change_status": "Not Planned",
    "program_type": "Fixed Wireless and Satellite Upgrade Program",
    "target_eligibility_quarter": "Jun 2025"
   }
  },
  {
   "type": "Feature",
   "geometry": {
    "type": "Point",
    "coordinates": [
     146.90789384,
     -43.43469304
    ]
   },
   "properties": {
    "name": "215 LUNE RIVER ROAD LUNE RIVER 7109",
    "locID": "LOC000047493214",
    "tech": "WIRELESS",
    "upgrade": "NULL_NA",
    "gnaf_pid": "GATAS717616379",
    "tech_change_status": "Not Planned",
    "program_type": "Fixed Wireless and Satellite Upgrade Program",
    "target_eligibility_quarter": "Jun 2025"
   }
  },
  {
   "type": "Feature",
   "geometry": {
    "type": "Point",
    "coordinates": [
     146.90507727,
     -43.4316823
    ]
   },
   "properties": {
    "name": "10 LUNE MILL ROAD LUNE RIVER 7109",
    "locID": "LOC100078170241",
    "tech": "WIRELESS",
    "upgrade": "NULL_NA",
    "gnaf_pid": "GATAS717649129",
    "tech_change_status": "Not Planned",
    "program_type": "Fixed Wireless and Satellite Upgrade Program",
    "target_eligibility_quarter": "Jun 2025"
   }
  },
  {
   "type": "Feature",
   "geometry": {
    "type": "Point",
    "coordinates": [
     146.90307837,
     -43.43077
    ]
   },
   "properties": {
    "name": "180 LUNE RIVER ROAD LUNE RIVER 7109",
    "locID": "LOC000084895512",
    "tech": "WIRELESS",
    "upgrade": "NULL_NA",
    "gnaf_pid": "GATAS717756469",
    "tech_change_status": "Not Planned",
    "program_type": "Fixed Wireless and Satellite Upgrade Program",
    "target_eligibility_quarter": "Jun 2025"
   }
  },
  {
   "type": "Feature",
   "geometry": {
    "type": "Point",
    "coordinates": [
     146.9002745,
     -43.43571528
    ]
   },
   "properties": {
    "name": "236 LUNE RIVER ROAD LUNE RIVER 7109",
    "locID": "LOC000041288409",
    "tech": "WIRELESS",
    "upgrade": "NULL_NA",
    "gnaf_pid": "GATAS717756471",
    "tech_change_status": "Not Planned",
    "program_type": "Fixed Wireless and Satellite Upgrade Program",
    "target_eligibility_quarter": "Jun 2025"
   }
  },
  {
   "type": "Feature",
   "geometry": {
    "type": "Point",
    "coordinates": [
     146.90087309,
     -43.43075526
    ]
   },
   "properties": {
    "name": "184 LUNE RIVER ROAD LUNE RIVER 7109",
    "locID": "LOC000038014309",
    "tech": "WIRELESS",
    "upgrade": "NULL_NA",
    "gnaf_pid": "GATAS717913412",
    "tech_change_status": "Not Planned",
    "program_type": "Fixed Wireless and Satellite Upgrade Program",
    "target_eligibility_quarter": "Jun 2025"
   }
  },
  {
   "type": "Feature",
   "geometry": {
    "type": "Point",
    "coordinates": [
     146.90293912,
     -43.43178245
    ]
   },
   "properties": {
    "name": "196-198 LUNE RIVER ROAD LUNE RIVER 7109",
    "locID": "LOC000018795525",
    "tech": "WIRELESS",
    "upgrade": "NULL_NA",
    "gnaf_pid": "GATAS717913413",
    "tech_change_status": "Not Planned",
    "program_type": "Fixed Wireless and Satellite Upgrade Program",
    "target_eligibility_quarter": "Jun 2025"
   }
  },
  {
   "type": "Feature",
   "geometry": {
    "type": "Point",
    "coordinates": [
     146.9064669,
     -43.43299901
    ]
   },
   "properties": {
    "name": "205 LUNE RIVER ROAD LUNE RIVER 7109",
    "locID": "LOC000046768917",
    "tech": "WIRELESS",
    "upgrade": "NULL_NA",
    "gnaf_pid": "GATAS717913414",
    "tech_change_status": "Not Planned",
    "program_type": "Fixed Wireless and Satellite Upgrade Program",
    "target_eligibility_quarter": "Jun 2025"
   }
  },
  {
   "type": "Feature",
   "geometry": {
    "type": "Point",
    "coordinates": [
     146.90293912,
     -43.43178245
    ]
   },
   "properties": {
    "name": "196 LUNE RIVER ROAD LUNE RIVER 7109",
    "locID": "LOC000018795525",
    "tech": "WIRELESS",
    "upgrade": "NULL_NA",
    "gnaf_pid": "GATAS717937850",
    "tech_change_status": "Not Planned",
    "program_type": "Fixed Wireless and Satellite Upgrade Program",
    "target_eligibility_quarter": "Jun 2025"
   }
  },
  {
   "type": "Feature",
   "geometry": {
    "type": "Point",
    "coordinates": [
     146.90259257,
     -43.43237579
    ]
   },
   "properties": {
    "name": "198 LUNE RIVER ROAD LUNE RIVER 7109",
    "locID": "LOC000018795525",
    "tech": "WIRELESS",
    "upgrade": "NULL_NA",
    "gnaf_pid": "GATAS717937851",
    "tech_change_status": "Not Planned",
    "program_type": "Fixed Wireless and Satellite Upgrade Program",
    "target_eligibility_quarter": "Jun 2025"
   }
  }
 ]
}