{
 "type": "FeatureCollection",
 "generated": "2025-03-09T08:56:24.208195",
 "suburb": "MOUNT LLOYD",
 "features": [
  {
   "type": "Feature",
   "geometry": {
    "type": "Point",
    "coordinates": [
     146.96770024,
     -42.81791499
    ]
   },
   "properties": {
    "name": "2 CROSSWELLS ROAD MOUNT LLOYD 7140",
    "locID": "LOC000075549545",
    "tech": "WIRELESS",
    "upgrade": "NULL_NA",
    "gnaf_pid": "GATAS702233305",
    "tech_change_status": "Not Planned",
    "program_type": "Fixed Wireless and Satellite Upgrade Program",
    "target_eligibility_quarter": "NA"
   }
  },
  {
   "type": "Feature",
   "geometry": {
    "type": "Point",
    "coordinates": [
     146.97126004,
     -42.81878998
    ]
   },
   "properties": {
    "name": "1 CROSSWELLS ROAD MOUNT LLOYD 7140",
    "locID": "LOC000031132890",
    "tech": "WIRELESS",
    "upgrade": "NULL_NA",
    "gnaf_pid": "GATAS702233309",
    "tech_change_status": "Not Planned",
    "program_type": "Fixed Wireless and Satellite Upgrade Program",
    "target_eligibility_quarter": "NA"
   }
  },
  {
   "type": "Feature",
   "geometry": {
    "type": "Point",
    "coordinates": [
     146.9725914,
     -42.83119509
    ]
   },
   "properties": {
    "name": "220 CROSSWELLS ROAD MOUNT LLOYD 7140",
    "locID": "LOC000042676910",
    "tech": "NULL",
    "upgrade": "NULL_NA",
    "gnaf_pid": "GATAS702234134",
    "tech_change_status": "Not Planned"
   }
  },
  {
   "type": "Feature",
   "geometry": {
    "type": "Point",
    "coordinates": [
     146.96861771,
     -42.82291174
    ]
   },
   "properties": {
    "name": "43 FEIL ROAD MOUNT LLOYD 7140",
    "locID": "LOC000143069691",
    "tech": "WIRELESS",
    "upgrade": "NULL_NA",
    "gnaf_pid": "GATAS702249535",
    "tech_change_status": "Not Planned",
    "program_type": "Fixed Wireless and Satellite Upgrade Program",
    "target_eligibility_quarter": "NA"
   }
  },
  {
   "type": "Feature",
   "geometry": {
    "type": "Point",
    "coordinates": [
     146.96832023,
     -42.82631984
    ]
   },
   "properties": {
    "name": "55 FEIL ROAD MOUNT LLOYD 7140",
    "locID": "LOC000023420966",
    "tech": "NULL",
    "upgrade": "NULL_NA",
    "gnaf_pid": "GATAS702249536",
    "tech_change_status": "Not Planned"
   }
  },
  {
   "type": "Feature",
   "geometry": {
    "type": "Point",
    "coordinates": [
     146.94720973,
     -42.82518261
    ]
   },
   "properties": {
    "name": "639 MOUNT LLOYD ROAD MOUNT LLOYD 7140",
    "locID": "LOC000029239399",
    "tech": "SATELLITE",
    "upgrade": "WIRELESS",
    "gnaf_pid": "GATAS702301214",
    "tech_change_status": "New Tech Connected",
    "program_type": "Fixed Wireless and Satellite Upgrade Program",
    "target_eligibility_quarter": "NA"
   }
  },
  {
   "type": "Feature",
   "geometry": {
    "type": "Point",
    "coordinates": [
     146.98323233,
     -42.80945265
    ]
   },
   "properties": {
    "name": "61 MOUNT LLOYD ROAD MOUNT LLOYD 7140",
    "locID": "LOC000095004481",
    "tech": "WIRELESS",
    "upgrade": "NULL_NA",
    "gnaf_pid": "GATAS702301215",
    "tech_change_status": "Not Planned",
    "program_type": "Fixed Wireless and Satellite Upgrade Program",
    "target_eligibility_quarter": "NA"
   }
  },
  {
   "type": "Feature",
   "geometry": {
    "type": "Point",
    "coordinates": [
     146.95505083,
     -42.81953492
    ]
   },
   "properties": {
    "name": "528 MOUNT LLOYD ROAD MOUNT LLOYD 7140",
    "locID": "LOC000094068897",
    "tech": "WIRELESS",
    "upgrade": "NULL_NA",
    "gnaf_pid": "GATAS702301216",
    "tech_change_status": "Not Planned",
    "program_type": "Fixed Wireless and Satellite Upgrade Program",
    "target_eligibility_quarter": "NA"
   }
  },
  {
   "type": "Feature",
   "geometry": {
    "type": "Point",
    "coordinates": [
     146.96335532,
     -42.81557232
    ]
   },
   "properties": {
    "name": "440 MOUNT LLOYD ROAD MOUNT LLOYD 7140",
    "locID": "LOC000012053545",
    "tech": "NULL",
    "upgrade": "NULL_NA",
    "gnaf_pid": "GATAS702301217",
    "tech_change_status": "Not Planned"
   }
  },
  {
   "type": "Feature",
   "geometry": {
    "type": "Point",
    "coordinates": [
     146.94374964,
     -42.82547741
    ]
   },
   "properties": {
    "name": "650 MOUNT LLOYD ROAD MOUNT LLOYD 7140",
    "locID": "LOC000090840045",
    "tech": "SATELLITE",
    "upgrade": "NULL_NA",
    "gnaf_pid": "GATAS702301218",
    "tech_change_status": "Not Planned"
   }
  },
  {
   "type": "Feature",
   "geometry": {
    "type": "Point",
    "coordinates": [
     146.98255956,
     -42.80809317
    ]
   },
   "properties": {
    "name": "44 MOUNT LLOYD ROAD MOUNT LLOYD 7140",
    "locID": "LOC000051246827",
    "tech": "WIRELESS",
    "upgrade": "NULL_NA",
    "gnaf_pid": "GATAS702301219",
    "tech_change_status": "Not Planned",
    "program_type": "Fixed Wireless and Satellite Upgrade Program",
    "target_eligibility_quarter": "NA"
   }
  },
  {
   "type": "Feature",
   "geometry": {
    "type": "Point",
    "coordinates": [
     146.94604636,
     -42.85092699
    ]
   },
   "properties": {
    "name": "977 MOUNT LLOYD ROAD MOUNT LLOYD 7140",
    "locID": "LOC000099037276",
    "tech": "NULL",
    "upgrade": "NULL_NA",
    "gnaf_pid": "GATAS702301220",
    "tech_change_status": "Not Planned"
   }
  },
  {
   "type": "Feature",
   "geometry": {
    "type": "Point",
    "coordinates": [
     146.94731999,
     -42.83422817
    ]
   },
   "properties": {
    "name": "752 MOUNT LLOYD ROAD MOUNT LLOYD 7140",
    "locID": "LOC000070486030",
    "tech": "SATELLITE",
    "upgrade": "NULL_NA",
    "gnaf_pid": "GATAS702301221",
    "tech_change_status": "Not Planned"
   }
  },
  {
   "type": "Feature",
   "geometry": {
    "type": "Point",
    "coordinates": [
     146.94008647,
     -42.85118138
    ]
   },
   "properties": {
    "name": "960 MOUNT LLOYD ROAD MOUNT LLOYD 7140",
    "locID": "LOC000086007482",
    "tech": "NULL",
    "upgrade": "NULL_NA",
    "gnaf_pid": "GATAS702301222",
    "tech_change_status": "Not Planned"
   }
  },
  {
   "type": "Feature",
   "geometry": {
    "type": "Point",
    "coordinates": [
     146.94181604,
     -42.84513361
    ]
   },
   "properties": {
    "name": "948 MOUNT LLOYD ROAD MOUNT LLOYD 7140",
    "locID": "LOC000091399607",
    "tech": "NULL",
    "upgrade": "NULL_NA",
    "gnaf_pid": "GATAS702301223",
    "tech_change_status": "Not Planned"
   }
  },
  {
   "type": "Feature",
   "geometry": {
    "type": "Point",
    "coordinates": [
     146.95401644,
     -42.82191243
    ]
   },
   "properties": {
    "name": "570 MOUNT LLOYD ROAD MOUNT LLOYD 7140",
    "locID": "LOC000009259587",
    "tech": "SATELLITE",
    "upgrade": "NULL_NA",
    "gnaf_pid": "GATAS702302486",
    "tech_change_status": "Not Planned"
   }
  },
  {
   "type": "Feature",
   "geometry": {
    "type": "Point",
    "coordinates": [
     146.94824989,
     -42.82655251
    ]
   },
   "properties": {
    "name": "665 MOUNT LLOYD ROAD MOUNT LLOYD 7140",
    "locID": "LOC000099096228",
    "tech": "WIRELESS",
    "upgrade": "NULL_NA",
    "gnaf_pid": "GATAS702302487",
    "tech_change_status": "Not Planned",
    "program_type": "Fixed Wireless and Satellite Upgrade Program",
    "target_eligibility_quarter": "NA"
   }
  },
  {
   "type": "Feature",
   "geometry": {
    "type": "Point",
    "coordinates": [
     146.95676072,
     -42.81765915
    ]
   },
   "properties": {
    "name": "510 MOUNT LLOYD ROAD MOUNT LLOYD 7140",
    "locID": "LOC000042532322",
    "tech": "SATELLITE",
    "upgrade": "WIRELESS",
    "gnaf_pid": "GATAS702302488",
    "tech_change_status": "Eligible to Order",
    "program_type": "Fixed Wireless and Satellite Upgrade Program",
    "target_eligibility_quarter": "NA"
   }
  },
  {
   "type": "Feature",
   "geometry": {
    "type": "Point",
    "coordinates": [
     146.94916637,
     -42.82523344
    ]
   },
   "properties": {
    "name": "619 MOUNT LLOYD ROAD MOUNT LLOYD 7140",
    "locID": "LOC000085908863",
    "tech": "NULL",
    "upgrade": "NULL_NA",
    "gnaf_pid": "GATAS702302489",
    "tech_change_status": "Not Planned"
   }
  },
  {
   "type": "Feature",
   "geometry": {
    "type": "Point",
    "coordinates": [
     146.94410167,
     -42.83905698
    ]
   },
   "properties": {
    "name": "24 PADDYS FLATS ROAD MOUNT LLOYD 7140",
    "locID": "LOC000086060549",
    "tech": "NULL",
    "upgrade": "NULL_NA",
    "gnaf_pid": "GATAS702308203",
    "tech_change_status": "Not Planned"
   }
  },
  {
   "type": "Feature",
   "geometry": {
    "type": "Point",
    "coordinates": [
     146.93477832,
     -42.83826399
    ]
   },
   "properties": {
    "name": "70 PADDYS FLATS ROAD MOUNT LLOYD 7140",
    "locID": "LOC000103739163",
    "tech": "SATELLITE",
    "upgrade": "NULL_NA",
    "gnaf_pid": "GATAS702308205",
    "tech_change_status": "Not Planned"
   }
  },
  {
   "type": "Feature",
   "geometry": {
    "type": "Point",
    "coordinates": [
     146.942262,
     -42.83703913
    ]
   },
   "properties": {
    "name": "40 PADDYS FLATS ROAD MOUNT LLOYD 7140",
    "locID": "LOC000094943144",
    "tech": "SATELLITE",
    "upgrade": "NULL_NA",
    "gnaf_pid": "GATAS702308206",
    "tech_change_status": "Not Planned"
   }
  },
  {
   "type": "Feature",
   "geometry": {
    "type": "Point",
    "coordinates": [
     146.95886668,
     -42.81535985
    ]
   },
   "properties": {
    "name": "484 MOUNT LLOYD ROAD MOUNT LLOYD 7140",
    "locID": "LOC000050014430",
    "tech": "NULL",
    "upgrade": "NULL_NA",
    "gnaf_pid": "GATAS702496295",
    "tech_change_status": "Not Planned"
   }
  },
  {
   "type": "Feature",
   "geometry": {
    "type": "Point",
    "coordinates": [
     146.95044086,
     -42.83054006
    ]
   },
   "properties": {
    "name": "749 MOUNT LLOYD ROAD MOUNT LLOYD 7140",
    "locID": "LOC000097287409",
    "tech": "SATELLITE",
    "upgrade": "NULL_NA",
    "gnaf_pid": "GATAS702516923",
    "tech_change_status": "Not Planned"
   }
  },
  {
   "type": "Feature",
   "geometry": {
    "type": "Point",
    "coordinates": [
     146.95002325,
     -42.82057457
    ]
   },
   "properties": {
    "name": "560 MOUNT LLOYD ROAD MOUNT LLOYD 7140",
    "locID": "LOC000024282625",
    "tech": "SATELLITE",
    "upgrade": "NULL_NA",
    "gnaf_pid": "GATAS702516926",
    "tech_change_status": "Not Planned"
   }
  },
  {
   "type": "Feature",
   "geometry": {
    "type": "Point",
    "coordinates": [
     146.95055025,
     -42.82480343
    ]
   },
   "properties": {
    "name": "617 MOUNT LLOYD ROAD MOUNT LLOYD 7140",
    "locID": "LOC000096657848",
    "tech": "NULL",
    "upgrade": "NULL_NA",
    "gnaf_pid": "GATAS702516928",
    "tech_change_status": "Not Planned"
   }
  },
  {
   "type": "Feature",
   "geometry": {
    "type": "Point",
    "coordinates": [
     146.9632481,
     -42.81999034
    ]
   },
   "properties": {
    "name": "20 FEIL ROAD MOUNT LLOYD 7140",
    "locID": "LOC000051102327",
    "tech": "SATELLITE",
    "upgrade": "NULL_NA",
    "gnaf_pid": "GATAS702516930",
    "tech_change_status": "Not Planned"
   }
  },
  {
   "type": "Feature",
   "geometry": {
    "type": "Point",
    "coordinates": [
     146.945105,
     -42.82895493
    ]
   },
   "properties": {
    "name": "750 MOUNT LLOYD ROAD MOUNT LLOYD 7140",
    "locID": "LOC000079190678",
    "tech": "SATELLITE",
    "upgrade": "NULL_NA",
    "gnaf_pid": "GATAS702733882",
    "tech_change_status": "Not Planned"
   }
  },
  {
   "type": "Feature",
   "geometry": {
    "type": "Point",
    "coordinates": [
     146.96389815,
     -42.8305589
    ]
   },
   "properties": {
    "name": "222 CROSSWELLS ROAD MOUNT LLOYD 7140",
    "locID": "LOC000016026217",
    "tech": "SATELLITE",
    "upgrade": "NULL_NA",
    "gnaf_pid": "GATAS716459163",
    "tech_change_status": "Not Planned"
   }
  },
  {
   "type": "Feature",
   "geometry": {
    "type": "Point",
    "coordinates": [
     146.95357996,
     -42.81495882
    ]
   },
   "properties": {
    "name": "499 MOUNT LLOYD ROAD MOUNT LLOYD 7140",
    "locID": "LOC000109256267",
    "tech": "WIRELESS",
    "upgrade": "NULL_NA",
    "gnaf_pid": "GATAS716461300",
    "tech_change_status": "Not Planned",
    "program_type": "Fixed Wireless and Satellite Upgrade Program",
    "target_eligibility_quarter": "NA"
   }
  },
  {
   "type": "Feature",
   "geometry": {
    "type": "Point",
    "coordinates": [
     146.94018491,
     -42.84173827
    ]
   },
   "properties": {
    "name": "49 PADDYS FLATS ROAD MOUNT LLOYD 7140",
    "locID": "LOC000088831270",
    "tech": "SATELLITE",
    "upgrade": "NULL_NA",
    "gnaf_pid": "GATAS716461583",
    "tech_change_status": "Not Planned"
   }
  },
  {
   "type": "Feature",
   "geometry": {
    "type": "Point",
    "coordinates": [
     146.96885545,
     -42.83724113
    ]
   },
   "properties": {
    "name": "30 MCGURK ROAD MOUNT LLOYD 7140",
    "locID": "LOC100072057179",
    "tech": "NULL",
    "upgrade": "NULL_NA",
    "gnaf_pid": "GATAS718386176",
    "tech_change_status": "Not Planned"
   }
  },
  {
   "type": "Feature",
   "geometry": {
    "type": "Point",
    "coordinates": [
     146.98093782,
     -42.82030264
    ]
   },
   "properties": {
    "name": "273 MOUNT LLOYD ROAD MOUNT LLOYD 7140",
    "locID": "LOC000034739717",
    "tech": "WIRELESS",
    "upgrade": "NULL_NA",
    "gnaf_pid": "GATAS719066180",
    "tech_change_status": "Not Planned",
    "program_type": "Fixed Wireless and Satellite Upgrade Program",
    "target_eligibility_quarter": "NA"
   }
  },
  {
   "type": "Feature",
   "geometry": {
    "type": "Point",
    "coordinates": [
     146.94309112,
     -42.83810207
    ]
   },
   "properties": {
    "name": "38 PADDYS FLATS ROAD MOUNT LLOYD 7140",
    "locID": "LOC100080495801",
    "tech": "SATELLITE",
    "upgrade": "NULL_NA",
    "gnaf_pid": "GATAS719385345",
    "tech_change_status": "Not Planned"
   }
  },
  {
   "type": "Feature",
   "geometry": {
    "type": "Point",
    "coordinates": [
     146.96446131,
     -42.81719472
    ]
   },
   "properties": {
    "name": "LOT 1 MOUNT LLOYD ROAD MOUNT LLOYD 7140",
    "locID": "LOC000180931030",
    "tech": "WIRELESS",
    "upgrade": "NULL_NA",
    "gnaf_pid": "GATAS721012709",
    "tech_change_status": "Not Planned",
    "program_type": "Fixed Wireless and Satellite Upgrade Program",
    "target_eligibility_quarter": "NA"
   }
  }
 ]
}