{
 "type": "FeatureCollection",
 "generated": "2025-02-11T09:54:42.512384",
 "suburb": "PELHAM",
 "features": [
  {
   "type": "Feature",
   "geometry": {
    "type": "Point",
    "coordinates": [
     147.01293601,
     -42.57081573
    ]
   },
   "properties": {
    "name": "5 ESPIES CRAIG ROAD PELHAM 7030",
    "locID": "LOC000073498502",
    "tech": "SATELLITE",
    "upgrade": "NULL_NA",
    "gnaf_pid": "GATAS702241107",
    "tech_change_status": "Not Planned"
   }
  },
  {
   "type": "Feature",
   "geometry": {
    "type": "Point",
    "coordinates": [
     147.00713052,
     -42.58352608
    ]
   },
   "properties": {
    "name": "701 PELHAM ROAD PELHAM 7030",
    "locID": "LOC000048819569",
    "tech": "SATELLITE",
    "upgrade": "NULL_NA",
    "gnaf_pid": "GATAS702321154",
    "tech_change_status": "Not Planned"
   }
  },
  {
   "type": "Feature",
   "geometry": {
    "type": "Point",
    "coordinates": [
     147.00968817,
     -42.58343465
    ]
   },
   "properties": {
    "name": "678 PELHAM ROAD PELHAM 7030",
    "locID": "LOC000063562815",
    "tech": "SATELLITE",
    "upgrade": "NULL_NA",
    "gnaf_pid": "GATAS702321155",
    "tech_change_status": "Not Planned"
   }
  },
  {
   "type": "Feature",
   "geometry": {
    "type": "Point",
    "coordinates": [
     147.00682392,
     -42.58016884
    ]
   },
   "properties": {
    "name": "746 PELHAM ROAD PELHAM 7030",
    "locID": "LOC000093689618",
    "tech": "NULL",
    "upgrade": "NULL_NA",
    "gnaf_pid": "GATAS702321156",
    "tech_change_status": "Not Planned"
   }
  },
  {
   "type": "Feature",
   "geometry": {
    "type": "Point",
    "coordinates": [
     147.02390373,
     -42.58519167
    ]
   },
   "properties": {
    "name": "490 PELHAM ROAD PELHAM 7030",
    "locID": "LOC000095551934",
    "tech": "NULL",
    "upgrade": "NULL_NA",
    "gnaf_pid": "GATAS702321162",
    "tech_change_status": "Not Planned"
   }
  },
  {
   "type": "Feature",
   "geometry": {
    "type": "Point",
    "coordinates": [
     147.01531654,
     -42.5748006
    ]
   },
   "properties": {
    "name": "136 SONNERS ROAD PELHAM 7030",
    "locID": "LOC000036040638",
    "tech": "NULL",
    "upgrade": "NULL_NA",
    "gnaf_pid": "GATAS702346417",
    "tech_change_status": "Not Planned"
   }
  },
  {
   "type": "Feature",
   "geometry": {
    "type": "Point",
    "coordinates": [
     147.0204786,
     -42.57400065
    ]
   },
   "properties": {
    "name": "122 SONNERS ROAD PELHAM 7030",
    "locID": "LOC000004284443",
    "tech": "SATELLITE",
    "upgrade": "NULL_NA",
    "gnaf_pid": "GATAS702346419",
    "tech_change_status": "Not Planned"
   }
  },
  {
   "type": "Feature",
   "geometry": {
    "type": "Point",
    "coordinates": [
     147.01931642,
     -42.57111849
    ]
   },
   "properties": {
    "name": "10 ESPIES CRAIG ROAD PELHAM 7030",
    "locID": "LOC000089042196",
    "tech": "SATELLITE",
    "upgrade": "NULL_NA",
    "gnaf_pid": "GATAS702523413",
    "tech_change_status": "Not Planned"
   }
  },
  {
   "type": "Feature",
   "geometry": {
    "type": "Point",
    "coordinates": [
     147.0394429,
     -42.55948097
    ]
   },
   "properties": {
    "name": "470 MAYFIELD ROAD PELHAM 7030",
    "locID": "LOC000039278316",
    "tech": "WIRELESS",
    "upgrade": "NULL_NA",
    "gnaf_pid": "GATAS702523414",
    "tech_change_status": "Not Planned",
    "program_type": "Fixed Wireless and Satellite Upgrade Program",
    "target_eligibility_quarter": "NA"
   }
  },
  {
   "type": "Feature",
   "geometry": {
    "type": "Point",
    "coordinates": [
     147.00463401,
     -42.57725936
    ]
   },
   "properties": {
    "name": "9 SONNERS ROAD PELHAM 7030",
    "locID": "LOC000091461171",
    "tech": "NULL",
    "upgrade": "NULL_NA",
    "gnaf_pid": "GATAS702523415",
    "tech_change_status": "Not Planned"
   }
  },
  {
   "type": "Feature",
   "geometry": {
    "type": "Point",
    "coordinates": [
     146.99950752,
     -42.57485525
    ]
   },
   "properties": {
    "name": "607 PELHAM ROAD PELHAM 7030",
    "locID": "LOC000088809602",
    "tech": "SATELLITE",
    "upgrade": "NULL_NA",
    "gnaf_pid": "GATAS702530224",
    "tech_change_status": "Not Planned"
   }
  },
  {
   "type": "Feature",
   "geometry": {
    "type": "Point",
    "coordinates": [
     147.00428919,
     -42.58141147
    ]
   },
   "properties": {
    "name": "747 PELHAM ROAD PELHAM 7030",
    "locID": "LOC000093977813",
    "tech": "SATELLITE",
    "upgrade": "NULL_NA",
    "gnaf_pid": "GATAS702530227",
    "tech_change_status": "Not Planned"
   }
  },
  {
   "type": "Feature",
   "geometry": {
    "type": "Point",
    "coordinates": [
     147.03705052,
     -42.56794225
    ]
   },
   "properties": {
    "name": "362 MAYFIELD ROAD PELHAM 7030",
    "locID": "LOC000083203963",
    "tech": "NULL",
    "upgrade": "NULL_NA",
    "gnaf_pid": "GATAS702704397",
    "tech_change_status": "Not Planned"
   }
  },
  {
   "type": "Feature",
   "geometry": {
    "type": "Point",
    "coordinates": [
     147.04168097,
     -42.55677232
    ]
   },
   "properties": {
    "name": "540 MAYFIELD ROAD PELHAM 7030",
    "locID": "LOC000059778378",
    "tech": "NULL",
    "upgrade": "NULL_NA",
    "gnaf_pid": "GATAS702704399",
    "tech_change_status": "Not Planned"
   }
  },
  {
   "type": "Feature",
   "geometry": {
    "type": "Point",
    "coordinates": [
     147.01401178,
     -42.57892686
    ]
   },
   "properties": {
    "name": "102 SONNERS ROAD PELHAM 7030",
    "locID": "LOC000048607618",
    "tech": "WIRELESS",
    "upgrade": "NULL_NA",
    "gnaf_pid": "GATAS715277963",
    "tech_change_status": "Not Planned",
    "program_type": "Fixed Wireless and Satellite Upgrade Program",
    "target_eligibility_quarter": "NA"
   }
  },
  {
   "type": "Feature",
   "geometry": {
    "type": "Point",
    "coordinates": [
     147.00511772,
     -42.57517075
    ]
   },
   "properties": {
    "name": "34 SONNERS ROAD PELHAM 7030",
    "locID": "LOC000015877944",
    "tech": "SATELLITE",
    "upgrade": "NULL_NA",
    "gnaf_pid": "GATAS716241750",
    "tech_change_status": "Not Planned"
   }
  },
  {
   "type": "Feature",
   "geometry": {
    "type": "Point",
    "coordinates": [
     147.00853245,
     -42.58153618
    ]
   },
   "properties": {
    "name": "702 PELHAM ROAD PELHAM 7030",
    "locID": "LOC000104453804",
    "tech": "NULL",
    "upgrade": "NULL_NA",
    "gnaf_pid": "GATAS717615665",
    "tech_change_status": "Not Planned"
   }
  },
  {
   "type": "Feature",
   "geometry": {
    "type": "Point",
    "coordinates": [
     147.00653824,
     -42.57614657
    ]
   },
   "properties": {
    "name": "22 SONNERS ROAD PELHAM 7030",
    "locID": "LOC000033453297",
    "tech": "NULL",
    "upgrade": "NULL_NA",
    "gnaf_pid": "GATAS717990705",
    "tech_change_status": "Not Planned"
   }
  },
  {
   "type": "Feature",
   "geometry": {
    "type": "Point",
    "coordinates": [
     147.04168097,
     -42.55677232
    ]
   },
   "properties": {
    "name": "HOUSE 1, 540 MAYFIELD ROAD PELHAM 7030",
    "locID": "LOC000059778378",
    "tech": "NULL",
    "upgrade": "NULL_NA",
    "gnaf_pid": "GATAS718547532",
    "tech_change_status": "Not Planned"
   }
  },
  {
   "type": "Feature",
   "geometry": {
    "type": "Point",
    "coordinates": [
     147.02844609,
     -42.56810412
    ]
   },
   "properties": {
    "name": "LOT 1 MAYFIELD ROAD PELHAM 7030",
    "locID": "LOC000039278316",
    "tech": "WIRELESS",
    "upgrade": "NULL_NA",
    "gnaf_pid": "GATAS719072577",
    "tech_change_status": "Not Planned",
    "program_type": "Fixed Wireless and Satellite Upgrade Program",
    "target_eligibility_quarter": "NA"
   }
  },
  {
   "type": "Feature",
   "geometry": {
    "type": "Point",
    "coordinates": [
     147.01422883,
     -42.58539136
    ]
   },
   "properties": {
    "name": "606 PELHAM ROAD PELHAM 7030",
    "locID": "LOC000181450903",
    "tech": "SATELLITE",
    "upgrade": "NULL_NA",
    "gnaf_pid": "GATAS720119754",
    "tech_change_status": "Not Planned"
   }
  }
 ]
}