{
 "type": "FeatureCollection",
 "generated": "2024-12-24T15:42:51.610264",
 "suburb": "TARGA",
 "features": [
  {
   "type": "Feature",
   "geometry": {
    "type": "Point",
    "coordinates": [
     147.37978315,
     -41.31508755
    ]
   },
   "properties": {
    "name": "72 CAMDEN HILL ROAD TARGA 7259",
    "locID": "LOC000065747763",
    "tech": "SATELLITE",
    "upgrade": "NULL_NA",
    "gnaf_pid": "GATAS702217359",
    "tech_change_status": "Not Planned"
   }
  },
  {
   "type": "Feature",
   "geometry": {
    "type": "Point",
    "coordinates": [
     147.40004867,
     -41.30951671
    ]
   },
   "properties": {
    "name": "233 CAMDEN HILL ROAD TARGA 7259",
    "locID": "LOC000054146127",
    "tech": "SATELLITE",
    "upgrade": "NULL_NA",
    "gnaf_pid": "GATAS702217360",
    "tech_change_status": "Not Planned"
   }
  },
  {
   "type": "Feature",
   "geometry": {
    "type": "Point",
    "coordinates": [
     147.39344019,
     -41.30762157
    ]
   },
   "properties": {
    "name": "186 CAMDEN HILL ROAD TARGA 7259",
    "locID": "LOC000009284911",
    "tech": "NULL",
    "upgrade": "NULL_NA",
    "gnaf_pid": "GATAS702217362",
    "tech_change_status": "Not Planned"
   }
  },
  {
   "type": "Feature",
   "geometry": {
    "type": "Point",
    "coordinates": [
     147.400885,
     -41.29670842
    ]
   },
   "properties": {
    "name": "170 CORKERYS ROAD TARGA 7259",
    "locID": "LOC000075428727",
    "tech": "SATELLITE",
    "upgrade": "NULL_NA",
    "gnaf_pid": "GATAS702224138",
    "tech_change_status": "Not Planned"
   }
  },
  {
   "type": "Feature",
   "geometry": {
    "type": "Point",
    "coordinates": [
     147.39596153,
     -41.29554364
    ]
   },
   "properties": {
    "name": "126 CORKERYS ROAD TARGA 7259",
    "locID": "LOC000036967598",
    "tech": "NULL",
    "upgrade": "NULL_NA",
    "gnaf_pid": "GATAS702224139",
    "tech_change_status": "Not Planned"
   }
  },
  {
   "type": "Feature",
   "geometry": {
    "type": "Point",
    "coordinates": [
     147.40641807,
     -41.29690076
    ]
   },
   "properties": {
    "name": "224 CORKERYS ROAD TARGA 7259",
    "locID": "LOC000003496690",
    "tech": "SATELLITE",
    "upgrade": "NULL_NA",
    "gnaf_pid": "GATAS702224140",
    "tech_change_status": "Not Planned"
   }
  },
  {
   "type": "Feature",
   "geometry": {
    "type": "Point",
    "coordinates": [
     147.40312661,
     -41.32108982
    ]
   },
   "properties": {
    "name": "58 PRIORS ROAD TARGA 7259",
    "locID": "LOC000087042172",
    "tech": "SATELLITE",
    "upgrade": "NULL_NA",
    "gnaf_pid": "GATAS702334241",
    "tech_change_status": "Not Planned"
   }
  },
  {
   "type": "Feature",
   "geometry": {
    "type": "Point",
    "coordinates": [
     147.3540309,
     -41.32581047
    ]
   },
   "properties": {
    "name": "38464 TASMAN HIGHWAY TARGA 7259",
    "locID": "LOC000098393159",
    "tech": "SATELLITE",
    "upgrade": "NULL_NA",
    "gnaf_pid": "GATAS702336438",
    "tech_change_status": "Not Planned"
   }
  },
  {
   "type": "Feature",
   "geometry": {
    "type": "Point",
    "coordinates": [
     147.35554618,
     -41.32428385
    ]
   },
   "properties": {
    "name": "38450 TASMAN HIGHWAY TARGA 7259",
    "locID": "LOC000001910014",
    "tech": "SATELLITE",
    "upgrade": "NULL_NA",
    "gnaf_pid": "GATAS702336445",
    "tech_change_status": "Not Planned"
   }
  },
  {
   "type": "Feature",
   "geometry": {
    "type": "Point",
    "coordinates": [
     147.35533825,
     -41.32772882
    ]
   },
   "properties": {
    "name": "38492 TASMAN HIGHWAY TARGA 7259",
    "locID": "LOC000099525762",
    "tech": "NULL",
    "upgrade": "NULL_NA",
    "gnaf_pid": "GATAS702337507",
    "tech_change_status": "Not Planned"
   }
  },
  {
   "type": "Feature",
   "geometry": {
    "type": "Point",
    "coordinates": [
     147.36719322,
     -41.31488643
    ]
   },
   "properties": {
    "name": "38308 TASMAN HIGHWAY TARGA 7259",
    "locID": "LOC000066794290",
    "tech": "NULL",
    "upgrade": "NULL_NA",
    "gnaf_pid": "GATAS702338330",
    "tech_change_status": "Not Planned"
   }
  },
  {
   "type": "Feature",
   "geometry": {
    "type": "Point",
    "coordinates": [
     147.36738266,
     -41.31596309
    ]
   },
   "properties": {
    "name": "38311 TASMAN HIGHWAY TARGA 7259",
    "locID": "LOC000052900307",
    "tech": "SATELLITE",
    "upgrade": "NULL_NA",
    "gnaf_pid": "GATAS702338337",
    "tech_change_status": "Not Planned"
   }
  },
  {
   "type": "Feature",
   "geometry": {
    "type": "Point",
    "coordinates": [
     147.35488237,
     -41.33223441
    ]
   },
   "properties": {
    "name": "38515 TASMAN HIGHWAY TARGA 7259",
    "locID": "LOC000046709043",
    "tech": "SATELLITE",
    "upgrade": "NULL_NA",
    "gnaf_pid": "GATAS702344475",
    "tech_change_status": "Not Planned"
   }
  },
  {
   "type": "Feature",
   "geometry": {
    "type": "Point",
    "coordinates": [
     147.35705031,
     -41.32924298
    ]
   },
   "properties": {
    "name": "38485 TASMAN HIGHWAY TARGA 7259",
    "locID": "LOC000015987292",
    "tech": "SATELLITE",
    "upgrade": "NULL_NA",
    "gnaf_pid": "GATAS702349020",
    "tech_change_status": "Not Planned"
   }
  },
  {
   "type": "Feature",
   "geometry": {
    "type": "Point",
    "coordinates": [
     147.3684524,
     -41.31115072
    ]
   },
   "properties": {
    "name": "38259 TASMAN HIGHWAY TARGA 7259",
    "locID": "LOC000036933933",
    "tech": "NULL",
    "upgrade": "NULL_NA",
    "gnaf_pid": "GATAS702349562",
    "tech_change_status": "Not Planned"
   }
  },
  {
   "type": "Feature",
   "geometry": {
    "type": "Point",
    "coordinates": [
     147.38616866,
     -41.29495997
    ]
   },
   "properties": {
    "name": "37857 TASMAN HIGHWAY TARGA 7259",
    "locID": "LOC000002667586",
    "tech": "SATELLITE",
    "upgrade": "NULL_NA",
    "gnaf_pid": "GATAS702349752",
    "tech_change_status": "Not Planned"
   }
  },
  {
   "type": "Feature",
   "geometry": {
    "type": "Point",
    "coordinates": [
     147.35915724,
     -41.32368761
    ]
   },
   "properties": {
    "name": "38397 TASMAN HIGHWAY TARGA 7259",
    "locID": "LOC000070279245",
    "tech": "SATELLITE",
    "upgrade": "NULL_NA",
    "gnaf_pid": "GATAS702349756",
    "tech_change_status": "Not Planned"
   }
  },
  {
   "type": "Feature",
   "geometry": {
    "type": "Point",
    "coordinates": [
     147.37233193,
     -41.31094351
    ]
   },
   "properties": {
    "name": "38208 TASMAN HIGHWAY TARGA 7259",
    "locID": "LOC000092271629",
    "tech": "SATELLITE",
    "upgrade": "NULL_NA",
    "gnaf_pid": "GATAS702353019",
    "tech_change_status": "Not Planned"
   }
  },
  {
   "type": "Feature",
   "geometry": {
    "type": "Point",
    "coordinates": [
     147.37157106,
     -41.30623984
    ]
   },
   "properties": {
    "name": "19 TARGA HILL ROAD TARGA 7259",
    "locID": "LOC000025065017",
    "tech": "NULL",
    "upgrade": "NULL_NA",
    "gnaf_pid": "GATAS702362853",
    "tech_change_status": "Not Planned"
   }
  },
  {
   "type": "Feature",
   "geometry": {
    "type": "Point",
    "coordinates": [
     147.36185876,
     -41.31355659
    ]
   },
   "properties": {
    "name": "38250 TASMAN HIGHWAY TARGA 7259",
    "locID": "LOC100078827047",
    "tech": "SATELLITE",
    "upgrade": "NULL_NA",
    "gnaf_pid": "GATAS702362869",
    "tech_change_status": "Not Planned"
   }
  },
  {
   "type": "Feature",
   "geometry": {
    "type": "Point",
    "coordinates": [
     147.36548776,
     -41.32082273
    ]
   },
   "properties": {
    "name": "38422 TASMAN HIGHWAY TARGA 7259",
    "locID": "LOC000049966283",
    "tech": "SATELLITE",
    "upgrade": "NULL_NA",
    "gnaf_pid": "GATAS702584815",
    "tech_change_status": "Not Planned"
   }
  },
  {
   "type": "Feature",
   "geometry": {
    "type": "Point",
    "coordinates": [
     147.36743382,
     -41.31377368
    ]
   },
   "properties": {
    "name": "38290 TASMAN HIGHWAY TARGA 7259",
    "locID": "LOC000084418601",
    "tech": "SATELLITE",
    "upgrade": "NULL_NA",
    "gnaf_pid": "GATAS702584818",
    "tech_change_status": "Not Planned"
   }
  },
  {
   "type": "Feature",
   "geometry": {
    "type": "Point",
    "coordinates": [
     147.40829946,
     -41.35068485
    ]
   },
   "properties": {
    "name": "38395 TASMAN HIGHWAY TARGA 7259",
    "locID": "LOC000011164045",
    "tech": "SATELLITE",
    "upgrade": "NULL_NA",
    "gnaf_pid": "GATAS702587696",
    "tech_change_status": "Not Planned"
   }
  },
  {
   "type": "Feature",
   "geometry": {
    "type": "Point",
    "coordinates": [
     147.40625551,
     -41.30984783
    ]
   },
   "properties": {
    "name": "38149 TASMAN HIGHWAY TARGA 7259",
    "locID": "LOC000021755701",
    "tech": "NULL",
    "upgrade": "NULL_NA",
    "gnaf_pid": "GATAS702587705",
    "tech_change_status": "Not Planned"
   }
  },
  {
   "type": "Feature",
   "geometry": {
    "type": "Point",
    "coordinates": [
     147.3671205,
     -41.31021094
    ]
   },
   "properties": {
    "name": "38244 TASMAN HIGHWAY TARGA 7259",
    "locID": "LOC000071785539",
    "tech": "SATELLITE",
    "upgrade": "NULL_NA",
    "gnaf_pid": "GATAS702587706",
    "tech_change_status": "Not Planned"
   }
  },
  {
   "type": "Feature",
   "geometry": {
    "type": "Point",
    "coordinates": [
     147.38960202,
     -41.31210782
    ]
   },
   "properties": {
    "name": "146 CAMDEN HILL ROAD TARGA 7259",
    "locID": "LOC000071186785",
    "tech": "NULL",
    "upgrade": "NULL_NA",
    "gnaf_pid": "GATAS716458782",
    "tech_change_status": "Not Planned"
   }
  },
  {
   "type": "Feature",
   "geometry": {
    "type": "Point",
    "coordinates": [
     147.37545867,
     -41.31624185
    ]
   },
   "properties": {
    "name": "24 CAMDEN HILL ROAD TARGA 7259",
    "locID": "LOC000079615813",
    "tech": "NULL",
    "upgrade": "NULL_NA",
    "gnaf_pid": "GATAS716458783",
    "tech_change_status": "Not Planned"
   }
  },
  {
   "type": "Feature",
   "geometry": {
    "type": "Point",
    "coordinates": [
     147.38172996,
     -41.31130917
    ]
   },
   "properties": {
    "name": "7 CAMDEN HILL ROAD TARGA 7259",
    "locID": "LOC000094604379",
    "tech": "NULL",
    "upgrade": "NULL_NA",
    "gnaf_pid": "GATAS716458785",
    "tech_change_status": "Not Planned"
   }
  },
  {
   "type": "Feature",
   "geometry": {
    "type": "Point",
    "coordinates": [
     147.36024521,
     -41.3331324
    ]
   },
   "properties": {
    "name": "38517 TASMAN HIGHWAY TARGA 7259",
    "locID": "LOC000082496438",
    "tech": "NULL",
    "upgrade": "NULL_NA",
    "gnaf_pid": "GATAS716847277",
    "tech_change_status": "Not Planned"
   }
  },
  {
   "type": "Feature",
   "geometry": {
    "type": "Point",
    "coordinates": [
     147.36655924,
     -41.33198167
    ]
   },
   "properties": {
    "name": "38455-38479 TASMAN HIGHWAY TARGA 7259",
    "locID": "LOC000070279245",
    "tech": "SATELLITE",
    "upgrade": "NULL_NA",
    "gnaf_pid": "GATAS720713167",
    "tech_change_status": "Not Planned"
   }
  }
 ]
}