{
 "type": "FeatureCollection",
 "generated": "2026-07-01T10:30:43.086484",
 "suburb": "ADVANCETOWN",
 "features": [
  {
   "type": "Feature",
   "geometry": {
    "type": "Point",
    "coordinates": [
     153.26180743,
     -28.03111971
    ]
   },
   "properties": {
    "name": "61 HOOP PINE COURT ADVANCETOWN 4211",
    "locID": "LOC000095714109",
    "tech": "NULL",
    "upgrade": "NULL_NA",
    "gnaf_pid": "GAQLD154920152",
    "tech_change_status": "Not Planned"
   }
  },
  {
   "type": "Feature",
   "geometry": {
    "type": "Point",
    "coordinates": [
     153.26462781,
     -28.02966853
    ]
   },
   "properties": {
    "name": "64 HOOP PINE COURT ADVANCETOWN 4211",
    "locID": "LOC000034764030",
    "tech": "SATELLITE",
    "upgrade": "NULL_NA",
    "gnaf_pid": "GAQLD154920153",
    "tech_change_status": "Not Planned"
   }
  },
  {
   "type": "Feature",
   "geometry": {
    "type": "Point",
    "coordinates": [
     153.2617242,
     -28.03021285
    ]
   },
   "properties": {
    "name": "67 HOOP PINE COURT ADVANCETOWN 4211",
    "locID": "LOC000071216611",
    "tech": "SATELLITE",
    "upgrade": "NULL_NA",
    "gnaf_pid": "GAQLD154920154",
    "tech_change_status": "Not Planned"
   }
  },
  {
   "type": "Feature",
   "geometry": {
    "type": "Point",
    "coordinates": [
     153.26170174,
     -28.028877
    ]
   },
   "properties": {
    "name": "71 HOOP PINE COURT ADVANCETOWN 4211",
    "locID": "LOC000081825556",
    "tech": "SATELLITE",
    "upgrade": "NULL_NA",
    "gnaf_pid": "GAQLD154920155",
    "tech_change_status": "Not Planned"
   }
  },
  {
   "type": "Feature",
   "geometry": {
    "type": "Point",
    "coordinates": [
     153.26320949,
     -28.02887411
    ]
   },
   "properties": {
    "name": "72 HOOP PINE COURT ADVANCETOWN 4211",
    "locID": "LOC000072379147",
    "tech": "NULL",
    "upgrade": "NULL_NA",
    "gnaf_pid": "GAQLD154920156",
    "tech_change_status": "Not Planned"
   }
  },
  {
   "type": "Feature",
   "geometry": {
    "type": "Point",
    "coordinates": [
     153.2947768,
     -28.03009777
    ]
   },
   "properties": {
    "name": "174 LATIMERS CROSSING ROAD ADVANCETOWN 4211",
    "locID": "LOC000009040970",
    "tech": "NULL",
    "upgrade": "NULL_NA",
    "gnaf_pid": "GAQLD154920159",
    "tech_change_status": "Not Planned"
   }
  },
  {
   "type": "Feature",
   "geometry": {
    "type": "Point",
    "coordinates": [
     153.29639984,
     -28.03134193
    ]
   },
   "properties": {
    "name": "179 LATIMERS CROSSING ROAD ADVANCETOWN 4211",
    "locID": "LOC000097113716",
    "tech": "NULL",
    "upgrade": "NULL_NA",
    "gnaf_pid": "GAQLD154920160",
    "tech_change_status": "Not Planned"
   }
  },
  {
   "type": "Feature",
   "geometry": {
    "type": "Point",
    "coordinates": [
     153.27797652,
     -28.03559112
    ]
   },
   "properties": {
    "name": "24 ADVANCETOWN ROAD ADVANCETOWN 4211",
    "locID": "LOC000030587176",
    "tech": "NULL",
    "upgrade": "NULL_NA",
    "gnaf_pid": "GAQLD154920243",
    "tech_change_status": "Not Planned"
   }
  },
  {
   "type": "Feature",
   "geometry": {
    "type": "Point",
    "coordinates": [
     153.28220437,
     -28.03559735
    ]
   },
   "properties": {
    "name": "33 ADVANCETOWN ROAD ADVANCETOWN 4211",
    "locID": "LOC000024947817",
    "tech": "NULL",
    "upgrade": "NULL_NA",
    "gnaf_pid": "GAQLD154920244",
    "tech_change_status": "Not Planned"
   }
  },
  {
   "type": "Feature",
   "geometry": {
    "type": "Point",
    "coordinates": [
     153.2821125,
     -28.03697939
    ]
   },
   "properties": {
    "name": "45 ADVANCETOWN ROAD ADVANCETOWN 4211",
    "locID": "LOC000085949973",
    "tech": "NULL",
    "upgrade": "NULL_NA",
    "gnaf_pid": "GAQLD154920245",
    "tech_change_status": "Not Planned"
   }
  },
  {
   "type": "Feature",
   "geometry": {
    "type": "Point",
    "coordinates": [
     153.29163429,
     -28.02922286
    ]
   },
   "properties": {
    "name": "220 LATIMERS CROSSING ROAD ADVANCETOWN 4211",
    "locID": "LOC000049645484",
    "tech": "SATELLITE",
    "upgrade": "NULL_NA",
    "gnaf_pid": "GAQLD154921502",
    "tech_change_status": "Not Planned"
   }
  },
  {
   "type": "Feature",
   "geometry": {
    "type": "Point",
    "coordinates": [
     153.29042506,
     -28.02901966
    ]
   },
   "properties": {
    "name": "232 LATIMERS CROSSING ROAD ADVANCETOWN 4211",
    "locID": "LOC000060774620",
    "tech": "NULL",
    "upgrade": "NULL_NA",
    "gnaf_pid": "GAQLD154921504",
    "tech_change_status": "Not Planned"
   }
  },
  {
   "type": "Feature",
   "geometry": {
    "type": "Point",
    "coordinates": [
     153.2841584,
     -28.02682645
    ]
   },
   "properties": {
    "name": "302 LATIMERS CROSSING ROAD ADVANCETOWN 4211",
    "locID": "LOC000002527621",
    "tech": "NULL",
    "upgrade": "NULL_NA",
    "gnaf_pid": "GAQLD154921505",
    "tech_change_status": "Not Planned"
   }
  },
  {
   "type": "Feature",
   "geometry": {
    "type": "Point",
    "coordinates": [
     153.28571551,
     -28.02788598
    ]
   },
   "properties": {
    "name": "303 LATIMERS CROSSING ROAD ADVANCETOWN 4211",
    "locID": "LOC000002505674",
    "tech": "NULL",
    "upgrade": "NULL_NA",
    "gnaf_pid": "GAQLD154921506",
    "tech_change_status": "Not Planned"
   }
  },
  {
   "type": "Feature",
   "geometry": {
    "type": "Point",
    "coordinates": [
     153.28365967,
     -28.023711
    ]
   },
   "properties": {
    "name": "304 LATIMERS CROSSING ROAD ADVANCETOWN 4211",
    "locID": "LOC000021663708",
    "tech": "NULL",
    "upgrade": "NULL_NA",
    "gnaf_pid": "GAQLD154921507",
    "tech_change_status": "Not Planned"
   }
  },
  {
   "type": "Feature",
   "geometry": {
    "type": "Point",
    "coordinates": [
     153.28077844,
     -28.04414403
    ]
   },
   "properties": {
    "name": "1 MOTTEE COURT ADVANCETOWN 4211",
    "locID": "LOC000084134152",
    "tech": "NULL",
    "upgrade": "NULL_NA",
    "gnaf_pid": "GAQLD154921510",
    "tech_change_status": "Not Planned"
   }
  },
  {
   "type": "Feature",
   "geometry": {
    "type": "Point",
    "coordinates": [
     153.28200503,
     -28.0429535
    ]
   },
   "properties": {
    "name": "25 MOTTEE COURT ADVANCETOWN 4211",
    "locID": "LOC000035079602",
    "tech": "NULL",
    "upgrade": "NULL_NA",
    "gnaf_pid": "GAQLD154921512",
    "tech_change_status": "Not Planned"
   }
  },
  {
   "type": "Feature",
   "geometry": {
    "type": "Point",
    "coordinates": [
     153.28342113,
     -28.04509958
    ]
   },
   "properties": {
    "name": "8 MOTTEE COURT ADVANCETOWN 4211",
    "locID": "LOC000005810192",
    "tech": "NULL",
    "upgrade": "NULL_NA",
    "gnaf_pid": "GAQLD154921513",
    "tech_change_status": "Not Planned"
   }
  },
  {
   "type": "Feature",
   "geometry": {
    "type": "Point",
    "coordinates": [
     153.27879572,
     -28.0411132
    ]
   },
   "properties": {
    "name": "98 ADVANCETOWN ROAD ADVANCETOWN 4211",
    "locID": "LOC000059549975",
    "tech": "SATELLITE",
    "upgrade": "NULL_NA",
    "gnaf_pid": "GAQLD154921739",
    "tech_change_status": "Not Planned"
   }
  },
  {
   "type": "Feature",
   "geometry": {
    "type": "Point",
    "coordinates": [
     153.27069207,
     -28.02180134
    ]
   },
   "properties": {
    "name": "159 BEECHMONT ROAD ADVANCETOWN 4211",
    "locID": "LOC000021680443",
    "tech": "SATELLITE",
    "upgrade": "NULL_NA",
    "gnaf_pid": "GAQLD154921740",
    "tech_change_status": "Not Planned"
   }
  },
  {
   "type": "Feature",
   "geometry": {
    "type": "Point",
    "coordinates": [
     153.26982245,
     -28.02300908
    ]
   },
   "properties": {
    "name": "163 BEECHMONT ROAD ADVANCETOWN 4211",
    "locID": "LOC000055586961",
    "tech": "WIRELESS",
    "upgrade": "NULL_NA",
    "gnaf_pid": "GAQLD154921741",
    "tech_change_status": "Previous Tech Disconnected",
    "program_type": "Fixed Wireless and Satellite Upgrade Program",
    "target_eligibility_quarter": "NA"
   }
  },
  {
   "type": "Feature",
   "geometry": {
    "type": "Point",
    "coordinates": [
     153.26939242,
     -28.0239222
    ]
   },
   "properties": {
    "name": "165 BEECHMONT ROAD ADVANCETOWN 4211",
    "locID": "LOC100077022144",
    "tech": "SATELLITE",
    "upgrade": "NULL_NA",
    "gnaf_pid": "GAQLD154921817",
    "tech_change_status": "Not Planned"
   }
  },
  {
   "type": "Feature",
   "geometry": {
    "type": "Point",
    "coordinates": [
     153.26874456,
     -28.02495509
    ]
   },
   "properties": {
    "name": "205 BEECHMONT ROAD ADVANCETOWN 4211",
    "locID": "LOC000020077182",
    "tech": "WIRELESS",
    "upgrade": "NULL_NA",
    "gnaf_pid": "GAQLD154921818",
    "tech_change_status": "Not Planned",
    "program_type": "Fixed Wireless and Satellite Upgrade Program",
    "target_eligibility_quarter": "NA"
   }
  },
  {
   "type": "Feature",
   "geometry": {
    "type": "Point",
    "coordinates": [
     153.27161755,
     -28.02688491
    ]
   },
   "properties": {
    "name": "207 BEECHMONT ROAD ADVANCETOWN 4211",
    "locID": "LOC000046471995",
    "tech": "WIRELESS",
    "upgrade": "NULL_NA",
    "gnaf_pid": "GAQLD154921819",
    "tech_change_status": "Not Planned",
    "program_type": "Fixed Wireless and Satellite Upgrade Program",
    "target_eligibility_quarter": "NA"
   }
  },
  {
   "type": "Feature",
   "geometry": {
    "type": "Point",
    "coordinates": [
     153.2713558,
     -28.02778713
    ]
   },
   "properties": {
    "name": "209 BEECHMONT ROAD ADVANCETOWN 4211",
    "locID": "LOC000060495128",
    "tech": "NULL",
    "upgrade": "NULL_NA",
    "gnaf_pid": "GAQLD154921820",
    "tech_change_status": "Not Planned"
   }
  },
  {
   "type": "Feature",
   "geometry": {
    "type": "Point",
    "coordinates": [
     153.26794318,
     -28.02731663
    ]
   },
   "properties": {
    "name": "211 BEECHMONT ROAD ADVANCETOWN 4211",
    "locID": "LOC000005027373",
    "tech": "WIRELESS",
    "upgrade": "NULL_NA",
    "gnaf_pid": "GAQLD154921821",
    "tech_change_status": "Eligible to Order",
    "program_type": "Fixed Wireless and Satellite Upgrade Program",
    "target_eligibility_quarter": "NA"
   }
  },
  {
   "type": "Feature",
   "geometry": {
    "type": "Point",
    "coordinates": [
     153.26644424,
     -28.02719025
    ]
   },
   "properties": {
    "name": "213 BEECHMONT ROAD ADVANCETOWN 4211",
    "locID": "LOC000095250899",
    "tech": "NULL",
    "upgrade": "NULL_NA",
    "gnaf_pid": "GAQLD154921822",
    "tech_change_status": "Not Planned"
   }
  },
  {
   "type": "Feature",
   "geometry": {
    "type": "Point",
    "coordinates": [
     153.26491928,
     -28.02696973
    ]
   },
   "properties": {
    "name": "215 BEECHMONT ROAD ADVANCETOWN 4211",
    "locID": "LOC000043519136",
    "tech": "WIRELESS",
    "upgrade": "NULL_NA",
    "gnaf_pid": "GAQLD154921823",
    "tech_change_status": "Not Planned",
    "program_type": "Fixed Wireless and Satellite Upgrade Program",
    "target_eligibility_quarter": "NA"
   }
  },
  {
   "type": "Feature",
   "geometry": {
    "type": "Point",
    "coordinates": [
     153.26394684,
     -28.02660668
    ]
   },
   "properties": {
    "name": "219 BEECHMONT ROAD ADVANCETOWN 4211",
    "locID": "LOC000062922961",
    "tech": "SATELLITE",
    "upgrade": "NULL_NA",
    "gnaf_pid": "GAQLD154921824",
    "tech_change_status": "Not Planned"
   }
  },
  {
   "type": "Feature",
   "geometry": {
    "type": "Point",
    "coordinates": [
     153.26272907,
     -28.02629682
    ]
   },
   "properties": {
    "name": "233 BEECHMONT ROAD ADVANCETOWN 4211",
    "locID": "LOC000050699555",
    "tech": "NULL",
    "upgrade": "NULL_NA",
    "gnaf_pid": "GAQLD154921825",
    "tech_change_status": "Not Planned"
   }
  },
  {
   "type": "Feature",
   "geometry": {
    "type": "Point",
    "coordinates": [
     153.26100492,
     -28.02556268
    ]
   },
   "properties": {
    "name": "275 BEECHMONT ROAD ADVANCETOWN 4211",
    "locID": "LOC000085558681",
    "tech": "NULL",
    "upgrade": "NULL_NA",
    "gnaf_pid": "GAQLD154921826",
    "tech_change_status": "Not Planned"
   }
  },
  {
   "type": "Feature",
   "geometry": {
    "type": "Point",
    "coordinates": [
     153.27752484,
     -28.0200162
    ]
   },
   "properties": {
    "name": "37 BEECHMONT ROAD ADVANCETOWN 4211",
    "locID": "LOC000076104414",
    "tech": "NULL",
    "upgrade": "NULL_NA",
    "gnaf_pid": "GAQLD154921827",
    "tech_change_status": "Not Planned"
   }
  },
  {
   "type": "Feature",
   "geometry": {
    "type": "Point",
    "coordinates": [
     153.27351153,
     -28.02282979
    ]
   },
   "properties": {
    "name": "46 BEECHMONT ROAD ADVANCETOWN 4211",
    "locID": "LOC000006699991",
    "tech": "NULL",
    "upgrade": "NULL_NA",
    "gnaf_pid": "GAQLD154921828",
    "tech_change_status": "Not Planned"
   }
  },
  {
   "type": "Feature",
   "geometry": {
    "type": "Point",
    "coordinates": [
     153.26971708,
     -28.03399634
    ]
   },
   "properties": {
    "name": "14 HOOP PINE COURT ADVANCETOWN 4211",
    "locID": "LOC000012421132",
    "tech": "NULL",
    "upgrade": "NULL_NA",
    "gnaf_pid": "GAQLD154921831",
    "tech_change_status": "Not Planned"
   }
  },
  {
   "type": "Feature",
   "geometry": {
    "type": "Point",
    "coordinates": [
     153.2699003,
     -28.03294507
    ]
   },
   "properties": {
    "name": "16 HOOP PINE COURT ADVANCETOWN 4211",
    "locID": "LOC000050948985",
    "tech": "SATELLITE",
    "upgrade": "NULL_NA",
    "gnaf_pid": "GAQLD154921832",
    "tech_change_status": "Not Planned"
   }
  },
  {
   "type": "Feature",
   "geometry": {
    "type": "Point",
    "coordinates": [
     153.27039085,
     -28.03157941
    ]
   },
   "properties": {
    "name": "26 HOOP PINE COURT ADVANCETOWN 4211",
    "locID": "LOC000091155452",
    "tech": "NULL",
    "upgrade": "NULL_NA",
    "gnaf_pid": "GAQLD154921833",
    "tech_change_status": "Not Planned"
   }
  },
  {
   "type": "Feature",
   "geometry": {
    "type": "Point",
    "coordinates": [
     153.26637512,
     -28.03341518
    ]
   },
   "properties": {
    "name": "27 HOOP PINE COURT ADVANCETOWN 4211",
    "locID": "LOC000041805908",
    "tech": "NULL",
    "upgrade": "NULL_NA",
    "gnaf_pid": "GAQLD154921834",
    "tech_change_status": "Not Planned"
   }
  },
  {
   "type": "Feature",
   "geometry": {
    "type": "Point",
    "coordinates": [
     153.26770935,
     -28.03058236
    ]
   },
   "properties": {
    "name": "42 HOOP PINE COURT ADVANCETOWN 4211",
    "locID": "LOC000019190495",
    "tech": "NULL",
    "upgrade": "NULL_NA",
    "gnaf_pid": "GAQLD154921835",
    "tech_change_status": "Not Planned"
   }
  },
  {
   "type": "Feature",
   "geometry": {
    "type": "Point",
    "coordinates": [
     153.27439962,
     -28.02425905
    ]
   },
   "properties": {
    "name": "58 PARKWAY DRIVE ADVANCETOWN 4211",
    "locID": "LOC000082745585",
    "tech": "NULL",
    "upgrade": "NULL_NA",
    "gnaf_pid": "GAQLD154921964",
    "tech_change_status": "Not Planned"
   }
  },
  {
   "type": "Feature",
   "geometry": {
    "type": "Point",
    "coordinates": [
     153.27399634,
     -28.02561653
    ]
   },
   "properties": {
    "name": "60 PARKWAY DRIVE ADVANCETOWN 4211",
    "locID": "LOC000086175884",
    "tech": "NULL",
    "upgrade": "NULL_NA",
    "gnaf_pid": "GAQLD154921965",
    "tech_change_status": "Not Planned"
   }
  },
  {
   "type": "Feature",
   "geometry": {
    "type": "Point",
    "coordinates": [
     153.27913066,
     -28.03008503
    ]
   },
   "properties": {
    "name": "12 TANGARA ROAD ADVANCETOWN 4211",
    "locID": "LOC000073778652",
    "tech": "NULL",
    "upgrade": "NULL_NA",
    "gnaf_pid": "GAQLD154921966",
    "tech_change_status": "Not Planned"
   }
  },
  {
   "type": "Feature",
   "geometry": {
    "type": "Point",
    "coordinates": [
     153.27747786,
     -28.02904588
    ]
   },
   "properties": {
    "name": "32 TANGARA ROAD ADVANCETOWN 4211",
    "locID": "LOC000015898520",
    "tech": "SATELLITE",
    "upgrade": "NULL_NA",
    "gnaf_pid": "GAQLD154921967",
    "tech_change_status": "Not Planned"
   }
  },
  {
   "type": "Feature",
   "geometry": {
    "type": "Point",
    "coordinates": [
     153.27617629,
     -28.0290941
    ]
   },
   "properties": {
    "name": "42 TANGARA ROAD ADVANCETOWN 4211",
    "locID": "LOC000002542010",
    "tech": "NULL",
    "upgrade": "NULL_NA",
    "gnaf_pid": "GAQLD154921968",
    "tech_change_status": "Not Planned"
   }
  },
  {
   "type": "Feature",
   "geometry": {
    "type": "Point",
    "coordinates": [
     153.27405688,
     -28.03081916
    ]
   },
   "properties": {
    "name": "48 TANGARA ROAD ADVANCETOWN 4211",
    "locID": "LOC000028231802",
    "tech": "NULL",
    "upgrade": "NULL_NA",
    "gnaf_pid": "GAQLD154921969",
    "tech_change_status": "Not Planned"
   }
  },
  {
   "type": "Feature",
   "geometry": {
    "type": "Point",
    "coordinates": [
     153.27358364,
     -28.03115371
    ]
   },
   "properties": {
    "name": "56 TANGARA ROAD ADVANCETOWN 4211",
    "locID": "LOC000005708512",
    "tech": "SATELLITE",
    "upgrade": "NULL_NA",
    "gnaf_pid": "GAQLD154921970",
    "tech_change_status": "Not Planned"
   }
  },
  {
   "type": "Feature",
   "geometry": {
    "type": "Point",
    "coordinates": [
     153.27317738,
     -28.03380804
    ]
   },
   "properties": {
    "name": "62 TANGARA ROAD ADVANCETOWN 4211",
    "locID": "LOC100079004829",
    "tech": "SATELLITE",
    "upgrade": "NULL_NA",
    "gnaf_pid": "GAQLD154921971",
    "tech_change_status": "Not Planned"
   }
  },
  {
   "type": "Feature",
   "geometry": {
    "type": "Point",
    "coordinates": [
     153.27446083,
     -28.03397089
    ]
   },
   "properties": {
    "name": "63 TANGARA ROAD ADVANCETOWN 4211",
    "locID": "LOC000051126960",
    "tech": "NULL",
    "upgrade": "NULL_NA",
    "gnaf_pid": "GAQLD154921972",
    "tech_change_status": "Not Planned"
   }
  },
  {
   "type": "Feature",
   "geometry": {
    "type": "Point",
    "coordinates": [
     153.28107321,
     -28.04231404
    ]
   },
   "properties": {
    "name": "22 TOULA COURT ADVANCETOWN 4211",
    "locID": "LOC000087252434",
    "tech": "NULL",
    "upgrade": "NULL_NA",
    "gnaf_pid": "GAQLD154921973",
    "tech_change_status": "Not Planned"
   }
  },
  {
   "type": "Feature",
   "geometry": {
    "type": "Point",
    "coordinates": [
     153.28445969,
     -28.04160984
    ]
   },
   "properties": {
    "name": "28 TOULA COURT ADVANCETOWN 4211",
    "locID": "LOC000062677230",
    "tech": "NULL",
    "upgrade": "NULL_NA",
    "gnaf_pid": "GAQLD154921974",
    "tech_change_status": "Not Planned"
   }
  },
  {
   "type": "Feature",
   "geometry": {
    "type": "Point",
    "coordinates": [
     153.28288341,
     -28.03941272
    ]
   },
   "properties": {
    "name": "29 TOULA COURT ADVANCETOWN 4211",
    "locID": "LOC000068409246",
    "tech": "SATELLITE",
    "upgrade": "NULL_NA",
    "gnaf_pid": "GAQLD154921975",
    "tech_change_status": "Not Planned"
   }
  },
  {
   "type": "Feature",
   "geometry": {
    "type": "Point",
    "coordinates": [
     153.28432555,
     -28.039997
    ]
   },
   "properties": {
    "name": "31 TOULA COURT ADVANCETOWN 4211",
    "locID": "LOC000068651384",
    "tech": "NULL",
    "upgrade": "NULL_NA",
    "gnaf_pid": "GAQLD154921976",
    "tech_change_status": "Not Planned"
   }
  },
  {
   "type": "Feature",
   "geometry": {
    "type": "Point",
    "coordinates": [
     153.28133793,
     -28.04023863
    ]
   },
   "properties": {
    "name": "9 TOULA COURT ADVANCETOWN 4211",
    "locID": "LOC000020786066",
    "tech": "SATELLITE",
    "upgrade": "NULL_NA",
    "gnaf_pid": "GAQLD154921977",
    "tech_change_status": "Not Planned"
   }
  },
  {
   "type": "Feature",
   "geometry": {
    "type": "Point",
    "coordinates": [
     153.27866466,
     -28.02220023
    ]
   },
   "properties": {
    "name": "14 PARKWAY DRIVE ADVANCETOWN 4211",
    "locID": "LOC000041678562",
    "tech": "SATELLITE",
    "upgrade": "NULL_NA",
    "gnaf_pid": "GAQLD154922229",
    "tech_change_status": "Not Planned"
   }
  },
  {
   "type": "Feature",
   "geometry": {
    "type": "Point",
    "coordinates": [
     153.27772643,
     -28.02516686
    ]
   },
   "properties": {
    "name": "37 PARKWAY DRIVE ADVANCETOWN 4211",
    "locID": "LOC000102711200",
    "tech": "NULL",
    "upgrade": "NULL_NA",
    "gnaf_pid": "GAQLD154922230",
    "tech_change_status": "Not Planned"
   }
  },
  {
   "type": "Feature",
   "geometry": {
    "type": "Point",
    "coordinates": [
     153.27621179,
     -28.02257667
    ]
   },
   "properties": {
    "name": "44 PARKWAY DRIVE ADVANCETOWN 4211",
    "locID": "LOC000043914980",
    "tech": "NULL",
    "upgrade": "NULL_NA",
    "gnaf_pid": "GAQLD154922231",
    "tech_change_status": "Not Planned"
   }
  },
  {
   "type": "Feature",
   "geometry": {
    "type": "Point",
    "coordinates": [
     153.27502771,
     -28.02319267
    ]
   },
   "properties": {
    "name": "52 PARKWAY DRIVE ADVANCETOWN 4211",
    "locID": "LOC000027618169",
    "tech": "NULL",
    "upgrade": "NULL_NA",
    "gnaf_pid": "GAQLD154922232",
    "tech_change_status": "Not Planned"
   }
  },
  {
   "type": "Feature",
   "geometry": {
    "type": "Point",
    "coordinates": [
     153.27726854,
     -28.02571342
    ]
   },
   "properties": {
    "name": "53 PARKWAY DRIVE ADVANCETOWN 4211",
    "locID": "LOC000022445483",
    "tech": "SATELLITE",
    "upgrade": "NULL_NA",
    "gnaf_pid": "GAQLD154922233",
    "tech_change_status": "Not Planned"
   }
  },
  {
   "type": "Feature",
   "geometry": {
    "type": "Point",
    "coordinates": [
     153.27510276,
     -28.02578624
    ]
   },
   "properties": {
    "name": "55 PARKWAY DRIVE ADVANCETOWN 4211",
    "locID": "LOC000033365492",
    "tech": "NULL",
    "upgrade": "NULL_NA",
    "gnaf_pid": "GAQLD154922234",
    "tech_change_status": "Not Planned"
   }
  },
  {
   "type": "Feature",
   "geometry": {
    "type": "Point",
    "coordinates": [
     153.27939208,
     -28.03762843
    ]
   },
   "properties": {
    "name": "50 ADVANCETOWN ROAD ADVANCETOWN 4211",
    "locID": "LOC000082870076",
    "tech": "NULL",
    "upgrade": "NULL_NA",
    "gnaf_pid": "GAQLD154922861",
    "tech_change_status": "Not Planned"
   }
  },
  {
   "type": "Feature",
   "geometry": {
    "type": "Point",
    "coordinates": [
     153.279186,
     -28.03877366
    ]
   },
   "properties": {
    "name": "72 ADVANCETOWN ROAD ADVANCETOWN 4211",
    "locID": "LOC000060388293",
    "tech": "NULL",
    "upgrade": "NULL_NA",
    "gnaf_pid": "GAQLD154922862",
    "tech_change_status": "Not Planned"
   }
  },
  {
   "type": "Feature",
   "geometry": {
    "type": "Point",
    "coordinates": [
     153.27890202,
     -28.0394316
    ]
   },
   "properties": {
    "name": "76 ADVANCETOWN ROAD ADVANCETOWN 4211",
    "locID": "LOC000046548672",
    "tech": "SATELLITE",
    "upgrade": "NULL_NA",
    "gnaf_pid": "GAQLD154922863",
    "tech_change_status": "Not Planned"
   }
  },
  {
   "type": "Feature",
   "geometry": {
    "type": "Point",
    "coordinates": [
     153.27885687,
     -28.04005023
    ]
   },
   "properties": {
    "name": "84 ADVANCETOWN ROAD ADVANCETOWN 4211",
    "locID": "LOC000042011538",
    "tech": "NULL",
    "upgrade": "NULL_NA",
    "gnaf_pid": "GAQLD154922864",
    "tech_change_status": "Not Planned"
   }
  },
  {
   "type": "Feature",
   "geometry": {
    "type": "Point",
    "coordinates": [
     153.26456702,
     -28.0329264
    ]
   },
   "properties": {
    "name": "45 HOOP PINE COURT ADVANCETOWN 4211",
    "locID": "LOC000025638520",
    "tech": "NULL",
    "upgrade": "NULL_NA",
    "gnaf_pid": "GAQLD154922993",
    "tech_change_status": "Not Planned"
   }
  },
  {
   "type": "Feature",
   "geometry": {
    "type": "Point",
    "coordinates": [
     153.26316873,
     -28.0325355
    ]
   },
   "properties": {
    "name": "47 HOOP PINE COURT ADVANCETOWN 4211",
    "locID": "LOC000072514318",
    "tech": "NULL",
    "upgrade": "NULL_NA",
    "gnaf_pid": "GAQLD154922994",
    "tech_change_status": "Not Planned"
   }
  },
  {
   "type": "Feature",
   "geometry": {
    "type": "Point",
    "coordinates": [
     153.2665455,
     -28.03059968
    ]
   },
   "properties": {
    "name": "52 HOOP PINE COURT ADVANCETOWN 4211",
    "locID": "LOC000039872268",
    "tech": "NULL",
    "upgrade": "NULL_NA",
    "gnaf_pid": "GAQLD154922995",
    "tech_change_status": "Not Planned"
   }
  },
  {
   "type": "Feature",
   "geometry": {
    "type": "Point",
    "coordinates": [
     153.26211336,
     -28.03197344
    ]
   },
   "properties": {
    "name": "59 HOOP PINE COURT ADVANCETOWN 4211",
    "locID": "LOC000062744167",
    "tech": "NULL",
    "upgrade": "NULL_NA",
    "gnaf_pid": "GAQLD154922996",
    "tech_change_status": "Not Planned"
   }
  },
  {
   "type": "Feature",
   "geometry": {
    "type": "Point",
    "coordinates": [
     153.26570127,
     -28.02997277
    ]
   },
   "properties": {
    "name": "60 HOOP PINE COURT ADVANCETOWN 4211",
    "locID": "LOC000009889585",
    "tech": "SATELLITE",
    "upgrade": "NULL_NA",
    "gnaf_pid": "GAQLD154922997",
    "tech_change_status": "Not Planned"
   }
  },
  {
   "type": "Feature",
   "geometry": {
    "type": "Point",
    "coordinates": [
     153.29520009,
     -28.03152665
    ]
   },
   "properties": {
    "name": "181 LATIMERS CROSSING ROAD ADVANCETOWN 4211",
    "locID": "LOC000070159832",
    "tech": "SATELLITE",
    "upgrade": "NULL_NA",
    "gnaf_pid": "GAQLD154923024",
    "tech_change_status": "Not Planned"
   }
  },
  {
   "type": "Feature",
   "geometry": {
    "type": "Point",
    "coordinates": [
     153.29369078,
     -28.03041212
    ]
   },
   "properties": {
    "name": "200 LATIMERS CROSSING ROAD ADVANCETOWN 4211",
    "locID": "LOC000074236621",
    "tech": "NULL",
    "upgrade": "NULL_NA",
    "gnaf_pid": "GAQLD154923026",
    "tech_change_status": "Not Planned"
   }
  },
  {
   "type": "Feature",
   "geometry": {
    "type": "Point",
    "coordinates": [
     153.29290308,
     -28.03012212
    ]
   },
   "properties": {
    "name": "204 LATIMERS CROSSING ROAD ADVANCETOWN 4211",
    "locID": "LOC000064453383",
    "tech": "NULL",
    "upgrade": "NULL_NA",
    "gnaf_pid": "GAQLD154923027",
    "tech_change_status": "Not Planned"
   }
  },
  {
   "type": "Feature",
   "geometry": {
    "type": "Point",
    "coordinates": [
     153.29219559,
     -28.02982207
    ]
   },
   "properties": {
    "name": "216 LATIMERS CROSSING ROAD ADVANCETOWN 4211",
    "locID": "LOC000020153731",
    "tech": "NULL",
    "upgrade": "NULL_NA",
    "gnaf_pid": "GAQLD154923028",
    "tech_change_status": "Not Planned"
   }
  },
  {
   "type": "Feature",
   "geometry": {
    "type": "Point",
    "coordinates": [
     153.29295317,
     -28.02947011
    ]
   },
   "properties": {
    "name": "218 LATIMERS CROSSING ROAD ADVANCETOWN 4211",
    "locID": "LOC000058650139",
    "tech": "NULL",
    "upgrade": "NULL_NA",
    "gnaf_pid": "GAQLD154923029",
    "tech_change_status": "Not Planned"
   }
  },
  {
   "type": "Feature",
   "geometry": {
    "type": "Point",
    "coordinates": [
     153.27032816,
     -28.02255799
    ]
   },
   "properties": {
    "name": "161 BEECHMONT ROAD ADVANCETOWN 4211",
    "locID": "LOC000059841114",
    "tech": "SATELLITE",
    "upgrade": "NULL_NA",
    "gnaf_pid": "GAQLD156024640",
    "tech_change_status": "Not Planned"
   }
  },
  {
   "type": "Feature",
   "geometry": {
    "type": "Point",
    "coordinates": [
     153.29754034,
     -28.02995448
    ]
   },
   "properties": {
    "name": "163 LATIMERS CROSSING ROAD ADVANCETOWN 4211",
    "locID": "LOC000020153488",
    "tech": "SATELLITE",
    "upgrade": "NULL_NA",
    "gnaf_pid": "GAQLD156024643",
    "tech_change_status": "Not Planned"
   }
  },
  {
   "type": "Feature",
   "geometry": {
    "type": "Point",
    "coordinates": [
     153.27685556,
     -28.03233758
    ]
   },
   "properties": {
    "name": "27 TANGARA ROAD ADVANCETOWN 4211",
    "locID": "LOC000009906725",
    "tech": "NULL",
    "upgrade": "NULL_NA",
    "gnaf_pid": "GAQLD156030557",
    "tech_change_status": "Not Planned"
   }
  },
  {
   "type": "Feature",
   "geometry": {
    "type": "Point",
    "coordinates": [
     153.27332138,
     -28.03263473
    ]
   },
   "properties": {
    "name": "60 TANGARA ROAD ADVANCETOWN 4211",
    "locID": "LOC000100752053",
    "tech": "SATELLITE",
    "upgrade": "NULL_NA",
    "gnaf_pid": "GAQLD156044312",
    "tech_change_status": "Not Planned"
   }
  },
  {
   "type": "Feature",
   "geometry": {
    "type": "Point",
    "coordinates": [
     153.26186846,
     -28.02420565
    ]
   },
   "properties": {
    "name": "255 BEECHMONT ROAD ADVANCETOWN 4211",
    "locID": "LOC000054742030",
    "tech": "NULL",
    "upgrade": "NULL_NA",
    "gnaf_pid": "GAQLD156049093",
    "tech_change_status": "Not Planned"
   }
  },
  {
   "type": "Feature",
   "geometry": {
    "type": "Point",
    "coordinates": [
     153.26921727,
     -28.03082197
    ]
   },
   "properties": {
    "name": "30 HOOP PINE COURT ADVANCETOWN 4211",
    "locID": "LOC000012432742",
    "tech": "NULL",
    "upgrade": "NULL_NA",
    "gnaf_pid": "GAQLD156057660",
    "tech_change_status": "Not Planned"
   }
  },
  {
   "type": "Feature",
   "geometry": {
    "type": "Point",
    "coordinates": [
     153.27705649,
     -28.02230826
    ]
   },
   "properties": {
    "name": "24 PARKWAY DRIVE ADVANCETOWN 4211",
    "locID": "LOC000060642941",
    "tech": "NULL",
    "upgrade": "NULL_NA",
    "gnaf_pid": "GAQLD156057665",
    "tech_change_status": "Not Planned"
   }
  },
  {
   "type": "Feature",
   "geometry": {
    "type": "Point",
    "coordinates": [
     153.29425359,
     -28.03076132
    ]
   },
   "properties": {
    "name": "186 LATIMERS CROSSING ROAD ADVANCETOWN 4211",
    "locID": "LOC000014494045",
    "tech": "NULL",
    "upgrade": "NULL_NA",
    "gnaf_pid": "GAQLD156174882",
    "tech_change_status": "Not Planned"
   }
  },
  {
   "type": "Feature",
   "geometry": {
    "type": "Point",
    "coordinates": [
     153.2591404,
     -28.03528148
    ]
   },
   "properties": {
    "name": "118 NARROWLEAF ROAD ADVANCETOWN 4211",
    "locID": "LOC000073626912",
    "tech": "NULL",
    "upgrade": "NULL_NA",
    "gnaf_pid": "GAQLD157406083",
    "tech_change_status": "Not Planned"
   }
  },
  {
   "type": "Feature",
   "geometry": {
    "type": "Point",
    "coordinates": [
     153.26149829,
     -28.03436364
    ]
   },
   "properties": {
    "name": "104 NARROWLEAF ROAD ADVANCETOWN 4211",
    "locID": "LOC000013603962",
    "tech": "SATELLITE",
    "upgrade": "NULL_NA",
    "gnaf_pid": "GAQLD157406413",
    "tech_change_status": "Not Planned"
   }
  },
  {
   "type": "Feature",
   "geometry": {
    "type": "Point",
    "coordinates": [
     153.27061003,
     -28.03614436
    ]
   },
   "properties": {
    "name": "19 NARROWLEAF ROAD ADVANCETOWN 4211",
    "locID": "LOC000106781346",
    "tech": "NULL",
    "upgrade": "NULL_NA",
    "gnaf_pid": "GAQLD157406416",
    "tech_change_status": "Not Planned"
   }
  },
  {
   "type": "Feature",
   "geometry": {
    "type": "Point",
    "coordinates": [
     153.26458903,
     -28.03434649
    ]
   },
   "properties": {
    "name": "100 NARROWLEAF ROAD ADVANCETOWN 4211",
    "locID": "LOC000029794272",
    "tech": "NULL",
    "upgrade": "NULL_NA",
    "gnaf_pid": "GAQLD157406417",
    "tech_change_status": "Not Planned"
   }
  },
  {
   "type": "Feature",
   "geometry": {
    "type": "Point",
    "coordinates": [
     153.2638585,
     -28.03632468
    ]
   },
   "properties": {
    "name": "95 NARROWLEAF ROAD ADVANCETOWN 4211",
    "locID": "LOC000067082616",
    "tech": "NULL",
    "upgrade": "NULL_NA",
    "gnaf_pid": "GAQLD157406418",
    "tech_change_status": "Not Planned"
   }
  },
  {
   "type": "Feature",
   "geometry": {
    "type": "Point",
    "coordinates": [
     153.27030705,
     -28.03694646
    ]
   },
   "properties": {
    "name": "3 NARROWLEAF ROAD ADVANCETOWN 4211",
    "locID": "LOC000109272800",
    "tech": "SATELLITE",
    "upgrade": "NULL_NA",
    "gnaf_pid": "GAQLD157406419",
    "tech_change_status": "Not Planned"
   }
  },
  {
   "type": "Feature",
   "geometry": {
    "type": "Point",
    "coordinates": [
     153.2645642,
     -28.03787505
    ]
   },
   "properties": {
    "name": "89 NARROWLEAF ROAD ADVANCETOWN 4211",
    "locID": "LOC000021601085",
    "tech": "NULL",
    "upgrade": "NULL_NA",
    "gnaf_pid": "GAQLD157406667",
    "tech_change_status": "Not Planned"
   }
  },
  {
   "type": "Feature",
   "geometry": {
    "type": "Point",
    "coordinates": [
     153.26573431,
     -28.03711823
    ]
   },
   "properties": {
    "name": "77 NARROWLEAF ROAD ADVANCETOWN 4211",
    "locID": "LOC000089807177",
    "tech": "NULL",
    "upgrade": "NULL_NA",
    "gnaf_pid": "GAQLD157406671",
    "tech_change_status": "Not Planned"
   }
  },
  {
   "type": "Feature",
   "geometry": {
    "type": "Point",
    "coordinates": [
     153.26688389,
     -28.0370015
    ]
   },
   "properties": {
    "name": "65 NARROWLEAF ROAD ADVANCETOWN 4211",
    "locID": "LOC000005574964",
    "tech": "NULL",
    "upgrade": "NULL_NA",
    "gnaf_pid": "GAQLD157406673",
    "tech_change_status": "Not Planned"
   }
  },
  {
   "type": "Feature",
   "geometry": {
    "type": "Point",
    "coordinates": [
     153.27317738,
     -28.03380804
    ]
   },
   "properties": {
    "name": "UNIT 2, 62 TANGARA ROAD ADVANCETOWN 4211",
    "locID": "LOC100079004829",
    "tech": "SATELLITE",
    "upgrade": "NULL_NA",
    "gnaf_pid": "GAQLD157406961",
    "tech_change_status": "Not Planned"
   }
  },
  {
   "type": "Feature",
   "geometry": {
    "type": "Point",
    "coordinates": [
     153.27118102,
     -28.03517605
    ]
   },
   "properties": {
    "name": "10 NARROWLEAF ROAD ADVANCETOWN 4211",
    "locID": "LOC000044716933",
    "tech": "NULL",
    "upgrade": "NULL_NA",
    "gnaf_pid": "GAQLD157406965",
    "tech_change_status": "Not Planned"
   }
  },
  {
   "type": "Feature",
   "geometry": {
    "type": "Point",
    "coordinates": [
     153.26809855,
     -28.03652641
    ]
   },
   "properties": {
    "name": "57 NARROWLEAF ROAD ADVANCETOWN 4211",
    "locID": "LOC000047274041",
    "tech": "SATELLITE",
    "upgrade": "NULL_NA",
    "gnaf_pid": "GAQLD157407039",
    "tech_change_status": "Not Planned"
   }
  },
  {
   "type": "Feature",
   "geometry": {
    "type": "Point",
    "coordinates": [
     153.26293761,
     -28.03419042
    ]
   },
   "properties": {
    "name": "102 NARROWLEAF ROAD ADVANCETOWN 4211",
    "locID": "LOC000045100473",
    "tech": "NULL",
    "upgrade": "NULL_NA",
    "gnaf_pid": "GAQLD157407042",
    "tech_change_status": "Not Planned"
   }
  },
  {
   "type": "Feature",
   "geometry": {
    "type": "Point",
    "coordinates": [
     153.28023888,
     -28.03489051
    ]
   },
   "properties": {
    "name": "21 ADVANCETOWN ROAD ADVANCETOWN 4211",
    "locID": "LOC000038374383",
    "tech": "NULL",
    "upgrade": "NULL_NA",
    "gnaf_pid": "GAQLD157408366",
    "tech_change_status": "Not Planned"
   }
  },
  {
   "type": "Feature",
   "geometry": {
    "type": "Point",
    "coordinates": [
     153.2844982,
     -28.04326364
    ]
   },
   "properties": {
    "name": "24 MOTTEE COURT ADVANCETOWN 4211",
    "locID": "LOC000103053098",
    "tech": "SATELLITE",
    "upgrade": "NULL_NA",
    "gnaf_pid": "GAQLD157408429",
    "tech_change_status": "Not Planned"
   }
  },
  {
   "type": "Feature",
   "geometry": {
    "type": "Point",
    "coordinates": [
     153.26242586,
     -28.03846911
    ]
   },
   "properties": {
    "name": "127 NARROWLEAF ROAD ADVANCETOWN 4211",
    "locID": "LOC000030816769",
    "tech": "SATELLITE",
    "upgrade": "NULL_NA",
    "gnaf_pid": "GAQLD157408655",
    "tech_change_status": "Not Planned"
   }
  },
  {
   "type": "Feature",
   "geometry": {
    "type": "Point",
    "coordinates": [
     153.26136968,
     -28.03821087
    ]
   },
   "properties": {
    "name": "132 NARROWLEAF ROAD ADVANCETOWN 4211",
    "locID": "LOC000069702278",
    "tech": "NULL",
    "upgrade": "NULL_NA",
    "gnaf_pid": "GAQLD157408660",
    "tech_change_status": "Not Planned"
   }
  },
  {
   "type": "Feature",
   "geometry": {
    "type": "Point",
    "coordinates": [
     153.25928684,
     -28.03736307
    ]
   },
   "properties": {
    "name": "128 NARROWLEAF ROAD ADVANCETOWN 4211",
    "locID": "LOC000014020439",
    "tech": "NULL",
    "upgrade": "NULL_NA",
    "gnaf_pid": "GAQLD157408663",
    "tech_change_status": "Not Planned"
   }
  },
  {
   "type": "Feature",
   "geometry": {
    "type": "Point",
    "coordinates": [
     153.28038618,
     -28.03574937
    ]
   },
   "properties": {
    "name": "23 ADVANCETOWN ROAD ADVANCETOWN 4211",
    "locID": "LOC000061328397",
    "tech": "NULL",
    "upgrade": "NULL_NA",
    "gnaf_pid": "GAQLD157409093",
    "tech_change_status": "Not Planned"
   }
  },
  {
   "type": "Feature",
   "geometry": {
    "type": "Point",
    "coordinates": [
     153.29873109,
     -28.03171157
    ]
   },
   "properties": {
    "name": "177 LATIMERS CROSSING ROAD ADVANCETOWN 4211",
    "locID": "LOC000074072105",
    "tech": "SATELLITE",
    "upgrade": "NULL_NA",
    "gnaf_pid": "GAQLD157409100",
    "tech_change_status": "Not Planned"
   }
  },
  {
   "type": "Feature",
   "geometry": {
    "type": "Point",
    "coordinates": [
     153.30241351,
     -28.03114258
    ]
   },
   "properties": {
    "name": "173 LATIMERS CROSSING ROAD ADVANCETOWN 4211",
    "locID": "LOC000080853241",
    "tech": "NULL",
    "upgrade": "NULL_NA",
    "gnaf_pid": "GAQLD157409397",
    "tech_change_status": "Not Planned"
   }
  },
  {
   "type": "Feature",
   "geometry": {
    "type": "Point",
    "coordinates": [
     153.30006953,
     -28.03091952
    ]
   },
   "properties": {
    "name": "171 LATIMERS CROSSING ROAD ADVANCETOWN 4211",
    "locID": "LOC000025762646",
    "tech": "NULL",
    "upgrade": "NULL_NA",
    "gnaf_pid": "GAQLD157409398",
    "tech_change_status": "Not Planned"
   }
  },
  {
   "type": "Feature",
   "geometry": {
    "type": "Point",
    "coordinates": [
     153.29163218,
     -28.02778821
    ]
   },
   "properties": {
    "name": "264 LATIMERS CROSSING ROAD ADVANCETOWN 4211",
    "locID": "LOC000096626220",
    "tech": "NULL",
    "upgrade": "NULL_NA",
    "gnaf_pid": "GAQLD157409402",
    "tech_change_status": "Not Planned"
   }
  },
  {
   "type": "Feature",
   "geometry": {
    "type": "Point",
    "coordinates": [
     153.26022261,
     -28.03632437
    ]
   },
   "properties": {
    "name": "126 NARROWLEAF ROAD ADVANCETOWN 4211",
    "locID": "LOC000096862171",
    "tech": "NULL",
    "upgrade": "NULL_NA",
    "gnaf_pid": "GAQLD157409409",
    "tech_change_status": "Not Planned"
   }
  },
  {
   "type": "Feature",
   "geometry": {
    "type": "Point",
    "coordinates": [
     153.28280919,
     -28.03798801
    ]
   },
   "properties": {
    "name": "57 ADVANCETOWN ROAD ADVANCETOWN 4211",
    "locID": "LOC000020052936",
    "tech": "NULL",
    "upgrade": "NULL_NA",
    "gnaf_pid": "GAQLD159569429",
    "tech_change_status": "Not Planned"
   }
  },
  {
   "type": "Feature",
   "geometry": {
    "type": "Point",
    "coordinates": [
     153.29163218,
     -28.02778821
    ]
   },
   "properties": {
    "name": "242 LATIMERS CROSSING ROAD ADVANCETOWN 4211",
    "locID": "LOC000082051057",
    "tech": "NULL",
    "upgrade": "NULL_NA",
    "gnaf_pid": "GAQLD159574095",
    "tech_change_status": "Not Planned"
   }
  },
  {
   "type": "Feature",
   "geometry": {
    "type": "Point",
    "coordinates": [
     153.30208211,
     -28.03227026
    ]
   },
   "properties": {
    "name": "175 LATIMERS CROSSING ROAD ADVANCETOWN 4211",
    "locID": "LOC000032855990",
    "tech": "NULL",
    "upgrade": "NULL_NA",
    "gnaf_pid": "GAQLD159574098",
    "tech_change_status": "Not Planned"
   }
  },
  {
   "type": "Feature",
   "geometry": {
    "type": "Point",
    "coordinates": [
     153.26587902,
     -28.03566493
    ]
   },
   "properties": {
    "name": "9 NARROWLEAF ROAD ADVANCETOWN 4211",
    "locID": "LOC000067082616",
    "tech": "NULL",
    "upgrade": "NULL_NA",
    "gnaf_pid": "GAQLD159578741",
    "tech_change_status": "Not Planned"
   }
  },
  {
   "type": "Feature",
   "geometry": {
    "type": "Point",
    "coordinates": [
     153.26347887,
     -28.03842801
    ]
   },
   "properties": {
    "name": "125 NARROWLEAF ROAD ADVANCETOWN 4211",
    "locID": "LOC000103090454",
    "tech": "NULL",
    "upgrade": "NULL_NA",
    "gnaf_pid": "GAQLD159578751",
    "tech_change_status": "Not Planned"
   }
  },
  {
   "type": "Feature",
   "geometry": {
    "type": "Point",
    "coordinates": [
     153.27866466,
     -28.02220023
    ]
   },
   "properties": {
    "name": "2 PARKWAY DRIVE ADVANCETOWN 4211",
    "locID": "LOC000076060983",
    "tech": "SATELLITE",
    "upgrade": "NULL_NA",
    "gnaf_pid": "GAQLD159601824",
    "tech_change_status": "Not Planned"
   }
  },
  {
   "type": "Feature",
   "geometry": {
    "type": "Point",
    "coordinates": [
     153.28035107,
     -28.0341264
    ]
   },
   "properties": {
    "name": "13 ADVANCETOWN ROAD ADVANCETOWN 4211",
    "locID": "LOC000075110585",
    "tech": "NULL",
    "upgrade": "NULL_NA",
    "gnaf_pid": "GAQLD161043827",
    "tech_change_status": "Not Planned"
   }
  },
  {
   "type": "Feature",
   "geometry": {
    "type": "Point",
    "coordinates": [
     153.28226516,
     -28.03645378
    ]
   },
   "properties": {
    "name": "41 ADVANCETOWN ROAD ADVANCETOWN 4211",
    "locID": "LOC000143834383",
    "tech": "FTTP",
    "upgrade": "NULL_NA",
    "gnaf_pid": "GAQLD161043828"
   }
  },
  {
   "type": "Feature",
   "geometry": {
    "type": "Point",
    "coordinates": [
     153.29301617,
     -28.0172041
    ]
   },
   "properties": {
    "name": "LOT 3 BEECHMONT ROAD ADVANCETOWN 4211",
    "locID": "LOC000005027373",
    "tech": "WIRELESS",
    "upgrade": "NULL_NA",
    "gnaf_pid": "GAQLD161063182",
    "tech_change_status": "Eligible to Order",
    "program_type": "Fixed Wireless and Satellite Upgrade Program",
    "target_eligibility_quarter": "NA"
   }
  },
  {
   "type": "Feature",
   "geometry": {
    "type": "Point",
    "coordinates": [
     153.28404152,
     -28.04428603
    ]
   },
   "properties": {
    "name": "16 MOTTEE COURT ADVANCETOWN 4211",
    "locID": "LOC000034073198",
    "tech": "SATELLITE",
    "upgrade": "NULL_NA",
    "gnaf_pid": "GAQLD161244642",
    "tech_change_status": "Not Planned"
   }
  },
  {
   "type": "Feature",
   "geometry": {
    "type": "Point",
    "coordinates": [
     153.26003876,
     -28.03826518
    ]
   },
   "properties": {
    "name": "130 NARROWLEAF ROAD ADVANCETOWN 4211",
    "locID": "LOC000068011560",
    "tech": "NULL",
    "upgrade": "NULL_NA",
    "gnaf_pid": "GAQLD161252100",
    "tech_change_status": "Not Planned"
   }
  },
  {
   "type": "Feature",
   "geometry": {
    "type": "Point",
    "coordinates": [
     153.25724412,
     -28.05757398
    ]
   },
   "properties": {
    "name": "LOT 14 NERANG - MURWILLUMBAH ROAD ADVANCETOWN 4211",
    "locID": "LOC000058779627",
    "tech": "NULL",
    "upgrade": "NULL_NA",
    "gnaf_pid": "GAQLD161253274",
    "tech_change_status": "Not Planned"
   }
  },
  {
   "type": "Feature",
   "geometry": {
    "type": "Point",
    "coordinates": [
     153.27765171,
     -28.02081568
    ]
   },
   "properties": {
    "name": "358 NERANG - MURWILLUMBAH ROAD ADVANCETOWN 4211",
    "locID": "LOC000049946681",
    "tech": "NULL",
    "upgrade": "NULL_NA",
    "gnaf_pid": "GAQLD161253279",
    "tech_change_status": "Not Planned"
   }
  },
  {
   "type": "Feature",
   "geometry": {
    "type": "Point",
    "coordinates": [
     153.27962095,
     -28.02540829
    ]
   },
   "properties": {
    "name": "376 NERANG - MURWILLUMBAH ROAD ADVANCETOWN 4211",
    "locID": "LOC000085747425",
    "tech": "NULL",
    "upgrade": "NULL_NA",
    "gnaf_pid": "GAQLD161253281",
    "tech_change_status": "Not Planned"
   }
  },
  {
   "type": "Feature",
   "geometry": {
    "type": "Point",
    "coordinates": [
     153.28050197,
     -28.02631995
    ]
   },
   "properties": {
    "name": "402 NERANG - MURWILLUMBAH ROAD ADVANCETOWN 4211",
    "locID": "LOC000054721288",
    "tech": "NULL",
    "upgrade": "NULL_NA",
    "gnaf_pid": "GAQLD161253282",
    "tech_change_status": "Not Planned"
   }
  },
  {
   "type": "Feature",
   "geometry": {
    "type": "Point",
    "coordinates": [
     153.28388759,
     -28.02845472
    ]
   },
   "properties": {
    "name": "429 NERANG - MURWILLUMBAH ROAD ADVANCETOWN 4211",
    "locID": "LOC000082085746",
    "tech": "NULL",
    "upgrade": "NULL_NA",
    "gnaf_pid": "GAQLD161253283",
    "tech_change_status": "Not Planned"
   }
  },
  {
   "type": "Feature",
   "geometry": {
    "type": "Point",
    "coordinates": [
     153.28310351,
     -28.02955314
    ]
   },
   "properties": {
    "name": "439 NERANG - MURWILLUMBAH ROAD ADVANCETOWN 4211",
    "locID": "LOC000095337747",
    "tech": "SATELLITE",
    "upgrade": "NULL_NA",
    "gnaf_pid": "GAQLD161253284",
    "tech_change_status": "Not Planned"
   }
  },
  {
   "type": "Feature",
   "geometry": {
    "type": "Point",
    "coordinates": [
     153.28138362,
     -28.02854031
    ]
   },
   "properties": {
    "name": "442 NERANG - MURWILLUMBAH ROAD ADVANCETOWN 4211",
    "locID": "LOC000052882150",
    "tech": "NULL",
    "upgrade": "NULL_NA",
    "gnaf_pid": "GAQLD161253286",
    "tech_change_status": "Not Planned"
   }
  },
  {
   "type": "Feature",
   "geometry": {
    "type": "Point",
    "coordinates": [
     153.2790207,
     -28.03202289
    ]
   },
   "properties": {
    "name": "472 NERANG - MURWILLUMBAH ROAD ADVANCETOWN 4211",
    "locID": "LOC000052561508",
    "tech": "NULL",
    "upgrade": "NULL_NA",
    "gnaf_pid": "GAQLD161253288",
    "tech_change_status": "Not Planned"
   }
  },
  {
   "type": "Feature",
   "geometry": {
    "type": "Point",
    "coordinates": [
     153.28243592,
     -28.0306759
    ]
   },
   "properties": {
    "name": "483 NERANG - MURWILLUMBAH ROAD ADVANCETOWN 4211",
    "locID": "LOC000035858155",
    "tech": "NULL",
    "upgrade": "NULL_NA",
    "gnaf_pid": "GAQLD161253289",
    "tech_change_status": "Not Planned"
   }
  },
  {
   "type": "Feature",
   "geometry": {
    "type": "Point",
    "coordinates": [
     153.28185559,
     -28.03252042
    ]
   },
   "properties": {
    "name": "485 NERANG - MURWILLUMBAH ROAD ADVANCETOWN 4211",
    "locID": "LOC000014882204",
    "tech": "SATELLITE",
    "upgrade": "NULL_NA",
    "gnaf_pid": "GAQLD161253290",
    "tech_change_status": "Not Planned"
   }
  },
  {
   "type": "Feature",
   "geometry": {
    "type": "Point",
    "coordinates": [
     153.28163321,
     -28.03429344
    ]
   },
   "properties": {
    "name": "487 NERANG - MURWILLUMBAH ROAD ADVANCETOWN 4211",
    "locID": "LOC000083838311",
    "tech": "NULL",
    "upgrade": "NULL_NA",
    "gnaf_pid": "GAQLD161253291",
    "tech_change_status": "Not Planned"
   }
  },
  {
   "type": "Feature",
   "geometry": {
    "type": "Point",
    "coordinates": [
     153.27859243,
     -28.03476209
    ]
   },
   "properties": {
    "name": "503 NERANG - MURWILLUMBAH ROAD ADVANCETOWN 4211",
    "locID": "LOC000032373615",
    "tech": "NULL",
    "upgrade": "NULL_NA",
    "gnaf_pid": "GAQLD161253293",
    "tech_change_status": "Not Planned"
   }
  },
  {
   "type": "Feature",
   "geometry": {
    "type": "Point",
    "coordinates": [
     153.27586503,
     -28.03444742
    ]
   },
   "properties": {
    "name": "522 NERANG - MURWILLUMBAH ROAD ADVANCETOWN 4211",
    "locID": "LOC000074583289",
    "tech": "NULL",
    "upgrade": "NULL_NA",
    "gnaf_pid": "GAQLD161253294",
    "tech_change_status": "Not Planned"
   }
  },
  {
   "type": "Feature",
   "geometry": {
    "type": "Point",
    "coordinates": [
     153.27539593,
     -28.03931167
    ]
   },
   "properties": {
    "name": "555 NERANG - MURWILLUMBAH ROAD ADVANCETOWN 4211",
    "locID": "LOC000097852814",
    "tech": "NULL",
    "upgrade": "NULL_NA",
    "gnaf_pid": "GAQLD161253295",
    "tech_change_status": "Not Planned"
   }
  },
  {
   "type": "Feature",
   "geometry": {
    "type": "Point",
    "coordinates": [
     153.27380431,
     -28.03566501
    ]
   },
   "properties": {
    "name": "556 NERANG - MURWILLUMBAH ROAD ADVANCETOWN 4211",
    "locID": "LOC000027634466",
    "tech": "NULL",
    "upgrade": "NULL_NA",
    "gnaf_pid": "GAQLD161253296",
    "tech_change_status": "Not Planned"
   }
  },
  {
   "type": "Feature",
   "geometry": {
    "type": "Point",
    "coordinates": [
     153.27192999,
     -28.0382719
    ]
   },
   "properties": {
    "name": "599 NERANG - MURWILLUMBAH ROAD ADVANCETOWN 4211",
    "locID": "LOC000029049699",
    "tech": "NULL",
    "upgrade": "NULL_NA",
    "gnaf_pid": "GAQLD161253297",
    "tech_change_status": "Not Planned"
   }
  },
  {
   "type": "Feature",
   "geometry": {
    "type": "Point",
    "coordinates": [
     153.27174567,
     -28.03873163
    ]
   },
   "properties": {
    "name": "601 NERANG - MURWILLUMBAH ROAD ADVANCETOWN 4211",
    "locID": "LOC000007453181",
    "tech": "NULL",
    "upgrade": "NULL_NA",
    "gnaf_pid": "GAQLD161253298",
    "tech_change_status": "Not Planned"
   }
  },
  {
   "type": "Feature",
   "geometry": {
    "type": "Point",
    "coordinates": [
     153.26984853,
     -28.03772008
    ]
   },
   "properties": {
    "name": "604 NERANG - MURWILLUMBAH ROAD ADVANCETOWN 4211",
    "locID": "LOC000058779627",
    "tech": "NULL",
    "upgrade": "NULL_NA",
    "gnaf_pid": "GAQLD161253299",
    "tech_change_status": "Not Planned"
   }
  },
  {
   "type": "Feature",
   "geometry": {
    "type": "Point",
    "coordinates": [
     153.2689102,
     -28.03860757
    ]
   },
   "properties": {
    "name": "606 NERANG - MURWILLUMBAH ROAD ADVANCETOWN 4211",
    "locID": "LOC000042809446",
    "tech": "NULL",
    "upgrade": "NULL_NA",
    "gnaf_pid": "GAQLD161253300",
    "tech_change_status": "Not Planned"
   }
  },
  {
   "type": "Feature",
   "geometry": {
    "type": "Point",
    "coordinates": [
     153.26797815,
     -28.03936417
    ]
   },
   "properties": {
    "name": "616 NERANG - MURWILLUMBAH ROAD ADVANCETOWN 4211",
    "locID": "LOC000014354262",
    "tech": "SATELLITE",
    "upgrade": "NULL_NA",
    "gnaf_pid": "GAQLD161253301",
    "tech_change_status": "Not Planned"
   }
  },
  {
   "type": "Feature",
   "geometry": {
    "type": "Point",
    "coordinates": [
     153.26750226,
     -28.04008258
    ]
   },
   "properties": {
    "name": "618 NERANG - MURWILLUMBAH ROAD ADVANCETOWN 4211",
    "locID": "LOC000104772963",
    "tech": "NULL",
    "upgrade": "NULL_NA",
    "gnaf_pid": "GAQLD161253302",
    "tech_change_status": "Not Planned"
   }
  },
  {
   "type": "Feature",
   "geometry": {
    "type": "Point",
    "coordinates": [
     153.26658767,
     -28.03461399
    ]
   },
   "properties": {
    "name": "78 NARROWLEAF ROAD ADVANCETOWN 4211",
    "locID": "LOC000074055028",
    "tech": "SATELLITE",
    "upgrade": "NULL_NA",
    "gnaf_pid": "GAQLD162053196",
    "tech_change_status": "Not Planned"
   }
  },
  {
   "type": "Feature",
   "geometry": {
    "type": "Point",
    "coordinates": [
     153.27852273,
     -28.02431667
    ]
   },
   "properties": {
    "name": "17 PARKWAY DRIVE ADVANCETOWN 4211",
    "locID": "LOC000085754938",
    "tech": "NULL",
    "upgrade": "NULL_NA",
    "gnaf_pid": "GAQLD162092333",
    "tech_change_status": "Not Planned"
   }
  },
  {
   "type": "Feature",
   "geometry": {
    "type": "Point",
    "coordinates": [
     153.28940522,
     -28.00692672
    ]
   },
   "properties": {
    "name": "550 CLAGIRABA ROAD ADVANCETOWN 4211",
    "locID": "LOC000127173341",
    "tech": "FTTP",
    "upgrade": "NULL_NA",
    "gnaf_pid": "GAQLD425036694"
   }
  },
  {
   "type": "Feature",
   "geometry": {
    "type": "Point",
    "coordinates": [
     153.28798994,
     -28.01311137
    ]
   },
   "properties": {
    "name": "10 GOLDMINE COURT ADVANCETOWN 4211",
    "locID": "LOC000127159536",
    "tech": "FTTP",
    "upgrade": "NULL_NA",
    "gnaf_pid": "GAQLD425037605"
   }
  },
  {
   "type": "Feature",
   "geometry": {
    "type": "Point",
    "coordinates": [
     153.28754119,
     -28.01365134
    ]
   },
   "properties": {
    "name": "16 GOLDMINE COURT ADVANCETOWN 4211",
    "locID": "LOC000127199118",
    "tech": "FTTP",
    "upgrade": "NULL_NA",
    "gnaf_pid": "GAQLD425037606"
   }
  },
  {
   "type": "Feature",
   "geometry": {
    "type": "Point",
    "coordinates": [
     153.28692895,
     -28.01418253
    ]
   },
   "properties": {
    "name": "22 GOLDMINE COURT ADVANCETOWN 4211",
    "locID": "LOC000127192651",
    "tech": "FTTP",
    "upgrade": "NULL_NA",
    "gnaf_pid": "GAQLD425037608"
   }
  },
  {
   "type": "Feature",
   "geometry": {
    "type": "Point",
    "coordinates": [
     153.2864235,
     -28.01500069
    ]
   },
   "properties": {
    "name": "26 GOLDMINE COURT ADVANCETOWN 4211",
    "locID": "LOC000127205957",
    "tech": "FTTP",
    "upgrade": "NULL_NA",
    "gnaf_pid": "GAQLD425037609"
   }
  },
  {
   "type": "Feature",
   "geometry": {
    "type": "Point",
    "coordinates": [
     153.28547743,
     -28.01483565
    ]
   },
   "properties": {
    "name": "30 GOLDMINE COURT ADVANCETOWN 4211",
    "locID": "LOC000127166588",
    "tech": "FTTC",
    "upgrade": "FTTP",
    "gnaf_pid": "GAQLD425037610",
    "tech_change_status": "Eligible to Order"
   }
  },
  {
   "type": "Feature",
   "geometry": {
    "type": "Point",
    "coordinates": [
     153.28495738,
     -28.014096
    ]
   },
   "properties": {
    "name": "3 GOLDMINE COURT ADVANCETOWN 4211",
    "locID": "LOC000127163392",
    "tech": "FTTP",
    "upgrade": "NULL_NA",
    "gnaf_pid": "GAQLD425037611",
    "tech_change_status": "Eligible to Order"
   }
  },
  {
   "type": "Feature",
   "geometry": {
    "type": "Point",
    "coordinates": [
     153.28837427,
     -28.01249574
    ]
   },
   "properties": {
    "name": "4 GOLDMINE COURT ADVANCETOWN 4211",
    "locID": "LOC000127189858",
    "tech": "FTTP",
    "upgrade": "NULL_NA",
    "gnaf_pid": "GAQLD425037612",
    "tech_change_status": "Eligible to Order"
   }
  },
  {
   "type": "Feature",
   "geometry": {
    "type": "Point",
    "coordinates": [
     153.28996195,
     -28.01254307
    ]
   },
   "properties": {
    "name": "40 HIDDEN WOODS DRIVE ADVANCETOWN 4211",
    "locID": "LOC000127192916",
    "tech": "FTTP",
    "upgrade": "NULL_NA",
    "gnaf_pid": "GAQLD425037939",
    "tech_change_status": "Eligible to Order"
   }
  },
  {
   "type": "Feature",
   "geometry": {
    "type": "Point",
    "coordinates": [
     153.28901437,
     -28.01320183
    ]
   },
   "properties": {
    "name": "41 HIDDEN WOODS DRIVE ADVANCETOWN 4211",
    "locID": "LOC000127196151",
    "tech": "FTTP",
    "upgrade": "NULL_NA",
    "gnaf_pid": "GAQLD425037940"
   }
  },
  {
   "type": "Feature",
   "geometry": {
    "type": "Point",
    "coordinates": [
     153.28976664,
     -28.01367587
    ]
   },
   "properties": {
    "name": "51 HIDDEN WOODS DRIVE ADVANCETOWN 4211",
    "locID": "LOC000127166664",
    "tech": "FTTP",
    "upgrade": "NULL_NA",
    "gnaf_pid": "GAQLD425037941"
   }
  },
  {
   "type": "Feature",
   "geometry": {
    "type": "Point",
    "coordinates": [
     153.29034312,
     -28.01418906
    ]
   },
   "properties": {
    "name": "61 HIDDEN WOODS DRIVE ADVANCETOWN 4211",
    "locID": "LOC000127183329",
    "tech": "FTTP",
    "upgrade": "NULL_NA",
    "gnaf_pid": "GAQLD425037942",
    "tech_change_status": "Eligible to Order"
   }
  },
  {
   "type": "Feature",
   "geometry": {
    "type": "Point",
    "coordinates": [
     153.2921226,
     -28.01529706
    ]
   },
   "properties": {
    "name": "64 HIDDEN WOODS DRIVE ADVANCETOWN 4211",
    "locID": "LOC000127186625",
    "tech": "FTTP",
    "upgrade": "NULL_NA",
    "gnaf_pid": "GAQLD425037943"
   }
  },
  {
   "type": "Feature",
   "geometry": {
    "type": "Point",
    "coordinates": [
     153.29082842,
     -28.01464096
    ]
   },
   "properties": {
    "name": "65 HIDDEN WOODS DRIVE ADVANCETOWN 4211",
    "locID": "LOC000127186687",
    "tech": "FTTP",
    "upgrade": "NULL_NA",
    "gnaf_pid": "GAQLD425037944",
    "tech_change_status": "Eligible to Order"
   }
  },
  {
   "type": "Feature",
   "geometry": {
    "type": "Point",
    "coordinates": [
     153.290603,
     -28.01530787
    ]
   },
   "properties": {
    "name": "14 MIANDETTA DRIVE ADVANCETOWN 4211",
    "locID": "LOC000127192153",
    "tech": "FTTP",
    "upgrade": "NULL_NA",
    "gnaf_pid": "GAQLD425039037",
    "tech_change_status": "Eligible to Order"
   }
  },
  {
   "type": "Feature",
   "geometry": {
    "type": "Point",
    "coordinates": [
     153.29269477,
     -28.00321941
    ]
   },
   "properties": {
    "name": "78 NERANG - MURWILLUMBAH ROAD ADVANCETOWN 4211",
    "locID": "LOC000127203173",
    "tech": "FTTP",
    "upgrade": "NULL_NA",
    "gnaf_pid": "GAQLD425039328"
   }
  },
  {
   "type": "Feature",
   "geometry": {
    "type": "Point",
    "coordinates": [
     153.28892715,
     -28.0857847
    ]
   },
   "properties": {
    "name": "949 GILSTON ROAD ADVANCETOWN 4211",
    "locID": "LOC000150755966",
    "tech": "NULL",
    "upgrade": "NULL_NA",
    "gnaf_pid": "GAQLD425588793",
    "tech_change_status": "Not Planned"
   }
  },
  {
   "type": "Feature",
   "geometry": {
    "type": "Point",
    "coordinates": [
     153.2888014,
     -28.01386496
    ]
   },
   "properties": {
    "name": "LOT 52 BRUSHTAIL CLOSE ADVANCETOWN 4211",
    "locID": "LOC000186558656",
    "tech": "FTTP",
    "upgrade": "NULL_NA",
    "gnaf_pid": "GAQLD425747042",
    "tech_change_status": "Eligible to Order"
   }
  },
  {
   "type": "Feature",
   "geometry": {
    "type": "Point",
    "coordinates": [
     153.2884305,
     -28.01420785
    ]
   },
   "properties": {
    "name": "LOT 53 BRUSHTAIL CLOSE ADVANCETOWN 4211",
    "locID": "LOC000186558660",
    "tech": "FTTP",
    "upgrade": "NULL_NA",
    "gnaf_pid": "GAQLD425747043"
   }
  },
  {
   "type": "Feature",
   "geometry": {
    "type": "Point",
    "coordinates": [
     153.28818104,
     -28.01461536
    ]
   },
   "properties": {
    "name": "LOT 54 BRUSHTAIL CLOSE ADVANCETOWN 4211",
    "locID": "LOC100071924794",
    "tech": "FTTP",
    "upgrade": "NULL_NA",
    "gnaf_pid": "GAQLD425747044"
   }
  },
  {
   "type": "Feature",
   "geometry": {
    "type": "Point",
    "coordinates": [
     153.28927647,
     -28.01059014
    ]
   },
   "properties": {
    "name": "LOT 803 HIDDEN WOODS DRIVE ADVANCETOWN 4211",
    "locID": "LOC000127192916",
    "tech": "FTTP",
    "upgrade": "NULL_NA",
    "gnaf_pid": "GAQLD425750708",
    "tech_change_status": "Eligible to Order"
   }
  },
  {
   "type": "Feature",
   "geometry": {
    "type": "Point",
    "coordinates": [
     153.28946636,
     -28.01491524
    ]
   },
   "properties": {
    "name": "2 MIANDETTA DRIVE ADVANCETOWN 4211",
    "locID": "LOC000186558639",
    "tech": "FTTP",
    "upgrade": "NULL_NA",
    "gnaf_pid": "GAQLD425752338"
   }
  },
  {
   "type": "Feature",
   "geometry": {
    "type": "Point",
    "coordinates": [
     153.28768465,
     -28.00929905
    ]
   },
   "properties": {
    "name": "15 WHIPTAIL PLACE ADVANCETOWN 4211",
    "locID": "LOC100071924787",
    "tech": "FTTC",
    "upgrade": "FTTP_SA",
    "gnaf_pid": "GAQLD425755989",
    "tech_change_status": "Eligible to Order"
   }
  },
  {
   "type": "Feature",
   "geometry": {
    "type": "Point",
    "coordinates": [
     153.28825402,
     -28.00927273
    ]
   },
   "properties": {
    "name": "23 WHIPTAIL PLACE ADVANCETOWN 4211",
    "locID": "LOC100071924718",
    "tech": "FTTC",
    "upgrade": "FTTP_SA",
    "gnaf_pid": "GAQLD425755990",
    "tech_change_status": "Eligible to Order"
   }
  },
  {
   "type": "Feature",
   "geometry": {
    "type": "Point",
    "coordinates": [
     153.28875506,
     -28.00916828
    ]
   },
   "properties": {
    "name": "39 WHIPTAIL PLACE ADVANCETOWN 4211",
    "locID": "LOC100071924699",
    "tech": "FTTP",
    "upgrade": "NULL_NA",
    "gnaf_pid": "GAQLD425755991",
    "tech_change_status": "Eligible to Order"
   }
  },
  {
   "type": "Feature",
   "geometry": {
    "type": "Point",
    "coordinates": [
     153.28708741,
     -28.0100773
    ]
   },
   "properties": {
    "name": "3 WHIPTAIL PLACE ADVANCETOWN 4211",
    "locID": "LOC100071924773",
    "tech": "FTTP",
    "upgrade": "NULL_NA",
    "gnaf_pid": "GAQLD425755992"
   }
  },
  {
   "type": "Feature",
   "geometry": {
    "type": "Point",
    "coordinates": [
     153.28946614,
     -28.00912302
    ]
   },
   "properties": {
    "name": "43 WHIPTAIL PLACE ADVANCETOWN 4211",
    "locID": "LOC000193228090",
    "tech": "FTTP",
    "upgrade": "NULL_NA",
    "gnaf_pid": "GAQLD425755993"
   }
  },
  {
   "type": "Feature",
   "geometry": {
    "type": "Point",
    "coordinates": [
     153.28923821,
     -28.0085761
    ]
   },
   "properties": {
    "name": "45 WHIPTAIL PLACE ADVANCETOWN 4211",
    "locID": "LOC100071924681",
    "tech": "FTTP",
    "upgrade": "NULL_NA",
    "gnaf_pid": "GAQLD425755994"
   }
  },
  {
   "type": "Feature",
   "geometry": {
    "type": "Point",
    "coordinates": [
     153.28977584,
     -28.00853487
    ]
   },
   "properties": {
    "name": "51 WHIPTAIL PLACE ADVANCETOWN 4211",
    "locID": "LOC100074564981",
    "tech": "FTTP",
    "upgrade": "NULL_NA",
    "gnaf_pid": "GAQLD425755995"
   }
  },
  {
   "type": "Feature",
   "geometry": {
    "type": "Point",
    "coordinates": [
     153.29082656,
     -28.00765964
    ]
   },
   "properties": {
    "name": "63 WHIPTAIL PLACE ADVANCETOWN 4211",
    "locID": "LOC100074564999",
    "tech": "FTTP",
    "upgrade": "NULL_NA",
    "gnaf_pid": "GAQLD425755996",
    "tech_change_status": "Eligible to Order"
   }
  },
  {
   "type": "Feature",
   "geometry": {
    "type": "Point",
    "coordinates": [
     153.29128837,
     -28.00791867
    ]
   },
   "properties": {
    "name": "71 WHIPTAIL PLACE ADVANCETOWN 4211",
    "locID": "LOC100071924675",
    "tech": "FTTP",
    "upgrade": "NULL_NA",
    "gnaf_pid": "GAQLD425755998",
    "tech_change_status": "Eligible to Order"
   }
  },
  {
   "type": "Feature",
   "geometry": {
    "type": "Point",
    "coordinates": [
     153.29176449,
     -28.00684214
    ]
   },
   "properties": {
    "name": "76 WHIPTAIL PLACE ADVANCETOWN 4211",
    "locID": "LOC000186908655",
    "tech": "FTTP",
    "upgrade": "NULL_NA",
    "gnaf_pid": "GAQLD425755999"
   }
  },
  {
   "type": "Feature",
   "geometry": {
    "type": "Point",
    "coordinates": [
     153.29173363,
     -28.00813318
    ]
   },
   "properties": {
    "name": "77 WHIPTAIL PLACE ADVANCETOWN 4211",
    "locID": "LOC100074565001",
    "tech": "FTTP",
    "upgrade": "NULL_NA",
    "gnaf_pid": "GAQLD425756000"
   }
  },
  {
   "type": "Feature",
   "geometry": {
    "type": "Point",
    "coordinates": [
     153.29198299,
     -28.00619779
    ]
   },
   "properties": {
    "name": "82 WHIPTAIL PLACE ADVANCETOWN 4211",
    "locID": "LOC100071924652",
    "tech": "FTTP",
    "upgrade": "NULL_NA",
    "gnaf_pid": "GAQLD425756001",
    "tech_change_status": "Eligible to Order"
   }
  },
  {
   "type": "Feature",
   "geometry": {
    "type": "Point",
    "coordinates": [
     153.2873465,
     -28.00968985
    ]
   },
   "properties": {
    "name": "9 WHIPTAIL PLACE ADVANCETOWN 4211",
    "locID": "LOC100074564975",
    "tech": "FTTP",
    "upgrade": "NULL_NA",
    "gnaf_pid": "GAQLD425756002",
    "tech_change_status": "Eligible to Order"
   }
  },
  {
   "type": "Feature",
   "geometry": {
    "type": "Point",
    "coordinates": [
     153.29350574,
     -28.00426531
    ]
   },
   "properties": {
    "name": "112 WHIPTAIL PLACE ADVANCETOWN 4211",
    "locID": "LOC000195079313",
    "tech": "FTTP",
    "upgrade": "NULL_NA",
    "gnaf_pid": "GAQLD719066604"
   }
  },
  {
   "type": "Feature",
   "geometry": {
    "type": "Point",
    "coordinates": [
     153.29372956,
     -28.00683405
    ]
   },
   "properties": {
    "name": "89 WHIPTAIL PLACE ADVANCETOWN 4211",
    "locID": "LOC100074566754",
    "tech": "FTTC",
    "upgrade": "FTTP_SA",
    "gnaf_pid": "GAQLD719067319",
    "tech_change_status": "Eligible to Order"
   }
  },
  {
   "type": "Feature",
   "geometry": {
    "type": "Point",
    "coordinates": [
     153.29397804,
     -28.00407386
    ]
   },
   "properties": {
    "name": "116 WHIPTAIL PLACE ADVANCETOWN 4211",
    "locID": "LOC100071924597",
    "tech": "FTTP",
    "upgrade": "NULL_NA",
    "gnaf_pid": "GAQLD719067488"
   }
  },
  {
   "type": "Feature",
   "geometry": {
    "type": "Point",
    "coordinates": [
     153.2950771,
     -28.00604966
    ]
   },
   "properties": {
    "name": "111 WHIPTAIL PLACE ADVANCETOWN 4211",
    "locID": "LOC000188659520",
    "tech": "FTTP",
    "upgrade": "NULL_NA",
    "gnaf_pid": "GAQLD719068052"
   }
  },
  {
   "type": "Feature",
   "geometry": {
    "type": "Point",
    "coordinates": [
     153.29598466,
     -28.00351439
    ]
   },
   "properties": {
    "name": "126 WHIPTAIL PLACE ADVANCETOWN 4211",
    "locID": "LOC100074566834",
    "tech": "FTTP",
    "upgrade": "NULL_NA",
    "gnaf_pid": "GAQLD719068290"
   }
  },
  {
   "type": "Feature",
   "geometry": {
    "type": "Point",
    "coordinates": [
     153.29311137,
     -28.00454473
    ]
   },
   "properties": {
    "name": "108 WHIPTAIL PLACE ADVANCETOWN 4211",
    "locID": "LOC100071924584",
    "tech": "FTTP",
    "upgrade": "NULL_NA",
    "gnaf_pid": "GAQLD719068585"
   }
  },
  {
   "type": "Feature",
   "geometry": {
    "type": "Point",
    "coordinates": [
     153.29255289,
     -28.00537803
    ]
   },
   "properties": {
    "name": "98 WHIPTAIL PLACE ADVANCETOWN 4211",
    "locID": "LOC100074566765",
    "tech": "FTTP",
    "upgrade": "NULL_NA",
    "gnaf_pid": "GAQLD719068605"
   }
  },
  {
   "type": "Feature",
   "geometry": {
    "type": "Point",
    "coordinates": [
     153.29272268,
     -28.00485456
    ]
   },
   "properties": {
    "name": "104 WHIPTAIL PLACE ADVANCETOWN 4211",
    "locID": "LOC100071924606",
    "tech": "FTTP",
    "upgrade": "NULL_NA",
    "gnaf_pid": "GAQLD719069045"
   }
  },
  {
   "type": "Feature",
   "geometry": {
    "type": "Point",
    "coordinates": [
     153.2950868,
     -28.00495198
    ]
   },
   "properties": {
    "name": "121 WHIPTAIL PLACE ADVANCETOWN 4211",
    "locID": "LOC100074566806",
    "tech": "FTTP",
    "upgrade": "NULL_NA",
    "gnaf_pid": "GAQLD719069317",
    "tech_change_status": "Previous Tech Disconnected"
   }
  },
  {
   "type": "Feature",
   "geometry": {
    "type": "Point",
    "coordinates": [
     153.29451155,
     -28.00513196
    ]
   },
   "properties": {
    "name": "117 WHIPTAIL PLACE ADVANCETOWN 4211",
    "locID": "LOC100071924610",
    "tech": "FTTP",
    "upgrade": "NULL_NA",
    "gnaf_pid": "GAQLD719069350"
   }
  },
  {
   "type": "Feature",
   "geometry": {
    "type": "Point",
    "coordinates": [
     153.29356529,
     -28.00554441
    ]
   },
   "properties": {
    "name": "99 WHIPTAIL PLACE ADVANCETOWN 4211",
    "locID": "LOC100071924634",
    "tech": "FTTP",
    "upgrade": "NULL_NA",
    "gnaf_pid": "GAQLD719069351",
    "tech_change_status": "Eligible to Order"
   }
  },
  {
   "type": "Feature",
   "geometry": {
    "type": "Point",
    "coordinates": [
     153.29387867,
     -28.00624487
    ]
   },
   "properties": {
    "name": "95 WHIPTAIL PLACE ADVANCETOWN 4211",
    "locID": "LOC100074566777",
    "tech": "FTTP",
    "upgrade": "NULL_NA",
    "gnaf_pid": "GAQLD719070118"
   }
  },
  {
   "type": "Feature",
   "geometry": {
    "type": "Point",
    "coordinates": [
     153.295214,
     -28.00369917
    ]
   },
   "properties": {
    "name": "124 WHIPTAIL PLACE ADVANCETOWN 4211",
    "locID": "LOC100071924578",
    "tech": "FTTC",
    "upgrade": "FTTP_SA",
    "gnaf_pid": "GAQLD719070542",
    "tech_change_status": "Eligible to Order"
   }
  },
  {
   "type": "Feature",
   "geometry": {
    "type": "Point",
    "coordinates": [
     153.29569298,
     -28.00453
    ]
   },
   "properties": {
    "name": "125 WHIPTAIL PLACE ADVANCETOWN 4211",
    "locID": "LOC100074566810",
    "tech": "FTTC",
    "upgrade": "FTTP_SA",
    "gnaf_pid": "GAQLD719070879",
    "tech_change_status": "Eligible to Order"
   }
  },
  {
   "type": "Feature",
   "geometry": {
    "type": "Point",
    "coordinates": [
     153.29411083,
     -28.00530595
    ]
   },
   "properties": {
    "name": "113 WHIPTAIL PLACE ADVANCETOWN 4211",
    "locID": "LOC100074566783",
    "tech": "FTTP",
    "upgrade": "NULL_NA",
    "gnaf_pid": "GAQLD719071350"
   }
  },
  {
   "type": "Feature",
   "geometry": {
    "type": "Point",
    "coordinates": [
     153.29445002,
     -28.00389584
    ]
   },
   "properties": {
    "name": "120 WHIPTAIL PLACE ADVANCETOWN 4211",
    "locID": "LOC100074566796",
    "tech": "FTTP",
    "upgrade": "NULL_NA",
    "gnaf_pid": "GAQLD719071868"
   }
  },
  {
   "type": "Feature",
   "geometry": {
    "type": "Point",
    "coordinates": [
     153.28047496,
     -28.03892907
    ]
   },
   "properties": {
    "name": "1 ADVANCETOWN ROAD ADVANCETOWN 4211",
    "locID": "LOC000030587176",
    "tech": "NULL",
    "upgrade": "NULL_NA",
    "gnaf_pid": "GAQLD719721304",
    "tech_change_status": "Not Planned"
   }
  },
  {
   "type": "Feature",
   "geometry": {
    "type": "Point",
    "coordinates": [
     153.28185559,
     -28.03252042
    ]
   },
   "properties": {
    "name": "UNIT E, 485 NERANG - MURWILLUMBAH ROAD ADVANCETOWN 4211",
    "locID": "LOC000014882204",
    "tech": "SATELLITE",
    "upgrade": "NULL_NA",
    "gnaf_pid": "GAQLD719896848",
    "tech_change_status": "Not Planned"
   }
  },
  {
   "type": "Feature",
   "geometry": {
    "type": "Point",
    "coordinates": [
     153.28185559,
     -28.03252042
    ]
   },
   "properties": {
    "name": "485A NERANG - MURWILLUMBAH ROAD ADVANCETOWN 4211",
    "locID": "LOC100090980707",
    "tech": "NULL",
    "upgrade": "NULL_NA",
    "gnaf_pid": "GAQLD720477608",
    "tech_change_status": "Not Planned"
   }
  },
  {
   "type": "Feature",
   "geometry": {
    "type": "Point",
    "coordinates": [
     153.29445685,
     -28.01506643
    ]
   },
   "properties": {
    "name": "9 HONEY TREE COURT ADVANCETOWN 4211",
    "locID": "LOC000187921492",
    "tech": "FTTP",
    "upgrade": "NULL_NA",
    "gnaf_pid": "GAQLD721425693"
   }
  },
  {
   "type": "Feature",
   "geometry": {
    "type": "Point",
    "coordinates": [
     153.29978611,
     -28.01701269
    ]
   },
   "properties": {
    "name": "66 MIANDETTA DRIVE ADVANCETOWN 4211",
    "locID": "LOC000187921588",
    "tech": "FTTP",
    "upgrade": "NULL_NA",
    "gnaf_pid": "GAQLD721425867"
   }
  },
  {
   "type": "Feature",
   "geometry": {
    "type": "Point",
    "coordinates": [
     153.29282551,
     -28.01543665
    ]
   },
   "properties": {
    "name": "30 MIANDETTA DRIVE ADVANCETOWN 4211",
    "locID": "LOC000187921444",
    "tech": "FTTP",
    "upgrade": "NULL_NA",
    "gnaf_pid": "GAQLD721427102"
   }
  },
  {
   "type": "Feature",
   "geometry": {
    "type": "Point",
    "coordinates": [
     153.29568592,
     -28.01634552
    ]
   },
   "properties": {
    "name": "46 MIANDETTA DRIVE ADVANCETOWN 4211",
    "locID": "LOC000187921561",
    "tech": "FTTP",
    "upgrade": "NULL_NA",
    "gnaf_pid": "GAQLD721427257"
   }
  },
  {
   "type": "Feature",
   "geometry": {
    "type": "Point",
    "coordinates": [
     153.29297829,
     -28.01503793
    ]
   },
   "properties": {
    "name": "6 HONEY TREE COURT ADVANCETOWN 4211",
    "locID": "LOC000187921485",
    "tech": "FTTP",
    "upgrade": "NULL_NA",
    "gnaf_pid": "GAQLD721427754"
   }
  },
  {
   "type": "Feature",
   "geometry": {
    "type": "Point",
    "coordinates": [
     153.30022441,
     -28.01765845
    ]
   },
   "properties": {
    "name": "88 MIANDETTA DRIVE ADVANCETOWN 4211",
    "locID": "LOC000187921617",
    "tech": "FTTP",
    "upgrade": "NULL_NA",
    "gnaf_pid": "GAQLD721427902"
   }
  },
  {
   "type": "Feature",
   "geometry": {
    "type": "Point",
    "coordinates": [
     153.29378245,
     -28.01435553
    ]
   },
   "properties": {
    "name": "14 HONEY TREE COURT ADVANCETOWN 4211",
    "locID": "LOC000187921471",
    "tech": "FTTP",
    "upgrade": "NULL_NA",
    "gnaf_pid": "GAQLD721427983"
   }
  },
  {
   "type": "Feature",
   "geometry": {
    "type": "Point",
    "coordinates": [
     153.29096139,
     -28.00479335
    ]
   },
   "properties": {
    "name": "LOT 1 NERANG - MURWILLUMBAH ROAD ADVANCETOWN 4211",
    "locID": "LOC000054721288",
    "tech": "NULL",
    "upgrade": "NULL_NA",
    "gnaf_pid": "GAQLD721428089",
    "tech_change_status": "Not Planned"
   }
  },
  {
   "type": "Feature",
   "geometry": {
    "type": "Point",
    "coordinates": [
     153.2932912,
     -28.01467007
    ]
   },
   "properties": {
    "name": "10 HONEY TREE COURT ADVANCETOWN 4211",
    "locID": "LOC000187921463",
    "tech": "FTTP",
    "upgrade": "NULL_NA",
    "gnaf_pid": "GAQLD721428479"
   }
  },
  {
   "type": "Feature",
   "geometry": {
    "type": "Point",
    "coordinates": [
     153.29378368,
     -28.01578555
    ]
   },
   "properties": {
    "name": "1 HONEY TREE COURT ADVANCETOWN 4211",
    "locID": "LOC000187921519",
    "tech": "FTTP",
    "upgrade": "NULL_NA",
    "gnaf_pid": "GAQLD721428988"
   }
  },
  {
   "type": "Feature",
   "geometry": {
    "type": "Point",
    "coordinates": [
     153.3014968,
     -28.01790686
    ]
   },
   "properties": {
    "name": "98 MIANDETTA DRIVE ADVANCETOWN 4211",
    "locID": "LOC000187921638",
    "tech": "FTTP",
    "upgrade": "NULL_NA",
    "gnaf_pid": "GAQLD721428989"
   }
  },
  {
   "type": "Feature",
   "geometry": {
    "type": "Point",
    "coordinates": [
     153.29411729,
     -28.01543601
    ]
   },
   "properties": {
    "name": "5 HONEY TREE COURT ADVANCETOWN 4211",
    "locID": "LOC000187921471",
    "tech": "FTTP",
    "upgrade": "NULL_NA",
    "gnaf_pid": "GAQLD721429308"
   }
  },
  {
   "type": "Feature",
   "geometry": {
    "type": "Point",
    "coordinates": [
     153.29633257,
     -28.0165481
    ]
   },
   "properties": {
    "name": "50 MIANDETTA DRIVE ADVANCETOWN 4211",
    "locID": "LOC000127192153",
    "tech": "FTTP",
    "upgrade": "NULL_NA",
    "gnaf_pid": "GAQLD721429432",
    "tech_change_status": "Eligible to Order"
   }
  },
  {
   "type": "Feature",
   "geometry": {
    "type": "Point",
    "coordinates": [
     153.3012886,
     -28.01987612
    ]
   },
   "properties": {
    "name": "116 MIANDETTA DRIVE ADVANCETOWN 4211",
    "locID": "LOC000187921664",
    "tech": "FTTP",
    "upgrade": "NULL_NA",
    "gnaf_pid": "GAQLD721429862"
   }
  },
  {
   "type": "Feature",
   "geometry": {
    "type": "Point",
    "coordinates": [
     153.30143466,
     -28.01917776
    ]
   },
   "properties": {
    "name": "108 MIANDETTA DRIVE ADVANCETOWN 4211",
    "locID": "LOC000187921655",
    "tech": "FTTP",
    "upgrade": "NULL_NA",
    "gnaf_pid": "GAQLD721429865"
   }
  },
  {
   "type": "Feature",
   "geometry": {
    "type": "Point",
    "coordinates": [
     153.3003918,
     -28.01862471
    ]
   },
   "properties": {
    "name": "123 MIANDETTA DRIVE ADVANCETOWN 4211",
    "locID": "LOC000187921686",
    "tech": "FTTP",
    "upgrade": "NULL_NA",
    "gnaf_pid": "GAQLD721429926"
   }
  },
  {
   "type": "Feature",
   "geometry": {
    "type": "Point",
    "coordinates": [
     153.29954354,
     -28.01755651
    ]
   },
   "properties": {
    "name": "80 MIANDETTA DRIVE ADVANCETOWN 4211",
    "locID": "LOC000187921601",
    "tech": "FTTP",
    "upgrade": "NULL_NA",
    "gnaf_pid": "GAQLD721430724"
   }
  },
  {
   "type": "Feature",
   "geometry": {
    "type": "Point",
    "coordinates": [
     153.29984291,
     -28.01854548
    ]
   },
   "properties": {
    "name": "119 MIANDETTA DRIVE ADVANCETOWN 4211",
    "locID": "LOC000187921693",
    "tech": "FTTP",
    "upgrade": "NULL_NA",
    "gnaf_pid": "GAQLD721430745"
   }
  },
  {
   "type": "Feature",
   "geometry": {
    "type": "Point",
    "coordinates": [
     153.29859281,
     -28.01814131
    ]
   },
   "properties": {
    "name": "101 MIANDETTA DRIVE ADVANCETOWN 4211",
    "locID": "LOC000187921714",
    "tech": "FTTP",
    "upgrade": "NULL_NA",
    "gnaf_pid": "GAQLD721430748"
   }
  },
  {
   "type": "Feature",
   "geometry": {
    "type": "Point",
    "coordinates": [
     153.2944279,
     -28.01463624
    ]
   },
   "properties": {
    "name": "13 HONEY TREE COURT ADVANCETOWN 4211",
    "locID": "LOC000187921485",
    "tech": "FTTP",
    "upgrade": "NULL_NA",
    "gnaf_pid": "GAQLD721430939"
   }
  },
  {
   "type": "Feature",
   "geometry": {
    "type": "Point",
    "coordinates": [
     153.29885785,
     -28.0173886
    ]
   },
   "properties": {
    "name": "74 MIANDETTA DRIVE ADVANCETOWN 4211",
    "locID": "LOC000187921664",
    "tech": "FTTP",
    "upgrade": "NULL_NA",
    "gnaf_pid": "GAQLD721431031"
   }
  },
  {
   "type": "Feature",
   "geometry": {
    "type": "Point",
    "coordinates": [
     153.30028671,
     -28.01929949
    ]
   },
   "properties": {
    "name": "135 MIANDETTA DRIVE ADVANCETOWN 4211",
    "locID": "LOC000187921672",
    "tech": "FTTP",
    "upgrade": "NULL_NA",
    "gnaf_pid": "GAQLD721431036"
   }
  },
  {
   "type": "Feature",
   "geometry": {
    "type": "Point",
    "coordinates": [
     153.30149906,
     -28.01848146
    ]
   },
   "properties": {
    "name": "102 MIANDETTA DRIVE ADVANCETOWN 4211",
    "locID": "LOC000187921640",
    "tech": "FTTP",
    "upgrade": "NULL_NA",
    "gnaf_pid": "GAQLD721431210"
   }
  },
  {
   "type": "Feature",
   "geometry": {
    "type": "Point",
    "coordinates": [
     153.29525977,
     -28.01535191
    ]
   },
   "properties": {
    "name": "10 GRAND COURT ADVANCETOWN 4211",
    "locID": "LOC000187921542",
    "tech": "FTTP",
    "upgrade": "NULL_NA",
    "gnaf_pid": "GAQLD721431266"
   }
  },
  {
   "type": "Feature",
   "geometry": {
    "type": "Point",
    "coordinates": [
     153.30088332,
     -28.01770259
    ]
   },
   "properties": {
    "name": "96 MIANDETTA DRIVE ADVANCETOWN 4211",
    "locID": "LOC000187921629",
    "tech": "FTTP",
    "upgrade": "NULL_NA",
    "gnaf_pid": "GAQLD721432238"
   }
  },
  {
   "type": "Feature",
   "geometry": {
    "type": "Point",
    "coordinates": [
     153.29626087,
     -28.01583022
    ]
   },
   "properties": {
    "name": "9 GRAND COURT ADVANCETOWN 4211",
    "locID": "LOC000187921557",
    "tech": "FTTP",
    "upgrade": "NULL_NA",
    "gnaf_pid": "GAQLD721432777"
   }
  },
  {
   "type": "Feature",
   "geometry": {
    "type": "Point",
    "coordinates": [
     153.29805229,
     -28.01718886
    ]
   },
   "properties": {
    "name": "68 MIANDETTA DRIVE ADVANCETOWN 4211",
    "locID": "LOC000187921601",
    "tech": "FTTP",
    "upgrade": "NULL_NA",
    "gnaf_pid": "GAQLD721433470"
   }
  },
  {
   "type": "Feature",
   "geometry": {
    "type": "Point",
    "coordinates": [
     153.29459357,
     -28.01615942
    ]
   },
   "properties": {
    "name": "40 MIANDETTA DRIVE ADVANCETOWN 4211",
    "locID": "LOC000187921526",
    "tech": "FTTP",
    "upgrade": "NULL_NA",
    "gnaf_pid": "GAQLD721434467"
   }
  },
  {
   "type": "Feature",
   "geometry": {
    "type": "Point",
    "coordinates": [
     153.29491376,
     -28.01579116
    ]
   },
   "properties": {
    "name": "6 GRAND COURT ADVANCETOWN 4211",
    "locID": "LOC000187921542",
    "tech": "FTTP",
    "upgrade": "NULL_NA",
    "gnaf_pid": "GAQLD721434557"
   }
  },
  {
   "type": "Feature",
   "geometry": {
    "type": "Point",
    "coordinates": [
     153.29933519,
     -28.01839999
    ]
   },
   "properties": {
    "name": "113 MIANDETTA DRIVE ADVANCETOWN 4211",
    "locID": "LOC000187921705",
    "tech": "FTTP",
    "upgrade": "NULL_NA",
    "gnaf_pid": "GAQLD721435181"
   }
  },
  {
   "type": "Feature",
   "geometry": {
    "type": "Point",
    "coordinates": [
     153.28750269,
     -28.0151838
    ]
   },
   "properties": {
    "name": "62 BRUSHTAIL CLOSE ADVANCETOWN 4211",
    "locID": "LOC000195081664",
    "tech": "FTTP",
    "upgrade": "NULL_NA",
    "gnaf_pid": "GAQLD721558117"
   }
  }
 ]
}