{
 "type": "FeatureCollection",
 "generated": "2025-02-21T04:23:05.879673",
 "suburb": "ALMADEN",
 "features": [
  {
   "type": "Feature",
   "geometry": {
    "type": "Point",
    "coordinates": [
     144.67986646,
     -17.33980115
    ]
   },
   "properties": {
    "name": "LOT 1 BURKE DEVELOPMENTAL ROAD ALMADEN 4871",
    "locID": "LOC000142316072",
    "tech": "SATELLITE",
    "upgrade": "NULL_NA",
    "gnaf_pid": "GAQLD154942213",
    "tech_change_status": "Not Planned"
   }
  },
  {
   "type": "Feature",
   "geometry": {
    "type": "Point",
    "coordinates": [
     144.68696208,
     -17.34346899
    ]
   },
   "properties": {
    "name": "LOT 41 BURKE DEVELOPMENTAL ROAD ALMADEN 4871",
    "locID": "LOC000142315127",
    "tech": "SATELLITE",
    "upgrade": "NULL_NA",
    "gnaf_pid": "GAQLD158943740",
    "tech_change_status": "Not Planned"
   }
  },
  {
   "type": "Feature",
   "geometry": {
    "type": "Point",
    "coordinates": [
     144.6807678,
     -17.34118983
    ]
   },
   "properties": {
    "name": "LOT 10 BURKE DEVELOPMENTAL ROAD ALMADEN 4871",
    "locID": "LOC100037445078",
    "tech": "NULL",
    "upgrade": "NULL_NA",
    "gnaf_pid": "GAQLD161087258",
    "tech_change_status": "Not Planned"
   }
  },
  {
   "type": "Feature",
   "geometry": {
    "type": "Point",
    "coordinates": [
     144.68086196,
     -17.34134625
    ]
   },
   "properties": {
    "name": "LOT 11 BURKE DEVELOPMENTAL ROAD ALMADEN 4871",
    "locID": "LOC000157491393",
    "tech": "SATELLITE",
    "upgrade": "NULL_NA",
    "gnaf_pid": "GAQLD161087259",
    "tech_change_status": "Not Planned"
   }
  },
  {
   "type": "Feature",
   "geometry": {
    "type": "Point",
    "coordinates": [
     144.67786086,
     -17.34118663
    ]
   },
   "properties": {
    "name": "LOT 9 BURKE DEVELOPMENTAL ROAD ALMADEN 4871",
    "locID": "LOC000157491393",
    "tech": "SATELLITE",
    "upgrade": "NULL_NA",
    "gnaf_pid": "GAQLD161087262",
    "tech_change_status": "Not Planned"
   }
  },
  {
   "type": "Feature",
   "geometry": {
    "type": "Point",
    "coordinates": [
     144.72552934,
     -17.37607048
    ]
   },
   "properties": {
    "name": "LOT 19 BURKE DEVELOPMENTAL ROAD ALMADEN 4871",
    "locID": "LOC000157491393",
    "tech": "SATELLITE",
    "upgrade": "NULL_NA",
    "gnaf_pid": "GAQLD161429134",
    "tech_change_status": "Not Planned"
   }
  },
  {
   "type": "Feature",
   "geometry": {
    "type": "Point",
    "coordinates": [
     144.7333985,
     -17.28735834
    ]
   },
   "properties": {
    "name": "LOT 4698 BURKE DEVELOPMENTAL ROAD ALMADEN 4871",
    "locID": "LOC000189068104",
    "tech": "WIRELESS",
    "upgrade": "NULL_NA",
    "gnaf_pid": "GAQLD161429136",
    "tech_change_status": "Not Planned",
    "program_type": "Fixed Wireless and Satellite Upgrade Program",
    "target_eligibility_quarter": "NA"
   }
  },
  {
   "type": "Feature",
   "geometry": {
    "type": "Point",
    "coordinates": [
     144.66596521,
     -17.34520297
    ]
   },
   "properties": {
    "name": "LOT 4 BURKE DEVELOPMENTAL ROAD ALMADEN 4871",
    "locID": "LOC000142316072",
    "tech": "SATELLITE",
    "upgrade": "NULL_NA",
    "gnaf_pid": "GAQLD161429137",
    "tech_change_status": "Not Planned"
   }
  },
  {
   "type": "Feature",
   "geometry": {
    "type": "Point",
    "coordinates": [
     144.6778938,
     -17.3364199
    ]
   },
   "properties": {
    "name": "LOT 8 BURKE DEVELOPMENTAL ROAD ALMADEN 4871",
    "locID": "LOC000157491393",
    "tech": "SATELLITE",
    "upgrade": "NULL_NA",
    "gnaf_pid": "GAQLD161429140",
    "tech_change_status": "Not Planned"
   }
  },
  {
   "type": "Feature",
   "geometry": {
    "type": "Point",
    "coordinates": [
     144.6785121,
     -17.33841686
    ]
   },
   "properties": {
    "name": "1 MAIN STREET ALMADEN 4871",
    "locID": "LOC100071886508",
    "tech": "SATELLITE",
    "upgrade": "NULL_NA",
    "gnaf_pid": "GAQLD161661976",
    "tech_change_status": "Not Planned"
   }
  },
  {
   "type": "Feature",
   "geometry": {
    "type": "Point",
    "coordinates": [
     144.77249402,
     -17.3775734
    ]
   },
   "properties": {
    "name": "LOT 14 BURKE DEVELOPMENTAL ROAD ALMADEN 4871",
    "locID": "LOC000157491393",
    "tech": "SATELLITE",
    "upgrade": "NULL_NA",
    "gnaf_pid": "GAQLD162014600",
    "tech_change_status": "Not Planned"
   }
  },
  {
   "type": "Feature",
   "geometry": {
    "type": "Point",
    "coordinates": [
     144.6785121,
     -17.33841686
    ]
   },
   "properties": {
    "name": "13 MAIN STREET ALMADEN 4871",
    "locID": "LOC000025921665",
    "tech": "SATELLITE",
    "upgrade": "NULL_NA",
    "gnaf_pid": "GAQLD162089683",
    "tech_change_status": "Not Planned"
   }
  },
  {
   "type": "Feature",
   "geometry": {
    "type": "Point",
    "coordinates": [
     144.67975747,
     -17.33909406
    ]
   },
   "properties": {
    "name": "4 MAIN STREET ALMADEN 4871",
    "locID": "LOC000025921665",
    "tech": "SATELLITE",
    "upgrade": "NULL_NA",
    "gnaf_pid": "GAQLD162089684",
    "tech_change_status": "Not Planned"
   }
  },
  {
   "type": "Feature",
   "geometry": {
    "type": "Point",
    "coordinates": [
     144.6785121,
     -17.33841686
    ]
   },
   "properties": {
    "name": "LOT 445 MAIN STREET ALMADEN 4871",
    "locID": "LOC000025921665",
    "tech": "SATELLITE",
    "upgrade": "NULL_NA",
    "gnaf_pid": "GAQLD163353671",
    "tech_change_status": "Not Planned"
   }
  },
  {
   "type": "Feature",
   "geometry": {
    "type": "Point",
    "coordinates": [
     144.64034883,
     -17.41401152
    ]
   },
   "properties": {
    "name": "LOT 5154 OOTANN ROAD ALMADEN 4871",
    "locID": "LOC000176457305",
    "tech": "SATELLITE",
    "upgrade": "NULL_NA",
    "gnaf_pid": "GAQLD424861145",
    "tech_change_status": "Not Planned"
   }
  },
  {
   "type": "Feature",
   "geometry": {
    "type": "Point",
    "coordinates": [
     144.67826734,
     -17.33952836
    ]
   },
   "properties": {
    "name": "59975 BURKE DEVELOPMENTAL ROAD ALMADEN 4871",
    "locID": "LOC100037445078",
    "tech": "NULL",
    "upgrade": "NULL_NA",
    "gnaf_pid": "GAQLD425406073",
    "tech_change_status": "Not Planned"
   }
  },
  {
   "type": "Feature",
   "geometry": {
    "type": "Point",
    "coordinates": [
     144.67698832,
     -17.33975541
    ]
   },
   "properties": {
    "name": "14 HALL LANE ALMADEN 4871",
    "locID": "LOC100077998411",
    "tech": "NULL",
    "upgrade": "NULL_NA",
    "gnaf_pid": "GAQLD425552387",
    "tech_change_status": "Not Planned"
   }
  },
  {
   "type": "Feature",
   "geometry": {
    "type": "Point",
    "coordinates": [
     144.67739668,
     -17.33941627
    ]
   },
   "properties": {
    "name": "59970 BURKE DEVELOPMENTAL ROAD ALMADEN 4871",
    "locID": "LOC100071886512",
    "tech": "NULL",
    "upgrade": "NULL_NA",
    "gnaf_pid": "GAQLD425586233",
    "tech_change_status": "Not Planned"
   }
  },
  {
   "type": "Feature",
   "geometry": {
    "type": "Point",
    "coordinates": [
     144.67788296,
     -17.34026802
    ]
   },
   "properties": {
    "name": "59978 BURKE DEVELOPMENTAL ROAD ALMADEN 4871",
    "locID": "LOC000150162426",
    "tech": "SATELLITE",
    "upgrade": "NULL_NA",
    "gnaf_pid": "GAQLD425586234",
    "tech_change_status": "Not Planned"
   }
  },
  {
   "type": "Feature",
   "geometry": {
    "type": "Point",
    "coordinates": [
     144.67948687,
     -17.3399656
    ]
   },
   "properties": {
    "name": "59992 BURKE DEVELOPMENTAL ROAD ALMADEN 4871",
    "locID": "LOC000145398546",
    "tech": "SATELLITE",
    "upgrade": "NULL_NA",
    "gnaf_pid": "GAQLD425586235",
    "tech_change_status": "Not Planned"
   }
  },
  {
   "type": "Feature",
   "geometry": {
    "type": "Point",
    "coordinates": [
     144.68126082,
     -17.34110786
    ]
   },
   "properties": {
    "name": "LOT 12 BURKE DEVELOPMENTAL ROAD ALMADEN 4871",
    "locID": "LOC000157491393",
    "tech": "SATELLITE",
    "upgrade": "NULL_NA",
    "gnaf_pid": "GAQLD425586236",
    "tech_change_status": "Not Planned"
   }
  },
  {
   "type": "Feature",
   "geometry": {
    "type": "Point",
    "coordinates": [
     144.68116671,
     -17.340951
    ]
   },
   "properties": {
    "name": "LOT 13 BURKE DEVELOPMENTAL ROAD ALMADEN 4871",
    "locID": "LOC000157491393",
    "tech": "SATELLITE",
    "upgrade": "NULL_NA",
    "gnaf_pid": "GAQLD425586237",
    "tech_change_status": "Not Planned"
   }
  },
  {
   "type": "Feature",
   "geometry": {
    "type": "Point",
    "coordinates": [
     144.6776308,
     -17.34186275
    ]
   },
   "properties": {
    "name": "LOT 15 BURKE DEVELOPMENTAL ROAD ALMADEN 4871",
    "locID": "LOC000157491393",
    "tech": "SATELLITE",
    "upgrade": "NULL_NA",
    "gnaf_pid": "GAQLD425586238",
    "tech_change_status": "Not Planned"
   }
  },
  {
   "type": "Feature",
   "geometry": {
    "type": "Point",
    "coordinates": [
     144.68086523,
     -17.34048865
    ]
   },
   "properties": {
    "name": "LOT 16 BURKE DEVELOPMENTAL ROAD ALMADEN 4871",
    "locID": "LOC000157491393",
    "tech": "SATELLITE",
    "upgrade": "NULL_NA",
    "gnaf_pid": "GAQLD425586239",
    "tech_change_status": "Not Planned"
   }
  },
  {
   "type": "Feature",
   "geometry": {
    "type": "Point",
    "coordinates": [
     144.67722036,
     -17.3415721
    ]
   },
   "properties": {
    "name": "LOT 17 BURKE DEVELOPMENTAL ROAD ALMADEN 4871",
    "locID": "LOC000157491393",
    "tech": "SATELLITE",
    "upgrade": "NULL_NA",
    "gnaf_pid": "GAQLD425586240",
    "tech_change_status": "Not Planned"
   }
  },
  {
   "type": "Feature",
   "geometry": {
    "type": "Point",
    "coordinates": [
     144.6768628,
     -17.3416222
    ]
   },
   "properties": {
    "name": "LOT 18 BURKE DEVELOPMENTAL ROAD ALMADEN 4871",
    "locID": "LOC000157491393",
    "tech": "SATELLITE",
    "upgrade": "NULL_NA",
    "gnaf_pid": "GAQLD425586241",
    "tech_change_status": "Not Planned"
   }
  },
  {
   "type": "Feature",
   "geometry": {
    "type": "Point",
    "coordinates": [
     144.68046325,
     -17.33987218
    ]
   },
   "properties": {
    "name": "LOT 20 BURKE DEVELOPMENTAL ROAD ALMADEN 4871",
    "locID": "LOC000157491393",
    "tech": "SATELLITE",
    "upgrade": "NULL_NA",
    "gnaf_pid": "GAQLD425586242",
    "tech_change_status": "Not Planned"
   }
  },
  {
   "type": "Feature",
   "geometry": {
    "type": "Point",
    "coordinates": [
     144.68036277,
     -17.33971806
    ]
   },
   "properties": {
    "name": "LOT 21 BURKE DEVELOPMENTAL ROAD ALMADEN 4871",
    "locID": "LOC000157491393",
    "tech": "SATELLITE",
    "upgrade": "NULL_NA",
    "gnaf_pid": "GAQLD425586243",
    "tech_change_status": "Not Planned"
   }
  },
  {
   "type": "Feature",
   "geometry": {
    "type": "Point",
    "coordinates": [
     144.6772631,
     -17.34224245
    ]
   },
   "properties": {
    "name": "LOT 22 BURKE DEVELOPMENTAL ROAD ALMADEN 4871",
    "locID": "LOC000157491393",
    "tech": "SATELLITE",
    "upgrade": "NULL_NA",
    "gnaf_pid": "GAQLD425586244",
    "tech_change_status": "Not Planned"
   }
  },
  {
   "type": "Feature",
   "geometry": {
    "type": "Point",
    "coordinates": [
     144.67656759,
     -17.34117302
    ]
   },
   "properties": {
    "name": "LOT 23 BURKE DEVELOPMENTAL ROAD ALMADEN 4871",
    "locID": "LOC000157491393",
    "tech": "SATELLITE",
    "upgrade": "NULL_NA",
    "gnaf_pid": "GAQLD425586245",
    "tech_change_status": "Not Planned"
   }
  },
  {
   "type": "Feature",
   "geometry": {
    "type": "Point",
    "coordinates": [
     144.67697476,
     -17.34093703
    ]
   },
   "properties": {
    "name": "LOT 24 BURKE DEVELOPMENTAL ROAD ALMADEN 4871",
    "locID": "LOC000157491393",
    "tech": "SATELLITE",
    "upgrade": "NULL_NA",
    "gnaf_pid": "GAQLD425586246",
    "tech_change_status": "Not Planned"
   }
  },
  {
   "type": "Feature",
   "geometry": {
    "type": "Point",
    "coordinates": [
     144.67658093,
     -17.34075171
    ]
   },
   "properties": {
    "name": "LOT 25 BURKE DEVELOPMENTAL ROAD ALMADEN 4871",
    "locID": "LOC000157491393",
    "tech": "SATELLITE",
    "upgrade": "NULL_NA",
    "gnaf_pid": "GAQLD425586247",
    "tech_change_status": "Not Planned"
   }
  },
  {
   "type": "Feature",
   "geometry": {
    "type": "Point",
    "coordinates": [
     144.55063814,
     -17.43964226
    ]
   },
   "properties": {
    "name": "LOT 262 BURKE DEVELOPMENTAL ROAD ALMADEN 4871",
    "locID": "LOC000189068104",
    "tech": "WIRELESS",
    "upgrade": "NULL_NA",
    "gnaf_pid": "GAQLD425586248",
    "tech_change_status": "Not Planned",
    "program_type": "Fixed Wireless and Satellite Upgrade Program",
    "target_eligibility_quarter": "NA"
   }
  },
  {
   "type": "Feature",
   "geometry": {
    "type": "Point",
    "coordinates": [
     144.67622609,
     -17.34064253
    ]
   },
   "properties": {
    "name": "LOT 26 BURKE DEVELOPMENTAL ROAD ALMADEN 4871",
    "locID": "LOC000157491393",
    "tech": "SATELLITE",
    "upgrade": "NULL_NA",
    "gnaf_pid": "GAQLD425586249",
    "tech_change_status": "Not Planned"
   }
  },
  {
   "type": "Feature",
   "geometry": {
    "type": "Point",
    "coordinates": [
     144.67662854,
     -17.34040214
    ]
   },
   "properties": {
    "name": "LOT 27 BURKE DEVELOPMENTAL ROAD ALMADEN 4871",
    "locID": "LOC000157491393",
    "tech": "SATELLITE",
    "upgrade": "NULL_NA",
    "gnaf_pid": "GAQLD425586250",
    "tech_change_status": "Not Planned"
   }
  },
  {
   "type": "Feature",
   "geometry": {
    "type": "Point",
    "coordinates": [
     144.67612722,
     -17.34048871
    ]
   },
   "properties": {
    "name": "LOT 28 BURKE DEVELOPMENTAL ROAD ALMADEN 4871",
    "locID": "LOC000157491393",
    "tech": "SATELLITE",
    "upgrade": "NULL_NA",
    "gnaf_pid": "GAQLD425586251",
    "tech_change_status": "Not Planned"
   }
  },
  {
   "type": "Feature",
   "geometry": {
    "type": "Point",
    "coordinates": [
     144.67652922,
     -17.34024861
    ]
   },
   "properties": {
    "name": "LOT 29 BURKE DEVELOPMENTAL ROAD ALMADEN 4871",
    "locID": "LOC000157491393",
    "tech": "SATELLITE",
    "upgrade": "NULL_NA",
    "gnaf_pid": "GAQLD425586252",
    "tech_change_status": "Not Planned"
   }
  },
  {
   "type": "Feature",
   "geometry": {
    "type": "Point",
    "coordinates": [
     144.6799632,
     -17.33995729
    ]
   },
   "properties": {
    "name": "LOT 2 BURKE DEVELOPMENTAL ROAD ALMADEN 4871",
    "locID": "LOC000157491393",
    "tech": "SATELLITE",
    "upgrade": "NULL_NA",
    "gnaf_pid": "GAQLD425586253",
    "tech_change_status": "Not Planned"
   }
  },
  {
   "type": "Feature",
   "geometry": {
    "type": "Point",
    "coordinates": [
     144.67600214,
     -17.34029441
    ]
   },
   "properties": {
    "name": "LOT 30 BURKE DEVELOPMENTAL ROAD ALMADEN 4871",
    "locID": "LOC000157491393",
    "tech": "SATELLITE",
    "upgrade": "NULL_NA",
    "gnaf_pid": "GAQLD425586254",
    "tech_change_status": "Not Planned"
   }
  },
  {
   "type": "Feature",
   "geometry": {
    "type": "Point",
    "coordinates": [
     144.67822002,
     -17.33639997
    ]
   },
   "properties": {
    "name": "LOT 31 BURKE DEVELOPMENTAL ROAD ALMADEN 4871",
    "locID": "LOC000157491393",
    "tech": "SATELLITE",
    "upgrade": "NULL_NA",
    "gnaf_pid": "GAQLD425586255",
    "tech_change_status": "Not Planned"
   }
  },
  {
   "type": "Feature",
   "geometry": {
    "type": "Point",
    "coordinates": [
     144.67463566,
     -17.40127444
    ]
   },
   "properties": {
    "name": "LOT 328 BURKE DEVELOPMENTAL ROAD ALMADEN 4871",
    "locID": "LOC000189068104",
    "tech": "WIRELESS",
    "upgrade": "NULL_NA",
    "gnaf_pid": "GAQLD425586256",
    "tech_change_status": "Not Planned",
    "program_type": "Fixed Wireless and Satellite Upgrade Program",
    "target_eligibility_quarter": "NA"
   }
  },
  {
   "type": "Feature",
   "geometry": {
    "type": "Point",
    "coordinates": [
     144.67812089,
     -17.33624738
    ]
   },
   "properties": {
    "name": "LOT 32 BURKE DEVELOPMENTAL ROAD ALMADEN 4871",
    "locID": "LOC000157491393",
    "tech": "SATELLITE",
    "upgrade": "NULL_NA",
    "gnaf_pid": "GAQLD425586257",
    "tech_change_status": "Not Planned"
   }
  },
  {
   "type": "Feature",
   "geometry": {
    "type": "Point",
    "coordinates": [
     144.67758459,
     -17.34044459
    ]
   },
   "properties": {
    "name": "LOT 33 BURKE DEVELOPMENTAL ROAD ALMADEN 4871",
    "locID": "LOC000157491393",
    "tech": "SATELLITE",
    "upgrade": "NULL_NA",
    "gnaf_pid": "GAQLD425586258",
    "tech_change_status": "Not Planned"
   }
  },
  {
   "type": "Feature",
   "geometry": {
    "type": "Point",
    "coordinates": [
     144.67985178,
     -17.33687378
    ]
   },
   "properties": {
    "name": "LOT 34 BURKE DEVELOPMENTAL ROAD ALMADEN 4871",
    "locID": "LOC000157491393",
    "tech": "SATELLITE",
    "upgrade": "NULL_NA",
    "gnaf_pid": "GAQLD425586259",
    "tech_change_status": "Not Planned"
   }
  },
  {
   "type": "Feature",
   "geometry": {
    "type": "Point",
    "coordinates": [
     144.68025401,
     -17.33662634
    ]
   },
   "properties": {
    "name": "LOT 35 BURKE DEVELOPMENTAL ROAD ALMADEN 4871",
    "locID": "LOC000157491393",
    "tech": "SATELLITE",
    "upgrade": "NULL_NA",
    "gnaf_pid": "GAQLD425586260",
    "tech_change_status": "Not Planned"
   }
  },
  {
   "type": "Feature",
   "geometry": {
    "type": "Point",
    "coordinates": [
     144.68065743,
     -17.33638817
    ]
   },
   "properties": {
    "name": "LOT 36 BURKE DEVELOPMENTAL ROAD ALMADEN 4871",
    "locID": "LOC000157491393",
    "tech": "SATELLITE",
    "upgrade": "NULL_NA",
    "gnaf_pid": "GAQLD425586261",
    "tech_change_status": "Not Planned"
   }
  },
  {
   "type": "Feature",
   "geometry": {
    "type": "Point",
    "coordinates": [
     144.67992979,
     -17.33741674
    ]
   },
   "properties": {
    "name": "LOT 37 BURKE DEVELOPMENTAL ROAD ALMADEN 4871",
    "locID": "LOC000157491393",
    "tech": "SATELLITE",
    "upgrade": "NULL_NA",
    "gnaf_pid": "GAQLD425586262",
    "tech_change_status": "Not Planned"
   }
  },
  {
   "type": "Feature",
   "geometry": {
    "type": "Point",
    "coordinates": [
     144.68013004,
     -17.33772497
    ]
   },
   "properties": {
    "name": "LOT 38 BURKE DEVELOPMENTAL ROAD ALMADEN 4871",
    "locID": "LOC000157491393",
    "tech": "SATELLITE",
    "upgrade": "NULL_NA",
    "gnaf_pid": "GAQLD425586263",
    "tech_change_status": "Not Planned"
   }
  },
  {
   "type": "Feature",
   "geometry": {
    "type": "Point",
    "coordinates": [
     144.6803303,
     -17.33803321
    ]
   },
   "properties": {
    "name": "LOT 39 BURKE DEVELOPMENTAL ROAD ALMADEN 4871",
    "locID": "LOC000157491393",
    "tech": "SATELLITE",
    "upgrade": "NULL_NA",
    "gnaf_pid": "GAQLD425586264",
    "tech_change_status": "Not Planned"
   }
  },
  {
   "type": "Feature",
   "geometry": {
    "type": "Point",
    "coordinates": [
     144.67951275,
     -17.33906268
    ]
   },
   "properties": {
    "name": "LOT 3 BURKE DEVELOPMENTAL ROAD ALMADEN 4871",
    "locID": "LOC000157491393",
    "tech": "SATELLITE",
    "upgrade": "NULL_NA",
    "gnaf_pid": "GAQLD425586265",
    "tech_change_status": "Not Planned"
   }
  },
  {
   "type": "Feature",
   "geometry": {
    "type": "Point",
    "coordinates": [
     144.68053056,
     -17.33834147
    ]
   },
   "properties": {
    "name": "LOT 40 BURKE DEVELOPMENTAL ROAD ALMADEN 4871",
    "locID": "LOC000157491393",
    "tech": "SATELLITE",
    "upgrade": "NULL_NA",
    "gnaf_pid": "GAQLD425586266",
    "tech_change_status": "Not Planned"
   }
  },
  {
   "type": "Feature",
   "geometry": {
    "type": "Point",
    "coordinates": [
     144.73046399,
     -17.42124004
    ]
   },
   "properties": {
    "name": "LOT 418 BURKE DEVELOPMENTAL ROAD ALMADEN 4871",
    "locID": "LOC000189068104",
    "tech": "WIRELESS",
    "upgrade": "NULL_NA",
    "gnaf_pid": "GAQLD425586267",
    "tech_change_status": "Not Planned",
    "program_type": "Fixed Wireless and Satellite Upgrade Program",
    "target_eligibility_quarter": "NA"
   }
  },
  {
   "type": "Feature",
   "geometry": {
    "type": "Point",
    "coordinates": [
     144.6815334,
     -17.33816698
    ]
   },
   "properties": {
    "name": "LOT 42 BURKE DEVELOPMENTAL ROAD ALMADEN 4871",
    "locID": "LOC000157491393",
    "tech": "SATELLITE",
    "upgrade": "NULL_NA",
    "gnaf_pid": "GAQLD425586268",
    "tech_change_status": "Not Planned"
   }
  },
  {
   "type": "Feature",
   "geometry": {
    "type": "Point",
    "coordinates": [
     144.68133368,
     -17.3378583
    ]
   },
   "properties": {
    "name": "LOT 43 BURKE DEVELOPMENTAL ROAD ALMADEN 4871",
    "locID": "LOC000157491393",
    "tech": "SATELLITE",
    "upgrade": "NULL_NA",
    "gnaf_pid": "GAQLD425586269",
    "tech_change_status": "Not Planned"
   }
  },
  {
   "type": "Feature",
   "geometry": {
    "type": "Point",
    "coordinates": [
     144.68113385,
     -17.33754968
    ]
   },
   "properties": {
    "name": "LOT 44 BURKE DEVELOPMENTAL ROAD ALMADEN 4871",
    "locID": "LOC000157491393",
    "tech": "SATELLITE",
    "upgrade": "NULL_NA",
    "gnaf_pid": "GAQLD425586270",
    "tech_change_status": "Not Planned"
   }
  },
  {
   "type": "Feature",
   "geometry": {
    "type": "Point",
    "coordinates": [
     144.68093406,
     -17.33724107
    ]
   },
   "properties": {
    "name": "LOT 45 BURKE DEVELOPMENTAL ROAD ALMADEN 4871",
    "locID": "LOC000157491393",
    "tech": "SATELLITE",
    "upgrade": "NULL_NA",
    "gnaf_pid": "GAQLD425586271",
    "tech_change_status": "Not Planned"
   }
  },
  {
   "type": "Feature",
   "geometry": {
    "type": "Point",
    "coordinates": [
     144.6807381,
     -17.33692791
    ]
   },
   "properties": {
    "name": "LOT 46 BURKE DEVELOPMENTAL ROAD ALMADEN 4871",
    "locID": "LOC000157491393",
    "tech": "SATELLITE",
    "upgrade": "NULL_NA",
    "gnaf_pid": "GAQLD425586272",
    "tech_change_status": "Not Planned"
   }
  },
  {
   "type": "Feature",
   "geometry": {
    "type": "Point",
    "coordinates": [
     144.67846688,
     -17.336786
    ]
   },
   "properties": {
    "name": "LOT 47 BURKE DEVELOPMENTAL ROAD ALMADEN 4871",
    "locID": "LOC000157491393",
    "tech": "SATELLITE",
    "upgrade": "NULL_NA",
    "gnaf_pid": "GAQLD425586273",
    "tech_change_status": "Not Planned"
   }
  },
  {
   "type": "Feature",
   "geometry": {
    "type": "Point",
    "coordinates": [
     144.68026492,
     -17.3404195
    ]
   },
   "properties": {
    "name": "LOT 5 BURKE DEVELOPMENTAL ROAD ALMADEN 4871",
    "locID": "LOC100037445078",
    "tech": "NULL",
    "upgrade": "NULL_NA",
    "gnaf_pid": "GAQLD425586274",
    "tech_change_status": "Not Planned"
   }
  },
  {
   "type": "Feature",
   "geometry": {
    "type": "Point",
    "coordinates": [
     144.67802235,
     -17.34109185
    ]
   },
   "properties": {
    "name": "LOT 6 BURKE DEVELOPMENTAL ROAD ALMADEN 4871",
    "locID": "LOC000157491393",
    "tech": "SATELLITE",
    "upgrade": "NULL_NA",
    "gnaf_pid": "GAQLD425586275",
    "tech_change_status": "Not Planned"
   }
  },
  {
   "type": "Feature",
   "geometry": {
    "type": "Point",
    "coordinates": [
     144.68046606,
     -17.34072762
    ]
   },
   "properties": {
    "name": "LOT 7 BURKE DEVELOPMENTAL ROAD ALMADEN 4871",
    "locID": "LOC000157491393",
    "tech": "SATELLITE",
    "upgrade": "NULL_NA",
    "gnaf_pid": "GAQLD425586276",
    "tech_change_status": "Not Planned"
   }
  },
  {
   "type": "Feature",
   "geometry": {
    "type": "Point",
    "coordinates": [
     144.67926118,
     -17.3384487
    ]
   },
   "properties": {
    "name": "14 MAIN STREET ALMADEN 4871",
    "locID": "LOC100071886508",
    "tech": "SATELLITE",
    "upgrade": "NULL_NA",
    "gnaf_pid": "GAQLD425591029",
    "tech_change_status": "Not Planned"
   }
  },
  {
   "type": "Feature",
   "geometry": {
    "type": "Point",
    "coordinates": [
     144.67844164,
     -17.33717711
    ]
   },
   "properties": {
    "name": "33 MAIN STREET ALMADEN 4871",
    "locID": "LOC000146340840",
    "tech": "SATELLITE",
    "upgrade": "NULL_NA",
    "gnaf_pid": "GAQLD425591032",
    "tech_change_status": "Not Planned"
   }
  },
  {
   "type": "Feature",
   "geometry": {
    "type": "Point",
    "coordinates": [
     144.61223993,
     -17.44928551
    ]
   },
   "properties": {
    "name": "LOT 101 OOTANN ROAD ALMADEN 4871",
    "locID": "LOC000176457305",
    "tech": "SATELLITE",
    "upgrade": "NULL_NA",
    "gnaf_pid": "GAQLD425592993",
    "tech_change_status": "Not Planned"
   }
  },
  {
   "type": "Feature",
   "geometry": {
    "type": "Point",
    "coordinates": [
     144.61205071,
     -17.44929011
    ]
   },
   "properties": {
    "name": "LOT 102 OOTANN ROAD ALMADEN 4871",
    "locID": "LOC000176457305",
    "tech": "SATELLITE",
    "upgrade": "NULL_NA",
    "gnaf_pid": "GAQLD425592994",
    "tech_change_status": "Not Planned"
   }
  },
  {
   "type": "Feature",
   "geometry": {
    "type": "Point",
    "coordinates": [
     144.61186147,
     -17.44929472
    ]
   },
   "properties": {
    "name": "LOT 103 OOTANN ROAD ALMADEN 4871",
    "locID": "LOC000176457305",
    "tech": "SATELLITE",
    "upgrade": "NULL_NA",
    "gnaf_pid": "GAQLD425592995",
    "tech_change_status": "Not Planned"
   }
  },
  {
   "type": "Feature",
   "geometry": {
    "type": "Point",
    "coordinates": [
     144.61167223,
     -17.44929931
    ]
   },
   "properties": {
    "name": "LOT 104 OOTANN ROAD ALMADEN 4871",
    "locID": "LOC000176457305",
    "tech": "SATELLITE",
    "upgrade": "NULL_NA",
    "gnaf_pid": "GAQLD425592996",
    "tech_change_status": "Not Planned"
   }
  },
  {
   "type": "Feature",
   "geometry": {
    "type": "Point",
    "coordinates": [
     144.61148299,
     -17.44930392
    ]
   },
   "properties": {
    "name": "LOT 105 OOTANN ROAD ALMADEN 4871",
    "locID": "LOC000176457305",
    "tech": "SATELLITE",
    "upgrade": "NULL_NA",
    "gnaf_pid": "GAQLD425592997",
    "tech_change_status": "Not Planned"
   }
  },
  {
   "type": "Feature",
   "geometry": {
    "type": "Point",
    "coordinates": [
     144.61129372,
     -17.44930853
    ]
   },
   "properties": {
    "name": "LOT 106 OOTANN ROAD ALMADEN 4871",
    "locID": "LOC000176457305",
    "tech": "SATELLITE",
    "upgrade": "NULL_NA",
    "gnaf_pid": "GAQLD425592998",
    "tech_change_status": "Not Planned"
   }
  },
  {
   "type": "Feature",
   "geometry": {
    "type": "Point",
    "coordinates": [
     144.61110449,
     -17.44931313
    ]
   },
   "properties": {
    "name": "LOT 107 OOTANN ROAD ALMADEN 4871",
    "locID": "LOC000176457305",
    "tech": "SATELLITE",
    "upgrade": "NULL_NA",
    "gnaf_pid": "GAQLD425592999",
    "tech_change_status": "Not Planned"
   }
  },
  {
   "type": "Feature",
   "geometry": {
    "type": "Point",
    "coordinates": [
     144.61091521,
     -17.44931773
    ]
   },
   "properties": {
    "name": "LOT 108 OOTANN ROAD ALMADEN 4871",
    "locID": "LOC000176457305",
    "tech": "SATELLITE",
    "upgrade": "NULL_NA",
    "gnaf_pid": "GAQLD425593000",
    "tech_change_status": "Not Planned"
   }
  },
  {
   "type": "Feature",
   "geometry": {
    "type": "Point",
    "coordinates": [
     144.61072601,
     -17.44932233
    ]
   },
   "properties": {
    "name": "LOT 109 OOTANN ROAD ALMADEN 4871",
    "locID": "LOC000176457305",
    "tech": "SATELLITE",
    "upgrade": "NULL_NA",
    "gnaf_pid": "GAQLD425593001",
    "tech_change_status": "Not Planned"
   }
  },
  {
   "type": "Feature",
   "geometry": {
    "type": "Point",
    "coordinates": [
     144.61053678,
     -17.44932693
    ]
   },
   "properties": {
    "name": "LOT 110 OOTANN ROAD ALMADEN 4871",
    "locID": "LOC000176457305",
    "tech": "SATELLITE",
    "upgrade": "NULL_NA",
    "gnaf_pid": "GAQLD425593002",
    "tech_change_status": "Not Planned"
   }
  },
  {
   "type": "Feature",
   "geometry": {
    "type": "Point",
    "coordinates": [
     144.61206986,
     -17.45001666
    ]
   },
   "properties": {
    "name": "LOT 202 OOTANN ROAD ALMADEN 4871",
    "locID": "LOC000176457305",
    "tech": "SATELLITE",
    "upgrade": "NULL_NA",
    "gnaf_pid": "GAQLD425593004",
    "tech_change_status": "Not Planned"
   }
  },
  {
   "type": "Feature",
   "geometry": {
    "type": "Point",
    "coordinates": [
     144.61055598,
     -17.45005346
    ]
   },
   "properties": {
    "name": "LOT 210 OOTANN ROAD ALMADEN 4871",
    "locID": "LOC000176457305",
    "tech": "SATELLITE",
    "upgrade": "NULL_NA",
    "gnaf_pid": "GAQLD425593012",
    "tech_change_status": "Not Planned"
   }
  },
  {
   "type": "Feature",
   "geometry": {
    "type": "Point",
    "coordinates": [
     144.61208344,
     -17.45053125
    ]
   },
   "properties": {
    "name": "LOT 212 OOTANN ROAD ALMADEN 4871",
    "locID": "LOC000176457305",
    "tech": "SATELLITE",
    "upgrade": "NULL_NA",
    "gnaf_pid": "GAQLD425593014",
    "tech_change_status": "Not Planned"
   }
  },
  {
   "type": "Feature",
   "geometry": {
    "type": "Point",
    "coordinates": [
     144.61151572,
     -17.45054505
    ]
   },
   "properties": {
    "name": "LOT 215 OOTANN ROAD ALMADEN 4871",
    "locID": "LOC000176457305",
    "tech": "SATELLITE",
    "upgrade": "NULL_NA",
    "gnaf_pid": "GAQLD425593017",
    "tech_change_status": "Not Planned"
   }
  },
  {
   "type": "Feature",
   "geometry": {
    "type": "Point",
    "coordinates": [
     144.61056954,
     -17.45056804
    ]
   },
   "properties": {
    "name": "LOT 220 OOTANN ROAD ALMADEN 4871",
    "locID": "LOC000176457305",
    "tech": "SATELLITE",
    "upgrade": "NULL_NA",
    "gnaf_pid": "GAQLD425593022",
    "tech_change_status": "Not Planned"
   }
  },
  {
   "type": "Feature",
   "geometry": {
    "type": "Point",
    "coordinates": [
     144.60992298,
     -17.4493873
    ]
   },
   "properties": {
    "name": "LOT 302 OOTANN ROAD ALMADEN 4871",
    "locID": "LOC000176457305",
    "tech": "SATELLITE",
    "upgrade": "NULL_NA",
    "gnaf_pid": "GAQLD425593024",
    "tech_change_status": "Not Planned"
   }
  },
  {
   "type": "Feature",
   "geometry": {
    "type": "Point",
    "coordinates": [
     144.6099279,
     -17.44956879
    ]
   },
   "properties": {
    "name": "LOT 303 OOTANN ROAD ALMADEN 4871",
    "locID": "LOC000176457305",
    "tech": "SATELLITE",
    "upgrade": "NULL_NA",
    "gnaf_pid": "GAQLD425593025",
    "tech_change_status": "Not Planned"
   }
  },
  {
   "type": "Feature",
   "geometry": {
    "type": "Point",
    "coordinates": [
     144.60993257,
     -17.44975056
    ]
   },
   "properties": {
    "name": "LOT 304 OOTANN ROAD ALMADEN 4871",
    "locID": "LOC000176457305",
    "tech": "SATELLITE",
    "upgrade": "NULL_NA",
    "gnaf_pid": "GAQLD425593026",
    "tech_change_status": "Not Planned"
   }
  },
  {
   "type": "Feature",
   "geometry": {
    "type": "Point",
    "coordinates": [
     144.60993735,
     -17.44993221
    ]
   },
   "properties": {
    "name": "LOT 305 OOTANN ROAD ALMADEN 4871",
    "locID": "LOC000176457305",
    "tech": "SATELLITE",
    "upgrade": "NULL_NA",
    "gnaf_pid": "GAQLD425593027",
    "tech_change_status": "Not Planned"
   }
  },
  {
   "type": "Feature",
   "geometry": {
    "type": "Point",
    "coordinates": [
     144.60995173,
     -17.45047709
    ]
   },
   "properties": {
    "name": "LOT 308 OOTANN ROAD ALMADEN 4871",
    "locID": "LOC000176457305",
    "tech": "SATELLITE",
    "upgrade": "NULL_NA",
    "gnaf_pid": "GAQLD425593030",
    "tech_change_status": "Not Planned"
   }
  },
  {
   "type": "Feature",
   "geometry": {
    "type": "Point",
    "coordinates": [
     144.67864474,
     -17.3414522
    ]
   },
   "properties": {
    "name": "14 ALMADEN STREET ALMADEN 4871",
    "locID": "LOC100071886508",
    "tech": "SATELLITE",
    "upgrade": "NULL_NA",
    "gnaf_pid": "GAQLD719798348",
    "tech_change_status": "Not Planned"
   }
  },
  {
   "type": "Feature",
   "geometry": {
    "type": "Point",
    "coordinates": [
     144.67840599,
     -17.34252723
    ]
   },
   "properties": {
    "name": "22 ALMADEN STREET ALMADEN 4871",
    "locID": "LOC000142351826",
    "tech": "SATELLITE",
    "upgrade": "NULL_NA",
    "gnaf_pid": "GAQLD719798439",
    "tech_change_status": "Not Planned"
   }
  },
  {
   "type": "Feature",
   "geometry": {
    "type": "Point",
    "coordinates": [
     144.67823461,
     -17.34080352
    ]
   },
   "properties": {
    "name": "8 ALMADEN STREET ALMADEN 4871",
    "locID": "LOC100071886520",
    "tech": "NULL",
    "upgrade": "NULL_NA",
    "gnaf_pid": "GAQLD719798704",
    "tech_change_status": "Not Planned"
   }
  },
  {
   "type": "Feature",
   "geometry": {
    "type": "Point",
    "coordinates": [
     144.67744557,
     -17.33959144
    ]
   },
   "properties": {
    "name": "LOT 2 ALMADEN STREET ALMADEN 4871",
    "locID": "LOC000142351826",
    "tech": "SATELLITE",
    "upgrade": "NULL_NA",
    "gnaf_pid": "GAQLD719799355",
    "tech_change_status": "Not Planned"
   }
  },
  {
   "type": "Feature",
   "geometry": {
    "type": "Point",
    "coordinates": [
     144.6767141,
     -17.33933222
    ]
   },
   "properties": {
    "name": "5 ALMADEN STREET ALMADEN 4871",
    "locID": "LOC000150162419",
    "tech": "SATELLITE",
    "upgrade": "NULL_NA",
    "gnaf_pid": "GAQLD719799490",
    "tech_change_status": "Not Planned"
   }
  },
  {
   "type": "Feature",
   "geometry": {
    "type": "Point",
    "coordinates": [
     144.6789574,
     -17.33740008
    ]
   },
   "properties": {
    "name": "LOT 1 ALMADEN STREET ALMADEN 4871",
    "locID": "LOC100071886520",
    "tech": "NULL",
    "upgrade": "NULL_NA",
    "gnaf_pid": "GAQLD719799748",
    "tech_change_status": "Not Planned"
   }
  },
  {
   "type": "Feature",
   "geometry": {
    "type": "Point",
    "coordinates": [
     144.62731961,
     -17.30741942
    ]
   },
   "properties": {
    "name": "LOT 1 OOTANN ROAD ALMADEN 4871",
    "locID": "LOC000176457305",
    "tech": "SATELLITE",
    "upgrade": "NULL_NA",
    "gnaf_pid": "GAQLD720976800",
    "tech_change_status": "Not Planned"
   }
  },
  {
   "type": "Feature",
   "geometry": {
    "type": "Point",
    "coordinates": [
     144.68059764,
     -17.3391705
    ]
   },
   "properties": {
    "name": "3 ALMADEN THIRD STREET ALMADEN 4871",
    "locID": "LOC100082584080",
    "tech": "NULL",
    "upgrade": "NULL_NA",
    "gnaf_pid": "GAQLD721400684",
    "tech_change_status": "Not Planned"
   }
  },
  {
   "type": "Feature",
   "geometry": {
    "type": "Point",
    "coordinates": [
     144.67986738,
     -17.33916778
    ]
   },
   "properties": {
    "name": "3 THIRD STREET ALMADEN 4871",
    "locID": "LOC100082584080",
    "tech": "NULL",
    "upgrade": "NULL_NA",
    "gnaf_pid": "GAQLD721427121",
    "tech_change_status": "Not Planned"
   }
  }
 ]
}