{
 "type": "FeatureCollection",
 "generated": "2025-02-01T06:23:46.980514",
 "suburb": "BAKING BOARD",
 "features": [
  {
   "type": "Feature",
   "geometry": {
    "type": "Point",
    "coordinates": [
     150.60408611,
     -26.73828356
    ]
   },
   "properties": {
    "name": "LOT 168 CLARKS ROAD BAKING BOARD 4413",
    "locID": "LOC000128053128",
    "tech": "NULL",
    "upgrade": "NULL_NA",
    "gnaf_pid": "GAQLD161103992",
    "tech_change_status": "Not Planned"
   }
  },
  {
   "type": "Feature",
   "geometry": {
    "type": "Point",
    "coordinates": [
     150.59358883,
     -26.73964978
    ]
   },
   "properties": {
    "name": "LOT 1 CLARKS ROAD BAKING BOARD 4413",
    "locID": "LOC000073586989",
    "tech": "NULL",
    "upgrade": "NULL_NA",
    "gnaf_pid": "GAQLD161103993",
    "tech_change_status": "Not Planned"
   }
  },
  {
   "type": "Feature",
   "geometry": {
    "type": "Point",
    "coordinates": [
     150.54376805,
     -26.70879868
    ]
   },
   "properties": {
    "name": "LOT 44 JAHNKES ROAD BAKING BOARD 4413",
    "locID": "LOC100082076627",
    "tech": "SATELLITE",
    "upgrade": "NULL_NA",
    "gnaf_pid": "GAQLD161189620",
    "tech_change_status": "Not Planned"
   }
  },
  {
   "type": "Feature",
   "geometry": {
    "type": "Point",
    "coordinates": [
     150.57063344,
     -26.715706
    ]
   },
   "properties": {
    "name": "LOT 291 WARREGO HIGHWAY BAKING BOARD 4413",
    "locID": "LOC000042866486",
    "tech": "SATELLITE",
    "upgrade": "NULL_NA",
    "gnaf_pid": "GAQLD161345579",
    "tech_change_status": "Not Planned"
   }
  },
  {
   "type": "Feature",
   "geometry": {
    "type": "Point",
    "coordinates": [
     150.55058894,
     -26.68592384
    ]
   },
   "properties": {
    "name": "259 ENGINE ROAD BAKING BOARD 4413",
    "locID": "LOC000058736999",
    "tech": "SATELLITE",
    "upgrade": "NULL_NA",
    "gnaf_pid": "GAQLD161782129",
    "tech_change_status": "Not Planned"
   }
  },
  {
   "type": "Feature",
   "geometry": {
    "type": "Point",
    "coordinates": [
     150.56126176,
     -26.67679856
    ]
   },
   "properties": {
    "name": "453 ENGINE ROAD BAKING BOARD 4413",
    "locID": "LOC000028148372",
    "tech": "NULL",
    "upgrade": "NULL_NA",
    "gnaf_pid": "GAQLD161782130",
    "tech_change_status": "Not Planned"
   }
  },
  {
   "type": "Feature",
   "geometry": {
    "type": "Point",
    "coordinates": [
     150.58611286,
     -26.67733939
    ]
   },
   "properties": {
    "name": "466 ENGINE ROAD BAKING BOARD 4413",
    "locID": "LOC000089498980",
    "tech": "SATELLITE",
    "upgrade": "NULL_NA",
    "gnaf_pid": "GAQLD161782131",
    "tech_change_status": "Not Planned"
   }
  },
  {
   "type": "Feature",
   "geometry": {
    "type": "Point",
    "coordinates": [
     150.57905401,
     -26.66088515
    ]
   },
   "properties": {
    "name": "1061 AUBURN ROAD BAKING BOARD 4413",
    "locID": "LOC000023241447",
    "tech": "NULL",
    "upgrade": "NULL_NA",
    "gnaf_pid": "GAQLD161933036",
    "tech_change_status": "Not Planned"
   }
  },
  {
   "type": "Feature",
   "geometry": {
    "type": "Point",
    "coordinates": [
     150.57000643,
     -26.69895049
    ]
   },
   "properties": {
    "name": "190 ENGINE ROAD BAKING BOARD 4413",
    "locID": "LOC000006806154",
    "tech": "NULL",
    "upgrade": "NULL_NA",
    "gnaf_pid": "GAQLD161936212",
    "tech_change_status": "Not Planned"
   }
  },
  {
   "type": "Feature",
   "geometry": {
    "type": "Point",
    "coordinates": [
     150.54903533,
     -26.70077435
    ]
   },
   "properties": {
    "name": "27150 WARREGO HIGHWAY BAKING BOARD 4413",
    "locID": "LOC000064262706",
    "tech": "NULL",
    "upgrade": "NULL_NA",
    "gnaf_pid": "GAQLD161944184",
    "tech_change_status": "Not Planned"
   }
  },
  {
   "type": "Feature",
   "geometry": {
    "type": "Point",
    "coordinates": [
     150.56596114,
     -26.66242035
    ]
   },
   "properties": {
    "name": "539 ENGINE ROAD BAKING BOARD 4413",
    "locID": "LOC000048032094",
    "tech": "NULL",
    "upgrade": "NULL_NA",
    "gnaf_pid": "GAQLD162300446",
    "tech_change_status": "Not Planned"
   }
  },
  {
   "type": "Feature",
   "geometry": {
    "type": "Point",
    "coordinates": [
     150.55859123,
     -26.7067048
    ]
   },
   "properties": {
    "name": "26982 WARREGO HIGHWAY BAKING BOARD 4413",
    "locID": "LOC000033495166",
    "tech": "SATELLITE",
    "upgrade": "NULL_NA",
    "gnaf_pid": "GAQLD162483205",
    "tech_change_status": "Not Planned"
   }
  },
  {
   "type": "Feature",
   "geometry": {
    "type": "Point",
    "coordinates": [
     150.54189411,
     -26.66418348
    ]
   },
   "properties": {
    "name": "486 WARRENS ROAD BAKING BOARD 4413",
    "locID": "LOC000064610827",
    "tech": "NULL",
    "upgrade": "NULL_NA",
    "gnaf_pid": "GAQLD162635881",
    "tech_change_status": "Not Planned"
   }
  },
  {
   "type": "Feature",
   "geometry": {
    "type": "Point",
    "coordinates": [
     150.57793067,
     -26.74004408
    ]
   },
   "properties": {
    "name": "317 CLARKS ROAD BAKING BOARD 4413",
    "locID": "LOC000073586989",
    "tech": "NULL",
    "upgrade": "NULL_NA",
    "gnaf_pid": "GAQLD162824846",
    "tech_change_status": "Not Planned"
   }
  },
  {
   "type": "Feature",
   "geometry": {
    "type": "Point",
    "coordinates": [
     150.61311943,
     -26.69076461
    ]
   },
   "properties": {
    "name": "541 AUBURN ROAD BAKING BOARD 4413",
    "locID": "LOC000105546449",
    "tech": "SATELLITE",
    "upgrade": "NULL_NA",
    "gnaf_pid": "GAQLD162922876",
    "tech_change_status": "Not Planned"
   }
  },
  {
   "type": "Feature",
   "geometry": {
    "type": "Point",
    "coordinates": [
     150.56932394,
     -26.64999907
    ]
   },
   "properties": {
    "name": "1149 AUBURN ROAD BAKING BOARD 4413",
    "locID": "LOC000036312156",
    "tech": "SATELLITE",
    "upgrade": "NULL_NA",
    "gnaf_pid": "GAQLD163060887",
    "tech_change_status": "Not Planned"
   }
  },
  {
   "type": "Feature",
   "geometry": {
    "type": "Point",
    "coordinates": [
     150.60590152,
     -26.68422831
    ]
   },
   "properties": {
    "name": "697 AUBURN ROAD BAKING BOARD 4413",
    "locID": "LOC000175428844",
    "tech": "NULL",
    "upgrade": "NULL_NA",
    "gnaf_pid": "GAQLD163060888",
    "tech_change_status": "Not Planned"
   }
  },
  {
   "type": "Feature",
   "geometry": {
    "type": "Point",
    "coordinates": [
     150.59636299,
     -26.68122104
    ]
   },
   "properties": {
    "name": "759 AUBURN ROAD BAKING BOARD 4413",
    "locID": "LOC000016519157",
    "tech": "SATELLITE",
    "upgrade": "NULL_NA",
    "gnaf_pid": "GAQLD163060889",
    "tech_change_status": "Not Planned"
   }
  },
  {
   "type": "Feature",
   "geometry": {
    "type": "Point",
    "coordinates": [
     150.58518363,
     -26.66518167
    ]
   },
   "properties": {
    "name": "885 AUBURN ROAD BAKING BOARD 4413",
    "locID": "LOC000051112191",
    "tech": "SATELLITE",
    "upgrade": "NULL_NA",
    "gnaf_pid": "GAQLD163060890",
    "tech_change_status": "Not Planned"
   }
  },
  {
   "type": "Feature",
   "geometry": {
    "type": "Point",
    "coordinates": [
     150.57316648,
     -26.69316047
    ]
   },
   "properties": {
    "name": "226 ENGINE ROAD BAKING BOARD 4413",
    "locID": "LOC000019181845",
    "tech": "SATELLITE",
    "upgrade": "NULL_NA",
    "gnaf_pid": "GAQLD163062010",
    "tech_change_status": "Not Planned"
   }
  },
  {
   "type": "Feature",
   "geometry": {
    "type": "Point",
    "coordinates": [
     150.60359391,
     -26.72822478
    ]
   },
   "properties": {
    "name": "26547 WARREGO HIGHWAY BAKING BOARD 4413",
    "locID": "LOC000021690111",
    "tech": "NULL",
    "upgrade": "NULL_NA",
    "gnaf_pid": "GAQLD163065446",
    "tech_change_status": "Not Planned"
   }
  },
  {
   "type": "Feature",
   "geometry": {
    "type": "Point",
    "coordinates": [
     150.60311417,
     -26.72237728
    ]
   },
   "properties": {
    "name": "26578 WARREGO HIGHWAY BAKING BOARD 4413",
    "locID": "LOC000042866486",
    "tech": "SATELLITE",
    "upgrade": "NULL_NA",
    "gnaf_pid": "GAQLD163065447",
    "tech_change_status": "Not Planned"
   }
  },
  {
   "type": "Feature",
   "geometry": {
    "type": "Point",
    "coordinates": [
     150.57062557,
     -26.70615032
    ]
   },
   "properties": {
    "name": "26968 WARREGO HIGHWAY BAKING BOARD 4413",
    "locID": "LOC000079912019",
    "tech": "SATELLITE",
    "upgrade": "NULL_NA",
    "gnaf_pid": "GAQLD163065449",
    "tech_change_status": "Not Planned"
   }
  },
  {
   "type": "Feature",
   "geometry": {
    "type": "Point",
    "coordinates": [
     150.58312647,
     -26.73608305
    ]
   },
   "properties": {
    "name": "168 CLARKS ROAD BAKING BOARD 4413",
    "locID": "LOC000128053128",
    "tech": "NULL",
    "upgrade": "NULL_NA",
    "gnaf_pid": "GAQLD163160696",
    "tech_change_status": "Not Planned"
   }
  },
  {
   "type": "Feature",
   "geometry": {
    "type": "Point",
    "coordinates": [
     150.58149824,
     -26.74700035
    ]
   },
   "properties": {
    "name": "297 CLARKS ROAD BAKING BOARD 4413",
    "locID": "LOC000088167750",
    "tech": "NULL",
    "upgrade": "NULL_NA",
    "gnaf_pid": "GAQLD163160697",
    "tech_change_status": "Not Planned"
   }
  },
  {
   "type": "Feature",
   "geometry": {
    "type": "Point",
    "coordinates": [
     150.5686503,
     -26.74464635
    ]
   },
   "properties": {
    "name": "460 CLARKS ROAD BAKING BOARD 4413",
    "locID": "LOC000028121407",
    "tech": "NULL",
    "upgrade": "NULL_NA",
    "gnaf_pid": "GAQLD163160698",
    "tech_change_status": "Not Planned"
   }
  },
  {
   "type": "Feature",
   "geometry": {
    "type": "Point",
    "coordinates": [
     150.56023677,
     -26.68214863
    ]
   },
   "properties": {
    "name": "321 ENGINE ROAD BAKING BOARD 4413",
    "locID": "LOC000015716305",
    "tech": "NULL",
    "upgrade": "NULL_NA",
    "gnaf_pid": "GAQLD163162907",
    "tech_change_status": "Not Planned"
   }
  },
  {
   "type": "Feature",
   "geometry": {
    "type": "Point",
    "coordinates": [
     150.61330757,
     -26.70552674
    ]
   },
   "properties": {
    "name": "212 GRAYS ROAD BAKING BOARD 4413",
    "locID": "LOC000128059931",
    "tech": "SATELLITE",
    "upgrade": "NULL_NA",
    "gnaf_pid": "GAQLD424934063",
    "tech_change_status": "Not Planned"
   }
  },
  {
   "type": "Feature",
   "geometry": {
    "type": "Point",
    "coordinates": [
     150.54670323,
     -26.73080228
    ]
   },
   "properties": {
    "name": "157 STURGESS BAKING BOARD ROAD BAKING BOARD 4413",
    "locID": "LOC000128049517",
    "tech": "SATELLITE",
    "upgrade": "NULL_NA",
    "gnaf_pid": "GAQLD424935988",
    "tech_change_status": "Not Planned"
   }
  },
  {
   "type": "Feature",
   "geometry": {
    "type": "Point",
    "coordinates": [
     150.55254498,
     -26.65717891
    ]
   },
   "properties": {
    "name": "199 A GRAHAMS ROAD BAKING BOARD 4413",
    "locID": "LOC000184197995",
    "tech": "SATELLITE",
    "upgrade": "NULL_NA",
    "gnaf_pid": "GAQLD425652150",
    "tech_change_status": "Not Planned"
   }
  },
  {
   "type": "Feature",
   "geometry": {
    "type": "Point",
    "coordinates": [
     150.5182318,
     -26.71749952
    ]
   },
   "properties": {
    "name": "232 THE PEAK ROAD BAKING BOARD 4413",
    "locID": "LOC000142298969",
    "tech": "SATELLITE",
    "upgrade": "NULL_NA",
    "gnaf_pid": "GAQLD425661061",
    "tech_change_status": "Not Planned"
   }
  },
  {
   "type": "Feature",
   "geometry": {
    "type": "Point",
    "coordinates": [
     150.52703755,
     -26.71937201
    ]
   },
   "properties": {
    "name": "LOT 45 THE PEAK ROAD BAKING BOARD 4413",
    "locID": "LOC000177461604",
    "tech": "SATELLITE",
    "upgrade": "NULL_NA",
    "gnaf_pid": "GAQLD720035788",
    "tech_change_status": "Not Planned"
   }
  },
  {
   "type": "Feature",
   "geometry": {
    "type": "Point",
    "coordinates": [
     150.55562027,
     -26.65561388
    ]
   },
   "properties": {
    "name": "LOT 105 A GRAHAMS ROAD BAKING BOARD 4413",
    "locID": "LOC000184197995",
    "tech": "SATELLITE",
    "upgrade": "NULL_NA",
    "gnaf_pid": "GAQLD720121542",
    "tech_change_status": "Not Planned"
   }
  },
  {
   "type": "Feature",
   "geometry": {
    "type": "Point",
    "coordinates": [
     150.55337203,
     -26.64790238
    ]
   },
   "properties": {
    "name": "286 A GRAHAMS ROAD BAKING BOARD 4413",
    "locID": "LOC100087294513",
    "tech": "NULL",
    "upgrade": "NULL_NA",
    "gnaf_pid": "GAQLD721307985",
    "tech_change_status": "Not Planned"
   }
  },
  {
   "type": "Feature",
   "geometry": {
    "type": "Point",
    "coordinates": [
     150.53953215,
     -26.70936196
    ]
   },
   "properties": {
    "name": "44 THE PEAK ROAD BAKING BOARD 4413",
    "locID": "LOC000177461604",
    "tech": "SATELLITE",
    "upgrade": "NULL_NA",
    "gnaf_pid": "GAQLD721560157",
    "tech_change_status": "Not Planned"
   }
  }
 ]
}