{
 "type": "FeatureCollection",
 "generated": "2025-01-04T16:35:13.789102",
 "suburb": "BARGUNYAH",
 "features": [
  {
   "type": "Feature",
   "geometry": {
    "type": "Point",
    "coordinates": [
     147.50857392,
     -27.28555982
    ]
   },
   "properties": {
    "name": "LOT 11 BOLLON ROAD BARGUNYAH 4465",
    "locID": "LOC000160392016",
    "tech": "SATELLITE",
    "upgrade": "NULL_NA",
    "gnaf_pid": "GAQLD424932804",
    "tech_change_status": "Not Planned"
   }
  },
  {
   "type": "Feature",
   "geometry": {
    "type": "Point",
    "coordinates": [
     147.65763716,
     -27.2995418
    ]
   },
   "properties": {
    "name": "LOT 1 BOLLON ROAD BARGUNYAH 4465",
    "locID": "LOC000160392016",
    "tech": "SATELLITE",
    "upgrade": "NULL_NA",
    "gnaf_pid": "GAQLD424932805",
    "tech_change_status": "Not Planned"
   }
  },
  {
   "type": "Feature",
   "geometry": {
    "type": "Point",
    "coordinates": [
     147.44533332,
     -27.29737733
    ]
   },
   "properties": {
    "name": "LOT 7 BOLLON ROAD BARGUNYAH 4465",
    "locID": "LOC000160392016",
    "tech": "SATELLITE",
    "upgrade": "NULL_NA",
    "gnaf_pid": "GAQLD424932806",
    "tech_change_status": "Not Planned"
   }
  },
  {
   "type": "Feature",
   "geometry": {
    "type": "Point",
    "coordinates": [
     147.57415787,
     -27.31177559
    ]
   },
   "properties": {
    "name": "LOT 8 BOLLON ROAD BARGUNYAH 4465",
    "locID": "LOC000160392016",
    "tech": "SATELLITE",
    "upgrade": "NULL_NA",
    "gnaf_pid": "GAQLD424932807",
    "tech_change_status": "Not Planned"
   }
  },
  {
   "type": "Feature",
   "geometry": {
    "type": "Point",
    "coordinates": [
     147.27274357,
     -27.0760274
    ]
   },
   "properties": {
    "name": "359 GUNNAWARRA ROAD BARGUNYAH 4465",
    "locID": "LOC000177205218",
    "tech": "SATELLITE",
    "upgrade": "NULL_NA",
    "gnaf_pid": "GAQLD425343404",
    "tech_change_status": "Not Planned"
   }
  },
  {
   "type": "Feature",
   "geometry": {
    "type": "Point",
    "coordinates": [
     147.2368594,
     -27.34846851
    ]
   },
   "properties": {
    "name": "1879 DUNDEE ROAD BARGUNYAH 4465",
    "locID": "LOC000178691663",
    "tech": "SATELLITE",
    "upgrade": "NULL_NA",
    "gnaf_pid": "GAQLD425474777",
    "tech_change_status": "Not Planned"
   }
  },
  {
   "type": "Feature",
   "geometry": {
    "type": "Point",
    "coordinates": [
     147.11219982,
     -27.25187969
    ]
   },
   "properties": {
    "name": "3386 DUNDEE ROAD BARGUNYAH 4465",
    "locID": "LOC000178691663",
    "tech": "SATELLITE",
    "upgrade": "NULL_NA",
    "gnaf_pid": "GAQLD425474778",
    "tech_change_status": "Not Planned"
   }
  },
  {
   "type": "Feature",
   "geometry": {
    "type": "Point",
    "coordinates": [
     147.34917325,
     -27.41446597
    ]
   },
   "properties": {
    "name": "891 DUNDEE ROAD BARGUNYAH 4465",
    "locID": "LOC000175289559",
    "tech": "NULL",
    "upgrade": "NULL_NA",
    "gnaf_pid": "GAQLD425474779",
    "tech_change_status": "Not Planned"
   }
  },
  {
   "type": "Feature",
   "geometry": {
    "type": "Point",
    "coordinates": [
     147.15303591,
     -27.1467033
    ]
   },
   "properties": {
    "name": "2167 GUNNAWARRA ROAD BARGUNYAH 4465",
    "locID": "LOC000167643625",
    "tech": "SATELLITE",
    "upgrade": "NULL_NA",
    "gnaf_pid": "GAQLD425475898",
    "tech_change_status": "Not Planned"
   }
  },
  {
   "type": "Feature",
   "geometry": {
    "type": "Point",
    "coordinates": [
     147.47887144,
     -27.07948969
    ]
   },
   "properties": {
    "name": "2175 GUNNAWARRA ROAD BARGUNYAH 4465",
    "locID": "LOC000167643625",
    "tech": "SATELLITE",
    "upgrade": "NULL_NA",
    "gnaf_pid": "GAQLD425475899",
    "tech_change_status": "Not Planned"
   }
  },
  {
   "type": "Feature",
   "geometry": {
    "type": "Point",
    "coordinates": [
     147.28697781,
     -27.04220984
    ]
   },
   "properties": {
    "name": "3380 TOMOO ROAD BARGUNYAH 4465",
    "locID": "LOC000142339394",
    "tech": "SATELLITE",
    "upgrade": "NULL_NA",
    "gnaf_pid": "GAQLD425479912",
    "tech_change_status": "Not Planned"
   }
  },
  {
   "type": "Feature",
   "geometry": {
    "type": "Point",
    "coordinates": [
     147.64371321,
     -27.19044352
    ]
   },
   "properties": {
    "name": "LOT 4 BARGUNYAH ROAD BARGUNYAH 4465",
    "locID": "LOC000154133340",
    "tech": "SATELLITE",
    "upgrade": "NULL_NA",
    "gnaf_pid": "GAQLD720980806",
    "tech_change_status": "Not Planned"
   }
  },
  {
   "type": "Feature",
   "geometry": {
    "type": "Point",
    "coordinates": [
     147.60977548,
     -27.18896177
    ]
   },
   "properties": {
    "name": "LOT 6 BARGUNYAH ROAD BARGUNYAH 4465",
    "locID": "LOC000154133340",
    "tech": "SATELLITE",
    "upgrade": "NULL_NA",
    "gnaf_pid": "GAQLD720981176",
    "tech_change_status": "Not Planned"
   }
  },
  {
   "type": "Feature",
   "geometry": {
    "type": "Point",
    "coordinates": [
     147.74652083,
     -27.30494109
    ]
   },
   "properties": {
    "name": "LOT 2 BARGUNYAH ROAD BARGUNYAH 4465",
    "locID": "LOC000154133340",
    "tech": "SATELLITE",
    "upgrade": "NULL_NA",
    "gnaf_pid": "GAQLD720981973",
    "tech_change_status": "Not Planned"
   }
  },
  {
   "type": "Feature",
   "geometry": {
    "type": "Point",
    "coordinates": [
     147.76962349,
     -27.23825378
    ]
   },
   "properties": {
    "name": "2175 BARGUNYAH ROAD BARGUNYAH 4465",
    "locID": "LOC000154133340",
    "tech": "SATELLITE",
    "upgrade": "NULL_NA",
    "gnaf_pid": "GAQLD720982643",
    "tech_change_status": "Not Planned"
   }
  }
 ]
}