{
 "type": "FeatureCollection",
 "generated": "2024-10-18T21:00:04.946858",
 "suburb": "BLACK DUCK CREEK",
 "features": [
  {
   "type": "Feature",
   "geometry": {
    "type": "Point",
    "coordinates": [
     152.16840778,
     -27.8307789
    ]
   },
   "properties": {
    "name": "22 PICKERINGS ROAD BLACK DUCK CREEK 4343",
    "locID": "LOC000003384053",
    "tech": "NULL",
    "upgrade": "NULL_NA",
    "gnaf_pid": "GAQLD157557807",
    "tech_change_status": "Not Planned"
   }
  },
  {
   "type": "Feature",
   "geometry": {
    "type": "Point",
    "coordinates": [
     152.18907838,
     -27.87500323
    ]
   },
   "properties": {
    "name": "936 BLACK DUCK CREEK ROAD BLACK DUCK CREEK 4343",
    "locID": "LOC000081407308",
    "tech": "SATELLITE",
    "upgrade": "NULL_NA",
    "gnaf_pid": "GAQLD157575576",
    "tech_change_status": "Not Planned"
   }
  },
  {
   "type": "Feature",
   "geometry": {
    "type": "Point",
    "coordinates": [
     152.16810716,
     -27.82680237
    ]
   },
   "properties": {
    "name": "342 BLACK DUCK CREEK ROAD BLACK DUCK CREEK 4343",
    "locID": "LOC000035681636",
    "tech": "SATELLITE",
    "upgrade": "NULL_NA",
    "gnaf_pid": "GAQLD157575577",
    "tech_change_status": "Not Planned"
   }
  },
  {
   "type": "Feature",
   "geometry": {
    "type": "Point",
    "coordinates": [
     152.18923851,
     -27.83390444
    ]
   },
   "properties": {
    "name": "563 BLACK DUCK CREEK ROAD BLACK DUCK CREEK 4343",
    "locID": "LOC000014929063",
    "tech": "SATELLITE",
    "upgrade": "NULL_NA",
    "gnaf_pid": "GAQLD157575579",
    "tech_change_status": "Not Planned"
   }
  },
  {
   "type": "Feature",
   "geometry": {
    "type": "Point",
    "coordinates": [
     152.16680143,
     -27.83457551
    ]
   },
   "properties": {
    "name": "57 PICKERINGS ROAD BLACK DUCK CREEK 4343",
    "locID": "LOC000105520180",
    "tech": "NULL",
    "upgrade": "NULL_NA",
    "gnaf_pid": "GAQLD157575580",
    "tech_change_status": "Not Planned"
   }
  },
  {
   "type": "Feature",
   "geometry": {
    "type": "Point",
    "coordinates": [
     152.19998161,
     -27.90652632
    ]
   },
   "properties": {
    "name": "LOT 103 BLACK DUCK CREEK ROAD BLACK DUCK CREEK 4343",
    "locID": "LOC000081407308",
    "tech": "SATELLITE",
    "upgrade": "NULL_NA",
    "gnaf_pid": "GAQLD161068789",
    "tech_change_status": "Not Planned"
   }
  },
  {
   "type": "Feature",
   "geometry": {
    "type": "Point",
    "coordinates": [
     152.21172449,
     -27.87996656
    ]
   },
   "properties": {
    "name": "LOT 50 BLACK DUCK CREEK ROAD BLACK DUCK CREEK 4343",
    "locID": "LOC000081407308",
    "tech": "SATELLITE",
    "upgrade": "NULL_NA",
    "gnaf_pid": "GAQLD161068801",
    "tech_change_status": "Not Planned"
   }
  },
  {
   "type": "Feature",
   "geometry": {
    "type": "Point",
    "coordinates": [
     152.17908176,
     -27.82918027
    ]
   },
   "properties": {
    "name": "LOT 59 BLACK DUCK CREEK ROAD BLACK DUCK CREEK 4343",
    "locID": "LOC000081407308",
    "tech": "SATELLITE",
    "upgrade": "NULL_NA",
    "gnaf_pid": "GAQLD161068803",
    "tech_change_status": "Not Planned"
   }
  },
  {
   "type": "Feature",
   "geometry": {
    "type": "Point",
    "coordinates": [
     152.22490457,
     -27.9261663
    ]
   },
   "properties": {
    "name": "LOT 1 BLACK DUCK CREEK ROAD BLACK DUCK CREEK 4343",
    "locID": "LOC000102509784",
    "tech": "SATELLITE",
    "upgrade": "NULL_NA",
    "gnaf_pid": "GAQLD162010725",
    "tech_change_status": "Not Planned"
   }
  },
  {
   "type": "Feature",
   "geometry": {
    "type": "Point",
    "coordinates": [
     152.17319354,
     -27.86900873
    ]
   },
   "properties": {
    "name": "130 GOLTZ ROAD BLACK DUCK CREEK 4343",
    "locID": "LOC000062788125",
    "tech": "NULL",
    "upgrade": "NULL_NA",
    "gnaf_pid": "GAQLD162373896",
    "tech_change_status": "Not Planned"
   }
  },
  {
   "type": "Feature",
   "geometry": {
    "type": "Point",
    "coordinates": [
     152.19240646,
     -27.84140074
    ]
   },
   "properties": {
    "name": "565 BLACK DUCK CREEK ROAD BLACK DUCK CREEK 4343",
    "locID": "LOC000063183786",
    "tech": "NULL",
    "upgrade": "NULL_NA",
    "gnaf_pid": "GAQLD162733752",
    "tech_change_status": "Not Planned"
   }
  },
  {
   "type": "Feature",
   "geometry": {
    "type": "Point",
    "coordinates": [
     152.17548595,
     -27.84215569
    ]
   },
   "properties": {
    "name": "492 BLACK DUCK CREEK ROAD BLACK DUCK CREEK 4343",
    "locID": "LOC000127654988",
    "tech": "SATELLITE",
    "upgrade": "NULL_NA",
    "gnaf_pid": "GAQLD163099098",
    "tech_change_status": "Not Planned"
   }
  },
  {
   "type": "Feature",
   "geometry": {
    "type": "Point",
    "coordinates": [
     152.19589185,
     -27.87982758
    ]
   },
   "properties": {
    "name": "946 BLACK DUCK CREEK ROAD BLACK DUCK CREEK 4343",
    "locID": "LOC000102509784",
    "tech": "SATELLITE",
    "upgrade": "NULL_NA",
    "gnaf_pid": "GAQLD163158855",
    "tech_change_status": "Not Planned"
   }
  },
  {
   "type": "Feature",
   "geometry": {
    "type": "Point",
    "coordinates": [
     152.19630944,
     -27.86163245
    ]
   },
   "properties": {
    "name": "776 BLACK DUCK CREEK ROAD BLACK DUCK CREEK 4343",
    "locID": "LOC000127658495",
    "tech": "SATELLITE",
    "upgrade": "NULL_NA",
    "gnaf_pid": "GAQLD163247965",
    "tech_change_status": "Not Planned"
   }
  },
  {
   "type": "Feature",
   "geometry": {
    "type": "Point",
    "coordinates": [
     152.18200132,
     -27.8485888
    ]
   },
   "properties": {
    "name": "LOT 171 BLACK DUCK CREEK ROAD BLACK DUCK CREEK 4343",
    "locID": "LOC000014369886",
    "tech": "NULL",
    "upgrade": "NULL_NA",
    "gnaf_pid": "GAQLD425473062",
    "tech_change_status": "Not Planned"
   }
  },
  {
   "type": "Feature",
   "geometry": {
    "type": "Point",
    "coordinates": [
     152.23405669,
     -27.92663127
    ]
   },
   "properties": {
    "name": "LOT 52 BLACK DUCK CREEK ROAD BLACK DUCK CREEK 4343",
    "locID": "LOC000081407308",
    "tech": "SATELLITE",
    "upgrade": "NULL_NA",
    "gnaf_pid": "GAQLD425473063",
    "tech_change_status": "Not Planned"
   }
  },
  {
   "type": "Feature",
   "geometry": {
    "type": "Point",
    "coordinates": [
     152.26131434,
     -27.94999729
    ]
   },
   "properties": {
    "name": "LOT 84 BLACK DUCK CREEK ROAD BLACK DUCK CREEK 4343",
    "locID": "LOC000081407308",
    "tech": "SATELLITE",
    "upgrade": "NULL_NA",
    "gnaf_pid": "GAQLD425473064",
    "tech_change_status": "Not Planned"
   }
  },
  {
   "type": "Feature",
   "geometry": {
    "type": "Point",
    "coordinates": [
     152.21979429,
     -27.89645585
    ]
   },
   "properties": {
    "name": "LOT 51 BLACK DUCK CREEK ROAD BLACK DUCK CREEK 4343",
    "locID": "LOC000081407308",
    "tech": "SATELLITE",
    "upgrade": "NULL_NA",
    "gnaf_pid": "GAQLD719562990",
    "tech_change_status": "Not Planned"
   }
  },
  {
   "type": "Feature",
   "geometry": {
    "type": "Point",
    "coordinates": [
     152.22600487,
     -27.93154714
    ]
   },
   "properties": {
    "name": "LOT 3 BLACK DUCK CREEK ROAD BLACK DUCK CREEK 4343",
    "locID": "LOC000035681636",
    "tech": "SATELLITE",
    "upgrade": "NULL_NA",
    "gnaf_pid": "GAQLD721388880",
    "tech_change_status": "Not Planned"
   }
  },
  {
   "type": "Feature",
   "geometry": {
    "type": "Point",
    "coordinates": [
     152.22685968,
     -27.93431148
    ]
   },
   "properties": {
    "name": "LOT 4 BLACK DUCK CREEK ROAD BLACK DUCK CREEK 4343",
    "locID": "LOC000063183786",
    "tech": "NULL",
    "upgrade": "NULL_NA",
    "gnaf_pid": "GAQLD721388963",
    "tech_change_status": "Not Planned"
   }
  },
  {
   "type": "Feature",
   "geometry": {
    "type": "Point",
    "coordinates": [
     152.22805508,
     -27.93649286
    ]
   },
   "properties": {
    "name": "LOT 5 BLACK DUCK CREEK ROAD BLACK DUCK CREEK 4343",
    "locID": "LOC000063183786",
    "tech": "NULL",
    "upgrade": "NULL_NA",
    "gnaf_pid": "GAQLD721389052",
    "tech_change_status": "Not Planned"
   }
  },
  {
   "type": "Feature",
   "geometry": {
    "type": "Point",
    "coordinates": [
     152.22953665,
     -27.93870578
    ]
   },
   "properties": {
    "name": "LOT 6 BLACK DUCK CREEK ROAD BLACK DUCK CREEK 4343",
    "locID": "LOC000014369886",
    "tech": "NULL",
    "upgrade": "NULL_NA",
    "gnaf_pid": "GAQLD721391293",
    "tech_change_status": "Not Planned"
   }
  },
  {
   "type": "Feature",
   "geometry": {
    "type": "Point",
    "coordinates": [
     152.22542356,
     -27.92860019
    ]
   },
   "properties": {
    "name": "LOT 2 BLACK DUCK CREEK ROAD BLACK DUCK CREEK 4343",
    "locID": "LOC000014929063",
    "tech": "SATELLITE",
    "upgrade": "NULL_NA",
    "gnaf_pid": "GAQLD721394099",
    "tech_change_status": "Not Planned"
   }
  }
 ]
}