{
 "type": "FeatureCollection",
 "generated": "2024-10-19T04:05:31.278741",
 "suburb": "COWLEY",
 "features": [
  {
   "type": "Feature",
   "geometry": {
    "type": "Point",
    "coordinates": [
     146.04190479,
     -17.71035848
    ]
   },
   "properties": {
    "name": "202 COWLEY CREEK ROAD COWLEY 4871",
    "locID": "LOC000169920931",
    "tech": "WIRELESS",
    "upgrade": "NULL_NA",
    "gnaf_pid": "GAQLD157820848",
    "tech_change_status": "Not Planned",
    "program_type": "Fixed Wireless and Satellite Upgrade Program",
    "target_eligibility_quarter": "NA"
   }
  },
  {
   "type": "Feature",
   "geometry": {
    "type": "Point",
    "coordinates": [
     146.03821248,
     -17.67456479
    ]
   },
   "properties": {
    "name": "62785 BRUCE HIGHWAY COWLEY 4871",
    "locID": "LOC000034822809",
    "tech": "WIRELESS",
    "upgrade": "NULL_NA",
    "gnaf_pid": "GAQLD157820849",
    "tech_change_status": "Not Planned",
    "program_type": "Fixed Wireless and Satellite Upgrade Program",
    "target_eligibility_quarter": "NA"
   }
  },
  {
   "type": "Feature",
   "geometry": {
    "type": "Point",
    "coordinates": [
     146.0528843,
     -17.70261162
    ]
   },
   "properties": {
    "name": "LOT 1 COWLEY BEACH ROAD COWLEY 4871",
    "locID": "LOC000035907492",
    "tech": "WIRELESS",
    "upgrade": "NULL_NA",
    "gnaf_pid": "GAQLD158944755",
    "tech_change_status": "Not Planned",
    "program_type": "Fixed Wireless and Satellite Upgrade Program",
    "target_eligibility_quarter": "NA"
   }
  },
  {
   "type": "Feature",
   "geometry": {
    "type": "Point",
    "coordinates": [
     146.03970543,
     -17.67725597
    ]
   },
   "properties": {
    "name": "LOT 4 BRUCE HIGHWAY COWLEY 4871",
    "locID": "LOC000082659865",
    "tech": "WIRELESS",
    "upgrade": "NULL_NA",
    "gnaf_pid": "GAQLD158944834",
    "tech_change_status": "Not Planned",
    "program_type": "Fixed Wireless and Satellite Upgrade Program",
    "target_eligibility_quarter": "NA"
   }
  },
  {
   "type": "Feature",
   "geometry": {
    "type": "Point",
    "coordinates": [
     146.04974031,
     -17.67443492
    ]
   },
   "properties": {
    "name": "LOT 2 BRUCE HIGHWAY COWLEY 4871",
    "locID": "LOC100071886944",
    "tech": "WIRELESS",
    "upgrade": "NULL_NA",
    "gnaf_pid": "GAQLD158944884",
    "tech_change_status": "Not Planned",
    "program_type": "Fixed Wireless and Satellite Upgrade Program",
    "target_eligibility_quarter": "NA"
   }
  },
  {
   "type": "Feature",
   "geometry": {
    "type": "Point",
    "coordinates": [
     146.04535517,
     -17.69179326
    ]
   },
   "properties": {
    "name": "LOT 224 BRUCE HIGHWAY COWLEY 4871",
    "locID": "LOC000041422817",
    "tech": "WIRELESS",
    "upgrade": "NULL_NA",
    "gnaf_pid": "GAQLD158944895",
    "tech_change_status": "Not Planned",
    "program_type": "Fixed Wireless and Satellite Upgrade Program",
    "target_eligibility_quarter": "NA"
   }
  },
  {
   "type": "Feature",
   "geometry": {
    "type": "Point",
    "coordinates": [
     146.05278642,
     -17.7048164
    ]
   },
   "properties": {
    "name": "LOT 8 COWLEY BEACH ROAD COWLEY 4871",
    "locID": "LOC000093182412",
    "tech": "WIRELESS",
    "upgrade": "NULL_NA",
    "gnaf_pid": "GAQLD158944912",
    "tech_change_status": "Not Planned",
    "program_type": "Fixed Wireless and Satellite Upgrade Program",
    "target_eligibility_quarter": "NA"
   }
  },
  {
   "type": "Feature",
   "geometry": {
    "type": "Point",
    "coordinates": [
     146.04514928,
     -17.69358753
    ]
   },
   "properties": {
    "name": "62559 BRUCE HIGHWAY COWLEY 4871",
    "locID": "LOC000186336321",
    "tech": "WIRELESS",
    "upgrade": "NULL_NA",
    "gnaf_pid": "GAQLD160583528",
    "tech_change_status": "Not Planned",
    "program_type": "Fixed Wireless and Satellite Upgrade Program",
    "target_eligibility_quarter": "NA"
   }
  },
  {
   "type": "Feature",
   "geometry": {
    "type": "Point",
    "coordinates": [
     146.05390526,
     -17.71154576
    ]
   },
   "properties": {
    "name": "62374 BRUCE HIGHWAY COWLEY 4871",
    "locID": "LOC000033479892",
    "tech": "WIRELESS",
    "upgrade": "NULL_NA",
    "gnaf_pid": "GAQLD160583529",
    "tech_change_status": "Not Planned"
   }
  },
  {
   "type": "Feature",
   "geometry": {
    "type": "Point",
    "coordinates": [
     146.05033581,
     -17.70188981
    ]
   },
   "properties": {
    "name": "62437 BRUCE HIGHWAY COWLEY 4871",
    "locID": "LOC000056791730",
    "tech": "WIRELESS",
    "upgrade": "NULL_NA",
    "gnaf_pid": "GAQLD160583531",
    "tech_change_status": "Not Planned",
    "program_type": "Fixed Wireless and Satellite Upgrade Program",
    "target_eligibility_quarter": "NA"
   }
  },
  {
   "type": "Feature",
   "geometry": {
    "type": "Point",
    "coordinates": [
     146.04864547,
     -17.69542505
    ]
   },
   "properties": {
    "name": "62503 BRUCE HIGHWAY COWLEY 4871",
    "locID": "LOC000047693624",
    "tech": "WIRELESS",
    "upgrade": "NULL_NA",
    "gnaf_pid": "GAQLD160583532",
    "tech_change_status": "Not Planned",
    "program_type": "Fixed Wireless and Satellite Upgrade Program",
    "target_eligibility_quarter": "NA"
   }
  },
  {
   "type": "Feature",
   "geometry": {
    "type": "Point",
    "coordinates": [
     146.04466228,
     -17.69138781
    ]
   },
   "properties": {
    "name": "62561 BRUCE HIGHWAY COWLEY 4871",
    "locID": "LOC000082659865",
    "tech": "WIRELESS",
    "upgrade": "NULL_NA",
    "gnaf_pid": "GAQLD160583533",
    "tech_change_status": "Not Planned",
    "program_type": "Fixed Wireless and Satellite Upgrade Program",
    "target_eligibility_quarter": "NA"
   }
  },
  {
   "type": "Feature",
   "geometry": {
    "type": "Point",
    "coordinates": [
     146.04572647,
     -17.68888345
    ]
   },
   "properties": {
    "name": "62586 BRUCE HIGHWAY COWLEY 4871",
    "locID": "LOC000096634704",
    "tech": "WIRELESS",
    "upgrade": "NULL_NA",
    "gnaf_pid": "GAQLD160583534",
    "tech_change_status": "Not Planned",
    "program_type": "Fixed Wireless and Satellite Upgrade Program",
    "target_eligibility_quarter": "NA"
   }
  },
  {
   "type": "Feature",
   "geometry": {
    "type": "Point",
    "coordinates": [
     146.0426861,
     -17.68982217
    ]
   },
   "properties": {
    "name": "62589 BRUCE HIGHWAY COWLEY 4871",
    "locID": "LOC000084214924",
    "tech": "WIRELESS",
    "upgrade": "NULL_NA",
    "gnaf_pid": "GAQLD160583535",
    "tech_change_status": "Not Planned",
    "program_type": "Fixed Wireless and Satellite Upgrade Program",
    "target_eligibility_quarter": "NA"
   }
  },
  {
   "type": "Feature",
   "geometry": {
    "type": "Point",
    "coordinates": [
     146.04347195,
     -17.68902028
    ]
   },
   "properties": {
    "name": "62591 BRUCE HIGHWAY COWLEY 4871",
    "locID": "LOC000102998005",
    "tech": "WIRELESS",
    "upgrade": "NULL_NA",
    "gnaf_pid": "GAQLD160583536",
    "tech_change_status": "Not Planned",
    "program_type": "Fixed Wireless and Satellite Upgrade Program",
    "target_eligibility_quarter": "NA"
   }
  },
  {
   "type": "Feature",
   "geometry": {
    "type": "Point",
    "coordinates": [
     146.04370914,
     -17.68261934
    ]
   },
   "properties": {
    "name": "62667 BRUCE HIGHWAY COWLEY 4871",
    "locID": "LOC000072461862",
    "tech": "WIRELESS",
    "upgrade": "NULL_NA",
    "gnaf_pid": "GAQLD160583537",
    "tech_change_status": "Not Planned",
    "program_type": "Fixed Wireless and Satellite Upgrade Program",
    "target_eligibility_quarter": "NA"
   }
  },
  {
   "type": "Feature",
   "geometry": {
    "type": "Point",
    "coordinates": [
     146.04338444,
     -17.68118919
    ]
   },
   "properties": {
    "name": "62685 BRUCE HIGHWAY COWLEY 4871",
    "locID": "LOC000089331682",
    "tech": "WIRELESS",
    "upgrade": "NULL_NA",
    "gnaf_pid": "GAQLD160583538",
    "tech_change_status": "Not Planned",
    "program_type": "Fixed Wireless and Satellite Upgrade Program",
    "target_eligibility_quarter": "NA"
   }
  },
  {
   "type": "Feature",
   "geometry": {
    "type": "Point",
    "coordinates": [
     146.04231396,
     -17.67693075
    ]
   },
   "properties": {
    "name": "62755 BRUCE HIGHWAY COWLEY 4871",
    "locID": "LOC000092907613",
    "tech": "WIRELESS",
    "upgrade": "NULL_NA",
    "gnaf_pid": "GAQLD160583539",
    "tech_change_status": "Not Planned",
    "program_type": "Fixed Wireless and Satellite Upgrade Program",
    "target_eligibility_quarter": "NA"
   }
  },
  {
   "type": "Feature",
   "geometry": {
    "type": "Point",
    "coordinates": [
     146.04590721,
     -17.68389579
    ]
   },
   "properties": {
    "name": "4 ALDRIDGE ROAD COWLEY 4871",
    "locID": "LOC000004957271",
    "tech": "WIRELESS",
    "upgrade": "NULL_NA",
    "gnaf_pid": "GAQLD160584254",
    "tech_change_status": "Not Planned",
    "program_type": "Fixed Wireless and Satellite Upgrade Program",
    "target_eligibility_quarter": "NA"
   }
  },
  {
   "type": "Feature",
   "geometry": {
    "type": "Point",
    "coordinates": [
     146.05757062,
     -17.6838879
    ]
   },
   "properties": {
    "name": "141 ALDRIDGE ROAD COWLEY 4871",
    "locID": "LOC000031789767",
    "tech": "WIRELESS",
    "upgrade": "NULL_NA",
    "gnaf_pid": "GAQLD160584255",
    "tech_change_status": "Not Planned",
    "program_type": "Fixed Wireless and Satellite Upgrade Program",
    "target_eligibility_quarter": "NA"
   }
  },
  {
   "type": "Feature",
   "geometry": {
    "type": "Point",
    "coordinates": [
     146.05958205,
     -17.68454535
    ]
   },
   "properties": {
    "name": "164 ALDRIDGE ROAD COWLEY 4871",
    "locID": "LOC000047066032",
    "tech": "WIRELESS",
    "upgrade": "NULL_NA",
    "gnaf_pid": "GAQLD160584256",
    "tech_change_status": "Not Planned",
    "program_type": "Fixed Wireless and Satellite Upgrade Program",
    "target_eligibility_quarter": "NA"
   }
  },
  {
   "type": "Feature",
   "geometry": {
    "type": "Point",
    "coordinates": [
     146.05517911,
     -17.70157588
    ]
   },
   "properties": {
    "name": "56 COWLEY BEACH ROAD COWLEY 4871",
    "locID": "LOC000001797968",
    "tech": "WIRELESS",
    "upgrade": "NULL_NA",
    "gnaf_pid": "GAQLD160594042",
    "tech_change_status": "Not Planned",
    "program_type": "Fixed Wireless and Satellite Upgrade Program",
    "target_eligibility_quarter": "NA"
   }
  },
  {
   "type": "Feature",
   "geometry": {
    "type": "Point",
    "coordinates": [
     146.04555453,
     -17.70896251
    ]
   },
   "properties": {
    "name": "16 COWLEY CREEK ROAD COWLEY 4871",
    "locID": "LOC000106084395",
    "tech": "SATELLITE",
    "upgrade": "WIRELESS",
    "gnaf_pid": "GAQLD160594054",
    "tech_change_status": "Eligible to Order"
   }
  },
  {
   "type": "Feature",
   "geometry": {
    "type": "Point",
    "coordinates": [
     146.0551945,
     -17.6739205
    ]
   },
   "properties": {
    "name": "52 WELLS ROAD COWLEY 4871",
    "locID": "LOC000108394743",
    "tech": "WIRELESS",
    "upgrade": "NULL_NA",
    "gnaf_pid": "GAQLD160594279",
    "tech_change_status": "Not Planned",
    "program_type": "Fixed Wireless and Satellite Upgrade Program",
    "target_eligibility_quarter": "NA"
   }
  },
  {
   "type": "Feature",
   "geometry": {
    "type": "Point",
    "coordinates": [
     146.04458866,
     -17.67426332
    ]
   },
   "properties": {
    "name": "62762 BRUCE HIGHWAY COWLEY 4871",
    "locID": "LOC000008491099",
    "tech": "WIRELESS",
    "upgrade": "NULL_NA",
    "gnaf_pid": "GAQLD160594301",
    "tech_change_status": "Not Planned",
    "program_type": "Fixed Wireless and Satellite Upgrade Program",
    "target_eligibility_quarter": "NA"
   }
  },
  {
   "type": "Feature",
   "geometry": {
    "type": "Point",
    "coordinates": [
     146.05082154,
     -17.69243093
    ]
   },
   "properties": {
    "name": "1B COWLEY BEACH ROAD COWLEY 4871",
    "locID": "LOC000096134716",
    "tech": "WIRELESS",
    "upgrade": "NULL_NA",
    "gnaf_pid": "GAQLD160594304",
    "tech_change_status": "Not Planned",
    "program_type": "Fixed Wireless and Satellite Upgrade Program",
    "target_eligibility_quarter": "NA"
   }
  },
  {
   "type": "Feature",
   "geometry": {
    "type": "Point",
    "coordinates": [
     146.05144841,
     -17.69703572
    ]
   },
   "properties": {
    "name": "1A COWLEY BEACH ROAD COWLEY 4871",
    "locID": "LOC000096336003",
    "tech": "WIRELESS",
    "upgrade": "NULL_NA",
    "gnaf_pid": "GAQLD160594305",
    "tech_change_status": "Not Planned",
    "program_type": "Fixed Wireless and Satellite Upgrade Program",
    "target_eligibility_quarter": "NA"
   }
  },
  {
   "type": "Feature",
   "geometry": {
    "type": "Point",
    "coordinates": [
     146.05780122,
     -17.66959747
    ]
   },
   "properties": {
    "name": "87 EDEN ROAD COWLEY 4871",
    "locID": "LOC000015767831",
    "tech": "WIRELESS",
    "upgrade": "NULL_NA",
    "gnaf_pid": "GAQLD160595027",
    "tech_change_status": "Not Planned",
    "program_type": "Fixed Wireless and Satellite Upgrade Program",
    "target_eligibility_quarter": "NA"
   }
  },
  {
   "type": "Feature",
   "geometry": {
    "type": "Point",
    "coordinates": [
     146.06230427,
     -17.67740022
    ]
   },
   "properties": {
    "name": "2 WELLS ROAD COWLEY 4871",
    "locID": "LOC000108394743",
    "tech": "WIRELESS",
    "upgrade": "NULL_NA",
    "gnaf_pid": "GAQLD160595030",
    "tech_change_status": "Not Planned",
    "program_type": "Fixed Wireless and Satellite Upgrade Program",
    "target_eligibility_quarter": "NA"
   }
  },
  {
   "type": "Feature",
   "geometry": {
    "type": "Point",
    "coordinates": [
     146.04461554,
     -17.68677995
    ]
   },
   "properties": {
    "name": "LOT 1 ALDRIDGE ROAD COWLEY 4871",
    "locID": "LOC000047066032",
    "tech": "WIRELESS",
    "upgrade": "NULL_NA",
    "gnaf_pid": "GAQLD161045358",
    "tech_change_status": "Not Planned",
    "program_type": "Fixed Wireless and Satellite Upgrade Program",
    "target_eligibility_quarter": "NA"
   }
  },
  {
   "type": "Feature",
   "geometry": {
    "type": "Point",
    "coordinates": [
     146.05359306,
     -17.68136124
    ]
   },
   "properties": {
    "name": "LOT 3 ALDRIDGE ROAD COWLEY 4871",
    "locID": "LOC000004957271",
    "tech": "WIRELESS",
    "upgrade": "NULL_NA",
    "gnaf_pid": "GAQLD161045360",
    "tech_change_status": "Not Planned",
    "program_type": "Fixed Wireless and Satellite Upgrade Program",
    "target_eligibility_quarter": "NA"
   }
  },
  {
   "type": "Feature",
   "geometry": {
    "type": "Point",
    "coordinates": [
     146.05935782,
     -17.68797579
    ]
   },
   "properties": {
    "name": "LOT 4 ALDRIDGE ROAD COWLEY 4871",
    "locID": "LOC000004957271",
    "tech": "WIRELESS",
    "upgrade": "NULL_NA",
    "gnaf_pid": "GAQLD161045361",
    "tech_change_status": "Not Planned",
    "program_type": "Fixed Wireless and Satellite Upgrade Program",
    "target_eligibility_quarter": "NA"
   }
  },
  {
   "type": "Feature",
   "geometry": {
    "type": "Point",
    "coordinates": [
     146.05389742,
     -17.68972507
    ]
   },
   "properties": {
    "name": "LOT 5 ALDRIDGE ROAD COWLEY 4871",
    "locID": "LOC000004957271",
    "tech": "WIRELESS",
    "upgrade": "NULL_NA",
    "gnaf_pid": "GAQLD161045362",
    "tech_change_status": "Not Planned",
    "program_type": "Fixed Wireless and Satellite Upgrade Program",
    "target_eligibility_quarter": "NA"
   }
  },
  {
   "type": "Feature",
   "geometry": {
    "type": "Point",
    "coordinates": [
     146.05339646,
     -17.70072813
    ]
   },
   "properties": {
    "name": "LOT 2 COWLEY BEACH ROAD COWLEY 4871",
    "locID": "LOC100081394882",
    "tech": "SATELLITE",
    "upgrade": "NULL_NA",
    "gnaf_pid": "GAQLD161113671",
    "tech_change_status": "Not Planned"
   }
  },
  {
   "type": "Feature",
   "geometry": {
    "type": "Point",
    "coordinates": [
     146.05413603,
     -17.69627698
    ]
   },
   "properties": {
    "name": "LOT 9 COWLEY BEACH ROAD COWLEY 4871",
    "locID": "LOC100077999503",
    "tech": "NULL",
    "upgrade": "NULL_NA",
    "gnaf_pid": "GAQLD161113673",
    "tech_change_status": "Not Planned"
   }
  },
  {
   "type": "Feature",
   "geometry": {
    "type": "Point",
    "coordinates": [
     146.0503481,
     -17.71461489
    ]
   },
   "properties": {
    "name": "LOT 1 COWLEY CREEK ROAD COWLEY 4871",
    "locID": "LOC000041458173",
    "tech": "WIRELESS",
    "upgrade": "NULL_NA",
    "gnaf_pid": "GAQLD161113692",
    "tech_change_status": "Not Planned",
    "program_type": "Fixed Wireless and Satellite Upgrade Program",
    "target_eligibility_quarter": "NA"
   }
  },
  {
   "type": "Feature",
   "geometry": {
    "type": "Point",
    "coordinates": [
     146.0489721,
     -17.65571352
    ]
   },
   "properties": {
    "name": "LOT 1 EDEN ROAD COWLEY 4871",
    "locID": "LOC000015767831",
    "tech": "WIRELESS",
    "upgrade": "NULL_NA",
    "gnaf_pid": "GAQLD161135022",
    "tech_change_status": "Not Planned",
    "program_type": "Fixed Wireless and Satellite Upgrade Program",
    "target_eligibility_quarter": "NA"
   }
  },
  {
   "type": "Feature",
   "geometry": {
    "type": "Point",
    "coordinates": [
     146.06242826,
     -17.6611934
    ]
   },
   "properties": {
    "name": "LOT 268 EDEN ROAD COWLEY 4871",
    "locID": "LOC000015767831",
    "tech": "WIRELESS",
    "upgrade": "NULL_NA",
    "gnaf_pid": "GAQLD161135023",
    "tech_change_status": "Not Planned",
    "program_type": "Fixed Wireless and Satellite Upgrade Program",
    "target_eligibility_quarter": "NA"
   }
  },
  {
   "type": "Feature",
   "geometry": {
    "type": "Point",
    "coordinates": [
     146.06218328,
     -17.6666231
    ]
   },
   "properties": {
    "name": "LOT 270 EDEN ROAD COWLEY 4871",
    "locID": "LOC000015767831",
    "tech": "WIRELESS",
    "upgrade": "NULL_NA",
    "gnaf_pid": "GAQLD161135024",
    "tech_change_status": "Not Planned",
    "program_type": "Fixed Wireless and Satellite Upgrade Program",
    "target_eligibility_quarter": "NA"
   }
  },
  {
   "type": "Feature",
   "geometry": {
    "type": "Point",
    "coordinates": [
     146.06219494,
     -17.67128894
    ]
   },
   "properties": {
    "name": "LOT 272 EDEN ROAD COWLEY 4871",
    "locID": "LOC000015767831",
    "tech": "WIRELESS",
    "upgrade": "NULL_NA",
    "gnaf_pid": "GAQLD161135025",
    "tech_change_status": "Not Planned",
    "program_type": "Fixed Wireless and Satellite Upgrade Program",
    "target_eligibility_quarter": "NA"
   }
  },
  {
   "type": "Feature",
   "geometry": {
    "type": "Point",
    "coordinates": [
     146.0608428,
     -17.67247453
    ]
   },
   "properties": {
    "name": "LOT 274 EDEN ROAD COWLEY 4871",
    "locID": "LOC000015767831",
    "tech": "WIRELESS",
    "upgrade": "NULL_NA",
    "gnaf_pid": "GAQLD161135026",
    "tech_change_status": "Not Planned",
    "program_type": "Fixed Wireless and Satellite Upgrade Program",
    "target_eligibility_quarter": "NA"
   }
  },
  {
   "type": "Feature",
   "geometry": {
    "type": "Point",
    "coordinates": [
     146.05690123,
     -17.66781283
    ]
   },
   "properties": {
    "name": "LOT 285 EDEN ROAD COWLEY 4871",
    "locID": "LOC000015767831",
    "tech": "WIRELESS",
    "upgrade": "NULL_NA",
    "gnaf_pid": "GAQLD161135028",
    "tech_change_status": "Not Planned",
    "program_type": "Fixed Wireless and Satellite Upgrade Program",
    "target_eligibility_quarter": "NA"
   }
  },
  {
   "type": "Feature",
   "geometry": {
    "type": "Point",
    "coordinates": [
     146.0593955,
     -17.65423919
    ]
   },
   "properties": {
    "name": "LOT 294 EDEN ROAD COWLEY 4871",
    "locID": "LOC000015767831",
    "tech": "WIRELESS",
    "upgrade": "NULL_NA",
    "gnaf_pid": "GAQLD161135031",
    "tech_change_status": "Not Planned",
    "program_type": "Fixed Wireless and Satellite Upgrade Program",
    "target_eligibility_quarter": "NA"
   }
  },
  {
   "type": "Feature",
   "geometry": {
    "type": "Point",
    "coordinates": [
     146.06061566,
     -17.67544086
    ]
   },
   "properties": {
    "name": "LOT 308 EDEN ROAD COWLEY 4871",
    "locID": "LOC000015767831",
    "tech": "WIRELESS",
    "upgrade": "NULL_NA",
    "gnaf_pid": "GAQLD161135032",
    "tech_change_status": "Not Planned",
    "program_type": "Fixed Wireless and Satellite Upgrade Program",
    "target_eligibility_quarter": "NA"
   }
  },
  {
   "type": "Feature",
   "geometry": {
    "type": "Point",
    "coordinates": [
     146.06228288,
     -17.66407391
    ]
   },
   "properties": {
    "name": "LOT 313 EDEN ROAD COWLEY 4871",
    "locID": "LOC000015767831",
    "tech": "WIRELESS",
    "upgrade": "NULL_NA",
    "gnaf_pid": "GAQLD161135033",
    "tech_change_status": "Not Planned",
    "program_type": "Fixed Wireless and Satellite Upgrade Program",
    "target_eligibility_quarter": "NA"
   }
  },
  {
   "type": "Feature",
   "geometry": {
    "type": "Point",
    "coordinates": [
     146.06210045,
     -17.66915405
    ]
   },
   "properties": {
    "name": "LOT 314 EDEN ROAD COWLEY 4871",
    "locID": "LOC000015767831",
    "tech": "WIRELESS",
    "upgrade": "NULL_NA",
    "gnaf_pid": "GAQLD161135034",
    "tech_change_status": "Not Planned",
    "program_type": "Fixed Wireless and Satellite Upgrade Program",
    "target_eligibility_quarter": "NA"
   }
  },
  {
   "type": "Feature",
   "geometry": {
    "type": "Point",
    "coordinates": [
     146.0607841,
     -17.67297413
    ]
   },
   "properties": {
    "name": "LOT 327 EDEN ROAD COWLEY 4871",
    "locID": "LOC000015767831",
    "tech": "WIRELESS",
    "upgrade": "NULL_NA",
    "gnaf_pid": "GAQLD161135035",
    "tech_change_status": "Not Planned",
    "program_type": "Fixed Wireless and Satellite Upgrade Program",
    "target_eligibility_quarter": "NA"
   }
  },
  {
   "type": "Feature",
   "geometry": {
    "type": "Point",
    "coordinates": [
     146.06072868,
     -17.67345436
    ]
   },
   "properties": {
    "name": "LOT 328 EDEN ROAD COWLEY 4871",
    "locID": "LOC000015767831",
    "tech": "WIRELESS",
    "upgrade": "NULL_NA",
    "gnaf_pid": "GAQLD161135036",
    "tech_change_status": "Not Planned",
    "program_type": "Fixed Wireless and Satellite Upgrade Program",
    "target_eligibility_quarter": "NA"
   }
  },
  {
   "type": "Feature",
   "geometry": {
    "type": "Point",
    "coordinates": [
     146.05976935,
     -17.65165377
    ]
   },
   "properties": {
    "name": "LOT 333 EDEN ROAD COWLEY 4871",
    "locID": "LOC000015767831",
    "tech": "WIRELESS",
    "upgrade": "NULL_NA",
    "gnaf_pid": "GAQLD161135037",
    "tech_change_status": "Not Planned",
    "program_type": "Fixed Wireless and Satellite Upgrade Program",
    "target_eligibility_quarter": "NA"
   }
  },
  {
   "type": "Feature",
   "geometry": {
    "type": "Point",
    "coordinates": [
     146.06307951,
     -17.65025571
    ]
   },
   "properties": {
    "name": "LOT 4 EDEN ROAD COWLEY 4871",
    "locID": "LOC000015767831",
    "tech": "WIRELESS",
    "upgrade": "NULL_NA",
    "gnaf_pid": "GAQLD161135038",
    "tech_change_status": "Not Planned",
    "program_type": "Fixed Wireless and Satellite Upgrade Program",
    "target_eligibility_quarter": "NA"
   }
  },
  {
   "type": "Feature",
   "geometry": {
    "type": "Point",
    "coordinates": [
     146.06710339,
     -17.67715681
    ]
   },
   "properties": {
    "name": "LOT 275 MARWICK ROAD COWLEY 4871",
    "locID": "LOC000070006618",
    "tech": "WIRELESS",
    "upgrade": "NULL_NA",
    "gnaf_pid": "GAQLD161227964",
    "tech_change_status": "Not Planned",
    "program_type": "Fixed Wireless and Satellite Upgrade Program",
    "target_eligibility_quarter": "Dec 2024"
   }
  },
  {
   "type": "Feature",
   "geometry": {
    "type": "Point",
    "coordinates": [
     146.06657843,
     -17.67417033
    ]
   },
   "properties": {
    "name": "LOT 315 MARWICK ROAD COWLEY 4871",
    "locID": "LOC000070006618",
    "tech": "WIRELESS",
    "upgrade": "NULL_NA",
    "gnaf_pid": "GAQLD161227966",
    "tech_change_status": "Not Planned",
    "program_type": "Fixed Wireless and Satellite Upgrade Program",
    "target_eligibility_quarter": "Dec 2024"
   }
  },
  {
   "type": "Feature",
   "geometry": {
    "type": "Point",
    "coordinates": [
     146.05529658,
     -17.68059203
    ]
   },
   "properties": {
    "name": "LOT 214 WELLS ROAD COWLEY 4871",
    "locID": "LOC000108394743",
    "tech": "WIRELESS",
    "upgrade": "NULL_NA",
    "gnaf_pid": "GAQLD161350294",
    "tech_change_status": "Not Planned",
    "program_type": "Fixed Wireless and Satellite Upgrade Program",
    "target_eligibility_quarter": "NA"
   }
  },
  {
   "type": "Feature",
   "geometry": {
    "type": "Point",
    "coordinates": [
     146.06508227,
     -17.6813649
    ]
   },
   "properties": {
    "name": "LOT 338 WELLS ROAD COWLEY 4871",
    "locID": "LOC000108394743",
    "tech": "WIRELESS",
    "upgrade": "NULL_NA",
    "gnaf_pid": "GAQLD161350295",
    "tech_change_status": "Not Planned",
    "program_type": "Fixed Wireless and Satellite Upgrade Program",
    "target_eligibility_quarter": "NA"
   }
  },
  {
   "type": "Feature",
   "geometry": {
    "type": "Point",
    "coordinates": [
     146.04535517,
     -17.69179326
    ]
   },
   "properties": {
    "name": "LOT 9 BRUCE HIGHWAY COWLEY 4871",
    "locID": "LOC000056791730",
    "tech": "WIRELESS",
    "upgrade": "NULL_NA",
    "gnaf_pid": "GAQLD162298086",
    "tech_change_status": "Not Planned",
    "program_type": "Fixed Wireless and Satellite Upgrade Program",
    "target_eligibility_quarter": "NA"
   }
  },
  {
   "type": "Feature",
   "geometry": {
    "type": "Point",
    "coordinates": [
     146.06367329,
     -17.67765947
    ]
   },
   "properties": {
    "name": "78 MARWICK ROAD COWLEY 4871",
    "locID": "LOC000070006618",
    "tech": "WIRELESS",
    "upgrade": "NULL_NA",
    "gnaf_pid": "GAQLD162455685",
    "tech_change_status": "Not Planned",
    "program_type": "Fixed Wireless and Satellite Upgrade Program",
    "target_eligibility_quarter": "Dec 2024"
   }
  },
  {
   "type": "Feature",
   "geometry": {
    "type": "Point",
    "coordinates": [
     146.04694238,
     -17.69567368
    ]
   },
   "properties": {
    "name": "LOT 107 BRUCE HIGHWAY COWLEY 4871",
    "locID": "LOC000004210982",
    "tech": "FTTN",
    "upgrade": "FTTP_NA",
    "gnaf_pid": "GAQLD162598958",
    "tech_change_status": "MDU Complex Eligible To Apply",
    "program_type": "Customer-initiated N2P MDU Complex"
   }
  },
  {
   "type": "Feature",
   "geometry": {
    "type": "Point",
    "coordinates": [
     146.05077907,
     -17.70910209
    ]
   },
   "properties": {
    "name": "LOT 207 BRUCE HIGHWAY COWLEY 4871",
    "locID": "LOC000020814465",
    "tech": "FTTP",
    "upgrade": "FTTP_NA",
    "gnaf_pid": "GAQLD162598960",
    "tech_change_status": "Previous Tech Disconnected",
    "program_type": "On-Demand N2P SDU/MDU Simple",
    "target_eligibility_quarter": "NA"
   }
  },
  {
   "type": "Feature",
   "geometry": {
    "type": "Point",
    "coordinates": [
     146.05134644,
     -17.69078971
    ]
   },
   "properties": {
    "name": "LOT 20 BRUCE HIGHWAY COWLEY 4871",
    "locID": "LOC100079658463",
    "tech": "WIRELESS",
    "upgrade": "NULL_NA",
    "gnaf_pid": "GAQLD162598961",
    "tech_change_status": "Not Planned",
    "program_type": "Fixed Wireless and Satellite Upgrade Program",
    "target_eligibility_quarter": "Dec 2024"
   }
  },
  {
   "type": "Feature",
   "geometry": {
    "type": "Point",
    "coordinates": [
     146.05193199,
     -17.69852921
    ]
   },
   "properties": {
    "name": "LOT 22 BRUCE HIGHWAY COWLEY 4871",
    "locID": "LOC000041422817",
    "tech": "WIRELESS",
    "upgrade": "NULL_NA",
    "gnaf_pid": "GAQLD162598962",
    "tech_change_status": "Not Planned",
    "program_type": "Fixed Wireless and Satellite Upgrade Program",
    "target_eligibility_quarter": "NA"
   }
  },
  {
   "type": "Feature",
   "geometry": {
    "type": "Point",
    "coordinates": [
     146.04860257,
     -17.69314641
    ]
   },
   "properties": {
    "name": "LOT 97 BRUCE HIGHWAY COWLEY 4871",
    "locID": "LOC000063172564",
    "tech": "FTTN",
    "upgrade": "FTTP_SA",
    "gnaf_pid": "GAQLD162598963",
    "tech_change_status": "Eligible to Order",
    "program_type": "On-Demand N2P SDU/MDU Simple",
    "target_eligibility_quarter": "NA"
   }
  },
  {
   "type": "Feature",
   "geometry": {
    "type": "Point",
    "coordinates": [
     146.04719538,
     -17.67192316
    ]
   },
   "properties": {
    "name": "LOT 1 BRUCE HIGHWAY COWLEY 4871",
    "locID": "LOC000047693624",
    "tech": "WIRELESS",
    "upgrade": "NULL_NA",
    "gnaf_pid": "GAQLD162862948",
    "tech_change_status": "Not Planned",
    "program_type": "Fixed Wireless and Satellite Upgrade Program",
    "target_eligibility_quarter": "NA"
   }
  },
  {
   "type": "Feature",
   "geometry": {
    "type": "Point",
    "coordinates": [
     146.05884639,
     -17.65215573
    ]
   },
   "properties": {
    "name": "LOT 1 NEWMAN ROAD COWLEY 4871",
    "locID": "LOC000021559269",
    "tech": "WIRELESS",
    "upgrade": "NULL_NA",
    "gnaf_pid": "GAQLD424935428",
    "tech_change_status": "Not Planned",
    "program_type": "Fixed Wireless and Satellite Upgrade Program",
    "target_eligibility_quarter": "Dec 2024"
   }
  },
  {
   "type": "Feature",
   "geometry": {
    "type": "Point",
    "coordinates": [
     146.04334924,
     -17.68309685
    ]
   },
   "properties": {
    "name": "62663 BRUCE HIGHWAY COWLEY 4871",
    "locID": "LOC100071886944",
    "tech": "WIRELESS",
    "upgrade": "NULL_NA",
    "gnaf_pid": "GAQLD425644529",
    "tech_change_status": "Not Planned",
    "program_type": "Fixed Wireless and Satellite Upgrade Program",
    "target_eligibility_quarter": "NA"
   }
  },
  {
   "type": "Feature",
   "geometry": {
    "type": "Point",
    "coordinates": [
     146.04535517,
     -17.69179326
    ]
   },
   "properties": {
    "name": "LOT 8 BRUCE HIGHWAY COWLEY 4871",
    "locID": "LOC000113579347",
    "tech": "FTTN",
    "upgrade": "FTTP_SA",
    "gnaf_pid": "GAQLD425644530",
    "tech_change_status": "Eligible to Order",
    "program_type": "On-Demand N2P SDU/MDU Simple",
    "target_eligibility_quarter": "NA"
   }
  },
  {
   "type": "Feature",
   "geometry": {
    "type": "Point",
    "coordinates": [
     146.05419657,
     -17.69902718
    ]
   },
   "properties": {
    "name": "LOT 112 COWLEY BEACH ROAD COWLEY 4871",
    "locID": "LOC000076467735",
    "tech": "WIRELESS",
    "upgrade": "NULL_NA",
    "gnaf_pid": "GAQLD425766749",
    "tech_change_status": "Not Planned",
    "program_type": "Fixed Wireless and Satellite Upgrade Program",
    "target_eligibility_quarter": "NA"
   }
  },
  {
   "type": "Feature",
   "geometry": {
    "type": "Point",
    "coordinates": [
     146.05189077,
     -17.66421914
    ]
   },
   "properties": {
    "name": "LOT 1 GILL ROAD COWLEY 4871",
    "locID": "LOC100077999250",
    "tech": "WIRELESS",
    "upgrade": "NULL_NA",
    "gnaf_pid": "GAQLD425767647",
    "tech_change_status": "Not Planned",
    "program_type": "Fixed Wireless and Satellite Upgrade Program",
    "target_eligibility_quarter": "Dec 2024"
   }
  },
  {
   "type": "Feature",
   "geometry": {
    "type": "Point",
    "coordinates": [
     146.07351097,
     -17.68557993
    ]
   },
   "properties": {
    "name": "LOT 1 GANGEMI ROAD COWLEY 4871",
    "locID": "LOC000081879675",
    "tech": "WIRELESS",
    "upgrade": "NULL_NA",
    "gnaf_pid": "GAQLD719446003",
    "tech_change_status": "Not Planned",
    "program_type": "Fixed Wireless and Satellite Upgrade Program",
    "target_eligibility_quarter": "NA"
   }
  },
  {
   "type": "Feature",
   "geometry": {
    "type": "Point",
    "coordinates": [
     146.07452386,
     -17.68134008
    ]
   },
   "properties": {
    "name": "LOT 3 GANGEMI ROAD COWLEY 4871",
    "locID": "LOC000109383037",
    "tech": "WIRELESS",
    "upgrade": "NULL_NA",
    "gnaf_pid": "GAQLD719450665",
    "tech_change_status": "Not Planned",
    "program_type": "Fixed Wireless and Satellite Upgrade Program",
    "target_eligibility_quarter": "NA"
   }
  },
  {
   "type": "Feature",
   "geometry": {
    "type": "Point",
    "coordinates": [
     146.05419657,
     -17.69902718
    ]
   },
   "properties": {
    "name": "13 COWLEY BEACH ROAD COWLEY 4871",
    "locID": "LOC000009140918",
    "tech": "WIRELESS",
    "upgrade": "NULL_NA",
    "gnaf_pid": "GAQLD721077217",
    "tech_change_status": "Not Planned",
    "program_type": "Fixed Wireless and Satellite Upgrade Program",
    "target_eligibility_quarter": "NA"
   }
  },
  {
   "type": "Feature",
   "geometry": {
    "type": "Point",
    "coordinates": [
     146.05406852,
     -17.68006458
    ]
   },
   "properties": {
    "name": "5 POPPI ROAD COWLEY 4871",
    "locID": "LOC000108378540",
    "tech": "WIRELESS",
    "upgrade": "NULL_NA",
    "gnaf_pid": "GAQLD721081792",
    "tech_change_status": "Not Planned",
    "program_type": "Fixed Wireless and Satellite Upgrade Program",
    "target_eligibility_quarter": "NA"
   }
  }
 ]
}