{
 "type": "FeatureCollection",
 "generated": "2024-11-06T15:08:37.833545",
 "suburb": "GLENDALE",
 "features": [
  {
   "type": "Feature",
   "geometry": {
    "type": "Point",
    "coordinates": [
     150.42763291,
     -23.25410773
    ]
   },
   "properties": {
    "name": "LOT 2 BELMONT ROAD GLENDALE 4711",
    "locID": "LOC000010397891",
    "tech": "WIRELESS",
    "upgrade": "NULL_NA",
    "gnaf_pid": "GAQLD155327373",
    "tech_change_status": "Not Planned",
    "program_type": "Fixed Wireless and Satellite Upgrade Program",
    "target_eligibility_quarter": "NA"
   }
  },
  {
   "type": "Feature",
   "geometry": {
    "type": "Point",
    "coordinates": [
     150.43670207,
     -23.25662677
    ]
   },
   "properties": {
    "name": "1008 BELMONT ROAD GLENDALE 4711",
    "locID": "LOC000090099621",
    "tech": "WIRELESS",
    "upgrade": "NULL_NA",
    "gnaf_pid": "GAQLD155327374",
    "tech_change_status": "Not Planned",
    "program_type": "Fixed Wireless and Satellite Upgrade Program",
    "target_eligibility_quarter": "NA"
   }
  },
  {
   "type": "Feature",
   "geometry": {
    "type": "Point",
    "coordinates": [
     150.43640482,
     -23.25523948
    ]
   },
   "properties": {
    "name": "1018 BELMONT ROAD GLENDALE 4711",
    "locID": "LOC000062959507",
    "tech": "WIRELESS",
    "upgrade": "NULL_NA",
    "gnaf_pid": "GAQLD155327375",
    "tech_change_status": "Not Planned",
    "program_type": "Fixed Wireless and Satellite Upgrade Program",
    "target_eligibility_quarter": "NA"
   }
  },
  {
   "type": "Feature",
   "geometry": {
    "type": "Point",
    "coordinates": [
     150.43382545,
     -23.25397071
    ]
   },
   "properties": {
    "name": "1036 BELMONT ROAD GLENDALE 4711",
    "locID": "LOC000072764472",
    "tech": "WIRELESS",
    "upgrade": "NULL_NA",
    "gnaf_pid": "GAQLD155327376",
    "tech_change_status": "Not Planned",
    "program_type": "Fixed Wireless and Satellite Upgrade Program",
    "target_eligibility_quarter": "NA"
   }
  },
  {
   "type": "Feature",
   "geometry": {
    "type": "Point",
    "coordinates": [
     150.43701185,
     -23.25418162
    ]
   },
   "properties": {
    "name": "1038 BELMONT ROAD GLENDALE 4711",
    "locID": "LOC000032862349",
    "tech": "WIRELESS",
    "upgrade": "NULL_NA",
    "gnaf_pid": "GAQLD155327377",
    "tech_change_status": "Not Planned",
    "program_type": "Fixed Wireless and Satellite Upgrade Program",
    "target_eligibility_quarter": "NA"
   }
  },
  {
   "type": "Feature",
   "geometry": {
    "type": "Point",
    "coordinates": [
     150.43863296,
     -23.25272327
    ]
   },
   "properties": {
    "name": "1040 BELMONT ROAD GLENDALE 4711",
    "locID": "LOC000090991326",
    "tech": "SATELLITE",
    "upgrade": "NULL_NA",
    "gnaf_pid": "GAQLD155327378",
    "tech_change_status": "Not Planned"
   }
  },
  {
   "type": "Feature",
   "geometry": {
    "type": "Point",
    "coordinates": [
     150.43834105,
     -23.24977054
    ]
   },
   "properties": {
    "name": "1042 BELMONT ROAD GLENDALE 4711",
    "locID": "LOC000074421613",
    "tech": "WIRELESS",
    "upgrade": "NULL_NA",
    "gnaf_pid": "GAQLD155327379",
    "tech_change_status": "Not Planned"
   }
  },
  {
   "type": "Feature",
   "geometry": {
    "type": "Point",
    "coordinates": [
     150.43357465,
     -23.25225174
    ]
   },
   "properties": {
    "name": "1048 BELMONT ROAD GLENDALE 4711",
    "locID": "LOC000041612521",
    "tech": "WIRELESS",
    "upgrade": "NULL_NA",
    "gnaf_pid": "GAQLD155327380",
    "tech_change_status": "Not Planned",
    "program_type": "Fixed Wireless and Satellite Upgrade Program",
    "target_eligibility_quarter": "NA"
   }
  },
  {
   "type": "Feature",
   "geometry": {
    "type": "Point",
    "coordinates": [
     150.4286131,
     -23.25360012
    ]
   },
   "properties": {
    "name": "1065 BELMONT ROAD GLENDALE 4711",
    "locID": "LOC000061151067",
    "tech": "WIRELESS",
    "upgrade": "NULL_NA",
    "gnaf_pid": "GAQLD155327382",
    "tech_change_status": "Not Planned",
    "program_type": "Fixed Wireless and Satellite Upgrade Program",
    "target_eligibility_quarter": "NA"
   }
  },
  {
   "type": "Feature",
   "geometry": {
    "type": "Point",
    "coordinates": [
     150.42834492,
     -23.25271755
    ]
   },
   "properties": {
    "name": "1067 BELMONT ROAD GLENDALE 4711",
    "locID": "LOC000010397891",
    "tech": "WIRELESS",
    "upgrade": "NULL_NA",
    "gnaf_pid": "GAQLD155327383",
    "tech_change_status": "Not Planned",
    "program_type": "Fixed Wireless and Satellite Upgrade Program",
    "target_eligibility_quarter": "NA"
   }
  },
  {
   "type": "Feature",
   "geometry": {
    "type": "Point",
    "coordinates": [
     150.42779003,
     -23.25191809
    ]
   },
   "properties": {
    "name": "1073 BELMONT ROAD GLENDALE 4711",
    "locID": "LOC000084425633",
    "tech": "SATELLITE",
    "upgrade": "NULL_NA",
    "gnaf_pid": "GAQLD155327385",
    "tech_change_status": "Not Planned"
   }
  },
  {
   "type": "Feature",
   "geometry": {
    "type": "Point",
    "coordinates": [
     150.42780688,
     -23.2510402
    ]
   },
   "properties": {
    "name": "1075 BELMONT ROAD GLENDALE 4711",
    "locID": "LOC000055505622",
    "tech": "WIRELESS",
    "upgrade": "NULL_NA",
    "gnaf_pid": "GAQLD155327386",
    "tech_change_status": "Not Planned",
    "program_type": "Fixed Wireless and Satellite Upgrade Program",
    "target_eligibility_quarter": "NA"
   }
  },
  {
   "type": "Feature",
   "geometry": {
    "type": "Point",
    "coordinates": [
     150.42801713,
     -23.24998984
    ]
   },
   "properties": {
    "name": "1077 BELMONT ROAD GLENDALE 4711",
    "locID": "LOC000029987036",
    "tech": "WIRELESS",
    "upgrade": "NULL_NA",
    "gnaf_pid": "GAQLD155327387",
    "tech_change_status": "Not Planned",
    "program_type": "Fixed Wireless and Satellite Upgrade Program",
    "target_eligibility_quarter": "NA"
   }
  },
  {
   "type": "Feature",
   "geometry": {
    "type": "Point",
    "coordinates": [
     150.43213606,
     -23.24824853
    ]
   },
   "properties": {
    "name": "1094 BELMONT ROAD GLENDALE 4711",
    "locID": "LOC000159277890",
    "tech": "SATELLITE",
    "upgrade": "NULL_NA",
    "gnaf_pid": "GAQLD155327388",
    "tech_change_status": "Not Planned"
   }
  },
  {
   "type": "Feature",
   "geometry": {
    "type": "Point",
    "coordinates": [
     150.43358197,
     -23.25954452
    ]
   },
   "properties": {
    "name": "35 BERRY DAIRY ROAD GLENDALE 4711",
    "locID": "LOC000053688671",
    "tech": "WIRELESS",
    "upgrade": "NULL_NA",
    "gnaf_pid": "GAQLD155327389",
    "tech_change_status": "Not Planned",
    "program_type": "Fixed Wireless and Satellite Upgrade Program",
    "target_eligibility_quarter": "NA"
   }
  },
  {
   "type": "Feature",
   "geometry": {
    "type": "Point",
    "coordinates": [
     150.42966603,
     -23.25921738
    ]
   },
   "properties": {
    "name": "37 BERRY DAIRY ROAD GLENDALE 4711",
    "locID": "LOC100081212312",
    "tech": "WIRELESS",
    "upgrade": "NULL_NA",
    "gnaf_pid": "GAQLD155327390",
    "tech_change_status": "Not Planned",
    "program_type": "Fixed Wireless and Satellite Upgrade Program",
    "target_eligibility_quarter": "NA"
   }
  },
  {
   "type": "Feature",
   "geometry": {
    "type": "Point",
    "coordinates": [
     150.43018786,
     -23.25573353
    ]
   },
   "properties": {
    "name": "38 BERRY DAIRY ROAD GLENDALE 4711",
    "locID": "LOC000081905851",
    "tech": "WIRELESS",
    "upgrade": "NULL_NA",
    "gnaf_pid": "GAQLD155327391",
    "tech_change_status": "Not Planned",
    "program_type": "Fixed Wireless and Satellite Upgrade Program",
    "target_eligibility_quarter": "NA"
   }
  },
  {
   "type": "Feature",
   "geometry": {
    "type": "Point",
    "coordinates": [
     150.43006762,
     -23.26024348
    ]
   },
   "properties": {
    "name": "39 BERRY DAIRY ROAD GLENDALE 4711",
    "locID": "LOC000021568602",
    "tech": "WIRELESS",
    "upgrade": "NULL_NA",
    "gnaf_pid": "GAQLD155327392",
    "tech_change_status": "Not Planned",
    "program_type": "Fixed Wireless and Satellite Upgrade Program",
    "target_eligibility_quarter": "NA"
   }
  },
  {
   "type": "Feature",
   "geometry": {
    "type": "Point",
    "coordinates": [
     150.42884082,
     -23.25658964
    ]
   },
   "properties": {
    "name": "44 BERRY DAIRY ROAD GLENDALE 4711",
    "locID": "LOC000082546064",
    "tech": "WIRELESS",
    "upgrade": "NULL_NA",
    "gnaf_pid": "GAQLD155327393",
    "tech_change_status": "Not Planned",
    "program_type": "Fixed Wireless and Satellite Upgrade Program",
    "target_eligibility_quarter": "NA"
   }
  },
  {
   "type": "Feature",
   "geometry": {
    "type": "Point",
    "coordinates": [
     150.46364539,
     -23.25500351
    ]
   },
   "properties": {
    "name": "10-16 FONS DRIVE GLENDALE 4711",
    "locID": "LOC000024009689",
    "tech": "WIRELESS",
    "upgrade": "NULL_NA",
    "gnaf_pid": "GAQLD155327396",
    "tech_change_status": "Not Planned",
    "program_type": "Fixed Wireless and Satellite Upgrade Program",
    "target_eligibility_quarter": "NA"
   }
  },
  {
   "type": "Feature",
   "geometry": {
    "type": "Point",
    "coordinates": [
     150.4642477,
     -23.26308066
    ]
   },
   "properties": {
    "name": "101 FONS DRIVE GLENDALE 4711",
    "locID": "LOC000042203441",
    "tech": "WIRELESS",
    "upgrade": "NULL_NA",
    "gnaf_pid": "GAQLD155327398",
    "tech_change_status": "Not Planned",
    "program_type": "Fixed Wireless and Satellite Upgrade Program",
    "target_eligibility_quarter": "NA"
   }
  },
  {
   "type": "Feature",
   "geometry": {
    "type": "Point",
    "coordinates": [
     150.46422161,
     -23.2633999
    ]
   },
   "properties": {
    "name": "105 FONS DRIVE GLENDALE 4711",
    "locID": "LOC000043379728",
    "tech": "WIRELESS",
    "upgrade": "NULL_NA",
    "gnaf_pid": "GAQLD155327399",
    "tech_change_status": "Not Planned",
    "program_type": "Fixed Wireless and Satellite Upgrade Program",
    "target_eligibility_quarter": "NA"
   }
  },
  {
   "type": "Feature",
   "geometry": {
    "type": "Point",
    "coordinates": [
     150.46216666,
     -23.26358062
    ]
   },
   "properties": {
    "name": "114 FONS DRIVE GLENDALE 4711",
    "locID": "LOC000076381076",
    "tech": "WIRELESS",
    "upgrade": "NULL_NA",
    "gnaf_pid": "GAQLD155327400",
    "tech_change_status": "Not Planned",
    "program_type": "Fixed Wireless and Satellite Upgrade Program",
    "target_eligibility_quarter": "NA"
   }
  },
  {
   "type": "Feature",
   "geometry": {
    "type": "Point",
    "coordinates": [
     150.46200551,
     -23.26461714
    ]
   },
   "properties": {
    "name": "124 FONS DRIVE GLENDALE 4711",
    "locID": "LOC000010734223",
    "tech": "WIRELESS",
    "upgrade": "NULL_NA",
    "gnaf_pid": "GAQLD155327402",
    "tech_change_status": "Not Planned",
    "program_type": "Fixed Wireless and Satellite Upgrade Program",
    "target_eligibility_quarter": "NA"
   }
  },
  {
   "type": "Feature",
   "geometry": {
    "type": "Point",
    "coordinates": [
     150.46193562,
     -23.26588322
    ]
   },
   "properties": {
    "name": "144 FONS DRIVE GLENDALE 4711",
    "locID": "LOC000042222049",
    "tech": "WIRELESS",
    "upgrade": "NULL_NA",
    "gnaf_pid": "GAQLD155327404",
    "tech_change_status": "Not Planned",
    "program_type": "Fixed Wireless and Satellite Upgrade Program",
    "target_eligibility_quarter": "NA"
   }
  },
  {
   "type": "Feature",
   "geometry": {
    "type": "Point",
    "coordinates": [
     150.46318295,
     -23.26665547
    ]
   },
   "properties": {
    "name": "145 FONS DRIVE GLENDALE 4711",
    "locID": "LOC000019919111",
    "tech": "WIRELESS",
    "upgrade": "NULL_NA",
    "gnaf_pid": "GAQLD155327405",
    "tech_change_status": "Not Planned",
    "program_type": "Fixed Wireless and Satellite Upgrade Program",
    "target_eligibility_quarter": "NA"
   }
  },
  {
   "type": "Feature",
   "geometry": {
    "type": "Point",
    "coordinates": [
     150.46166654,
     -23.26715752
    ]
   },
   "properties": {
    "name": "146 FONS DRIVE GLENDALE 4711",
    "locID": "LOC000086028541",
    "tech": "WIRELESS",
    "upgrade": "NULL_NA",
    "gnaf_pid": "GAQLD155327406",
    "tech_change_status": "Not Planned",
    "program_type": "Fixed Wireless and Satellite Upgrade Program",
    "target_eligibility_quarter": "NA"
   }
  },
  {
   "type": "Feature",
   "geometry": {
    "type": "Point",
    "coordinates": [
     150.46242598,
     -23.26792189
    ]
   },
   "properties": {
    "name": "147 FONS DRIVE GLENDALE 4711",
    "locID": "LOC000103123038",
    "tech": "WIRELESS",
    "upgrade": "NULL_NA",
    "gnaf_pid": "GAQLD155327419",
    "tech_change_status": "Not Planned",
    "program_type": "Fixed Wireless and Satellite Upgrade Program",
    "target_eligibility_quarter": "NA"
   }
  },
  {
   "type": "Feature",
   "geometry": {
    "type": "Point",
    "coordinates": [
     150.46568766,
     -23.25598848
    ]
   },
   "properties": {
    "name": "17 FONS DRIVE GLENDALE 4711",
    "locID": "LOC000010839560",
    "tech": "WIRELESS",
    "upgrade": "NULL_NA",
    "gnaf_pid": "GAQLD155327420",
    "tech_change_status": "Not Planned",
    "program_type": "Fixed Wireless and Satellite Upgrade Program",
    "target_eligibility_quarter": "NA"
   }
  },
  {
   "type": "Feature",
   "geometry": {
    "type": "Point",
    "coordinates": [
     150.4634878,
     -23.25627318
    ]
   },
   "properties": {
    "name": "24 FONS DRIVE GLENDALE 4711",
    "locID": "LOC000095396183",
    "tech": "WIRELESS",
    "upgrade": "NULL_NA",
    "gnaf_pid": "GAQLD155327422",
    "tech_change_status": "Not Planned",
    "program_type": "Fixed Wireless and Satellite Upgrade Program",
    "target_eligibility_quarter": "NA"
   }
  },
  {
   "type": "Feature",
   "geometry": {
    "type": "Point",
    "coordinates": [
     150.46560417,
     -23.25651903
    ]
   },
   "properties": {
    "name": "25 FONS DRIVE GLENDALE 4711",
    "locID": "LOC000016717143",
    "tech": "WIRELESS",
    "upgrade": "NULL_NA",
    "gnaf_pid": "GAQLD155327423",
    "tech_change_status": "Not Planned",
    "program_type": "Fixed Wireless and Satellite Upgrade Program",
    "target_eligibility_quarter": "NA"
   }
  },
  {
   "type": "Feature",
   "geometry": {
    "type": "Point",
    "coordinates": [
     150.46345533,
     -23.25639109
    ]
   },
   "properties": {
    "name": "26 FONS DRIVE GLENDALE 4711",
    "locID": "LOC000102681511",
    "tech": "WIRELESS",
    "upgrade": "NULL_NA",
    "gnaf_pid": "GAQLD155327424",
    "tech_change_status": "Not Planned",
    "program_type": "Fixed Wireless and Satellite Upgrade Program",
    "target_eligibility_quarter": "NA"
   }
  },
  {
   "type": "Feature",
   "geometry": {
    "type": "Point",
    "coordinates": [
     150.46328376,
     -23.25808632
    ]
   },
   "properties": {
    "name": "48 FONS DRIVE GLENDALE 4711",
    "locID": "LOC000002565126",
    "tech": "WIRELESS",
    "upgrade": "NULL_NA",
    "gnaf_pid": "GAQLD155327425",
    "tech_change_status": "Not Planned",
    "program_type": "Fixed Wireless and Satellite Upgrade Program",
    "target_eligibility_quarter": "NA"
   }
  },
  {
   "type": "Feature",
   "geometry": {
    "type": "Point",
    "coordinates": [
     150.46499817,
     -23.2587686
    ]
   },
   "properties": {
    "name": "53 FONS DRIVE GLENDALE 4711",
    "locID": "LOC000082151253",
    "tech": "WIRELESS",
    "upgrade": "NULL_NA",
    "gnaf_pid": "GAQLD155327426",
    "tech_change_status": "Not Planned",
    "program_type": "Fixed Wireless and Satellite Upgrade Program",
    "target_eligibility_quarter": "NA"
   }
  },
  {
   "type": "Feature",
   "geometry": {
    "type": "Point",
    "coordinates": [
     150.46319054,
     -23.25849491
    ]
   },
   "properties": {
    "name": "54 FONS DRIVE GLENDALE 4711",
    "locID": "LOC000101711565",
    "tech": "WIRELESS",
    "upgrade": "NULL_NA",
    "gnaf_pid": "GAQLD155327427",
    "tech_change_status": "Not Planned",
    "program_type": "Fixed Wireless and Satellite Upgrade Program",
    "target_eligibility_quarter": "NA"
   }
  },
  {
   "type": "Feature",
   "geometry": {
    "type": "Point",
    "coordinates": [
     150.46507166,
     -23.25916456
    ]
   },
   "properties": {
    "name": "57 FONS DRIVE GLENDALE 4711",
    "locID": "LOC000035939273",
    "tech": "WIRELESS",
    "upgrade": "NULL_NA",
    "gnaf_pid": "GAQLD155327428",
    "tech_change_status": "Not Planned",
    "program_type": "Fixed Wireless and Satellite Upgrade Program",
    "target_eligibility_quarter": "NA"
   }
  },
  {
   "type": "Feature",
   "geometry": {
    "type": "Point",
    "coordinates": [
     150.46312316,
     -23.25883242
    ]
   },
   "properties": {
    "name": "58 FONS DRIVE GLENDALE 4711",
    "locID": "LOC000094239891",
    "tech": "WIRELESS",
    "upgrade": "NULL_NA",
    "gnaf_pid": "GAQLD155327429",
    "tech_change_status": "Not Planned",
    "program_type": "Fixed Wireless and Satellite Upgrade Program",
    "target_eligibility_quarter": "NA"
   }
  },
  {
   "type": "Feature",
   "geometry": {
    "type": "Point",
    "coordinates": [
     150.46295789,
     -23.26001387
    ]
   },
   "properties": {
    "name": "70 FONS DRIVE GLENDALE 4711",
    "locID": "LOC000043900784",
    "tech": "WIRELESS",
    "upgrade": "NULL_NA",
    "gnaf_pid": "GAQLD155327430",
    "tech_change_status": "Not Planned",
    "program_type": "Fixed Wireless and Satellite Upgrade Program",
    "target_eligibility_quarter": "NA"
   }
  },
  {
   "type": "Feature",
   "geometry": {
    "type": "Point",
    "coordinates": [
     150.4645144,
     -23.26028651
    ]
   },
   "properties": {
    "name": "75 FONS DRIVE GLENDALE 4711",
    "locID": "LOC000015305202",
    "tech": "WIRELESS",
    "upgrade": "NULL_NA",
    "gnaf_pid": "GAQLD155327431",
    "tech_change_status": "Not Planned",
    "program_type": "Fixed Wireless and Satellite Upgrade Program",
    "target_eligibility_quarter": "NA"
   }
  },
  {
   "type": "Feature",
   "geometry": {
    "type": "Point",
    "coordinates": [
     150.46281344,
     -23.26050381
    ]
   },
   "properties": {
    "name": "76 FONS DRIVE GLENDALE 4711",
    "locID": "LOC000031570731",
    "tech": "WIRELESS",
    "upgrade": "NULL_NA",
    "gnaf_pid": "GAQLD155327432",
    "tech_change_status": "Not Planned",
    "program_type": "Fixed Wireless and Satellite Upgrade Program",
    "target_eligibility_quarter": "NA"
   }
  },
  {
   "type": "Feature",
   "geometry": {
    "type": "Point",
    "coordinates": [
     150.46422398,
     -23.26261954
    ]
   },
   "properties": {
    "name": "95 FONS DRIVE GLENDALE 4711",
    "locID": "LOC000067895131",
    "tech": "WIRELESS",
    "upgrade": "NULL_NA",
    "gnaf_pid": "GAQLD155327433",
    "tech_change_status": "Not Planned",
    "program_type": "Fixed Wireless and Satellite Upgrade Program",
    "target_eligibility_quarter": "NA"
   }
  },
  {
   "type": "Feature",
   "geometry": {
    "type": "Point",
    "coordinates": [
     150.48503398,
     -23.24750876
    ]
   },
   "properties": {
    "name": "109 GLENDALE ROAD GLENDALE 4711",
    "locID": "LOC000006615119",
    "tech": "WIRELESS",
    "upgrade": "NULL_NA",
    "gnaf_pid": "GAQLD155327437",
    "tech_change_status": "Not Planned",
    "program_type": "Fixed Wireless and Satellite Upgrade Program",
    "target_eligibility_quarter": "NA"
   }
  },
  {
   "type": "Feature",
   "geometry": {
    "type": "Point",
    "coordinates": [
     150.48615631,
     -23.23903338
    ]
   },
   "properties": {
    "name": "11 GLENDALE ROAD GLENDALE 4711",
    "locID": "LOC000085276767",
    "tech": "WIRELESS",
    "upgrade": "NULL_NA",
    "gnaf_pid": "GAQLD155327438",
    "tech_change_status": "Not Planned",
    "program_type": "Fixed Wireless and Satellite Upgrade Program",
    "target_eligibility_quarter": "NA"
   }
  },
  {
   "type": "Feature",
   "geometry": {
    "type": "Point",
    "coordinates": [
     150.48376147,
     -23.23873945
    ]
   },
   "properties": {
    "name": "12 GLENDALE ROAD GLENDALE 4711",
    "locID": "LOC000039522958",
    "tech": "WIRELESS",
    "upgrade": "NULL_NA",
    "gnaf_pid": "GAQLD155327440",
    "tech_change_status": "Not Planned",
    "program_type": "Fixed Wireless and Satellite Upgrade Program",
    "target_eligibility_quarter": "NA"
   }
  },
  {
   "type": "Feature",
   "geometry": {
    "type": "Point",
    "coordinates": [
     150.48291804,
     -23.24824832
    ]
   },
   "properties": {
    "name": "128 GLENDALE ROAD GLENDALE 4711",
    "locID": "LOC000093932636",
    "tech": "WIRELESS",
    "upgrade": "NULL_NA",
    "gnaf_pid": "GAQLD155327441",
    "tech_change_status": "Not Planned",
    "program_type": "Fixed Wireless and Satellite Upgrade Program",
    "target_eligibility_quarter": "NA"
   }
  },
  {
   "type": "Feature",
   "geometry": {
    "type": "Point",
    "coordinates": [
     150.4849755,
     -23.24944024
    ]
   },
   "properties": {
    "name": "129 GLENDALE ROAD GLENDALE 4711",
    "locID": "LOC000102320572",
    "tech": "WIRELESS",
    "upgrade": "NULL_NA",
    "gnaf_pid": "GAQLD155327442",
    "tech_change_status": "Not Planned",
    "program_type": "Fixed Wireless and Satellite Upgrade Program",
    "target_eligibility_quarter": "NA"
   }
  },
  {
   "type": "Feature",
   "geometry": {
    "type": "Point",
    "coordinates": [
     150.47881199,
     -23.25191278
    ]
   },
   "properties": {
    "name": "195 GLENDALE ROAD GLENDALE 4711",
    "locID": "LOC000010721966",
    "tech": "WIRELESS",
    "upgrade": "NULL_NA",
    "gnaf_pid": "GAQLD155327532",
    "tech_change_status": "Not Planned",
    "program_type": "Fixed Wireless and Satellite Upgrade Program",
    "target_eligibility_quarter": "NA"
   }
  },
  {
   "type": "Feature",
   "geometry": {
    "type": "Point",
    "coordinates": [
     150.47676971,
     -23.25115649
    ]
   },
   "properties": {
    "name": "204 GLENDALE ROAD GLENDALE 4711",
    "locID": "LOC000177151002",
    "tech": "WIRELESS",
    "upgrade": "NULL_NA",
    "gnaf_pid": "GAQLD155327533",
    "tech_change_status": "Not Planned",
    "program_type": "Fixed Wireless and Satellite Upgrade Program",
    "target_eligibility_quarter": "NA"
   }
  },
  {
   "type": "Feature",
   "geometry": {
    "type": "Point",
    "coordinates": [
     150.47782426,
     -23.25233515
    ]
   },
   "properties": {
    "name": "207 GLENDALE ROAD GLENDALE 4711",
    "locID": "LOC000025768123",
    "tech": "WIRELESS",
    "upgrade": "NULL_NA",
    "gnaf_pid": "GAQLD155327534",
    "tech_change_status": "Not Planned",
    "program_type": "Fixed Wireless and Satellite Upgrade Program",
    "target_eligibility_quarter": "NA"
   }
  },
  {
   "type": "Feature",
   "geometry": {
    "type": "Point",
    "coordinates": [
     150.48626745,
     -23.2397278
    ]
   },
   "properties": {
    "name": "21 GLENDALE ROAD GLENDALE 4711",
    "locID": "LOC000094350204",
    "tech": "WIRELESS",
    "upgrade": "NULL_NA",
    "gnaf_pid": "GAQLD155327535",
    "tech_change_status": "Not Planned",
    "program_type": "Fixed Wireless and Satellite Upgrade Program",
    "target_eligibility_quarter": "NA"
   }
  },
  {
   "type": "Feature",
   "geometry": {
    "type": "Point",
    "coordinates": [
     150.47707406,
     -23.25300462
    ]
   },
   "properties": {
    "name": "217 GLENDALE ROAD GLENDALE 4711",
    "locID": "LOC000034929871",
    "tech": "WIRELESS",
    "upgrade": "NULL_NA",
    "gnaf_pid": "GAQLD155327536",
    "tech_change_status": "Not Planned",
    "program_type": "Fixed Wireless and Satellite Upgrade Program",
    "target_eligibility_quarter": "NA"
   }
  },
  {
   "type": "Feature",
   "geometry": {
    "type": "Point",
    "coordinates": [
     150.47642848,
     -23.25450334
    ]
   },
   "properties": {
    "name": "223 GLENDALE ROAD GLENDALE 4711",
    "locID": "LOC000031543237",
    "tech": "WIRELESS",
    "upgrade": "NULL_NA",
    "gnaf_pid": "GAQLD155327537",
    "tech_change_status": "Not Planned",
    "program_type": "Fixed Wireless and Satellite Upgrade Program",
    "target_eligibility_quarter": "NA"
   }
  },
  {
   "type": "Feature",
   "geometry": {
    "type": "Point",
    "coordinates": [
     150.47434875,
     -23.25430833
    ]
   },
   "properties": {
    "name": "245 GLENDALE ROAD GLENDALE 4711",
    "locID": "LOC000105013182",
    "tech": "WIRELESS",
    "upgrade": "NULL_NA",
    "gnaf_pid": "GAQLD155327539",
    "tech_change_status": "Not Planned",
    "program_type": "Fixed Wireless and Satellite Upgrade Program",
    "target_eligibility_quarter": "NA"
   }
  },
  {
   "type": "Feature",
   "geometry": {
    "type": "Point",
    "coordinates": [
     150.48642702,
     -23.24041352
    ]
   },
   "properties": {
    "name": "27 GLENDALE ROAD GLENDALE 4711",
    "locID": "LOC000073913187",
    "tech": "WIRELESS",
    "upgrade": "NULL_NA",
    "gnaf_pid": "GAQLD155327546",
    "tech_change_status": "Not Planned",
    "program_type": "Fixed Wireless and Satellite Upgrade Program",
    "target_eligibility_quarter": "NA"
   }
  },
  {
   "type": "Feature",
   "geometry": {
    "type": "Point",
    "coordinates": [
     150.47217385,
     -23.25833788
    ]
   },
   "properties": {
    "name": "293-297 GLENDALE ROAD GLENDALE 4711",
    "locID": "LOC000164436475",
    "tech": "WIRELESS",
    "upgrade": "NULL_NA",
    "gnaf_pid": "GAQLD155327549",
    "tech_change_status": "Not Planned",
    "program_type": "Fixed Wireless and Satellite Upgrade Program",
    "target_eligibility_quarter": "NA"
   }
  },
  {
   "type": "Feature",
   "geometry": {
    "type": "Point",
    "coordinates": [
     150.47192312,
     -23.26081631
    ]
   },
   "properties": {
    "name": "313 GLENDALE ROAD GLENDALE 4711",
    "locID": "LOC000106600084",
    "tech": "WIRELESS",
    "upgrade": "NULL_NA",
    "gnaf_pid": "GAQLD155327555",
    "tech_change_status": "Not Planned",
    "program_type": "Fixed Wireless and Satellite Upgrade Program",
    "target_eligibility_quarter": "NA"
   }
  },
  {
   "type": "Feature",
   "geometry": {
    "type": "Point",
    "coordinates": [
     150.47061778,
     -23.26094585
    ]
   },
   "properties": {
    "name": "315-321 GLENDALE ROAD GLENDALE 4711",
    "locID": "LOC000099635944",
    "tech": "WIRELESS",
    "upgrade": "NULL_NA",
    "gnaf_pid": "GAQLD155327556",
    "tech_change_status": "Not Planned",
    "program_type": "Fixed Wireless and Satellite Upgrade Program",
    "target_eligibility_quarter": "NA"
   }
  },
  {
   "type": "Feature",
   "geometry": {
    "type": "Point",
    "coordinates": [
     150.48664641,
     -23.24107853
    ]
   },
   "properties": {
    "name": "35 GLENDALE ROAD GLENDALE 4711",
    "locID": "LOC000065884878",
    "tech": "WIRELESS",
    "upgrade": "NULL_NA",
    "gnaf_pid": "GAQLD155329259",
    "tech_change_status": "Not Planned",
    "program_type": "Fixed Wireless and Satellite Upgrade Program",
    "target_eligibility_quarter": "NA"
   }
  },
  {
   "type": "Feature",
   "geometry": {
    "type": "Point",
    "coordinates": [
     150.46764588,
     -23.26311705
    ]
   },
   "properties": {
    "name": "351 GLENDALE ROAD GLENDALE 4711",
    "locID": "LOC000038303363",
    "tech": "WIRELESS",
    "upgrade": "NULL_NA",
    "gnaf_pid": "GAQLD155329260",
    "tech_change_status": "Not Planned",
    "program_type": "Fixed Wireless and Satellite Upgrade Program",
    "target_eligibility_quarter": "NA"
   }
  },
  {
   "type": "Feature",
   "geometry": {
    "type": "Point",
    "coordinates": [
     150.4860918,
     -23.23834424
    ]
   },
   "properties": {
    "name": "5 GLENDALE ROAD GLENDALE 4711",
    "locID": "LOC000065884878",
    "tech": "WIRELESS",
    "upgrade": "NULL_NA",
    "gnaf_pid": "GAQLD155329265",
    "tech_change_status": "Not Planned",
    "program_type": "Fixed Wireless and Satellite Upgrade Program",
    "target_eligibility_quarter": "NA"
   }
  },
  {
   "type": "Feature",
   "geometry": {
    "type": "Point",
    "coordinates": [
     150.4869592,
     -23.2424094
    ]
   },
   "properties": {
    "name": "51 GLENDALE ROAD GLENDALE 4711",
    "locID": "LOC000028220643",
    "tech": "WIRELESS",
    "upgrade": "NULL_NA",
    "gnaf_pid": "GAQLD155329266",
    "tech_change_status": "Not Planned",
    "program_type": "Fixed Wireless and Satellite Upgrade Program",
    "target_eligibility_quarter": "NA"
   }
  },
  {
   "type": "Feature",
   "geometry": {
    "type": "Point",
    "coordinates": [
     150.48362567,
     -23.24198938
    ]
   },
   "properties": {
    "name": "52 GLENDALE ROAD GLENDALE 4711",
    "locID": "LOC000064115091",
    "tech": "WIRELESS",
    "upgrade": "NULL_NA",
    "gnaf_pid": "GAQLD155329267",
    "tech_change_status": "Not Planned",
    "program_type": "Fixed Wireless and Satellite Upgrade Program",
    "target_eligibility_quarter": "NA"
   }
  },
  {
   "type": "Feature",
   "geometry": {
    "type": "Point",
    "coordinates": [
     150.48686887,
     -23.24313194
    ]
   },
   "properties": {
    "name": "59 GLENDALE ROAD GLENDALE 4711",
    "locID": "LOC000084213481",
    "tech": "WIRELESS",
    "upgrade": "NULL_NA",
    "gnaf_pid": "GAQLD155330751",
    "tech_change_status": "Not Planned",
    "program_type": "Fixed Wireless and Satellite Upgrade Program",
    "target_eligibility_quarter": "NA"
   }
  },
  {
   "type": "Feature",
   "geometry": {
    "type": "Point",
    "coordinates": [
     150.4775525,
     -23.24181286
    ]
   },
   "properties": {
    "name": "54 JULIE ANNE DRIVE GLENDALE 4711",
    "locID": "LOC000085417346",
    "tech": "WIRELESS",
    "upgrade": "NULL_NA",
    "gnaf_pid": "GAQLD155335292",
    "tech_change_status": "Not Planned",
    "program_type": "Fixed Wireless and Satellite Upgrade Program",
    "target_eligibility_quarter": "NA"
   }
  },
  {
   "type": "Feature",
   "geometry": {
    "type": "Point",
    "coordinates": [
     150.48566724,
     -23.2443553
    ]
   },
   "properties": {
    "name": "75 GLENDALE ROAD GLENDALE 4711",
    "locID": "LOC000004861712",
    "tech": "WIRELESS",
    "upgrade": "NULL_NA",
    "gnaf_pid": "GAQLD155337045",
    "tech_change_status": "Not Planned",
    "program_type": "Fixed Wireless and Satellite Upgrade Program",
    "target_eligibility_quarter": "NA"
   }
  },
  {
   "type": "Feature",
   "geometry": {
    "type": "Point",
    "coordinates": [
     150.48742224,
     -23.2456501
    ]
   },
   "properties": {
    "name": "91 GLENDALE ROAD GLENDALE 4711",
    "locID": "LOC000007555455",
    "tech": "WIRELESS",
    "upgrade": "NULL_NA",
    "gnaf_pid": "GAQLD155337047",
    "tech_change_status": "Not Planned",
    "program_type": "Fixed Wireless and Satellite Upgrade Program",
    "target_eligibility_quarter": "NA"
   }
  },
  {
   "type": "Feature",
   "geometry": {
    "type": "Point",
    "coordinates": [
     150.48619463,
     -23.24655861
    ]
   },
   "properties": {
    "name": "95 GLENDALE ROAD GLENDALE 4711",
    "locID": "LOC000028606706",
    "tech": "WIRELESS",
    "upgrade": "NULL_NA",
    "gnaf_pid": "GAQLD155337048",
    "tech_change_status": "Not Planned",
    "program_type": "Fixed Wireless and Satellite Upgrade Program",
    "target_eligibility_quarter": "NA"
   }
  },
  {
   "type": "Feature",
   "geometry": {
    "type": "Point",
    "coordinates": [
     150.47837107,
     -23.24728957
    ]
   },
   "properties": {
    "name": "107 JULIE ANNE DRIVE GLENDALE 4711",
    "locID": "LOC000095728834",
    "tech": "WIRELESS",
    "upgrade": "NULL_NA",
    "gnaf_pid": "GAQLD155337049",
    "tech_change_status": "Not Planned",
    "program_type": "Fixed Wireless and Satellite Upgrade Program",
    "target_eligibility_quarter": "NA"
   }
  },
  {
   "type": "Feature",
   "geometry": {
    "type": "Point",
    "coordinates": [
     150.47581945,
     -23.24534858
    ]
   },
   "properties": {
    "name": "108 JULIE ANNE DRIVE GLENDALE 4711",
    "locID": "LOC000129207387",
    "tech": "WIRELESS",
    "upgrade": "NULL_NA",
    "gnaf_pid": "GAQLD155337050",
    "tech_change_status": "Not Planned",
    "program_type": "Fixed Wireless and Satellite Upgrade Program",
    "target_eligibility_quarter": "NA"
   }
  },
  {
   "type": "Feature",
   "geometry": {
    "type": "Point",
    "coordinates": [
     150.4769217,
     -23.24762128
    ]
   },
   "properties": {
    "name": "115 JULIE ANNE DRIVE GLENDALE 4711",
    "locID": "LOC000094639997",
    "tech": "WIRELESS",
    "upgrade": "NULL_NA",
    "gnaf_pid": "GAQLD155337051",
    "tech_change_status": "Not Planned",
    "program_type": "Fixed Wireless and Satellite Upgrade Program",
    "target_eligibility_quarter": "NA"
   }
  },
  {
   "type": "Feature",
   "geometry": {
    "type": "Point",
    "coordinates": [
     150.474427,
     -23.24541311
    ]
   },
   "properties": {
    "name": "116 JULIE ANNE DRIVE GLENDALE 4711",
    "locID": "LOC000021569364",
    "tech": "WIRELESS",
    "upgrade": "NULL_NA",
    "gnaf_pid": "GAQLD155337052",
    "tech_change_status": "Not Planned",
    "program_type": "Fixed Wireless and Satellite Upgrade Program",
    "target_eligibility_quarter": "NA"
   }
  },
  {
   "type": "Feature",
   "geometry": {
    "type": "Point",
    "coordinates": [
     150.47649502,
     -23.24747017
    ]
   },
   "properties": {
    "name": "119 JULIE ANNE DRIVE GLENDALE 4711",
    "locID": "LOC000098540504",
    "tech": "WIRELESS",
    "upgrade": "NULL_NA",
    "gnaf_pid": "GAQLD155337053",
    "tech_change_status": "Not Planned",
    "program_type": "Fixed Wireless and Satellite Upgrade Program",
    "target_eligibility_quarter": "NA"
   }
  },
  {
   "type": "Feature",
   "geometry": {
    "type": "Point",
    "coordinates": [
     150.47375406,
     -23.24551515
    ]
   },
   "properties": {
    "name": "120 JULIE ANNE DRIVE GLENDALE 4711",
    "locID": "LOC000008638244",
    "tech": "WIRELESS",
    "upgrade": "NULL_NA",
    "gnaf_pid": "GAQLD155337054",
    "tech_change_status": "Not Planned",
    "program_type": "Fixed Wireless and Satellite Upgrade Program",
    "target_eligibility_quarter": "NA"
   }
  },
  {
   "type": "Feature",
   "geometry": {
    "type": "Point",
    "coordinates": [
     150.47594384,
     -23.24752223
    ]
   },
   "properties": {
    "name": "125 JULIE ANNE DRIVE GLENDALE 4711",
    "locID": "LOC000009877784",
    "tech": "WIRELESS",
    "upgrade": "NULL_NA",
    "gnaf_pid": "GAQLD155337055",
    "tech_change_status": "Not Planned",
    "program_type": "Fixed Wireless and Satellite Upgrade Program",
    "target_eligibility_quarter": "NA"
   }
  },
  {
   "type": "Feature",
   "geometry": {
    "type": "Point",
    "coordinates": [
     150.47340657,
     -23.24692746
    ]
   },
   "properties": {
    "name": "128 JULIE ANNE DRIVE GLENDALE 4711",
    "locID": "LOC000043390042",
    "tech": "WIRELESS",
    "upgrade": "NULL_NA",
    "gnaf_pid": "GAQLD155337056",
    "tech_change_status": "Not Planned",
    "program_type": "Fixed Wireless and Satellite Upgrade Program",
    "target_eligibility_quarter": "NA"
   }
  },
  {
   "type": "Feature",
   "geometry": {
    "type": "Point",
    "coordinates": [
     150.4731967,
     -23.24780525
    ]
   },
   "properties": {
    "name": "138 JULIE ANNE DRIVE GLENDALE 4711",
    "locID": "LOC000003316332",
    "tech": "WIRELESS",
    "upgrade": "NULL_NA",
    "gnaf_pid": "GAQLD155337057",
    "tech_change_status": "Not Planned",
    "program_type": "Fixed Wireless and Satellite Upgrade Program",
    "target_eligibility_quarter": "NA"
   }
  },
  {
   "type": "Feature",
   "geometry": {
    "type": "Point",
    "coordinates": [
     150.47527815,
     -23.24828056
    ]
   },
   "properties": {
    "name": "139 JULIE ANNE DRIVE GLENDALE 4711",
    "locID": "LOC000093542802",
    "tech": "WIRELESS",
    "upgrade": "NULL_NA",
    "gnaf_pid": "GAQLD155337058",
    "tech_change_status": "Not Planned",
    "program_type": "Fixed Wireless and Satellite Upgrade Program",
    "target_eligibility_quarter": "NA"
   }
  },
  {
   "type": "Feature",
   "geometry": {
    "type": "Point",
    "coordinates": [
     150.47307084,
     -23.24923286
    ]
   },
   "properties": {
    "name": "152 JULIE ANNE DRIVE GLENDALE 4711",
    "locID": "LOC000105532047",
    "tech": "WIRELESS",
    "upgrade": "NULL_NA",
    "gnaf_pid": "GAQLD155337059",
    "tech_change_status": "Not Planned",
    "program_type": "Fixed Wireless and Satellite Upgrade Program",
    "target_eligibility_quarter": "NA"
   }
  },
  {
   "type": "Feature",
   "geometry": {
    "type": "Point",
    "coordinates": [
     150.47573859,
     -23.24894012
    ]
   },
   "properties": {
    "name": "157 JULIE ANNE DRIVE GLENDALE 4711",
    "locID": "LOC000036500398",
    "tech": "WIRELESS",
    "upgrade": "NULL_NA",
    "gnaf_pid": "GAQLD155337060",
    "tech_change_status": "Not Planned",
    "program_type": "Fixed Wireless and Satellite Upgrade Program",
    "target_eligibility_quarter": "NA"
   }
  },
  {
   "type": "Feature",
   "geometry": {
    "type": "Point",
    "coordinates": [
     150.47307386,
     -23.24977275
    ]
   },
   "properties": {
    "name": "158 JULIE ANNE DRIVE GLENDALE 4711",
    "locID": "LOC000068713992",
    "tech": "WIRELESS",
    "upgrade": "NULL_NA",
    "gnaf_pid": "GAQLD155337061",
    "tech_change_status": "Not Planned",
    "program_type": "Fixed Wireless and Satellite Upgrade Program",
    "target_eligibility_quarter": "NA"
   }
  },
  {
   "type": "Feature",
   "geometry": {
    "type": "Point",
    "coordinates": [
     150.47591648,
     -23.24942908
    ]
   },
   "properties": {
    "name": "163 JULIE ANNE DRIVE GLENDALE 4711",
    "locID": "LOC000044720353",
    "tech": "WIRELESS",
    "upgrade": "NULL_NA",
    "gnaf_pid": "GAQLD155337062",
    "tech_change_status": "Not Planned",
    "program_type": "Fixed Wireless and Satellite Upgrade Program",
    "target_eligibility_quarter": "NA"
   }
  },
  {
   "type": "Feature",
   "geometry": {
    "type": "Point",
    "coordinates": [
     150.4728057,
     -23.25019686
    ]
   },
   "properties": {
    "name": "164 JULIE ANNE DRIVE GLENDALE 4711",
    "locID": "LOC000083886218",
    "tech": "WIRELESS",
    "upgrade": "NULL_NA",
    "gnaf_pid": "GAQLD155337063",
    "tech_change_status": "Not Planned",
    "program_type": "Fixed Wireless and Satellite Upgrade Program",
    "target_eligibility_quarter": "NA"
   }
  },
  {
   "type": "Feature",
   "geometry": {
    "type": "Point",
    "coordinates": [
     150.47279485,
     -23.25089809
    ]
   },
   "properties": {
    "name": "170 JULIE ANNE DRIVE GLENDALE 4711",
    "locID": "LOC000109814943",
    "tech": "WIRELESS",
    "upgrade": "NULL_NA",
    "gnaf_pid": "GAQLD155337064",
    "tech_change_status": "Not Planned",
    "program_type": "Fixed Wireless and Satellite Upgrade Program",
    "target_eligibility_quarter": "NA"
   }
  },
  {
   "type": "Feature",
   "geometry": {
    "type": "Point",
    "coordinates": [
     150.4759623,
     -23.25102366
    ]
   },
   "properties": {
    "name": "181 JULIE ANNE DRIVE GLENDALE 4711",
    "locID": "LOC000090350657",
    "tech": "WIRELESS",
    "upgrade": "NULL_NA",
    "gnaf_pid": "GAQLD155337065",
    "tech_change_status": "Not Planned",
    "program_type": "Fixed Wireless and Satellite Upgrade Program",
    "target_eligibility_quarter": "NA"
   }
  },
  {
   "type": "Feature",
   "geometry": {
    "type": "Point",
    "coordinates": [
     150.47513119,
     -23.25143164
    ]
   },
   "properties": {
    "name": "184 JULIE ANNE DRIVE GLENDALE 4711",
    "locID": "LOC000147906146",
    "tech": "WIRELESS",
    "upgrade": "NULL_NA",
    "gnaf_pid": "GAQLD155337066",
    "tech_change_status": "Not Planned",
    "program_type": "Fixed Wireless and Satellite Upgrade Program",
    "target_eligibility_quarter": "NA"
   }
  },
  {
   "type": "Feature",
   "geometry": {
    "type": "Point",
    "coordinates": [
     150.47755447,
     -23.24074858
    ]
   },
   "properties": {
    "name": "42 JULIE ANNE DRIVE GLENDALE 4711",
    "locID": "LOC000064542200",
    "tech": "WIRELESS",
    "upgrade": "NULL_NA",
    "gnaf_pid": "GAQLD155337068",
    "tech_change_status": "Not Planned",
    "program_type": "Fixed Wireless and Satellite Upgrade Program",
    "target_eligibility_quarter": "NA"
   }
  },
  {
   "type": "Feature",
   "geometry": {
    "type": "Point",
    "coordinates": [
     150.47763618,
     -23.24121179
    ]
   },
   "properties": {
    "name": "48 JULIE ANNE DRIVE GLENDALE 4711",
    "locID": "LOC000041829197",
    "tech": "WIRELESS",
    "upgrade": "NULL_NA",
    "gnaf_pid": "GAQLD155337069",
    "tech_change_status": "Not Planned",
    "program_type": "Fixed Wireless and Satellite Upgrade Program",
    "target_eligibility_quarter": "NA"
   }
  },
  {
   "type": "Feature",
   "geometry": {
    "type": "Point",
    "coordinates": [
     150.47965252,
     -23.24280433
    ]
   },
   "properties": {
    "name": "61 JULIE ANNE DRIVE GLENDALE 4711",
    "locID": "LOC000096027499",
    "tech": "WIRELESS",
    "upgrade": "NULL_NA",
    "gnaf_pid": "GAQLD155337072",
    "tech_change_status": "Not Planned",
    "program_type": "Fixed Wireless and Satellite Upgrade Program",
    "target_eligibility_quarter": "NA"
   }
  },
  {
   "type": "Feature",
   "geometry": {
    "type": "Point",
    "coordinates": [
     150.47949478,
     -23.24385155
    ]
   },
   "properties": {
    "name": "73 JULIE ANNE DRIVE GLENDALE 4711",
    "locID": "LOC000009126411",
    "tech": "WIRELESS",
    "upgrade": "NULL_NA",
    "gnaf_pid": "GAQLD155337073",
    "tech_change_status": "Not Planned",
    "program_type": "Fixed Wireless and Satellite Upgrade Program",
    "target_eligibility_quarter": "NA"
   }
  },
  {
   "type": "Feature",
   "geometry": {
    "type": "Point",
    "coordinates": [
     150.47941475,
     -23.24428775
    ]
   },
   "properties": {
    "name": "79 JULIE ANNE DRIVE GLENDALE 4711",
    "locID": "LOC000083871003",
    "tech": "WIRELESS",
    "upgrade": "NULL_NA",
    "gnaf_pid": "GAQLD155337074",
    "tech_change_status": "Not Planned",
    "program_type": "Fixed Wireless and Satellite Upgrade Program",
    "target_eligibility_quarter": "NA"
   }
  },
  {
   "type": "Feature",
   "geometry": {
    "type": "Point",
    "coordinates": [
     150.47716854,
     -23.24435207
    ]
   },
   "properties": {
    "name": "82 JULIE ANNE DRIVE GLENDALE 4711",
    "locID": "LOC000109814943",
    "tech": "WIRELESS",
    "upgrade": "NULL_NA",
    "gnaf_pid": "GAQLD155337075",
    "tech_change_status": "Not Planned",
    "program_type": "Fixed Wireless and Satellite Upgrade Program",
    "target_eligibility_quarter": "NA"
   }
  },
  {
   "type": "Feature",
   "geometry": {
    "type": "Point",
    "coordinates": [
     150.47691272,
     -23.24471645
    ]
   },
   "properties": {
    "name": "88 JULIE ANNE DRIVE GLENDALE 4711",
    "locID": "LOC000034855991",
    "tech": "WIRELESS",
    "upgrade": "NULL_NA",
    "gnaf_pid": "GAQLD155337076",
    "tech_change_status": "Not Planned",
    "program_type": "Fixed Wireless and Satellite Upgrade Program",
    "target_eligibility_quarter": "NA"
   }
  },
  {
   "type": "Feature",
   "geometry": {
    "type": "Point",
    "coordinates": [
     150.47852138,
     -23.24661895
    ]
   },
   "properties": {
    "name": "99 JULIE ANNE DRIVE GLENDALE 4711",
    "locID": "LOC000028278835",
    "tech": "WIRELESS",
    "upgrade": "NULL_NA",
    "gnaf_pid": "GAQLD155337077",
    "tech_change_status": "Not Planned",
    "program_type": "Fixed Wireless and Satellite Upgrade Program",
    "target_eligibility_quarter": "NA"
   }
  },
  {
   "type": "Feature",
   "geometry": {
    "type": "Point",
    "coordinates": [
     150.4772398,
     -23.24241898
    ]
   },
   "properties": {
    "name": "10 KLERKX DRIVE GLENDALE 4711",
    "locID": "LOC000022708979",
    "tech": "WIRELESS",
    "upgrade": "NULL_NA",
    "gnaf_pid": "GAQLD155337081",
    "tech_change_status": "Not Planned",
    "program_type": "Fixed Wireless and Satellite Upgrade Program",
    "target_eligibility_quarter": "NA"
   }
  },
  {
   "type": "Feature",
   "geometry": {
    "type": "Point",
    "coordinates": [
     150.47647419,
     -23.24123148
    ]
   },
   "properties": {
    "name": "20 KLERKX DRIVE GLENDALE 4711",
    "locID": "LOC000025820698",
    "tech": "WIRELESS",
    "upgrade": "NULL_NA",
    "gnaf_pid": "GAQLD155337083",
    "tech_change_status": "Not Planned",
    "program_type": "Fixed Wireless and Satellite Upgrade Program",
    "target_eligibility_quarter": "NA"
   }
  },
  {
   "type": "Feature",
   "geometry": {
    "type": "Point",
    "coordinates": [
     150.47483669,
     -23.24354237
    ]
   },
   "properties": {
    "name": "21 KLERKX DRIVE GLENDALE 4711",
    "locID": "LOC000064940652",
    "tech": "WIRELESS",
    "upgrade": "NULL_NA",
    "gnaf_pid": "GAQLD155337084",
    "tech_change_status": "Not Planned",
    "program_type": "Fixed Wireless and Satellite Upgrade Program",
    "target_eligibility_quarter": "NA"
   }
  },
  {
   "type": "Feature",
   "geometry": {
    "type": "Point",
    "coordinates": [
     150.4742119,
     -23.24353904
    ]
   },
   "properties": {
    "name": "27 KLERKX DRIVE GLENDALE 4711",
    "locID": "LOC000070931636",
    "tech": "WIRELESS",
    "upgrade": "NULL_NA",
    "gnaf_pid": "GAQLD155337085",
    "tech_change_status": "Not Planned",
    "program_type": "Fixed Wireless and Satellite Upgrade Program",
    "target_eligibility_quarter": "NA"
   }
  },
  {
   "type": "Feature",
   "geometry": {
    "type": "Point",
    "coordinates": [
     150.47346117,
     -23.24318846
    ]
   },
   "properties": {
    "name": "33 KLERKX DRIVE GLENDALE 4711",
    "locID": "LOC000032426725",
    "tech": "WIRELESS",
    "upgrade": "NULL_NA",
    "gnaf_pid": "GAQLD155337086",
    "tech_change_status": "Not Planned",
    "program_type": "Fixed Wireless and Satellite Upgrade Program",
    "target_eligibility_quarter": "NA"
   }
  },
  {
   "type": "Feature",
   "geometry": {
    "type": "Point",
    "coordinates": [
     150.47631008,
     -23.24249855
    ]
   },
   "properties": {
    "name": "38 KLERKX DRIVE GLENDALE 4711",
    "locID": "LOC000171770598",
    "tech": "WIRELESS",
    "upgrade": "NULL_NA",
    "gnaf_pid": "GAQLD155337087",
    "tech_change_status": "Not Planned",
    "program_type": "Fixed Wireless and Satellite Upgrade Program",
    "target_eligibility_quarter": "NA"
   }
  },
  {
   "type": "Feature",
   "geometry": {
    "type": "Point",
    "coordinates": [
     150.47408197,
     -23.23987389
    ]
   },
   "properties": {
    "name": "42 KLERKX DRIVE GLENDALE 4711",
    "locID": "LOC000075438492",
    "tech": "WIRELESS",
    "upgrade": "NULL_NA",
    "gnaf_pid": "GAQLD155337088",
    "tech_change_status": "Not Planned",
    "program_type": "Fixed Wireless and Satellite Upgrade Program",
    "target_eligibility_quarter": "NA"
   }
  },
  {
   "type": "Feature",
   "geometry": {
    "type": "Point",
    "coordinates": [
     150.47349747,
     -23.24108999
    ]
   },
   "properties": {
    "name": "43 KLERKX DRIVE GLENDALE 4711",
    "locID": "LOC000055254320",
    "tech": "WIRELESS",
    "upgrade": "NULL_NA",
    "gnaf_pid": "GAQLD155337089",
    "tech_change_status": "Not Planned",
    "program_type": "Fixed Wireless and Satellite Upgrade Program",
    "target_eligibility_quarter": "NA"
   }
  },
  {
   "type": "Feature",
   "geometry": {
    "type": "Point",
    "coordinates": [
     150.47657597,
     -23.24352144
    ]
   },
   "properties": {
    "name": "7 KLERKX DRIVE GLENDALE 4711",
    "locID": "LOC100085295612",
    "tech": "WIRELESS",
    "upgrade": "NULL_NA",
    "gnaf_pid": "GAQLD155337090",
    "tech_change_status": "Not Planned",
    "program_type": "Fixed Wireless and Satellite Upgrade Program",
    "target_eligibility_quarter": "NA"
   }
  },
  {
   "type": "Feature",
   "geometry": {
    "type": "Point",
    "coordinates": [
     150.48864242,
     -23.23956844
    ]
   },
   "properties": {
    "name": "LOT 3 MELDRUM ROAD GLENDALE 4711",
    "locID": "LOC000008643211",
    "tech": "WIRELESS",
    "upgrade": "NULL_NA",
    "gnaf_pid": "GAQLD155337091",
    "tech_change_status": "Not Planned",
    "program_type": "Fixed Wireless and Satellite Upgrade Program",
    "target_eligibility_quarter": "NA"
   }
  },
  {
   "type": "Feature",
   "geometry": {
    "type": "Point",
    "coordinates": [
     150.4855186,
     -23.25072894
    ]
   },
   "properties": {
    "name": "133 GLENDALE ROAD GLENDALE 4711",
    "locID": "LOC000046660651",
    "tech": "WIRELESS",
    "upgrade": "NULL_NA",
    "gnaf_pid": "GAQLD155340313",
    "tech_change_status": "Not Planned",
    "program_type": "Fixed Wireless and Satellite Upgrade Program",
    "target_eligibility_quarter": "NA"
   }
  },
  {
   "type": "Feature",
   "geometry": {
    "type": "Point",
    "coordinates": [
     150.4840219,
     -23.25051737
    ]
   },
   "properties": {
    "name": "137 GLENDALE ROAD GLENDALE 4711",
    "locID": "LOC000060326130",
    "tech": "WIRELESS",
    "upgrade": "NULL_NA",
    "gnaf_pid": "GAQLD155340314",
    "tech_change_status": "Not Planned",
    "program_type": "Fixed Wireless and Satellite Upgrade Program",
    "target_eligibility_quarter": "NA"
   }
  },
  {
   "type": "Feature",
   "geometry": {
    "type": "Point",
    "coordinates": [
     150.48245562,
     -23.24868081
    ]
   },
   "properties": {
    "name": "138 GLENDALE ROAD GLENDALE 4711",
    "locID": "LOC000158701636",
    "tech": "WIRELESS",
    "upgrade": "NULL_NA",
    "gnaf_pid": "GAQLD155340315",
    "tech_change_status": "Not Planned",
    "program_type": "Fixed Wireless and Satellite Upgrade Program",
    "target_eligibility_quarter": "NA"
   }
  },
  {
   "type": "Feature",
   "geometry": {
    "type": "Point",
    "coordinates": [
     150.48190019,
     -23.25116732
    ]
   },
   "properties": {
    "name": "161 GLENDALE ROAD GLENDALE 4711",
    "locID": "LOC000094350204",
    "tech": "WIRELESS",
    "upgrade": "NULL_NA",
    "gnaf_pid": "GAQLD155340318",
    "tech_change_status": "Not Planned",
    "program_type": "Fixed Wireless and Satellite Upgrade Program",
    "target_eligibility_quarter": "NA"
   }
  },
  {
   "type": "Feature",
   "geometry": {
    "type": "Point",
    "coordinates": [
     150.48041231,
     -23.24941343
    ]
   },
   "properties": {
    "name": "166 GLENDALE ROAD GLENDALE 4711",
    "locID": "LOC100077356232",
    "tech": "WIRELESS",
    "upgrade": "NULL_NA",
    "gnaf_pid": "GAQLD155340319",
    "tech_change_status": "Not Planned",
    "program_type": "Fixed Wireless and Satellite Upgrade Program",
    "target_eligibility_quarter": "NA"
   }
  },
  {
   "type": "Feature",
   "geometry": {
    "type": "Point",
    "coordinates": [
     150.48117442,
     -23.25132135
    ]
   },
   "properties": {
    "name": "169 GLENDALE ROAD GLENDALE 4711",
    "locID": "LOC000087998086",
    "tech": "WIRELESS",
    "upgrade": "NULL_NA",
    "gnaf_pid": "GAQLD155340320",
    "tech_change_status": "Not Planned",
    "program_type": "Fixed Wireless and Satellite Upgrade Program",
    "target_eligibility_quarter": "NA"
   }
  },
  {
   "type": "Feature",
   "geometry": {
    "type": "Point",
    "coordinates": [
     150.47938982,
     -23.24994355
    ]
   },
   "properties": {
    "name": "172 GLENDALE ROAD GLENDALE 4711",
    "locID": "LOC000102072352",
    "tech": "WIRELESS",
    "upgrade": "NULL_NA",
    "gnaf_pid": "GAQLD155340321",
    "tech_change_status": "Not Planned",
    "program_type": "Fixed Wireless and Satellite Upgrade Program",
    "target_eligibility_quarter": "NA"
   }
  },
  {
   "type": "Feature",
   "geometry": {
    "type": "Point",
    "coordinates": [
     150.48044986,
     -23.25165089
    ]
   },
   "properties": {
    "name": "177 GLENDALE ROAD GLENDALE 4711",
    "locID": "LOC000011608363",
    "tech": "WIRELESS",
    "upgrade": "NULL_NA",
    "gnaf_pid": "GAQLD155340322",
    "tech_change_status": "Not Planned",
    "program_type": "Fixed Wireless and Satellite Upgrade Program",
    "target_eligibility_quarter": "NA"
   }
  },
  {
   "type": "Feature",
   "geometry": {
    "type": "Point",
    "coordinates": [
     150.47992796,
     -23.25193627
    ]
   },
   "properties": {
    "name": "185 GLENDALE ROAD GLENDALE 4711",
    "locID": "LOC000014122328",
    "tech": "WIRELESS",
    "upgrade": "NULL_NA",
    "gnaf_pid": "GAQLD155340324",
    "tech_change_status": "Not Planned",
    "program_type": "Fixed Wireless and Satellite Upgrade Program",
    "target_eligibility_quarter": "NA"
   }
  },
  {
   "type": "Feature",
   "geometry": {
    "type": "Point",
    "coordinates": [
     150.47937385,
     -23.25257912
    ]
   },
   "properties": {
    "name": "189 GLENDALE ROAD GLENDALE 4711",
    "locID": "LOC000012690870",
    "tech": "WIRELESS",
    "upgrade": "NULL_NA",
    "gnaf_pid": "GAQLD155340325",
    "tech_change_status": "Not Planned",
    "program_type": "Fixed Wireless and Satellite Upgrade Program",
    "target_eligibility_quarter": "NA"
   }
  },
  {
   "type": "Feature",
   "geometry": {
    "type": "Point",
    "coordinates": [
     150.46352217,
     -23.26590889
    ]
   },
   "properties": {
    "name": "137 FONS DRIVE GLENDALE 4711",
    "locID": "LOC000063226235",
    "tech": "WIRELESS",
    "upgrade": "NULL_NA",
    "gnaf_pid": "GAQLD156031093",
    "tech_change_status": "Not Planned",
    "program_type": "Fixed Wireless and Satellite Upgrade Program",
    "target_eligibility_quarter": "NA"
   }
  },
  {
   "type": "Feature",
   "geometry": {
    "type": "Point",
    "coordinates": [
     150.4649324,
     -23.25668356
    ]
   },
   "properties": {
    "name": "29 FONS DRIVE GLENDALE 4711",
    "locID": "LOC000016737222",
    "tech": "WIRELESS",
    "upgrade": "NULL_NA",
    "gnaf_pid": "GAQLD156031094",
    "tech_change_status": "Not Planned",
    "program_type": "Fixed Wireless and Satellite Upgrade Program",
    "target_eligibility_quarter": "NA"
   }
  },
  {
   "type": "Feature",
   "geometry": {
    "type": "Point",
    "coordinates": [
     150.46270849,
     -23.26162356
    ]
   },
   "properties": {
    "name": "94 FONS DRIVE GLENDALE 4711",
    "locID": "LOC000014923186",
    "tech": "WIRELESS",
    "upgrade": "NULL_NA",
    "gnaf_pid": "GAQLD156031095",
    "tech_change_status": "Not Planned",
    "program_type": "Fixed Wireless and Satellite Upgrade Program",
    "target_eligibility_quarter": "NA"
   }
  },
  {
   "type": "Feature",
   "geometry": {
    "type": "Point",
    "coordinates": [
     150.47751588,
     -23.24006813
    ]
   },
   "properties": {
    "name": "34 JULIE ANNE DRIVE GLENDALE 4711",
    "locID": "LOC000105531833",
    "tech": "WIRELESS",
    "upgrade": "NULL_NA",
    "gnaf_pid": "GAQLD156032996",
    "tech_change_status": "Not Planned",
    "program_type": "Fixed Wireless and Satellite Upgrade Program",
    "target_eligibility_quarter": "NA"
   }
  },
  {
   "type": "Feature",
   "geometry": {
    "type": "Point",
    "coordinates": [
     150.4753872,
     -23.24875694
    ]
   },
   "properties": {
    "name": "151 JULIE ANNE DRIVE GLENDALE 4711",
    "locID": "LOC000049279488",
    "tech": "WIRELESS",
    "upgrade": "NULL_NA",
    "gnaf_pid": "GAQLD156032997",
    "tech_change_status": "Not Planned",
    "program_type": "Fixed Wireless and Satellite Upgrade Program",
    "target_eligibility_quarter": "NA"
   }
  },
  {
   "type": "Feature",
   "geometry": {
    "type": "Point",
    "coordinates": [
     150.48020355,
     -23.24090482
    ]
   },
   "properties": {
    "name": "39 JULIE ANNE DRIVE GLENDALE 4711",
    "locID": "LOC000052359869",
    "tech": "WIRELESS",
    "upgrade": "NULL_NA",
    "gnaf_pid": "GAQLD156032998",
    "tech_change_status": "Not Planned",
    "program_type": "Fixed Wireless and Satellite Upgrade Program",
    "target_eligibility_quarter": "NA"
   }
  },
  {
   "type": "Feature",
   "geometry": {
    "type": "Point",
    "coordinates": [
     150.47899105,
     -23.24543826
    ]
   },
   "properties": {
    "name": "89 JULIE ANNE DRIVE GLENDALE 4711",
    "locID": "LOC000033194984",
    "tech": "WIRELESS",
    "upgrade": "NULL_NA",
    "gnaf_pid": "GAQLD156032999",
    "tech_change_status": "Not Planned",
    "program_type": "Fixed Wireless and Satellite Upgrade Program",
    "target_eligibility_quarter": "NA"
   }
  },
  {
   "type": "Feature",
   "geometry": {
    "type": "Point",
    "coordinates": [
     150.47577085,
     -23.24048022
    ]
   },
   "properties": {
    "name": "30 KLERKX DRIVE GLENDALE 4711",
    "locID": "LOC000103939228",
    "tech": "WIRELESS",
    "upgrade": "NULL_NA",
    "gnaf_pid": "GAQLD156033000",
    "tech_change_status": "Not Planned",
    "program_type": "Fixed Wireless and Satellite Upgrade Program",
    "target_eligibility_quarter": "NA"
   }
  },
  {
   "type": "Feature",
   "geometry": {
    "type": "Point",
    "coordinates": [
     150.47820733,
     -23.25035204
    ]
   },
   "properties": {
    "name": "190 GLENDALE ROAD GLENDALE 4711",
    "locID": "LOC000176707389",
    "tech": "WIRELESS",
    "upgrade": "NULL_NA",
    "gnaf_pid": "GAQLD156033045",
    "tech_change_status": "Not Planned",
    "program_type": "Fixed Wireless and Satellite Upgrade Program",
    "target_eligibility_quarter": "NA"
   }
  },
  {
   "type": "Feature",
   "geometry": {
    "type": "Point",
    "coordinates": [
     150.47336362,
     -23.25297587
    ]
   },
   "properties": {
    "name": "242 GLENDALE ROAD GLENDALE 4711",
    "locID": "LOC000008414094",
    "tech": "WIRELESS",
    "upgrade": "NULL_NA",
    "gnaf_pid": "GAQLD156033046",
    "tech_change_status": "Not Planned",
    "program_type": "Fixed Wireless and Satellite Upgrade Program",
    "target_eligibility_quarter": "NA"
   }
  },
  {
   "type": "Feature",
   "geometry": {
    "type": "Point",
    "coordinates": [
     150.4666722,
     -23.26275942
    ]
   },
   "properties": {
    "name": "357 GLENDALE ROAD GLENDALE 4711",
    "locID": "LOC000026493883",
    "tech": "WIRELESS",
    "upgrade": "NULL_NA",
    "gnaf_pid": "GAQLD156033049",
    "tech_change_status": "Not Planned",
    "program_type": "Fixed Wireless and Satellite Upgrade Program",
    "target_eligibility_quarter": "NA"
   }
  },
  {
   "type": "Feature",
   "geometry": {
    "type": "Point",
    "coordinates": [
     150.48637321,
     -23.24375284
    ]
   },
   "properties": {
    "name": "67 GLENDALE ROAD GLENDALE 4711",
    "locID": "LOC000054733662",
    "tech": "WIRELESS",
    "upgrade": "NULL_NA",
    "gnaf_pid": "GAQLD156033050",
    "tech_change_status": "Not Planned",
    "program_type": "Fixed Wireless and Satellite Upgrade Program",
    "target_eligibility_quarter": "NA"
   }
  },
  {
   "type": "Feature",
   "geometry": {
    "type": "Point",
    "coordinates": [
     150.47341988,
     -23.24703745
    ]
   },
   "properties": {
    "name": "130 JULIE ANNE DRIVE GLENDALE 4711",
    "locID": "LOC000047922336",
    "tech": "WIRELESS",
    "upgrade": "NULL_NA",
    "gnaf_pid": "GAQLD156060696",
    "tech_change_status": "Not Planned",
    "program_type": "Fixed Wireless and Satellite Upgrade Program",
    "target_eligibility_quarter": "NA"
   }
  },
  {
   "type": "Feature",
   "geometry": {
    "type": "Point",
    "coordinates": [
     150.4799554,
     -23.23939218
    ]
   },
   "properties": {
    "name": "21 JULIE ANNE DRIVE GLENDALE 4711",
    "locID": "LOC000043201843",
    "tech": "WIRELESS",
    "upgrade": "NULL_NA",
    "gnaf_pid": "GAQLD156060697",
    "tech_change_status": "Not Planned",
    "program_type": "Fixed Wireless and Satellite Upgrade Program",
    "target_eligibility_quarter": "NA"
   }
  },
  {
   "type": "Feature",
   "geometry": {
    "type": "Point",
    "coordinates": [
     150.48686267,
     -23.24171066
    ]
   },
   "properties": {
    "name": "45 GLENDALE ROAD GLENDALE 4711",
    "locID": "LOC000019966873",
    "tech": "WIRELESS",
    "upgrade": "NULL_NA",
    "gnaf_pid": "GAQLD156060853",
    "tech_change_status": "Not Planned",
    "program_type": "Fixed Wireless and Satellite Upgrade Program",
    "target_eligibility_quarter": "NA"
   }
  },
  {
   "type": "Feature",
   "geometry": {
    "type": "Point",
    "coordinates": [
     150.46488113,
     -23.25811136
    ]
   },
   "properties": {
    "name": "45 FONS DRIVE GLENDALE 4711",
    "locID": "LOC000031812183",
    "tech": "WIRELESS",
    "upgrade": "NULL_NA",
    "gnaf_pid": "GAQLD156061596",
    "tech_change_status": "Not Planned",
    "program_type": "Fixed Wireless and Satellite Upgrade Program",
    "target_eligibility_quarter": "NA"
   }
  },
  {
   "type": "Feature",
   "geometry": {
    "type": "Point",
    "coordinates": [
     150.47421641,
     -23.25245411
    ]
   },
   "properties": {
    "name": "232 GLENDALE ROAD GLENDALE 4711",
    "locID": "LOC000059750028",
    "tech": "WIRELESS",
    "upgrade": "NULL_NA",
    "gnaf_pid": "GAQLD156078029",
    "tech_change_status": "Not Planned",
    "program_type": "Fixed Wireless and Satellite Upgrade Program",
    "target_eligibility_quarter": "NA"
   }
  },
  {
   "type": "Feature",
   "geometry": {
    "type": "Point",
    "coordinates": [
     150.48040517,
     -23.24048417
    ]
   },
   "properties": {
    "name": "33 JULIE ANNE DRIVE GLENDALE 4711",
    "locID": "LOC000028591066",
    "tech": "WIRELESS",
    "upgrade": "NULL_NA",
    "gnaf_pid": "GAQLD157952424",
    "tech_change_status": "Not Planned",
    "program_type": "Fixed Wireless and Satellite Upgrade Program",
    "target_eligibility_quarter": "NA"
   }
  },
  {
   "type": "Feature",
   "geometry": {
    "type": "Point",
    "coordinates": [
     150.48135947,
     -23.2385383
    ]
   },
   "properties": {
    "name": "77 MELDRUM ROAD GLENDALE 4711",
    "locID": "LOC000076464164",
    "tech": "WIRELESS",
    "upgrade": "NULL_NA",
    "gnaf_pid": "GAQLD157964054",
    "tech_change_status": "Not Planned",
    "program_type": "Fixed Wireless and Satellite Upgrade Program",
    "target_eligibility_quarter": "NA"
   }
  },
  {
   "type": "Feature",
   "geometry": {
    "type": "Point",
    "coordinates": [
     150.46877087,
     -23.25535104
    ]
   },
   "properties": {
    "name": "312 GLENDALE ROAD GLENDALE 4711",
    "locID": "LOC000070094342",
    "tech": "WIRELESS",
    "upgrade": "NULL_NA",
    "gnaf_pid": "GAQLD157964790",
    "tech_change_status": "Not Planned",
    "program_type": "Fixed Wireless and Satellite Upgrade Program",
    "target_eligibility_quarter": "NA"
   }
  },
  {
   "type": "Feature",
   "geometry": {
    "type": "Point",
    "coordinates": [
     150.48379746,
     -23.23806241
    ]
   },
   "properties": {
    "name": "55 MELDRUM ROAD GLENDALE 4711",
    "locID": "LOC000070030427",
    "tech": "WIRELESS",
    "upgrade": "NULL_NA",
    "gnaf_pid": "GAQLD157964800",
    "tech_change_status": "Not Planned",
    "program_type": "Fixed Wireless and Satellite Upgrade Program",
    "target_eligibility_quarter": "NA"
   }
  },
  {
   "type": "Feature",
   "geometry": {
    "type": "Point",
    "coordinates": [
     150.47665804,
     -23.237467
    ]
   },
   "properties": {
    "name": "125 MELDRUM ROAD GLENDALE 4711",
    "locID": "LOC000011692488",
    "tech": "WIRELESS",
    "upgrade": "NULL_NA",
    "gnaf_pid": "GAQLD157965455",
    "tech_change_status": "Not Planned",
    "program_type": "Fixed Wireless and Satellite Upgrade Program",
    "target_eligibility_quarter": "NA"
   }
  },
  {
   "type": "Feature",
   "geometry": {
    "type": "Point",
    "coordinates": [
     150.47818791,
     -23.23766521
    ]
   },
   "properties": {
    "name": "101 MELDRUM ROAD GLENDALE 4711",
    "locID": "LOC000094054288",
    "tech": "WIRELESS",
    "upgrade": "NULL_NA",
    "gnaf_pid": "GAQLD157968745",
    "tech_change_status": "Not Planned",
    "program_type": "Fixed Wireless and Satellite Upgrade Program",
    "target_eligibility_quarter": "NA"
   }
  },
  {
   "type": "Feature",
   "geometry": {
    "type": "Point",
    "coordinates": [
     150.43277464,
     -23.24948885
    ]
   },
   "properties": {
    "name": "1092 BELMONT ROAD GLENDALE 4711",
    "locID": "LOC000050913865",
    "tech": "SATELLITE",
    "upgrade": "NULL_NA",
    "gnaf_pid": "GAQLD157970736",
    "tech_change_status": "Not Planned"
   }
  },
  {
   "type": "Feature",
   "geometry": {
    "type": "Point",
    "coordinates": [
     150.44447973,
     -23.25564887
    ]
   },
   "properties": {
    "name": "40 NESLEIN ROAD GLENDALE 4711",
    "locID": "LOC000003466826",
    "tech": "WIRELESS",
    "upgrade": "NULL_NA",
    "gnaf_pid": "GAQLD157970739",
    "tech_change_status": "Not Planned",
    "program_type": "Fixed Wireless and Satellite Upgrade Program",
    "target_eligibility_quarter": "NA"
   }
  },
  {
   "type": "Feature",
   "geometry": {
    "type": "Point",
    "coordinates": [
     150.48210373,
     -23.23903958
    ]
   },
   "properties": {
    "name": "71 MELDRUM ROAD GLENDALE 4711",
    "locID": "LOC000039260868",
    "tech": "WIRELESS",
    "upgrade": "NULL_NA",
    "gnaf_pid": "GAQLD157970742",
    "tech_change_status": "Not Planned",
    "program_type": "Fixed Wireless and Satellite Upgrade Program",
    "target_eligibility_quarter": "NA"
   }
  },
  {
   "type": "Feature",
   "geometry": {
    "type": "Point",
    "coordinates": [
     150.47629565,
     -23.24368858
    ]
   },
   "properties": {
    "name": "15 KLERKX DRIVE GLENDALE 4711",
    "locID": "LOC000089514777",
    "tech": "WIRELESS",
    "upgrade": "NULL_NA",
    "gnaf_pid": "GAQLD157970856",
    "tech_change_status": "Not Planned",
    "program_type": "Fixed Wireless and Satellite Upgrade Program",
    "target_eligibility_quarter": "NA"
   }
  },
  {
   "type": "Feature",
   "geometry": {
    "type": "Point",
    "coordinates": [
     150.47537402,
     -23.23731553
    ]
   },
   "properties": {
    "name": "141 MELDRUM ROAD GLENDALE 4711",
    "locID": "LOC000004100074",
    "tech": "WIRELESS",
    "upgrade": "NULL_NA",
    "gnaf_pid": "GAQLD157970858",
    "tech_change_status": "Not Planned",
    "program_type": "Fixed Wireless and Satellite Upgrade Program",
    "target_eligibility_quarter": "NA"
   }
  },
  {
   "type": "Feature",
   "geometry": {
    "type": "Point",
    "coordinates": [
     150.47987814,
     -23.23868371
    ]
   },
   "properties": {
    "name": "13 JULIE ANNE DRIVE GLENDALE 4711",
    "locID": "LOC000049932300",
    "tech": "WIRELESS",
    "upgrade": "NULL_NA",
    "gnaf_pid": "GAQLD157970860",
    "tech_change_status": "Not Planned",
    "program_type": "Fixed Wireless and Satellite Upgrade Program",
    "target_eligibility_quarter": "NA"
   }
  },
  {
   "type": "Feature",
   "geometry": {
    "type": "Point",
    "coordinates": [
     150.47617898,
     -23.24522743
    ]
   },
   "properties": {
    "name": "100 JULIE ANNE DRIVE GLENDALE 4711",
    "locID": "LOC000050400282",
    "tech": "WIRELESS",
    "upgrade": "NULL_NA",
    "gnaf_pid": "GAQLD157970861",
    "tech_change_status": "Not Planned",
    "program_type": "Fixed Wireless and Satellite Upgrade Program",
    "target_eligibility_quarter": "NA"
   }
  },
  {
   "type": "Feature",
   "geometry": {
    "type": "Point",
    "coordinates": [
     150.46605653,
     -23.25462861
    ]
   },
   "properties": {
    "name": "1 FONS DRIVE GLENDALE 4711",
    "locID": "LOC000072339345",
    "tech": "WIRELESS",
    "upgrade": "NULL_NA",
    "gnaf_pid": "GAQLD157973266",
    "tech_change_status": "Not Planned",
    "program_type": "Fixed Wireless and Satellite Upgrade Program",
    "target_eligibility_quarter": "NA"
   }
  },
  {
   "type": "Feature",
   "geometry": {
    "type": "Point",
    "coordinates": [
     150.46364894,
     -23.26538754
    ]
   },
   "properties": {
    "name": "131 FONS DRIVE GLENDALE 4711",
    "locID": "LOC000037555357",
    "tech": "WIRELESS",
    "upgrade": "NULL_NA",
    "gnaf_pid": "GAQLD157978244",
    "tech_change_status": "Not Planned",
    "program_type": "Fixed Wireless and Satellite Upgrade Program",
    "target_eligibility_quarter": "NA"
   }
  },
  {
   "type": "Feature",
   "geometry": {
    "type": "Point",
    "coordinates": [
     150.46365821,
     -23.25432654
    ]
   },
   "properties": {
    "name": "2 FONS DRIVE GLENDALE 4711",
    "locID": "LOC000082743505",
    "tech": "WIRELESS",
    "upgrade": "NULL_NA",
    "gnaf_pid": "GAQLD160715859",
    "tech_change_status": "Not Planned",
    "program_type": "Fixed Wireless and Satellite Upgrade Program",
    "target_eligibility_quarter": "NA"
   }
  },
  {
   "type": "Feature",
   "geometry": {
    "type": "Point",
    "coordinates": [
     150.46464436,
     -23.26007994
    ]
   },
   "properties": {
    "name": "71 FONS DRIVE GLENDALE 4711",
    "locID": "LOC000053351828",
    "tech": "WIRELESS",
    "upgrade": "NULL_NA",
    "gnaf_pid": "GAQLD160732873",
    "tech_change_status": "Not Planned",
    "program_type": "Fixed Wireless and Satellite Upgrade Program",
    "target_eligibility_quarter": "NA"
   }
  },
  {
   "type": "Feature",
   "geometry": {
    "type": "Point",
    "coordinates": [
     150.4798568,
     -23.23770301
    ]
   },
   "properties": {
    "name": "93 MELDRUM ROAD GLENDALE 4711",
    "locID": "LOC000041966626",
    "tech": "WIRELESS",
    "upgrade": "NULL_NA",
    "gnaf_pid": "GAQLD160762760",
    "tech_change_status": "Not Planned",
    "program_type": "Fixed Wireless and Satellite Upgrade Program",
    "target_eligibility_quarter": "NA"
   }
  },
  {
   "type": "Feature",
   "geometry": {
    "type": "Point",
    "coordinates": [
     150.46364539,
     -23.25500351
    ]
   },
   "properties": {
    "name": "12 FONS DRIVE GLENDALE 4711",
    "locID": "LOC000010734223",
    "tech": "WIRELESS",
    "upgrade": "NULL_NA",
    "gnaf_pid": "GAQLD160949242",
    "tech_change_status": "Not Planned",
    "program_type": "Fixed Wireless and Satellite Upgrade Program",
    "target_eligibility_quarter": "NA"
   }
  },
  {
   "type": "Feature",
   "geometry": {
    "type": "Point",
    "coordinates": [
     150.46340041,
     -23.26629574
    ]
   },
   "properties": {
    "name": "143 FONS DRIVE GLENDALE 4711",
    "locID": "LOC000063226235",
    "tech": "WIRELESS",
    "upgrade": "NULL_NA",
    "gnaf_pid": "GAQLD160949243",
    "tech_change_status": "Not Planned",
    "program_type": "Fixed Wireless and Satellite Upgrade Program",
    "target_eligibility_quarter": "NA"
   }
  },
  {
   "type": "Feature",
   "geometry": {
    "type": "Point",
    "coordinates": [
     150.4741188,
     -23.23774263
    ]
   },
   "properties": {
    "name": "145 MELDRUM ROAD GLENDALE 4711",
    "locID": "LOC000104788786",
    "tech": "WIRELESS",
    "upgrade": "NULL_NA",
    "gnaf_pid": "GAQLD160955699",
    "tech_change_status": "Not Planned",
    "program_type": "Fixed Wireless and Satellite Upgrade Program",
    "target_eligibility_quarter": "NA"
   }
  },
  {
   "type": "Feature",
   "geometry": {
    "type": "Point",
    "coordinates": [
     150.47643864,
     -23.2386054
    ]
   },
   "properties": {
    "name": "129 MELDRUM ROAD GLENDALE 4711",
    "locID": "LOC000023522597",
    "tech": "WIRELESS",
    "upgrade": "NULL_NA",
    "gnaf_pid": "GAQLD160978651",
    "tech_change_status": "Not Planned",
    "program_type": "Fixed Wireless and Satellite Upgrade Program",
    "target_eligibility_quarter": "NA"
   }
  },
  {
   "type": "Feature",
   "geometry": {
    "type": "Point",
    "coordinates": [
     150.47527365,
     -23.23845436
    ]
   },
   "properties": {
    "name": "131 MELDRUM ROAD GLENDALE 4711",
    "locID": "LOC000008643211",
    "tech": "WIRELESS",
    "upgrade": "NULL_NA",
    "gnaf_pid": "GAQLD160978652",
    "tech_change_status": "Not Planned",
    "program_type": "Fixed Wireless and Satellite Upgrade Program",
    "target_eligibility_quarter": "NA"
   }
  },
  {
   "type": "Feature",
   "geometry": {
    "type": "Point",
    "coordinates": [
     150.43643817,
     -23.24278934
    ]
   },
   "properties": {
    "name": "LOT 1 BELMONT ROAD GLENDALE 4711",
    "locID": "LOC000032862349",
    "tech": "WIRELESS",
    "upgrade": "NULL_NA",
    "gnaf_pid": "GAQLD161064820",
    "tech_change_status": "Not Planned",
    "program_type": "Fixed Wireless and Satellite Upgrade Program",
    "target_eligibility_quarter": "NA"
   }
  },
  {
   "type": "Feature",
   "geometry": {
    "type": "Point",
    "coordinates": [
     150.47945184,
     -23.24576705
    ]
   },
   "properties": {
    "name": "LOT 1 JULIE ANNE DRIVE GLENDALE 4711",
    "locID": "LOC000041829197",
    "tech": "WIRELESS",
    "upgrade": "NULL_NA",
    "gnaf_pid": "GAQLD161194165",
    "tech_change_status": "Not Planned",
    "program_type": "Fixed Wireless and Satellite Upgrade Program",
    "target_eligibility_quarter": "NA"
   }
  },
  {
   "type": "Feature",
   "geometry": {
    "type": "Point",
    "coordinates": [
     150.46364539,
     -23.25500351
    ]
   },
   "properties": {
    "name": "10 FONS DRIVE GLENDALE 4711",
    "locID": "LOC000042203441",
    "tech": "WIRELESS",
    "upgrade": "NULL_NA",
    "gnaf_pid": "GAQLD161436419",
    "tech_change_status": "Not Planned",
    "program_type": "Fixed Wireless and Satellite Upgrade Program",
    "target_eligibility_quarter": "NA"
   }
  },
  {
   "type": "Feature",
   "geometry": {
    "type": "Point",
    "coordinates": [
     150.46374957,
     -23.26467093
    ]
   },
   "properties": {
    "name": "121 FONS DRIVE GLENDALE 4711",
    "locID": "LOC000129211296",
    "tech": "WIRELESS",
    "upgrade": "NULL_NA",
    "gnaf_pid": "GAQLD161436423",
    "tech_change_status": "Not Planned",
    "program_type": "Fixed Wireless and Satellite Upgrade Program",
    "target_eligibility_quarter": "NA"
   }
  },
  {
   "type": "Feature",
   "geometry": {
    "type": "Point",
    "coordinates": [
     150.46199137,
     -23.26505636
    ]
   },
   "properties": {
    "name": "130 FONS DRIVE GLENDALE 4711",
    "locID": "LOC000129211381",
    "tech": "WIRELESS",
    "upgrade": "NULL_NA",
    "gnaf_pid": "GAQLD161436425",
    "tech_change_status": "Not Planned",
    "program_type": "Fixed Wireless and Satellite Upgrade Program",
    "target_eligibility_quarter": "NA"
   }
  },
  {
   "type": "Feature",
   "geometry": {
    "type": "Point",
    "coordinates": [
     150.46514983,
     -23.25513991
    ]
   },
   "properties": {
    "name": "9 FONS DRIVE GLENDALE 4711",
    "locID": "LOC000014923186",
    "tech": "WIRELESS",
    "upgrade": "NULL_NA",
    "gnaf_pid": "GAQLD161436442",
    "tech_change_status": "Not Planned",
    "program_type": "Fixed Wireless and Satellite Upgrade Program",
    "target_eligibility_quarter": "NA"
   }
  },
  {
   "type": "Feature",
   "geometry": {
    "type": "Point",
    "coordinates": [
     150.48291804,
     -23.24824832
    ]
   },
   "properties": {
    "name": "126 GLENDALE ROAD GLENDALE 4711",
    "locID": "LOC000043960977",
    "tech": "WIRELESS",
    "upgrade": "NULL_NA",
    "gnaf_pid": "GAQLD161437570",
    "tech_change_status": "Not Planned",
    "program_type": "Fixed Wireless and Satellite Upgrade Program",
    "target_eligibility_quarter": "NA"
   }
  },
  {
   "type": "Feature",
   "geometry": {
    "type": "Point",
    "coordinates": [
     150.47495507,
     -23.24548285
    ]
   },
   "properties": {
    "name": "112 JULIE ANNE DRIVE GLENDALE 4711",
    "locID": "LOC100056416095",
    "tech": "WIRELESS",
    "upgrade": "NULL_NA",
    "gnaf_pid": "GAQLD161441544",
    "tech_change_status": "Not Planned",
    "program_type": "Fixed Wireless and Satellite Upgrade Program",
    "target_eligibility_quarter": "NA"
   }
  },
  {
   "type": "Feature",
   "geometry": {
    "type": "Point",
    "coordinates": [
     150.47971732,
     -23.23857557
    ]
   },
   "properties": {
    "name": "11 JULIE ANNE DRIVE GLENDALE 4711",
    "locID": "LOC100056416095",
    "tech": "WIRELESS",
    "upgrade": "NULL_NA",
    "gnaf_pid": "GAQLD161441546",
    "tech_change_status": "Not Planned",
    "program_type": "Fixed Wireless and Satellite Upgrade Program",
    "target_eligibility_quarter": "NA"
   }
  },
  {
   "type": "Feature",
   "geometry": {
    "type": "Point",
    "coordinates": [
     150.47810671,
     -23.23875455
    ]
   },
   "properties": {
    "name": "16 JULIE ANNE DRIVE GLENDALE 4711",
    "locID": "LOC000129211573",
    "tech": "WIRELESS",
    "upgrade": "NULL_NA",
    "gnaf_pid": "GAQLD161441554",
    "tech_change_status": "Not Planned",
    "program_type": "Fixed Wireless and Satellite Upgrade Program",
    "target_eligibility_quarter": "NA"
   }
  },
  {
   "type": "Feature",
   "geometry": {
    "type": "Point",
    "coordinates": [
     150.48030403,
     -23.24081759
    ]
   },
   "properties": {
    "name": "37 JULIE ANNE DRIVE GLENDALE 4711",
    "locID": "LOC000090350657",
    "tech": "WIRELESS",
    "upgrade": "NULL_NA",
    "gnaf_pid": "GAQLD161441558",
    "tech_change_status": "Not Planned",
    "program_type": "Fixed Wireless and Satellite Upgrade Program",
    "target_eligibility_quarter": "NA"
   }
  },
  {
   "type": "Feature",
   "geometry": {
    "type": "Point",
    "coordinates": [
     150.47998665,
     -23.24140906
    ]
   },
   "properties": {
    "name": "45 JULIE ANNE DRIVE GLENDALE 4711",
    "locID": "LOC000163545193",
    "tech": "WIRELESS",
    "upgrade": "NULL_NA",
    "gnaf_pid": "GAQLD161441560",
    "tech_change_status": "Not Planned",
    "program_type": "Fixed Wireless and Satellite Upgrade Program",
    "target_eligibility_quarter": "NA"
   }
  },
  {
   "type": "Feature",
   "geometry": {
    "type": "Point",
    "coordinates": [
     150.47978882,
     -23.24213587
    ]
   },
   "properties": {
    "name": "53 JULIE ANNE DRIVE GLENDALE 4711",
    "locID": "LOC000129228074",
    "tech": "WIRELESS",
    "upgrade": "NULL_NA",
    "gnaf_pid": "GAQLD161441562",
    "tech_change_status": "Not Planned",
    "program_type": "Fixed Wireless and Satellite Upgrade Program",
    "target_eligibility_quarter": "NA"
   }
  },
  {
   "type": "Feature",
   "geometry": {
    "type": "Point",
    "coordinates": [
     150.47957905,
     -23.24350296
    ]
   },
   "properties": {
    "name": "69 JULIE ANNE DRIVE GLENDALE 4711",
    "locID": "LOC000129231865",
    "tech": "WIRELESS",
    "upgrade": "NULL_NA",
    "gnaf_pid": "GAQLD161441563",
    "tech_change_status": "Not Planned",
    "program_type": "Fixed Wireless and Satellite Upgrade Program",
    "target_eligibility_quarter": "NA"
   }
  },
  {
   "type": "Feature",
   "geometry": {
    "type": "Point",
    "coordinates": [
     150.4794105,
     -23.24420013
    ]
   },
   "properties": {
    "name": "77 JULIE ANNE DRIVE GLENDALE 4711",
    "locID": "LOC000009877784",
    "tech": "WIRELESS",
    "upgrade": "NULL_NA",
    "gnaf_pid": "GAQLD161441564",
    "tech_change_status": "Not Planned",
    "program_type": "Fixed Wireless and Satellite Upgrade Program",
    "target_eligibility_quarter": "NA"
   }
  },
  {
   "type": "Feature",
   "geometry": {
    "type": "Point",
    "coordinates": [
     150.47723199,
     -23.24419904
    ]
   },
   "properties": {
    "name": "80 JULIE ANNE DRIVE GLENDALE 4711",
    "locID": "LOC000036500398",
    "tech": "WIRELESS",
    "upgrade": "NULL_NA",
    "gnaf_pid": "GAQLD161441565",
    "tech_change_status": "Not Planned",
    "program_type": "Fixed Wireless and Satellite Upgrade Program",
    "target_eligibility_quarter": "NA"
   }
  },
  {
   "type": "Feature",
   "geometry": {
    "type": "Point",
    "coordinates": [
     150.47754163,
     -23.24348356
    ]
   },
   "properties": {
    "name": "1 KLERKX DRIVE GLENDALE 4711",
    "locID": "LOC000103939228",
    "tech": "WIRELESS",
    "upgrade": "NULL_NA",
    "gnaf_pid": "GAQLD161442944",
    "tech_change_status": "Not Planned",
    "program_type": "Fixed Wireless and Satellite Upgrade Program",
    "target_eligibility_quarter": "NA"
   }
  },
  {
   "type": "Feature",
   "geometry": {
    "type": "Point",
    "coordinates": [
     150.47392421,
     -23.24202327
    ]
   },
   "properties": {
    "name": "35 KLERKX DRIVE GLENDALE 4711",
    "locID": "LOC000129223649",
    "tech": "WIRELESS",
    "upgrade": "NULL_NA",
    "gnaf_pid": "GAQLD161442949",
    "tech_change_status": "Not Planned",
    "program_type": "Fixed Wireless and Satellite Upgrade Program",
    "target_eligibility_quarter": "NA"
   }
  },
  {
   "type": "Feature",
   "geometry": {
    "type": "Point",
    "coordinates": [
     150.46256061,
     -23.26120818
    ]
   },
   "properties": {
    "name": "88 FONS DRIVE GLENDALE 4711",
    "locID": "LOC000033396607",
    "tech": "WIRELESS",
    "upgrade": "NULL_NA",
    "gnaf_pid": "GAQLD163254199",
    "tech_change_status": "Not Planned",
    "program_type": "Fixed Wireless and Satellite Upgrade Program",
    "target_eligibility_quarter": "NA"
   }
  },
  {
   "type": "Feature",
   "geometry": {
    "type": "Point",
    "coordinates": [
     150.46629256,
     -23.24408446
    ]
   },
   "properties": {
    "name": "160 MELDRUM ROAD GLENDALE 4711",
    "locID": "LOC000111933760",
    "tech": "WIRELESS",
    "upgrade": "NULL_NA",
    "gnaf_pid": "GAQLD163313405",
    "tech_change_status": "Not Planned",
    "program_type": "Fixed Wireless and Satellite Upgrade Program",
    "target_eligibility_quarter": "NA"
   }
  },
  {
   "type": "Feature",
   "geometry": {
    "type": "Point",
    "coordinates": [
     150.47794522,
     -23.2425157
    ]
   },
   "properties": {
    "name": "60 JULIE ANNE DRIVE GLENDALE 4711",
    "locID": "LOC000111957328",
    "tech": "WIRELESS",
    "upgrade": "NULL_NA",
    "gnaf_pid": "GAQLD163368414",
    "tech_change_status": "Not Planned",
    "program_type": "Fixed Wireless and Satellite Upgrade Program",
    "target_eligibility_quarter": "NA"
   }
  },
  {
   "type": "Feature",
   "geometry": {
    "type": "Point",
    "coordinates": [
     150.47820254,
     -23.25197959
    ]
   },
   "properties": {
    "name": "201 GLENDALE ROAD GLENDALE 4711",
    "locID": "LOC000129215257",
    "tech": "WIRELESS",
    "upgrade": "NULL_NA",
    "gnaf_pid": "GAQLD425037569",
    "tech_change_status": "Not Planned",
    "program_type": "Fixed Wireless and Satellite Upgrade Program",
    "target_eligibility_quarter": "NA"
   }
  },
  {
   "type": "Feature",
   "geometry": {
    "type": "Point",
    "coordinates": [
     150.48526248,
     -23.24705092
    ]
   },
   "properties": {
    "name": "101-107 GLENDALE ROAD GLENDALE 4711",
    "locID": "LOC000055585099",
    "tech": "WIRELESS",
    "upgrade": "NULL_NA",
    "gnaf_pid": "GAQLD425121647",
    "tech_change_status": "Not Planned",
    "program_type": "Fixed Wireless and Satellite Upgrade Program",
    "target_eligibility_quarter": "NA"
   }
  },
  {
   "type": "Feature",
   "geometry": {
    "type": "Point",
    "coordinates": [
     150.4838379,
     -23.24717815
    ]
   },
   "properties": {
    "name": "106-116 GLENDALE ROAD GLENDALE 4711",
    "locID": "LOC000146396538",
    "tech": "WIRELESS",
    "upgrade": "NULL_NA",
    "gnaf_pid": "GAQLD425121648",
    "tech_change_status": "Not Planned",
    "program_type": "Fixed Wireless and Satellite Upgrade Program",
    "target_eligibility_quarter": "NA"
   }
  },
  {
   "type": "Feature",
   "geometry": {
    "type": "Point",
    "coordinates": [
     150.48333616,
     -23.24778089
    ]
   },
   "properties": {
    "name": "118-124 GLENDALE ROAD GLENDALE 4711",
    "locID": "LOC000021640288",
    "tech": "WIRELESS",
    "upgrade": "NULL_NA",
    "gnaf_pid": "GAQLD425121652",
    "tech_change_status": "Not Planned",
    "program_type": "Fixed Wireless and Satellite Upgrade Program",
    "target_eligibility_quarter": "NA"
   }
  },
  {
   "type": "Feature",
   "geometry": {
    "type": "Point",
    "coordinates": [
     150.47938982,
     -23.24994355
    ]
   },
   "properties": {
    "name": "170-184 GLENDALE ROAD GLENDALE 4711",
    "locID": "LOC000060668186",
    "tech": "WIRELESS",
    "upgrade": "NULL_NA",
    "gnaf_pid": "GAQLD425121663",
    "tech_change_status": "Not Planned",
    "program_type": "Fixed Wireless and Satellite Upgrade Program",
    "target_eligibility_quarter": "NA"
   }
  },
  {
   "type": "Feature",
   "geometry": {
    "type": "Point",
    "coordinates": [
     150.48044986,
     -23.25165089
    ]
   },
   "properties": {
    "name": "175-181 GLENDALE ROAD GLENDALE 4711",
    "locID": "LOC100078010585",
    "tech": "WIRELESS",
    "upgrade": "NULL_NA",
    "gnaf_pid": "GAQLD425121664",
    "tech_change_status": "Not Planned",
    "program_type": "Fixed Wireless and Satellite Upgrade Program",
    "target_eligibility_quarter": "NA"
   }
  },
  {
   "type": "Feature",
   "geometry": {
    "type": "Point",
    "coordinates": [
     150.48626745,
     -23.2397278
    ]
   },
   "properties": {
    "name": "17-23 GLENDALE ROAD GLENDALE 4711",
    "locID": "LOC000158675490",
    "tech": "WIRELESS",
    "upgrade": "NULL_NA",
    "gnaf_pid": "GAQLD425121665",
    "tech_change_status": "Not Planned",
    "program_type": "Fixed Wireless and Satellite Upgrade Program",
    "target_eligibility_quarter": "NA"
   }
  },
  {
   "type": "Feature",
   "geometry": {
    "type": "Point",
    "coordinates": [
     150.48375529,
     -23.23941818
    ]
   },
   "properties": {
    "name": "18-24 GLENDALE ROAD GLENDALE 4711",
    "locID": "LOC000014122328",
    "tech": "WIRELESS",
    "upgrade": "NULL_NA",
    "gnaf_pid": "GAQLD425121668",
    "tech_change_status": "Not Planned",
    "program_type": "Fixed Wireless and Satellite Upgrade Program",
    "target_eligibility_quarter": "NA"
   }
  },
  {
   "type": "Feature",
   "geometry": {
    "type": "Point",
    "coordinates": [
     150.4860918,
     -23.23834424
    ]
   },
   "properties": {
    "name": "1-7 GLENDALE ROAD GLENDALE 4711",
    "locID": "LOC000004861712",
    "tech": "WIRELESS",
    "upgrade": "NULL_NA",
    "gnaf_pid": "GAQLD425121670",
    "tech_change_status": "Not Planned",
    "program_type": "Fixed Wireless and Satellite Upgrade Program",
    "target_eligibility_quarter": "NA"
   }
  },
  {
   "type": "Feature",
   "geometry": {
    "type": "Point",
    "coordinates": [
     150.47332494,
     -23.25557363
    ]
   },
   "properties": {
    "name": "261-267 GLENDALE ROAD GLENDALE 4711",
    "locID": "LOC100036803409",
    "tech": "WIRELESS",
    "upgrade": "NULL_NA",
    "gnaf_pid": "GAQLD425121682",
    "tech_change_status": "Not Planned",
    "program_type": "Fixed Wireless and Satellite Upgrade Program",
    "target_eligibility_quarter": "NA"
   }
  },
  {
   "type": "Feature",
   "geometry": {
    "type": "Point",
    "coordinates": [
     150.47101131,
     -23.25519817
    ]
   },
   "properties": {
    "name": "262-268 GLENDALE ROAD GLENDALE 4711",
    "locID": "LOC000031737285",
    "tech": "WIRELESS",
    "upgrade": "NULL_NA",
    "gnaf_pid": "GAQLD425121683",
    "tech_change_status": "Not Planned",
    "program_type": "Fixed Wireless and Satellite Upgrade Program",
    "target_eligibility_quarter": "NA"
   }
  },
  {
   "type": "Feature",
   "geometry": {
    "type": "Point",
    "coordinates": [
     150.48686267,
     -23.24171066
    ]
   },
   "properties": {
    "name": "41-47 GLENDALE ROAD GLENDALE 4711",
    "locID": "LOC000060668186",
    "tech": "WIRELESS",
    "upgrade": "NULL_NA",
    "gnaf_pid": "GAQLD425121708",
    "tech_change_status": "Not Planned",
    "program_type": "Fixed Wireless and Satellite Upgrade Program",
    "target_eligibility_quarter": "NA"
   }
  },
  {
   "type": "Feature",
   "geometry": {
    "type": "Point",
    "coordinates": [
     150.47566143,
     -23.25219209
    ]
   },
   "properties": {
    "name": "192 JULIE ANNE DRIVE GLENDALE 4711",
    "locID": "LOC100071895594",
    "tech": "WIRELESS",
    "upgrade": "NULL_NA",
    "gnaf_pid": "GAQLD425645568",
    "tech_change_status": "Not Planned",
    "program_type": "Fixed Wireless and Satellite Upgrade Program",
    "target_eligibility_quarter": "NA"
   }
  },
  {
   "type": "Feature",
   "geometry": {
    "type": "Point",
    "coordinates": [
     150.4803504,
     -23.25021913
    ]
   },
   "properties": {
    "name": "168 GLENDALE ROAD GLENDALE 4711",
    "locID": "LOC100034640186",
    "tech": "WIRELESS",
    "upgrade": "NULL_NA",
    "gnaf_pid": "GAQLD425655836",
    "tech_change_status": "Not Planned",
    "program_type": "Fixed Wireless and Satellite Upgrade Program",
    "target_eligibility_quarter": "NA"
   }
  },
  {
   "type": "Feature",
   "geometry": {
    "type": "Point",
    "coordinates": [
     150.47645526,
     -23.25186746
    ]
   },
   "properties": {
    "name": "210 GLENDALE ROAD GLENDALE 4711",
    "locID": "LOC000154566158",
    "tech": "WIRELESS",
    "upgrade": "NULL_NA",
    "gnaf_pid": "GAQLD425655837",
    "tech_change_status": "Not Planned",
    "program_type": "Fixed Wireless and Satellite Upgrade Program",
    "target_eligibility_quarter": "NA"
   }
  },
  {
   "type": "Feature",
   "geometry": {
    "type": "Point",
    "coordinates": [
     150.4762082,
     -23.25144662
    ]
   },
   "properties": {
    "name": "187 JULIE ANNE DRIVE GLENDALE 4711",
    "locID": "LOC100056416122",
    "tech": "WIRELESS",
    "upgrade": "NULL_NA",
    "gnaf_pid": "GAQLD425656965",
    "tech_change_status": "Not Planned",
    "program_type": "Fixed Wireless and Satellite Upgrade Program",
    "target_eligibility_quarter": "NA"
   }
  },
  {
   "type": "Feature",
   "geometry": {
    "type": "Point",
    "coordinates": [
     150.46524826,
     -23.26047117
    ]
   },
   "properties": {
    "name": "366 GLENDALE ROAD GLENDALE 4711",
    "locID": "LOC000183818094",
    "tech": "WIRELESS",
    "upgrade": "NULL_NA",
    "gnaf_pid": "GAQLD425864389",
    "tech_change_status": "Not Planned",
    "program_type": "Fixed Wireless and Satellite Upgrade Program",
    "target_eligibility_quarter": "NA"
   }
  },
  {
   "type": "Feature",
   "geometry": {
    "type": "Point",
    "coordinates": [
     150.4848701,
     -23.24787536
    ]
   },
   "properties": {
    "name": "LOT 2 GLENDALE ROAD GLENDALE 4711",
    "locID": "LOC100079384750",
    "tech": "WIRELESS",
    "upgrade": "NULL_NA",
    "gnaf_pid": "GAQLD719272031",
    "tech_change_status": "Not Planned",
    "program_type": "Fixed Wireless and Satellite Upgrade Program",
    "target_eligibility_quarter": "NA"
   }
  },
  {
   "type": "Feature",
   "geometry": {
    "type": "Point",
    "coordinates": [
     150.47514981,
     -23.25240026
    ]
   },
   "properties": {
    "name": "226 GLENDALE ROAD GLENDALE 4711",
    "locID": "LOC100056416053",
    "tech": "WIRELESS",
    "upgrade": "NULL_NA",
    "gnaf_pid": "GAQLD719296712",
    "tech_change_status": "Not Planned",
    "program_type": "Fixed Wireless and Satellite Upgrade Program",
    "target_eligibility_quarter": "NA"
   }
  },
  {
   "type": "Feature",
   "geometry": {
    "type": "Point",
    "coordinates": [
     150.47504693,
     -23.25180259
    ]
   },
   "properties": {
    "name": "188 JULIE ANNE DRIVE GLENDALE 4711",
    "locID": "LOC000185799556",
    "tech": "WIRELESS",
    "upgrade": "NULL_NA",
    "gnaf_pid": "GAQLD719444706",
    "tech_change_status": "Not Planned",
    "program_type": "Fixed Wireless and Satellite Upgrade Program",
    "target_eligibility_quarter": "NA"
   }
  }
 ]
}