{
 "type": "FeatureCollection",
 "generated": "2024-11-29T18:25:00.187141",
 "suburb": "GURULMUNDI",
 "features": [
  {
   "type": "Feature",
   "geometry": {
    "type": "Point",
    "coordinates": [
     150.03221177,
     -26.41626127
    ]
   },
   "properties": {
    "name": "LOT 67 GURULMUNDI ROAD GURULMUNDI 4415",
    "locID": "LOC000128197491",
    "tech": "NULL",
    "upgrade": "NULL_NA",
    "gnaf_pid": "GAQLD161170502",
    "tech_change_status": "Not Planned"
   }
  },
  {
   "type": "Feature",
   "geometry": {
    "type": "Point",
    "coordinates": [
     150.17008595,
     -26.46129216
    ]
   },
   "properties": {
    "name": "LOT 1 LEICHHARDT HIGHWAY GURULMUNDI 4415",
    "locID": "LOC000097303584",
    "tech": "WIRELESS",
    "upgrade": "NULL_NA",
    "gnaf_pid": "GAQLD161211661",
    "tech_change_status": "Not Planned",
    "program_type": "Fixed Wireless and Satellite Upgrade Program",
    "target_eligibility_quarter": "NA"
   }
  },
  {
   "type": "Feature",
   "geometry": {
    "type": "Point",
    "coordinates": [
     150.06616388,
     -26.38370059
    ]
   },
   "properties": {
    "name": "35374 LEICHHARDT HIGHWAY GURULMUNDI 4415",
    "locID": "LOC000062329218",
    "tech": "NULL",
    "upgrade": "NULL_NA",
    "gnaf_pid": "GAQLD162163700",
    "tech_change_status": "Not Planned"
   }
  },
  {
   "type": "Feature",
   "geometry": {
    "type": "Point",
    "coordinates": [
     150.06355897,
     -26.4319295
    ]
   },
   "properties": {
    "name": "35852 LEICHHARDT HIGHWAY GURULMUNDI 4415",
    "locID": "LOC000004067572",
    "tech": "NULL",
    "upgrade": "NULL_NA",
    "gnaf_pid": "GAQLD162163701",
    "tech_change_status": "Not Planned"
   }
  },
  {
   "type": "Feature",
   "geometry": {
    "type": "Point",
    "coordinates": [
     150.0874795,
     -26.434586
    ]
   },
   "properties": {
    "name": "35857 LEICHHARDT HIGHWAY GURULMUNDI 4415",
    "locID": "LOC000085915349",
    "tech": "SATELLITE",
    "upgrade": "NULL_NA",
    "gnaf_pid": "GAQLD162163702",
    "tech_change_status": "Not Planned"
   }
  },
  {
   "type": "Feature",
   "geometry": {
    "type": "Point",
    "coordinates": [
     150.11484404,
     -26.44665424
    ]
   },
   "properties": {
    "name": "345 TUMBA DOWNS ROAD GURULMUNDI 4415",
    "locID": "LOC000068896786",
    "tech": "SATELLITE",
    "upgrade": "NULL_NA",
    "gnaf_pid": "GAQLD162448668",
    "tech_change_status": "Not Planned"
   }
  },
  {
   "type": "Feature",
   "geometry": {
    "type": "Point",
    "coordinates": [
     150.05379164,
     -26.41559834
    ]
   },
   "properties": {
    "name": "LOT 75 GURULMUNDI ROAD GURULMUNDI 4415",
    "locID": "LOC000128197502",
    "tech": "NULL",
    "upgrade": "NULL_NA",
    "gnaf_pid": "GAQLD163165202",
    "tech_change_status": "Not Planned"
   }
  },
  {
   "type": "Feature",
   "geometry": {
    "type": "Point",
    "coordinates": [
     150.17403567,
     -26.43962511
    ]
   },
   "properties": {
    "name": "LOT 2 L TREE CREEK ROAD GURULMUNDI 4415",
    "locID": "LOC100077332017",
    "tech": "SATELLITE",
    "upgrade": "NULL_NA",
    "gnaf_pid": "GAQLD163167782",
    "tech_change_status": "Not Planned"
   }
  },
  {
   "type": "Feature",
   "geometry": {
    "type": "Point",
    "coordinates": [
     150.24447307,
     -26.43862476
    ]
   },
   "properties": {
    "name": "LOT 25 WELSHS ROAD GURULMUNDI 4415",
    "locID": "LOC000150181576",
    "tech": "SATELLITE",
    "upgrade": "NULL_NA",
    "gnaf_pid": "GAQLD424997830",
    "tech_change_status": "Not Planned"
   }
  },
  {
   "type": "Feature",
   "geometry": {
    "type": "Point",
    "coordinates": [
     150.18383698,
     -26.38006543
    ]
   },
   "properties": {
    "name": "LOT 17 L TREE CREEK ROAD GURULMUNDI 4415",
    "locID": "LOC100077332017",
    "tech": "SATELLITE",
    "upgrade": "NULL_NA",
    "gnaf_pid": "GAQLD425174447",
    "tech_change_status": "Not Planned"
   }
  },
  {
   "type": "Feature",
   "geometry": {
    "type": "Point",
    "coordinates": [
     150.20106782,
     -26.40036337
    ]
   },
   "properties": {
    "name": "LOT 1 L TREE CREEK ROAD GURULMUNDI 4415",
    "locID": "LOC100077332017",
    "tech": "SATELLITE",
    "upgrade": "NULL_NA",
    "gnaf_pid": "GAQLD425174448",
    "tech_change_status": "Not Planned"
   }
  },
  {
   "type": "Feature",
   "geometry": {
    "type": "Point",
    "coordinates": [
     150.17998977,
     -26.39888879
    ]
   },
   "properties": {
    "name": "LOT 141 WELSHS ROAD GURULMUNDI 4415",
    "locID": "LOC000150181576",
    "tech": "SATELLITE",
    "upgrade": "NULL_NA",
    "gnaf_pid": "GAQLD425176134",
    "tech_change_status": "Not Planned"
   }
  },
  {
   "type": "Feature",
   "geometry": {
    "type": "Point",
    "coordinates": [
     150.16342521,
     -26.37509819
    ]
   },
   "properties": {
    "name": "LOT 8 WELSHS ROAD GURULMUNDI 4415",
    "locID": "LOC000150181576",
    "tech": "SATELLITE",
    "upgrade": "NULL_NA",
    "gnaf_pid": "GAQLD425176135",
    "tech_change_status": "Not Planned"
   }
  },
  {
   "type": "Feature",
   "geometry": {
    "type": "Point",
    "coordinates": [
     150.0519307,
     -26.41701826
    ]
   },
   "properties": {
    "name": "LOT 104 GURULMUNDI ROAD GURULMUNDI 4415",
    "locID": "LOC100072075201",
    "tech": "NULL",
    "upgrade": "NULL_NA",
    "gnaf_pid": "GAQLD425640127",
    "tech_change_status": "Not Planned"
   }
  },
  {
   "type": "Feature",
   "geometry": {
    "type": "Point",
    "coordinates": [
     150.05200856,
     -26.41718628
    ]
   },
   "properties": {
    "name": "LOT 105 GURULMUNDI ROAD GURULMUNDI 4415",
    "locID": "LOC000128197502",
    "tech": "NULL",
    "upgrade": "NULL_NA",
    "gnaf_pid": "GAQLD425640128",
    "tech_change_status": "Not Planned"
   }
  },
  {
   "type": "Feature",
   "geometry": {
    "type": "Point",
    "coordinates": [
     150.05435743,
     -26.4177787
    ]
   },
   "properties": {
    "name": "LOT 301 GURULMUNDI ROAD GURULMUNDI 4415",
    "locID": "LOC000142982016",
    "tech": "SATELLITE",
    "upgrade": "NULL_NA",
    "gnaf_pid": "GAQLD425640129",
    "tech_change_status": "Not Planned"
   }
  },
  {
   "type": "Feature",
   "geometry": {
    "type": "Point",
    "coordinates": [
     150.05443475,
     -26.41794621
    ]
   },
   "properties": {
    "name": "LOT 302 GURULMUNDI ROAD GURULMUNDI 4415",
    "locID": "LOC000128197502",
    "tech": "NULL",
    "upgrade": "NULL_NA",
    "gnaf_pid": "GAQLD425640130",
    "tech_change_status": "Not Planned"
   }
  },
  {
   "type": "Feature",
   "geometry": {
    "type": "Point",
    "coordinates": [
     150.05489993,
     -26.41777086
    ]
   },
   "properties": {
    "name": "LOT 315 GURULMUNDI ROAD GURULMUNDI 4415",
    "locID": "LOC000128197502",
    "tech": "NULL",
    "upgrade": "NULL_NA",
    "gnaf_pid": "GAQLD425640131",
    "tech_change_status": "Not Planned"
   }
  },
  {
   "type": "Feature",
   "geometry": {
    "type": "Point",
    "coordinates": [
     150.0548221,
     -26.41760349
    ]
   },
   "properties": {
    "name": "LOT 316 GURULMUNDI ROAD GURULMUNDI 4415",
    "locID": "LOC100072075199",
    "tech": "NULL",
    "upgrade": "NULL_NA",
    "gnaf_pid": "GAQLD425640132",
    "tech_change_status": "Not Planned"
   }
  },
  {
   "type": "Feature",
   "geometry": {
    "type": "Point",
    "coordinates": [
     150.05208564,
     -26.41735329
    ]
   },
   "properties": {
    "name": "LOT 106 LEICHHARDT HIGHWAY GURULMUNDI 4415",
    "locID": "LOC000062329218",
    "tech": "NULL",
    "upgrade": "NULL_NA",
    "gnaf_pid": "GAQLD425641080",
    "tech_change_status": "Not Planned"
   }
  },
  {
   "type": "Feature",
   "geometry": {
    "type": "Point",
    "coordinates": [
     150.05154334,
     -26.417361
    ]
   },
   "properties": {
    "name": "LOT 110 LEICHHARDT HIGHWAY GURULMUNDI 4415",
    "locID": "LOC000062329218",
    "tech": "NULL",
    "upgrade": "NULL_NA",
    "gnaf_pid": "GAQLD425641082",
    "tech_change_status": "Not Planned"
   }
  },
  {
   "type": "Feature",
   "geometry": {
    "type": "Point",
    "coordinates": [
     150.15699007,
     -26.41146751
    ]
   },
   "properties": {
    "name": "846 WELSHS ROAD GURULMUNDI 4415",
    "locID": "LOC000150181576",
    "tech": "SATELLITE",
    "upgrade": "NULL_NA",
    "gnaf_pid": "GAQLD425661760",
    "tech_change_status": "Not Planned"
   }
  },
  {
   "type": "Feature",
   "geometry": {
    "type": "Point",
    "coordinates": [
     150.13066998,
     -26.39990283
    ]
   },
   "properties": {
    "name": "LOT 17 WELSHS ROAD GURULMUNDI 4415",
    "locID": "LOC000150181576",
    "tech": "SATELLITE",
    "upgrade": "NULL_NA",
    "gnaf_pid": "GAQLD720986561",
    "tech_change_status": "Not Planned"
   }
  },
  {
   "type": "Feature",
   "geometry": {
    "type": "Point",
    "coordinates": [
     150.10346633,
     -26.41626506
    ]
   },
   "properties": {
    "name": "296 WELSHS ROAD GURULMUNDI 4415",
    "locID": "LOC100087282709",
    "tech": "NULL",
    "upgrade": "NULL_NA",
    "gnaf_pid": "GAQLD721232594",
    "tech_change_status": "Not Planned"
   }
  }
 ]
}