{
 "type": "FeatureCollection",
 "generated": "2025-02-04T01:55:10.652756",
 "suburb": "HODGLEIGH",
 "features": [
  {
   "type": "Feature",
   "geometry": {
    "type": "Point",
    "coordinates": [
     151.91987876,
     -26.62231711
    ]
   },
   "properties": {
    "name": "12 BELLBIRD ROAD HODGLEIGH 4610",
    "locID": "LOC000017441679",
    "tech": "NULL",
    "upgrade": "NULL_NA",
    "gnaf_pid": "GAQLD158055235",
    "tech_change_status": "Not Planned"
   }
  },
  {
   "type": "Feature",
   "geometry": {
    "type": "Point",
    "coordinates": [
     151.90540967,
     -26.62318748
    ]
   },
   "properties": {
    "name": "LOT 3 BELLBIRD ROAD HODGLEIGH 4610",
    "locID": "LOC000105395727",
    "tech": "WIRELESS",
    "upgrade": "NULL_NA",
    "gnaf_pid": "GAQLD158951171",
    "tech_change_status": "Not Planned",
    "program_type": "Fixed Wireless and Satellite Upgrade Program",
    "target_eligibility_quarter": "NA"
   }
  },
  {
   "type": "Feature",
   "geometry": {
    "type": "Point",
    "coordinates": [
     151.89310873,
     -26.6227302
    ]
   },
   "properties": {
    "name": "313 BELLBIRD ROAD HODGLEIGH 4610",
    "locID": "LOC000105395727",
    "tech": "WIRELESS",
    "upgrade": "NULL_NA",
    "gnaf_pid": "GAQLD160687811",
    "tech_change_status": "Not Planned",
    "program_type": "Fixed Wireless and Satellite Upgrade Program",
    "target_eligibility_quarter": "NA"
   }
  },
  {
   "type": "Feature",
   "geometry": {
    "type": "Point",
    "coordinates": [
     151.90885464,
     -26.62618318
    ]
   },
   "properties": {
    "name": "203 BELLBIRD ROAD HODGLEIGH 4610",
    "locID": "LOC000073263278",
    "tech": "WIRELESS",
    "upgrade": "NULL_NA",
    "gnaf_pid": "GAQLD160687813",
    "tech_change_status": "Not Planned",
    "program_type": "Fixed Wireless and Satellite Upgrade Program",
    "target_eligibility_quarter": "NA"
   }
  },
  {
   "type": "Feature",
   "geometry": {
    "type": "Point",
    "coordinates": [
     151.91044157,
     -26.61624468
    ]
   },
   "properties": {
    "name": "9 LUCAS ROAD HODGLEIGH 4610",
    "locID": "LOC100078022659",
    "tech": "WIRELESS",
    "upgrade": "NULL_NA",
    "gnaf_pid": "GAQLD160705271",
    "tech_change_status": "Not Planned",
    "program_type": "Fixed Wireless and Satellite Upgrade Program",
    "target_eligibility_quarter": "NA"
   }
  },
  {
   "type": "Feature",
   "geometry": {
    "type": "Point",
    "coordinates": [
     151.90306322,
     -26.61506868
    ]
   },
   "properties": {
    "name": "71 LUCAS ROAD HODGLEIGH 4610",
    "locID": "LOC000060227444",
    "tech": "WIRELESS",
    "upgrade": "NULL_NA",
    "gnaf_pid": "GAQLD160705272",
    "tech_change_status": "Not Planned",
    "program_type": "Fixed Wireless and Satellite Upgrade Program",
    "target_eligibility_quarter": "NA"
   }
  },
  {
   "type": "Feature",
   "geometry": {
    "type": "Point",
    "coordinates": [
     151.89856151,
     -26.61665042
    ]
   },
   "properties": {
    "name": "117 LUCAS ROAD HODGLEIGH 4610",
    "locID": "LOC000100433765",
    "tech": "WIRELESS",
    "upgrade": "NULL_NA",
    "gnaf_pid": "GAQLD160705273",
    "tech_change_status": "Not Planned",
    "program_type": "Fixed Wireless and Satellite Upgrade Program",
    "target_eligibility_quarter": "NA"
   }
  },
  {
   "type": "Feature",
   "geometry": {
    "type": "Point",
    "coordinates": [
     151.94226492,
     -26.63333024
    ]
   },
   "properties": {
    "name": "28 HODGLEIGH NORTH ROAD HODGLEIGH 4610",
    "locID": "LOC000039317838",
    "tech": "WIRELESS",
    "upgrade": "NULL_NA",
    "gnaf_pid": "GAQLD160951434",
    "tech_change_status": "Not Planned",
    "program_type": "Fixed Wireless and Satellite Upgrade Program",
    "target_eligibility_quarter": "NA"
   }
  },
  {
   "type": "Feature",
   "geometry": {
    "type": "Point",
    "coordinates": [
     151.93523613,
     -26.58192076
    ]
   },
   "properties": {
    "name": "64 ROBERTS ROAD HODGLEIGH 4610",
    "locID": "LOC000049531567",
    "tech": "WIRELESS",
    "upgrade": "NULL_NA",
    "gnaf_pid": "GAQLD160960026",
    "tech_change_status": "Not Planned",
    "program_type": "Fixed Wireless and Satellite Upgrade Program",
    "target_eligibility_quarter": "NA"
   }
  },
  {
   "type": "Feature",
   "geometry": {
    "type": "Point",
    "coordinates": [
     151.90030357,
     -26.62720174
    ]
   },
   "properties": {
    "name": "51 SWENSON ROAD HODGLEIGH 4610",
    "locID": "LOC100078022750",
    "tech": "WIRELESS",
    "upgrade": "NULL_NA",
    "gnaf_pid": "GAQLD160962356",
    "tech_change_status": "Not Planned",
    "program_type": "Fixed Wireless and Satellite Upgrade Program",
    "target_eligibility_quarter": "NA"
   }
  },
  {
   "type": "Feature",
   "geometry": {
    "type": "Point",
    "coordinates": [
     151.89700048,
     -26.62516014
    ]
   },
   "properties": {
    "name": "90 SWENSON ROAD HODGLEIGH 4610",
    "locID": "LOC000065046938",
    "tech": "WIRELESS",
    "upgrade": "NULL_NA",
    "gnaf_pid": "GAQLD160962357",
    "tech_change_status": "Not Planned",
    "program_type": "Fixed Wireless and Satellite Upgrade Program",
    "target_eligibility_quarter": "NA"
   }
  },
  {
   "type": "Feature",
   "geometry": {
    "type": "Point",
    "coordinates": [
     151.95147689,
     -26.63810898
    ]
   },
   "properties": {
    "name": "LOT 1 BALLIN ROAD HODGLEIGH 4610",
    "locID": "LOC000128687045",
    "tech": "WIRELESS",
    "upgrade": "NULL_NA",
    "gnaf_pid": "GAQLD161057022",
    "tech_change_status": "Not Planned",
    "program_type": "Fixed Wireless and Satellite Upgrade Program",
    "target_eligibility_quarter": "NA"
   }
  },
  {
   "type": "Feature",
   "geometry": {
    "type": "Point",
    "coordinates": [
     151.90052003,
     -26.62168705
    ]
   },
   "properties": {
    "name": "LOT 185 BELLBIRD ROAD HODGLEIGH 4610",
    "locID": "LOC000105395727",
    "tech": "WIRELESS",
    "upgrade": "NULL_NA",
    "gnaf_pid": "GAQLD161064209",
    "tech_change_status": "Not Planned",
    "program_type": "Fixed Wireless and Satellite Upgrade Program",
    "target_eligibility_quarter": "NA"
   }
  },
  {
   "type": "Feature",
   "geometry": {
    "type": "Point",
    "coordinates": [
     151.91269889,
     -26.62179256
    ]
   },
   "properties": {
    "name": "LOT 2 BELLBIRD ROAD HODGLEIGH 4610",
    "locID": "LOC000128615239",
    "tech": "WIRELESS",
    "upgrade": "NULL_NA",
    "gnaf_pid": "GAQLD161064211",
    "tech_change_status": "Not Planned",
    "program_type": "Fixed Wireless and Satellite Upgrade Program",
    "target_eligibility_quarter": "NA"
   }
  },
  {
   "type": "Feature",
   "geometry": {
    "type": "Point",
    "coordinates": [
     151.93308215,
     -26.591322
    ]
   },
   "properties": {
    "name": "LOT 4 COOLABUNIA MALAR ROAD HODGLEIGH 4610",
    "locID": "LOC000025427314",
    "tech": "WIRELESS",
    "upgrade": "NULL_NA",
    "gnaf_pid": "GAQLD161109185",
    "tech_change_status": "Not Planned",
    "program_type": "Fixed Wireless and Satellite Upgrade Program",
    "target_eligibility_quarter": "NA"
   }
  },
  {
   "type": "Feature",
   "geometry": {
    "type": "Point",
    "coordinates": [
     151.94634184,
     -26.59315722
    ]
   },
   "properties": {
    "name": "LOT 69 COOLABUNIA MALAR ROAD HODGLEIGH 4610",
    "locID": "LOC000106145499",
    "tech": "NULL",
    "upgrade": "NULL_NA",
    "gnaf_pid": "GAQLD161109186",
    "tech_change_status": "Not Planned"
   }
  },
  {
   "type": "Feature",
   "geometry": {
    "type": "Point",
    "coordinates": [
     151.89586646,
     -26.62066918
    ]
   },
   "properties": {
    "name": "278 BELLBIRD ROAD HODGLEIGH 4610",
    "locID": "LOC000056156375",
    "tech": "WIRELESS",
    "upgrade": "NULL_NA",
    "gnaf_pid": "GAQLD161364708",
    "tech_change_status": "Not Planned",
    "program_type": "Fixed Wireless and Satellite Upgrade Program",
    "target_eligibility_quarter": "NA"
   }
  },
  {
   "type": "Feature",
   "geometry": {
    "type": "Point",
    "coordinates": [
     151.95088587,
     -26.60142321
    ]
   },
   "properties": {
    "name": "370 HODGLEIGH NORTH ROAD HODGLEIGH 4610",
    "locID": "LOC000028451729",
    "tech": "WIRELESS",
    "upgrade": "NULL_NA",
    "gnaf_pid": "GAQLD161368015",
    "tech_change_status": "Not Planned",
    "program_type": "Fixed Wireless and Satellite Upgrade Program",
    "target_eligibility_quarter": "NA"
   }
  },
  {
   "type": "Feature",
   "geometry": {
    "type": "Point",
    "coordinates": [
     151.93210039,
     -26.58003841
    ]
   },
   "properties": {
    "name": "56 ROBERTS ROAD HODGLEIGH 4610",
    "locID": "LOC000038239968",
    "tech": "WIRELESS",
    "upgrade": "NULL_NA",
    "gnaf_pid": "GAQLD161371167",
    "tech_change_status": "Not Planned",
    "program_type": "Fixed Wireless and Satellite Upgrade Program",
    "target_eligibility_quarter": "NA"
   }
  },
  {
   "type": "Feature",
   "geometry": {
    "type": "Point",
    "coordinates": [
     151.89378239,
     -26.63378637
    ]
   },
   "properties": {
    "name": "92 SWENSON ROAD HODGLEIGH 4610",
    "locID": "LOC000070835566",
    "tech": "WIRELESS",
    "upgrade": "NULL_NA",
    "gnaf_pid": "GAQLD161371954",
    "tech_change_status": "Not Planned",
    "program_type": "Fixed Wireless and Satellite Upgrade Program",
    "target_eligibility_quarter": "NA"
   }
  },
  {
   "type": "Feature",
   "geometry": {
    "type": "Point",
    "coordinates": [
     151.94852123,
     -26.61526247
    ]
   },
   "properties": {
    "name": "154 HODGLEIGH NORTH ROAD HODGLEIGH 4610",
    "locID": "LOC000021648706",
    "tech": "WIRELESS",
    "upgrade": "NULL_NA",
    "gnaf_pid": "GAQLD161471675",
    "tech_change_status": "Not Planned",
    "program_type": "Fixed Wireless and Satellite Upgrade Program",
    "target_eligibility_quarter": "NA"
   }
  },
  {
   "type": "Feature",
   "geometry": {
    "type": "Point",
    "coordinates": [
     151.94261048,
     -26.60822494
    ]
   },
   "properties": {
    "name": "205 HODGLEIGH NORTH ROAD HODGLEIGH 4610",
    "locID": "LOC000062952983",
    "tech": "WIRELESS",
    "upgrade": "NULL_NA",
    "gnaf_pid": "GAQLD161471676",
    "tech_change_status": "Not Planned",
    "program_type": "Fixed Wireless and Satellite Upgrade Program",
    "target_eligibility_quarter": "NA"
   }
  },
  {
   "type": "Feature",
   "geometry": {
    "type": "Point",
    "coordinates": [
     151.95013851,
     -26.60567075
    ]
   },
   "properties": {
    "name": "330 HODGLEIGH NORTH ROAD HODGLEIGH 4610",
    "locID": "LOC000096132466",
    "tech": "WIRELESS",
    "upgrade": "NULL_NA",
    "gnaf_pid": "GAQLD161471677",
    "tech_change_status": "Not Planned",
    "program_type": "Fixed Wireless and Satellite Upgrade Program",
    "target_eligibility_quarter": "NA"
   }
  },
  {
   "type": "Feature",
   "geometry": {
    "type": "Point",
    "coordinates": [
     151.95102272,
     -26.60301854
    ]
   },
   "properties": {
    "name": "332 HODGLEIGH NORTH ROAD HODGLEIGH 4610",
    "locID": "LOC000064729226",
    "tech": "SATELLITE",
    "upgrade": "WIRELESS",
    "gnaf_pid": "GAQLD161471678",
    "tech_change_status": "Eligible to Order",
    "program_type": "Fixed Wireless and Satellite Upgrade Program",
    "target_eligibility_quarter": "NA"
   }
  },
  {
   "type": "Feature",
   "geometry": {
    "type": "Point",
    "coordinates": [
     151.94758014,
     -26.59909983
    ]
   },
   "properties": {
    "name": "387 HODGLEIGH NORTH ROAD HODGLEIGH 4610",
    "locID": "LOC000086835887",
    "tech": "WIRELESS",
    "upgrade": "NULL_NA",
    "gnaf_pid": "GAQLD161471679",
    "tech_change_status": "Not Planned",
    "program_type": "Fixed Wireless and Satellite Upgrade Program",
    "target_eligibility_quarter": "NA"
   }
  },
  {
   "type": "Feature",
   "geometry": {
    "type": "Point",
    "coordinates": [
     151.951277,
     -26.59798018
    ]
   },
   "properties": {
    "name": "420 HODGLEIGH NORTH ROAD HODGLEIGH 4610",
    "locID": "LOC000047281646",
    "tech": "WIRELESS",
    "upgrade": "NULL_NA",
    "gnaf_pid": "GAQLD161471680",
    "tech_change_status": "Not Planned",
    "program_type": "Fixed Wireless and Satellite Upgrade Program",
    "target_eligibility_quarter": "NA"
   }
  },
  {
   "type": "Feature",
   "geometry": {
    "type": "Point",
    "coordinates": [
     151.90381061,
     -26.6201641
    ]
   },
   "properties": {
    "name": "204 BELLBIRD ROAD HODGLEIGH 4610",
    "locID": "LOC000008371627",
    "tech": "WIRELESS",
    "upgrade": "NULL_NA",
    "gnaf_pid": "GAQLD161650522",
    "tech_change_status": "Not Planned",
    "program_type": "Fixed Wireless and Satellite Upgrade Program",
    "target_eligibility_quarter": "NA"
   }
  },
  {
   "type": "Feature",
   "geometry": {
    "type": "Point",
    "coordinates": [
     151.92884322,
     -26.57870682
    ]
   },
   "properties": {
    "name": "110 REAGON ROAD HODGLEIGH 4610",
    "locID": "LOC000060998548",
    "tech": "WIRELESS",
    "upgrade": "NULL_NA",
    "gnaf_pid": "GAQLD161666571",
    "tech_change_status": "Not Planned",
    "program_type": "Fixed Wireless and Satellite Upgrade Program",
    "target_eligibility_quarter": "NA"
   }
  },
  {
   "type": "Feature",
   "geometry": {
    "type": "Point",
    "coordinates": [
     151.88875653,
     -26.6323702
    ]
   },
   "properties": {
    "name": "239 SEMGREENS ROAD HODGLEIGH 4610",
    "locID": "LOC000072629352",
    "tech": "WIRELESS",
    "upgrade": "NULL_NA",
    "gnaf_pid": "GAQLD161797592",
    "tech_change_status": "Not Planned",
    "program_type": "Fixed Wireless and Satellite Upgrade Program",
    "target_eligibility_quarter": "NA"
   }
  },
  {
   "type": "Feature",
   "geometry": {
    "type": "Point",
    "coordinates": [
     151.94487805,
     -26.63674874
    ]
   },
   "properties": {
    "name": "33 BALLIN ROAD HODGLEIGH 4610",
    "locID": "LOC000010329708",
    "tech": "WIRELESS",
    "upgrade": "NULL_NA",
    "gnaf_pid": "GAQLD161805747",
    "tech_change_status": "Not Planned",
    "program_type": "Fixed Wireless and Satellite Upgrade Program",
    "target_eligibility_quarter": "NA"
   }
  },
  {
   "type": "Feature",
   "geometry": {
    "type": "Point",
    "coordinates": [
     151.94647642,
     -26.63706934
    ]
   },
   "properties": {
    "name": "49 BALLIN ROAD HODGLEIGH 4610",
    "locID": "LOC000005899072",
    "tech": "WIRELESS",
    "upgrade": "NULL_NA",
    "gnaf_pid": "GAQLD161805748",
    "tech_change_status": "Not Planned",
    "program_type": "Fixed Wireless and Satellite Upgrade Program",
    "target_eligibility_quarter": "NA"
   }
  },
  {
   "type": "Feature",
   "geometry": {
    "type": "Point",
    "coordinates": [
     151.96153254,
     -26.58767299
    ]
   },
   "properties": {
    "name": "226 COOLABUNIA MALAR ROAD HODGLEIGH 4610",
    "locID": "LOC000106145499",
    "tech": "NULL",
    "upgrade": "NULL_NA",
    "gnaf_pid": "GAQLD161910286",
    "tech_change_status": "Not Planned"
   }
  },
  {
   "type": "Feature",
   "geometry": {
    "type": "Point",
    "coordinates": [
     151.96358354,
     -26.59378389
    ]
   },
   "properties": {
    "name": "247 COOLABUNIA MALAR ROAD HODGLEIGH 4610",
    "locID": "LOC000016744198",
    "tech": "WIRELESS",
    "upgrade": "NULL_NA",
    "gnaf_pid": "GAQLD161910287",
    "tech_change_status": "Not Planned",
    "program_type": "Fixed Wireless and Satellite Upgrade Program",
    "target_eligibility_quarter": "NA"
   }
  },
  {
   "type": "Feature",
   "geometry": {
    "type": "Point",
    "coordinates": [
     151.95811252,
     -26.59887428
    ]
   },
   "properties": {
    "name": "369 COOLABUNIA MALAR ROAD HODGLEIGH 4610",
    "locID": "LOC000032283591",
    "tech": "WIRELESS",
    "upgrade": "NULL_NA",
    "gnaf_pid": "GAQLD161910288",
    "tech_change_status": "Not Planned",
    "program_type": "Fixed Wireless and Satellite Upgrade Program",
    "target_eligibility_quarter": "NA"
   }
  },
  {
   "type": "Feature",
   "geometry": {
    "type": "Point",
    "coordinates": [
     151.95803145,
     -26.59246171
    ]
   },
   "properties": {
    "name": "378 COOLABUNIA MALAR ROAD HODGLEIGH 4610",
    "locID": "LOC000007587187",
    "tech": "WIRELESS",
    "upgrade": "NULL_NA",
    "gnaf_pid": "GAQLD161910289",
    "tech_change_status": "Not Planned",
    "program_type": "Fixed Wireless and Satellite Upgrade Program",
    "target_eligibility_quarter": "NA"
   }
  },
  {
   "type": "Feature",
   "geometry": {
    "type": "Point",
    "coordinates": [
     151.94852125,
     -26.59103209
    ]
   },
   "properties": {
    "name": "434 COOLABUNIA MALAR ROAD HODGLEIGH 4610",
    "locID": "LOC000025427314",
    "tech": "WIRELESS",
    "upgrade": "NULL_NA",
    "gnaf_pid": "GAQLD161910290",
    "tech_change_status": "Not Planned",
    "program_type": "Fixed Wireless and Satellite Upgrade Program",
    "target_eligibility_quarter": "NA"
   }
  },
  {
   "type": "Feature",
   "geometry": {
    "type": "Point",
    "coordinates": [
     151.93932003,
     -26.59622099
    ]
   },
   "properties": {
    "name": "535 COOLABUNIA MALAR ROAD HODGLEIGH 4610",
    "locID": "LOC000065899026",
    "tech": "WIRELESS",
    "upgrade": "NULL_NA",
    "gnaf_pid": "GAQLD161910291",
    "tech_change_status": "Not Planned",
    "program_type": "Fixed Wireless and Satellite Upgrade Program",
    "target_eligibility_quarter": "NA"
   }
  },
  {
   "type": "Feature",
   "geometry": {
    "type": "Point",
    "coordinates": [
     151.93414337,
     -26.59553022
    ]
   },
   "properties": {
    "name": "593 COOLABUNIA MALAR ROAD HODGLEIGH 4610",
    "locID": "LOC000016736048",
    "tech": "WIRELESS",
    "upgrade": "NULL_NA",
    "gnaf_pid": "GAQLD161910292",
    "tech_change_status": "Not Planned",
    "program_type": "Fixed Wireless and Satellite Upgrade Program",
    "target_eligibility_quarter": "NA"
   }
  },
  {
   "type": "Feature",
   "geometry": {
    "type": "Point",
    "coordinates": [
     151.92820477,
     -26.5947005
    ]
   },
   "properties": {
    "name": "637 COOLABUNIA MALAR ROAD HODGLEIGH 4610",
    "locID": "LOC000060392142",
    "tech": "WIRELESS",
    "upgrade": "NULL_NA",
    "gnaf_pid": "GAQLD161910293",
    "tech_change_status": "Not Planned",
    "program_type": "Fixed Wireless and Satellite Upgrade Program",
    "target_eligibility_quarter": "NA"
   }
  },
  {
   "type": "Feature",
   "geometry": {
    "type": "Point",
    "coordinates": [
     151.9296428,
     -26.58492374
    ]
   },
   "properties": {
    "name": "666 COOLABUNIA MALAR ROAD HODGLEIGH 4610",
    "locID": "LOC000030284038",
    "tech": "WIRELESS",
    "upgrade": "NULL_NA",
    "gnaf_pid": "GAQLD161910294",
    "tech_change_status": "Not Planned",
    "program_type": "Fixed Wireless and Satellite Upgrade Program",
    "target_eligibility_quarter": "NA"
   }
  },
  {
   "type": "Feature",
   "geometry": {
    "type": "Point",
    "coordinates": [
     151.88925764,
     -26.62891619
    ]
   },
   "properties": {
    "name": "191 SEMGREENS ROAD HODGLEIGH 4610",
    "locID": "LOC000064076874",
    "tech": "WIRELESS",
    "upgrade": "NULL_NA",
    "gnaf_pid": "GAQLD161966010",
    "tech_change_status": "Not Planned",
    "program_type": "Fixed Wireless and Satellite Upgrade Program",
    "target_eligibility_quarter": "NA"
   }
  },
  {
   "type": "Feature",
   "geometry": {
    "type": "Point",
    "coordinates": [
     151.88876031,
     -26.62992086
    ]
   },
   "properties": {
    "name": "207 SEMGREENS ROAD HODGLEIGH 4610",
    "locID": "LOC000012569259",
    "tech": "WIRELESS",
    "upgrade": "NULL_NA",
    "gnaf_pid": "GAQLD161966011",
    "tech_change_status": "Not Planned",
    "program_type": "Fixed Wireless and Satellite Upgrade Program",
    "target_eligibility_quarter": "NA"
   }
  },
  {
   "type": "Feature",
   "geometry": {
    "type": "Point",
    "coordinates": [
     151.88818704,
     -26.63087162
    ]
   },
   "properties": {
    "name": "229 SEMGREENS ROAD HODGLEIGH 4610",
    "locID": "LOC000095193112",
    "tech": "WIRELESS",
    "upgrade": "NULL_NA",
    "gnaf_pid": "GAQLD161966012",
    "tech_change_status": "Not Planned",
    "program_type": "Fixed Wireless and Satellite Upgrade Program",
    "target_eligibility_quarter": "NA"
   }
  },
  {
   "type": "Feature",
   "geometry": {
    "type": "Point",
    "coordinates": [
     151.89261237,
     -26.61631001
    ]
   },
   "properties": {
    "name": "67 SEMGREENS ROAD HODGLEIGH 4610",
    "locID": "LOC000002658398",
    "tech": "WIRELESS",
    "upgrade": "NULL_NA",
    "gnaf_pid": "GAQLD161966013",
    "tech_change_status": "Not Planned",
    "program_type": "Fixed Wireless and Satellite Upgrade Program",
    "target_eligibility_quarter": "NA"
   }
  },
  {
   "type": "Feature",
   "geometry": {
    "type": "Point",
    "coordinates": [
     151.95733063,
     -26.57999837
    ]
   },
   "properties": {
    "name": "201 BOARDMAN ROAD HODGLEIGH 4610",
    "locID": "LOC000003430511",
    "tech": "NULL",
    "upgrade": "NULL_NA",
    "gnaf_pid": "GAQLD162451381",
    "tech_change_status": "Not Planned"
   }
  },
  {
   "type": "Feature",
   "geometry": {
    "type": "Point",
    "coordinates": [
     151.94659485,
     -26.58214086
    ]
   },
   "properties": {
    "name": "243 BOARDMAN ROAD HODGLEIGH 4610",
    "locID": "LOC000054266143",
    "tech": "WIRELESS",
    "upgrade": "NULL_NA",
    "gnaf_pid": "GAQLD162451382",
    "tech_change_status": "Not Planned",
    "program_type": "Fixed Wireless and Satellite Upgrade Program",
    "target_eligibility_quarter": "NA"
   }
  },
  {
   "type": "Feature",
   "geometry": {
    "type": "Point",
    "coordinates": [
     151.95118709,
     -26.57753707
    ]
   },
   "properties": {
    "name": "250 BOARDMAN ROAD HODGLEIGH 4610",
    "locID": "LOC000094372792",
    "tech": "NULL",
    "upgrade": "NULL_NA",
    "gnaf_pid": "GAQLD162451383",
    "tech_change_status": "Not Planned"
   }
  },
  {
   "type": "Feature",
   "geometry": {
    "type": "Point",
    "coordinates": [
     151.95036031,
     -26.57912131
    ]
   },
   "properties": {
    "name": "259 BOARDMAN ROAD HODGLEIGH 4610",
    "locID": "LOC000037342524",
    "tech": "WIRELESS",
    "upgrade": "NULL_NA",
    "gnaf_pid": "GAQLD162451384",
    "tech_change_status": "Not Planned",
    "program_type": "Fixed Wireless and Satellite Upgrade Program",
    "target_eligibility_quarter": "NA"
   }
  },
  {
   "type": "Feature",
   "geometry": {
    "type": "Point",
    "coordinates": [
     151.9492689,
     -26.57899591
    ]
   },
   "properties": {
    "name": "265 BOARDMAN ROAD HODGLEIGH 4610",
    "locID": "LOC000029500567",
    "tech": "WIRELESS",
    "upgrade": "NULL_NA",
    "gnaf_pid": "GAQLD162451385",
    "tech_change_status": "Not Planned",
    "program_type": "Fixed Wireless and Satellite Upgrade Program",
    "target_eligibility_quarter": "NA"
   }
  },
  {
   "type": "Feature",
   "geometry": {
    "type": "Point",
    "coordinates": [
     151.94834498,
     -26.578497
    ]
   },
   "properties": {
    "name": "283 BOARDMAN ROAD HODGLEIGH 4610",
    "locID": "LOC000097500840",
    "tech": "WIRELESS",
    "upgrade": "NULL_NA",
    "gnaf_pid": "GAQLD162451386",
    "tech_change_status": "Not Planned",
    "program_type": "Fixed Wireless and Satellite Upgrade Program",
    "target_eligibility_quarter": "NA"
   }
  },
  {
   "type": "Feature",
   "geometry": {
    "type": "Point",
    "coordinates": [
     151.9466954,
     -26.57811474
    ]
   },
   "properties": {
    "name": "299 BOARDMAN ROAD HODGLEIGH 4610",
    "locID": "LOC000041737411",
    "tech": "WIRELESS",
    "upgrade": "NULL_NA",
    "gnaf_pid": "GAQLD162451387",
    "tech_change_status": "Not Planned",
    "program_type": "Fixed Wireless and Satellite Upgrade Program",
    "target_eligibility_quarter": "NA"
   }
  },
  {
   "type": "Feature",
   "geometry": {
    "type": "Point",
    "coordinates": [
     151.94513767,
     -26.57793712
    ]
   },
   "properties": {
    "name": "313 BOARDMAN ROAD HODGLEIGH 4610",
    "locID": "LOC000103492667",
    "tech": "SATELLITE",
    "upgrade": "WIRELESS",
    "gnaf_pid": "GAQLD162451388",
    "tech_change_status": "Eligible to Order",
    "program_type": "Fixed Wireless and Satellite Upgrade Program",
    "target_eligibility_quarter": "NA"
   }
  },
  {
   "type": "Feature",
   "geometry": {
    "type": "Point",
    "coordinates": [
     151.9443407,
     -26.57779463
    ]
   },
   "properties": {
    "name": "325 BOARDMAN ROAD HODGLEIGH 4610",
    "locID": "LOC000047692470",
    "tech": "WIRELESS",
    "upgrade": "NULL_NA",
    "gnaf_pid": "GAQLD162451389",
    "tech_change_status": "Not Planned",
    "program_type": "Fixed Wireless and Satellite Upgrade Program",
    "target_eligibility_quarter": "NA"
   }
  },
  {
   "type": "Feature",
   "geometry": {
    "type": "Point",
    "coordinates": [
     151.94049939,
     -26.58065538
    ]
   },
   "properties": {
    "name": "371 BOARDMAN ROAD HODGLEIGH 4610",
    "locID": "LOC000105784515",
    "tech": "WIRELESS",
    "upgrade": "NULL_NA",
    "gnaf_pid": "GAQLD162451390",
    "tech_change_status": "Not Planned",
    "program_type": "Fixed Wireless and Satellite Upgrade Program",
    "target_eligibility_quarter": "NA"
   }
  },
  {
   "type": "Feature",
   "geometry": {
    "type": "Point",
    "coordinates": [
     151.93091001,
     -26.57547697
    ]
   },
   "properties": {
    "name": "465 BOARDMAN ROAD HODGLEIGH 4610",
    "locID": "LOC000064970282",
    "tech": "WIRELESS",
    "upgrade": "NULL_NA",
    "gnaf_pid": "GAQLD162451391",
    "tech_change_status": "Not Planned",
    "program_type": "Fixed Wireless and Satellite Upgrade Program",
    "target_eligibility_quarter": "NA"
   }
  },
  {
   "type": "Feature",
   "geometry": {
    "type": "Point",
    "coordinates": [
     151.94752355,
     -26.57821994
    ]
   },
   "properties": {
    "name": "291 BOARDMAN ROAD HODGLEIGH 4610",
    "locID": "LOC000082706985",
    "tech": "SATELLITE",
    "upgrade": "WIRELESS",
    "gnaf_pid": "GAQLD162613541",
    "tech_change_status": "Eligible to Order",
    "program_type": "Fixed Wireless and Satellite Upgrade Program",
    "target_eligibility_quarter": "NA"
   }
  },
  {
   "type": "Feature",
   "geometry": {
    "type": "Point",
    "coordinates": [
     151.93272757,
     -26.57900822
    ]
   },
   "properties": {
    "name": "51 ROBERTS ROAD HODGLEIGH 4610",
    "locID": "LOC000009447976",
    "tech": "WIRELESS",
    "upgrade": "NULL_NA",
    "gnaf_pid": "GAQLD162668541",
    "tech_change_status": "Not Planned",
    "program_type": "Fixed Wireless and Satellite Upgrade Program",
    "target_eligibility_quarter": "NA"
   }
  },
  {
   "type": "Feature",
   "geometry": {
    "type": "Point",
    "coordinates": [
     151.90077518,
     -26.63214207
    ]
   },
   "properties": {
    "name": "LOT 109 SWENSON ROAD HODGLEIGH 4610",
    "locID": "LOC000128602689",
    "tech": "WIRELESS",
    "upgrade": "NULL_NA",
    "gnaf_pid": "GAQLD162733243",
    "tech_change_status": "Not Planned",
    "program_type": "Fixed Wireless and Satellite Upgrade Program",
    "target_eligibility_quarter": "NA"
   }
  },
  {
   "type": "Feature",
   "geometry": {
    "type": "Point",
    "coordinates": [
     151.95559648,
     -26.57484621
    ]
   },
   "properties": {
    "name": "LOT 1 BOARDMAN ROAD HODGLEIGH 4610",
    "locID": "LOC000047692470",
    "tech": "WIRELESS",
    "upgrade": "NULL_NA",
    "gnaf_pid": "GAQLD162951229",
    "tech_change_status": "Not Planned",
    "program_type": "Fixed Wireless and Satellite Upgrade Program",
    "target_eligibility_quarter": "NA"
   }
  },
  {
   "type": "Feature",
   "geometry": {
    "type": "Point",
    "coordinates": [
     151.9362985,
     -26.5765463
    ]
   },
   "properties": {
    "name": "LOT 2 BOARDMAN ROAD HODGLEIGH 4610",
    "locID": "LOC000003430511",
    "tech": "NULL",
    "upgrade": "NULL_NA",
    "gnaf_pid": "GAQLD162951231",
    "tech_change_status": "Not Planned"
   }
  },
  {
   "type": "Feature",
   "geometry": {
    "type": "Point",
    "coordinates": [
     151.94365685,
     -26.61282892
    ]
   },
   "properties": {
    "name": "14 HODGLEIGH NORTH ROAD HODGLEIGH 4610",
    "locID": "LOC100080571927",
    "tech": "WIRELESS",
    "upgrade": "NULL_NA",
    "gnaf_pid": "GAQLD163034913",
    "tech_change_status": "Not Planned",
    "program_type": "Fixed Wireless and Satellite Upgrade Program",
    "target_eligibility_quarter": "NA"
   }
  },
  {
   "type": "Feature",
   "geometry": {
    "type": "Point",
    "coordinates": [
     151.94365685,
     -26.61282892
    ]
   },
   "properties": {
    "name": "22 HODGLEIGH NORTH ROAD HODGLEIGH 4610",
    "locID": "LOC000181794754",
    "tech": "WIRELESS",
    "upgrade": "NULL_NA",
    "gnaf_pid": "GAQLD163034914",
    "tech_change_status": "Not Planned",
    "program_type": "Fixed Wireless and Satellite Upgrade Program",
    "target_eligibility_quarter": "NA"
   }
  },
  {
   "type": "Feature",
   "geometry": {
    "type": "Point",
    "coordinates": [
     151.94960712,
     -26.577729
    ]
   },
   "properties": {
    "name": "385 BOARDMAN ROAD HODGLEIGH 4610",
    "locID": "LOC000106883838",
    "tech": "WIRELESS",
    "upgrade": "NULL_NA",
    "gnaf_pid": "GAQLD163178009",
    "tech_change_status": "Not Planned",
    "program_type": "Fixed Wireless and Satellite Upgrade Program",
    "target_eligibility_quarter": "NA"
   }
  },
  {
   "type": "Feature",
   "geometry": {
    "type": "Point",
    "coordinates": [
     151.92825185,
     -26.60304753
    ]
   },
   "properties": {
    "name": "LOT 90 COOLABUNIA MALAR ROAD HODGLEIGH 4610",
    "locID": "LOC000106145499",
    "tech": "NULL",
    "upgrade": "NULL_NA",
    "gnaf_pid": "GAQLD425036744",
    "tech_change_status": "Not Planned"
   }
  },
  {
   "type": "Feature",
   "geometry": {
    "type": "Point",
    "coordinates": [
     151.94651212,
     -26.62172079
    ]
   },
   "properties": {
    "name": "LOT 3 HODGLEIGH NORTH ROAD HODGLEIGH 4610",
    "locID": "LOC000064729226",
    "tech": "SATELLITE",
    "upgrade": "WIRELESS",
    "gnaf_pid": "GAQLD425038001",
    "tech_change_status": "Eligible to Order",
    "program_type": "Fixed Wireless and Satellite Upgrade Program",
    "target_eligibility_quarter": "NA"
   }
  },
  {
   "type": "Feature",
   "geometry": {
    "type": "Point",
    "coordinates": [
     151.88496763,
     -26.63367255
    ]
   },
   "properties": {
    "name": "LOT 1 SEMGREENS ROAD HODGLEIGH 4610",
    "locID": "LOC000064076874",
    "tech": "WIRELESS",
    "upgrade": "NULL_NA",
    "gnaf_pid": "GAQLD425040321",
    "tech_change_status": "Not Planned",
    "program_type": "Fixed Wireless and Satellite Upgrade Program",
    "target_eligibility_quarter": "NA"
   }
  },
  {
   "type": "Feature",
   "geometry": {
    "type": "Point",
    "coordinates": [
     151.94451327,
     -26.59791803
    ]
   },
   "properties": {
    "name": "LOT 2 COOLABUNIA MALAR ROAD HODGLEIGH 4610",
    "locID": "LOC100071909249",
    "tech": "NULL",
    "upgrade": "NULL_NA",
    "gnaf_pid": "GAQLD425201938",
    "tech_change_status": "Not Planned"
   }
  },
  {
   "type": "Feature",
   "geometry": {
    "type": "Point",
    "coordinates": [
     151.95444005,
     -26.58206002
    ]
   },
   "properties": {
    "name": "219 BOARDMAN ROAD HODGLEIGH 4610",
    "locID": "LOC100027052406",
    "tech": "NULL",
    "upgrade": "NULL_NA",
    "gnaf_pid": "GAQLD425249427",
    "tech_change_status": "Not Planned"
   }
  },
  {
   "type": "Feature",
   "geometry": {
    "type": "Point",
    "coordinates": [
     151.94703093,
     -26.63469037
    ]
   },
   "properties": {
    "name": "LOT 4 BALLIN ROAD HODGLEIGH 4610",
    "locID": "LOC000128687045",
    "tech": "WIRELESS",
    "upgrade": "NULL_NA",
    "gnaf_pid": "GAQLD425472792",
    "tech_change_status": "Not Planned",
    "program_type": "Fixed Wireless and Satellite Upgrade Program",
    "target_eligibility_quarter": "NA"
   }
  },
  {
   "type": "Feature",
   "geometry": {
    "type": "Point",
    "coordinates": [
     151.93719583,
     -26.62390576
    ]
   },
   "properties": {
    "name": "LOT 1 HODGLEIGH NORTH ROAD HODGLEIGH 4610",
    "locID": "LOC000021648706",
    "tech": "WIRELESS",
    "upgrade": "NULL_NA",
    "gnaf_pid": "GAQLD425698126",
    "tech_change_status": "Not Planned",
    "program_type": "Fixed Wireless and Satellite Upgrade Program",
    "target_eligibility_quarter": "NA"
   }
  },
  {
   "type": "Feature",
   "geometry": {
    "type": "Point",
    "coordinates": [
     151.92579114,
     -26.63533342
    ]
   },
   "properties": {
    "name": "194 MCCAULEY BROOME ROAD HODGLEIGH 4610",
    "locID": "LOC000059828700",
    "tech": "WIRELESS",
    "upgrade": "NULL_NA",
    "gnaf_pid": "GAQLD719271027",
    "tech_change_status": "Not Planned",
    "program_type": "Fixed Wireless and Satellite Upgrade Program",
    "target_eligibility_quarter": "NA"
   }
  },
  {
   "type": "Feature",
   "geometry": {
    "type": "Point",
    "coordinates": [
     151.89117975,
     -26.62559091
    ]
   },
   "properties": {
    "name": "185 SEMGREENS ROAD HODGLEIGH 4610",
    "locID": "LOC000169110274",
    "tech": "WIRELESS",
    "upgrade": "NULL_NA",
    "gnaf_pid": "GAQLD719382852",
    "tech_change_status": "Not Planned",
    "program_type": "Fixed Wireless and Satellite Upgrade Program",
    "target_eligibility_quarter": "NA"
   }
  },
  {
   "type": "Feature",
   "geometry": {
    "type": "Point",
    "coordinates": [
     151.95032242,
     -26.58617655
    ]
   },
   "properties": {
    "name": "250 COOLABUNIA MALAR ROAD HODGLEIGH 4610",
    "locID": "LOC100071909249",
    "tech": "NULL",
    "upgrade": "NULL_NA",
    "gnaf_pid": "GAQLD719897253",
    "tech_change_status": "Not Planned"
   }
  },
  {
   "type": "Feature",
   "geometry": {
    "type": "Point",
    "coordinates": [
     151.93853465,
     -26.61618849
    ]
   },
   "properties": {
    "name": "LOT 4 HODGLEIGH NORTH ROAD HODGLEIGH 4610",
    "locID": "LOC000064729226",
    "tech": "SATELLITE",
    "upgrade": "WIRELESS",
    "gnaf_pid": "GAQLD720666635",
    "tech_change_status": "Eligible to Order",
    "program_type": "Fixed Wireless and Satellite Upgrade Program",
    "target_eligibility_quarter": "NA"
   }
  },
  {
   "type": "Feature",
   "geometry": {
    "type": "Point",
    "coordinates": [
     151.94476561,
     -26.57330761
    ]
   },
   "properties": {
    "name": "LOT 67 WITTMAN ROAD HODGLEIGH 4610",
    "locID": "LOC000128655236",
    "tech": "SATELLITE",
    "upgrade": "NULL_NA",
    "gnaf_pid": "GAQLD720669008",
    "tech_change_status": "Not Planned"
   }
  },
  {
   "type": "Feature",
   "geometry": {
    "type": "Point",
    "coordinates": [
     151.88768166,
     -26.63775638
    ]
   },
   "properties": {
    "name": "LOT 7 SEMGREENS ROAD HODGLEIGH 4610",
    "locID": "LOC000095193112",
    "tech": "WIRELESS",
    "upgrade": "NULL_NA",
    "gnaf_pid": "GAQLD720670871",
    "tech_change_status": "Not Planned",
    "program_type": "Fixed Wireless and Satellite Upgrade Program",
    "target_eligibility_quarter": "NA"
   }
  }
 ]
}