{
 "type": "FeatureCollection",
 "generated": "2026-06-16T21:52:20.393050",
 "suburb": "JOBS GATE",
 "features": [
  {
   "type": "Feature",
   "geometry": {
    "type": "Point",
    "coordinates": [
     146.63494156,
     -28.88469564
    ]
   },
   "properties": {
    "name": "15345 JOBS GATE ROAD JOBS GATE 4490",
    "locID": "LOC000142354922",
    "tech": "SATELLITE",
    "upgrade": "NULL_NA",
    "gnaf_pid": "GAQLD155423626",
    "tech_change_status": "Not Planned"
   }
  },
  {
   "type": "Feature",
   "geometry": {
    "type": "Point",
    "coordinates": [
     146.64373577,
     -28.75395413
    ]
   },
   "properties": {
    "name": "12080 JOBS GATE ROAD JOBS GATE 4490",
    "locID": "LOC100078737479",
    "tech": "SATELLITE",
    "upgrade": "NULL_NA",
    "gnaf_pid": "GAQLD162039667",
    "tech_change_status": "Not Planned"
   }
  },
  {
   "type": "Feature",
   "geometry": {
    "type": "Point",
    "coordinates": [
     146.70804594,
     -28.94944774
    ]
   },
   "properties": {
    "name": "15448 JOBS GATE ROAD JOBS GATE 4490",
    "locID": "LOC000017373674",
    "tech": "SATELLITE",
    "upgrade": "NULL_NA",
    "gnaf_pid": "GAQLD162039668",
    "tech_change_status": "Not Planned"
   }
  },
  {
   "type": "Feature",
   "geometry": {
    "type": "Point",
    "coordinates": [
     146.78053684,
     -28.95248044
    ]
   },
   "properties": {
    "name": "15449 JOBS GATE ROAD JOBS GATE 4490",
    "locID": "LOC000033312646",
    "tech": "NULL",
    "upgrade": "NULL_NA",
    "gnaf_pid": "GAQLD162039669",
    "tech_change_status": "Not Planned"
   }
  },
  {
   "type": "Feature",
   "geometry": {
    "type": "Point",
    "coordinates": [
     146.64400712,
     -28.6839745
    ]
   },
   "properties": {
    "name": "LOT 7 JOBS GATE ROAD JOBS GATE 4490",
    "locID": "LOC100078036068",
    "tech": "NULL",
    "upgrade": "NULL_NA",
    "gnaf_pid": "GAQLD162039670",
    "tech_change_status": "Not Planned"
   }
  },
  {
   "type": "Feature",
   "geometry": {
    "type": "Point",
    "coordinates": [
     146.73693053,
     -28.58997576
    ]
   },
   "properties": {
    "name": "425 MIDDLETON ROAD JOBS GATE 4490",
    "locID": "LOC000142301138",
    "tech": "NULL",
    "upgrade": "NULL_NA",
    "gnaf_pid": "GAQLD162049931",
    "tech_change_status": "Not Planned"
   }
  },
  {
   "type": "Feature",
   "geometry": {
    "type": "Point",
    "coordinates": [
     146.72006591,
     -28.78878069
    ]
   },
   "properties": {
    "name": "8923 JOBS GATE ROAD JOBS GATE 4490",
    "locID": "LOC000142361655",
    "tech": "SATELLITE",
    "upgrade": "NULL_NA",
    "gnaf_pid": "GAQLD424858655",
    "tech_change_status": "Not Planned"
   }
  },
  {
   "type": "Feature",
   "geometry": {
    "type": "Point",
    "coordinates": [
     146.6774113,
     -28.58259624
    ]
   },
   "properties": {
    "name": "419 MIDDLETON ROAD JOBS GATE 4490",
    "locID": "LOC000148357322",
    "tech": "NULL",
    "upgrade": "NULL_NA",
    "gnaf_pid": "GAQLD425126913",
    "tech_change_status": "Not Planned"
   }
  },
  {
   "type": "Feature",
   "geometry": {
    "type": "Point",
    "coordinates": [
     146.90457662,
     -28.9060177
    ]
   },
   "properties": {
    "name": "LOT 1034 TOULBY ROAD JOBS GATE 4490",
    "locID": "LOC000148140725",
    "tech": "NULL",
    "upgrade": "NULL_NA",
    "gnaf_pid": "GAQLD425219563",
    "tech_change_status": "Not Planned"
   }
  },
  {
   "type": "Feature",
   "geometry": {
    "type": "Point",
    "coordinates": [
     146.72006591,
     -28.78878069
    ]
   },
   "properties": {
    "name": "1969 JOBS GATE ROAD JOBS GATE 4490",
    "locID": "LOC000174307021",
    "tech": "SATELLITE",
    "upgrade": "NULL_NA",
    "gnaf_pid": "GAQLD720120414",
    "tech_change_status": "Not Planned"
   }
  }
 ]
}