{
 "type": "FeatureCollection",
 "generated": "2025-02-24T21:33:40.810255",
 "suburb": "KAIRABAH",
 "features": [
  {
   "type": "Feature",
   "geometry": {
    "type": "Point",
    "coordinates": [
     153.1287666,
     -27.83955398
    ]
   },
   "properties": {
    "name": "LOT 1 WATERFORD - TAMBORINE ROAD KAIRABAH 4207",
    "locID": "LOC000083168700",
    "tech": "WIRELESS",
    "upgrade": "NULL_NA",
    "gnaf_pid": "GAQLD425643586",
    "tech_change_status": "Not Planned",
    "program_type": "Fixed Wireless and Satellite Upgrade Program",
    "target_eligibility_quarter": "NA"
   }
  },
  {
   "type": "Feature",
   "geometry": {
    "type": "Point",
    "coordinates": [
     153.14766913,
     -27.84183828
    ]
   },
   "properties": {
    "name": "LOT 21 WATERFORD - TAMBORINE ROAD KAIRABAH 4207",
    "locID": "LOC000152112308",
    "tech": "WIRELESS",
    "upgrade": "NULL_NA",
    "gnaf_pid": "GAQLD425643587",
    "tech_change_status": "Not Planned",
    "program_type": "Fixed Wireless and Satellite Upgrade Program",
    "target_eligibility_quarter": "NA"
   }
  },
  {
   "type": "Feature",
   "geometry": {
    "type": "Point",
    "coordinates": [
     153.14553385,
     -27.83569019
    ]
   },
   "properties": {
    "name": "LOT 26 WATERFORD - TAMBORINE ROAD KAIRABAH 4207",
    "locID": "LOC000104241343",
    "tech": "WIRELESS",
    "upgrade": "NULL_NA",
    "gnaf_pid": "GAQLD425643588",
    "tech_change_status": "Not Planned",
    "program_type": "Fixed Wireless and Satellite Upgrade Program",
    "target_eligibility_quarter": "NA"
   }
  },
  {
   "type": "Feature",
   "geometry": {
    "type": "Point",
    "coordinates": [
     153.15134477,
     -27.83333464
    ]
   },
   "properties": {
    "name": "LOT 41 WATERFORD - TAMBORINE ROAD KAIRABAH 4207",
    "locID": "LOC000152112308",
    "tech": "WIRELESS",
    "upgrade": "NULL_NA",
    "gnaf_pid": "GAQLD425643592",
    "tech_change_status": "Not Planned",
    "program_type": "Fixed Wireless and Satellite Upgrade Program",
    "target_eligibility_quarter": "NA"
   }
  },
  {
   "type": "Feature",
   "geometry": {
    "type": "Point",
    "coordinates": [
     153.15052553,
     -27.83802945
    ]
   },
   "properties": {
    "name": "LOT 54 WATERFORD - TAMBORINE ROAD KAIRABAH 4207",
    "locID": "LOC000152112308",
    "tech": "WIRELESS",
    "upgrade": "NULL_NA",
    "gnaf_pid": "GAQLD425643593",
    "tech_change_status": "Not Planned",
    "program_type": "Fixed Wireless and Satellite Upgrade Program",
    "target_eligibility_quarter": "NA"
   }
  },
  {
   "type": "Feature",
   "geometry": {
    "type": "Point",
    "coordinates": [
     153.13987587,
     -27.84082443
    ]
   },
   "properties": {
    "name": "LOT 8 STEELE ROAD KAIRABAH 4207",
    "locID": "LOC000007731079",
    "tech": "FTTN",
    "upgrade": "NULL_NA",
    "gnaf_pid": "GAQLD719798309",
    "tech_change_status": "Not Planned"
   }
  },
  {
   "type": "Feature",
   "geometry": {
    "type": "Point",
    "coordinates": [
     153.14486029,
     -27.83668949
    ]
   },
   "properties": {
    "name": "LOT 7 STEELE ROAD KAIRABAH 4207",
    "locID": "LOC000066388806",
    "tech": "FTTN",
    "upgrade": "NULL_NA",
    "gnaf_pid": "GAQLD719800915",
    "tech_change_status": "Not Planned"
   }
  }
 ]
}