{
 "type": "FeatureCollection",
 "generated": "2024-10-22T01:38:07.088325",
 "suburb": "KINGS SIDING",
 "features": [
  {
   "type": "Feature",
   "geometry": {
    "type": "Point",
    "coordinates": [
     151.79627714,
     -27.46557949
    ]
   },
   "properties": {
    "name": "96 KINGS SIDING ROAD KINGS SIDING 4401",
    "locID": "LOC000070124878",
    "tech": "WIRELESS",
    "upgrade": "NULL_NA",
    "gnaf_pid": "GAQLD161787710",
    "tech_change_status": "Not Planned",
    "program_type": "Fixed Wireless and Satellite Upgrade Program",
    "target_eligibility_quarter": "Dec 2024"
   }
  },
  {
   "type": "Feature",
   "geometry": {
    "type": "Point",
    "coordinates": [
     151.78489976,
     -27.45904168
    ]
   },
   "properties": {
    "name": "83 DORRIES BOUNDARY ROAD KINGS SIDING 4401",
    "locID": "LOC000085326470",
    "tech": "WIRELESS",
    "upgrade": "NULL_NA",
    "gnaf_pid": "GAQLD162084015",
    "tech_change_status": "Not Planned",
    "program_type": "Fixed Wireless and Satellite Upgrade Program",
    "target_eligibility_quarter": "Dec 2024"
   }
  },
  {
   "type": "Feature",
   "geometry": {
    "type": "Point",
    "coordinates": [
     151.80091453,
     -27.46775062
    ]
   },
   "properties": {
    "name": "207 KINGSTHORPE SILVERLEIGH ROAD KINGS SIDING 4401",
    "locID": "LOC000068031601",
    "tech": "WIRELESS",
    "upgrade": "NULL_NA",
    "gnaf_pid": "GAQLD162735472",
    "tech_change_status": "Not Planned",
    "program_type": "Fixed Wireless and Satellite Upgrade Program",
    "target_eligibility_quarter": "Dec 2024"
   }
  },
  {
   "type": "Feature",
   "geometry": {
    "type": "Point",
    "coordinates": [
     151.79819613,
     -27.46196631
    ]
   },
   "properties": {
    "name": "233 KINGSTHORPE SILVERLEIGH ROAD KINGS SIDING 4401",
    "locID": "LOC000109022485",
    "tech": "WIRELESS",
    "upgrade": "NULL_NA",
    "gnaf_pid": "GAQLD162735473",
    "tech_change_status": "Not Planned",
    "program_type": "Fixed Wireless and Satellite Upgrade Program",
    "target_eligibility_quarter": "Dec 2024"
   }
  },
  {
   "type": "Feature",
   "geometry": {
    "type": "Point",
    "coordinates": [
     151.79838542,
     -27.45953337
    ]
   },
   "properties": {
    "name": "267 KINGSTHORPE SILVERLEIGH ROAD KINGS SIDING 4401",
    "locID": "LOC000031836315",
    "tech": "WIRELESS",
    "upgrade": "NULL_NA",
    "gnaf_pid": "GAQLD162735474",
    "tech_change_status": "Not Planned",
    "program_type": "Fixed Wireless and Satellite Upgrade Program",
    "target_eligibility_quarter": "Dec 2024"
   }
  },
  {
   "type": "Feature",
   "geometry": {
    "type": "Point",
    "coordinates": [
     151.79115882,
     -27.46234283
    ]
   },
   "properties": {
    "name": "54 PRIORS ROAD KINGS SIDING 4401",
    "locID": "LOC000115108250",
    "tech": "WIRELESS",
    "upgrade": "NULL_NA",
    "gnaf_pid": "GAQLD163316495",
    "tech_change_status": "Not Planned",
    "program_type": "Fixed Wireless and Satellite Upgrade Program",
    "target_eligibility_quarter": "Dec 2024"
   }
  },
  {
   "type": "Feature",
   "geometry": {
    "type": "Point",
    "coordinates": [
     151.78727515,
     -27.45166646
    ]
   },
   "properties": {
    "name": "105 OAKEY CUTELLA ROAD KINGS SIDING 4401",
    "locID": "LOC100078027791",
    "tech": "WIRELESS",
    "upgrade": "NULL_NA",
    "gnaf_pid": "GAQLD720480610",
    "tech_change_status": "Not Planned",
    "program_type": "Fixed Wireless and Satellite Upgrade Program",
    "target_eligibility_quarter": "Dec 2024"
   }
  }
 ]
}