{
 "type": "FeatureCollection",
 "generated": "2026-06-17T00:34:53.146839",
 "suburb": "KITOBA",
 "features": [
  {
   "type": "Feature",
   "geometry": {
    "type": "Point",
    "coordinates": [
     151.86475684,
     -26.06207749
    ]
   },
   "properties": {
    "name": "LOT 122 KITOBA ROAD KITOBA 4605",
    "locID": "LOC000116074789",
    "tech": "NULL",
    "upgrade": "NULL_NA",
    "gnaf_pid": "GAQLD155488080",
    "tech_change_status": "Not Planned"
   }
  },
  {
   "type": "Feature",
   "geometry": {
    "type": "Point",
    "coordinates": [
     151.85373712,
     -26.06983025
    ]
   },
   "properties": {
    "name": "147 KITOBA ROAD KITOBA 4605",
    "locID": "LOC000081733725",
    "tech": "SATELLITE",
    "upgrade": "NULL_NA",
    "gnaf_pid": "GAQLD155488081",
    "tech_change_status": "Not Planned"
   }
  },
  {
   "type": "Feature",
   "geometry": {
    "type": "Point",
    "coordinates": [
     151.87932295,
     -26.04746738
    ]
   },
   "properties": {
    "name": "400 KITOBA ROAD KITOBA 4605",
    "locID": "LOC000050095005",
    "tech": "NULL",
    "upgrade": "NULL_NA",
    "gnaf_pid": "GAQLD155488083",
    "tech_change_status": "Not Planned"
   }
  },
  {
   "type": "Feature",
   "geometry": {
    "type": "Point",
    "coordinates": [
     151.86345732,
     -26.06856172
    ]
   },
   "properties": {
    "name": "234 KITOBA ROAD KITOBA 4605",
    "locID": "LOC000116070930",
    "tech": "NULL",
    "upgrade": "NULL_NA",
    "gnaf_pid": "GAQLD156841464",
    "tech_change_status": "Not Planned"
   }
  },
  {
   "type": "Feature",
   "geometry": {
    "type": "Point",
    "coordinates": [
     151.87214907,
     -26.06817655
    ]
   },
   "properties": {
    "name": "324 KITOBA ROAD KITOBA 4605",
    "locID": "LOC000062979643",
    "tech": "SATELLITE",
    "upgrade": "NULL_NA",
    "gnaf_pid": "GAQLD156841465",
    "tech_change_status": "Not Planned"
   }
  },
  {
   "type": "Feature",
   "geometry": {
    "type": "Point",
    "coordinates": [
     151.86213129,
     -26.01768398
    ]
   },
   "properties": {
    "name": "322 OGDENS ROAD KITOBA 4605",
    "locID": "LOC000068852481",
    "tech": "SATELLITE",
    "upgrade": "NULL_NA",
    "gnaf_pid": "GAQLD158166444",
    "tech_change_status": "Not Planned"
   }
  },
  {
   "type": "Feature",
   "geometry": {
    "type": "Point",
    "coordinates": [
     151.84224134,
     -26.07122586
    ]
   },
   "properties": {
    "name": "15 KITOBA ROAD KITOBA 4605",
    "locID": "LOC000070013878",
    "tech": "NULL",
    "upgrade": "NULL_NA",
    "gnaf_pid": "GAQLD160231216",
    "tech_change_status": "Not Planned"
   }
  },
  {
   "type": "Feature",
   "geometry": {
    "type": "Point",
    "coordinates": [
     151.86200377,
     -26.10258951
    ]
   },
   "properties": {
    "name": "83 HINCHCLIFFES ROAD KITOBA 4605",
    "locID": "LOC000089861763",
    "tech": "SATELLITE",
    "upgrade": "NULL_NA",
    "gnaf_pid": "GAQLD160974703",
    "tech_change_status": "Not Planned"
   }
  },
  {
   "type": "Feature",
   "geometry": {
    "type": "Point",
    "coordinates": [
     151.8652477,
     -26.07773556
    ]
   },
   "properties": {
    "name": "LOT 117 KITOBA ROAD KITOBA 4605",
    "locID": "LOC000116074789",
    "tech": "NULL",
    "upgrade": "NULL_NA",
    "gnaf_pid": "GAQLD161202992",
    "tech_change_status": "Not Planned"
   }
  },
  {
   "type": "Feature",
   "geometry": {
    "type": "Point",
    "coordinates": [
     151.86314365,
     -26.080074
    ]
   },
   "properties": {
    "name": "LOT 118 KITOBA ROAD KITOBA 4605",
    "locID": "LOC000116074789",
    "tech": "NULL",
    "upgrade": "NULL_NA",
    "gnaf_pid": "GAQLD161202993",
    "tech_change_status": "Not Planned"
   }
  },
  {
   "type": "Feature",
   "geometry": {
    "type": "Point",
    "coordinates": [
     151.86882185,
     -26.07463755
    ]
   },
   "properties": {
    "name": "LOT 41 KITOBA ROAD KITOBA 4605",
    "locID": "LOC000059240883",
    "tech": "NULL",
    "upgrade": "NULL_NA",
    "gnaf_pid": "GAQLD161202995",
    "tech_change_status": "Not Planned"
   }
  },
  {
   "type": "Feature",
   "geometry": {
    "type": "Point",
    "coordinates": [
     151.85386177,
     -26.07191208
    ]
   },
   "properties": {
    "name": "LOT 64 KITOBA ROAD KITOBA 4605",
    "locID": "LOC000128789311",
    "tech": "SATELLITE",
    "upgrade": "NULL_NA",
    "gnaf_pid": "GAQLD161202996",
    "tech_change_status": "Not Planned"
   }
  },
  {
   "type": "Feature",
   "geometry": {
    "type": "Point",
    "coordinates": [
     151.86938012,
     -26.09266241
    ]
   },
   "properties": {
    "name": "LOT 1 HINCHCLIFFES ROAD KITOBA 4605",
    "locID": "LOC000128813063",
    "tech": "WIRELESS",
    "upgrade": "NULL_NA",
    "gnaf_pid": "GAQLD162286794",
    "tech_change_status": "Not Planned",
    "program_type": "Fixed Wireless and Satellite Upgrade Program",
    "target_eligibility_quarter": "NA"
   }
  },
  {
   "type": "Feature",
   "geometry": {
    "type": "Point",
    "coordinates": [
     151.84829367,
     -26.06792508
    ]
   },
   "properties": {
    "name": "LOT 5 KITOBA ROAD KITOBA 4605",
    "locID": "LOC000062745433",
    "tech": "SATELLITE",
    "upgrade": "WIRELESS",
    "gnaf_pid": "GAQLD162287754",
    "tech_change_status": "Eligible to Order",
    "program_type": "Fixed Wireless and Satellite Upgrade Program",
    "target_eligibility_quarter": "NA"
   }
  },
  {
   "type": "Feature",
   "geometry": {
    "type": "Point",
    "coordinates": [
     151.86840298,
     -26.06883395
    ]
   },
   "properties": {
    "name": "LOT 8 KITOBA ROAD KITOBA 4605",
    "locID": "LOC000089861763",
    "tech": "SATELLITE",
    "upgrade": "NULL_NA",
    "gnaf_pid": "GAQLD162957335",
    "tech_change_status": "Not Planned"
   }
  },
  {
   "type": "Feature",
   "geometry": {
    "type": "Point",
    "coordinates": [
     151.84205319,
     -26.07786746
    ]
   },
   "properties": {
    "name": "6A KITOBA ROAD KITOBA 4605",
    "locID": "LOC000116074770",
    "tech": "SATELLITE",
    "upgrade": "NULL_NA",
    "gnaf_pid": "GAQLD424858974",
    "tech_change_status": "Not Planned"
   }
  },
  {
   "type": "Feature",
   "geometry": {
    "type": "Point",
    "coordinates": [
     151.84732273,
     -26.07972626
    ]
   },
   "properties": {
    "name": "6B KITOBA ROAD KITOBA 4605",
    "locID": "LOC000116074789",
    "tech": "NULL",
    "upgrade": "NULL_NA",
    "gnaf_pid": "GAQLD424858975",
    "tech_change_status": "Not Planned"
   }
  },
  {
   "type": "Feature",
   "geometry": {
    "type": "Point",
    "coordinates": [
     151.8661276,
     -26.10000301
    ]
   },
   "properties": {
    "name": "121 HINCHCLIFFES ROAD KITOBA 4605",
    "locID": "LOC000128813063",
    "tech": "WIRELESS",
    "upgrade": "NULL_NA",
    "gnaf_pid": "GAQLD425037963",
    "tech_change_status": "Not Planned",
    "program_type": "Fixed Wireless and Satellite Upgrade Program",
    "target_eligibility_quarter": "NA"
   }
  },
  {
   "type": "Feature",
   "geometry": {
    "type": "Point",
    "coordinates": [
     151.85676716,
     -26.07824157
    ]
   },
   "properties": {
    "name": "LOT 4 KITOBA ROAD KITOBA 4605",
    "locID": "LOC000116074789",
    "tech": "NULL",
    "upgrade": "NULL_NA",
    "gnaf_pid": "GAQLD425038365",
    "tech_change_status": "Not Planned"
   }
  },
  {
   "type": "Feature",
   "geometry": {
    "type": "Point",
    "coordinates": [
     151.87217881,
     -26.05637591
    ]
   },
   "properties": {
    "name": "LOT 38 KITOBA ROAD KITOBA 4605",
    "locID": "LOC000062979643",
    "tech": "SATELLITE",
    "upgrade": "NULL_NA",
    "gnaf_pid": "GAQLD425208384",
    "tech_change_status": "Not Planned"
   }
  },
  {
   "type": "Feature",
   "geometry": {
    "type": "Point",
    "coordinates": [
     151.86640759,
     -26.04381363
    ]
   },
   "properties": {
    "name": "LOT 46 KITOBA ROAD KITOBA 4605",
    "locID": "LOC000116074789",
    "tech": "NULL",
    "upgrade": "NULL_NA",
    "gnaf_pid": "GAQLD425208385",
    "tech_change_status": "Not Planned"
   }
  },
  {
   "type": "Feature",
   "geometry": {
    "type": "Point",
    "coordinates": [
     151.87412642,
     -26.06384502
    ]
   },
   "properties": {
    "name": "LOT 66 KITOBA ROAD KITOBA 4605",
    "locID": "LOC000150749773",
    "tech": "WIRELESS",
    "upgrade": "NULL_NA",
    "gnaf_pid": "GAQLD425208386",
    "tech_change_status": "Not Planned",
    "program_type": "Fixed Wireless and Satellite Upgrade Program",
    "target_eligibility_quarter": "NA"
   }
  },
  {
   "type": "Feature",
   "geometry": {
    "type": "Point",
    "coordinates": [
     151.85950039,
     -26.06045496
    ]
   },
   "properties": {
    "name": "215 KITOBA ROAD KITOBA 4605",
    "locID": "LOC000109605834",
    "tech": "SATELLITE",
    "upgrade": "NULL_NA",
    "gnaf_pid": "GAQLD720627572",
    "tech_change_status": "Not Planned"
   }
  },
  {
   "type": "Feature",
   "geometry": {
    "type": "Point",
    "coordinates": [
     151.85934262,
     -26.09363964
    ]
   },
   "properties": {
    "name": "LOT 2 WILLIAM WEBBER ROAD KITOBA 4605",
    "locID": "LOC000142364328",
    "tech": "SATELLITE",
    "upgrade": "NULL_NA",
    "gnaf_pid": "GAQLD720673261",
    "tech_change_status": "Not Planned"
   }
  },
  {
   "type": "Feature",
   "geometry": {
    "type": "Point",
    "coordinates": [
     151.83807918,
     -26.07892043
    ]
   },
   "properties": {
    "name": "LOT 1 MURGON - GAYNDAH ROAD KITOBA 4605",
    "locID": "LOC000014879119",
    "tech": "SATELLITE",
    "upgrade": "NULL_NA",
    "gnaf_pid": "GAQLD721629952",
    "tech_change_status": "Not Planned"
   }
  },
  {
   "type": "Feature",
   "geometry": {
    "type": "Point",
    "coordinates": [
     151.84119672,
     -26.07538748
    ]
   },
   "properties": {
    "name": "2814 MURGON - GAYNDAH ROAD KITOBA 4605",
    "locID": "LOC000183454726",
    "tech": "NULL",
    "upgrade": "NULL_NA",
    "gnaf_pid": "GAQLD721652702",
    "tech_change_status": "Not Planned"
   }
  }
 ]
}