{
 "type": "FeatureCollection",
 "generated": "2026-07-04T15:36:07.587361",
 "suburb": "LAGUNA QUAYS",
 "features": [
  {
   "type": "Feature",
   "geometry": {
    "type": "Point",
    "coordinates": [
     148.65437759,
     -20.61942402
    ]
   },
   "properties": {
    "name": "LOT 2 CONDER PARADE LAGUNA QUAYS 4800",
    "locID": "LOC000107044983",
    "tech": "WIRELESS",
    "upgrade": "NULL_NA",
    "gnaf_pid": "GAQLD155478310",
    "tech_change_status": "Not Planned",
    "program_type": "Fixed Wireless and Satellite Upgrade Program",
    "target_eligibility_quarter": "NA"
   }
  },
  {
   "type": "Feature",
   "geometry": {
    "type": "Point",
    "coordinates": [
     148.68226427,
     -20.62421658
    ]
   },
   "properties": {
    "name": "39 MARINE PARADE LAGUNA QUAYS 4800",
    "locID": "LOC000087904394",
    "tech": "WIRELESS",
    "upgrade": "NULL_NA",
    "gnaf_pid": "GAQLD155480086",
    "tech_change_status": "Not Planned",
    "program_type": "Fixed Wireless and Satellite Upgrade Program",
    "target_eligibility_quarter": "NA"
   }
  },
  {
   "type": "Feature",
   "geometry": {
    "type": "Point",
    "coordinates": [
     148.6824725,
     -20.62414768
    ]
   },
   "properties": {
    "name": "41 MARINE PARADE LAGUNA QUAYS 4800",
    "locID": "LOC000091316618",
    "tech": "WIRELESS",
    "upgrade": "NULL_NA",
    "gnaf_pid": "GAQLD155480087",
    "tech_change_status": "Not Planned",
    "program_type": "Fixed Wireless and Satellite Upgrade Program",
    "target_eligibility_quarter": "NA"
   }
  },
  {
   "type": "Feature",
   "geometry": {
    "type": "Point",
    "coordinates": [
     148.68262165,
     -20.62403402
    ]
   },
   "properties": {
    "name": "43 MARINE PARADE LAGUNA QUAYS 4800",
    "locID": "LOC000034358428",
    "tech": "WIRELESS",
    "upgrade": "NULL_NA",
    "gnaf_pid": "GAQLD155481058",
    "tech_change_status": "Not Planned",
    "program_type": "Fixed Wireless and Satellite Upgrade Program",
    "target_eligibility_quarter": "NA"
   }
  },
  {
   "type": "Feature",
   "geometry": {
    "type": "Point",
    "coordinates": [
     148.6829199,
     -20.62380665
    ]
   },
   "properties": {
    "name": "47 MARINE PARADE LAGUNA QUAYS 4800",
    "locID": "LOC000050241991",
    "tech": "WIRELESS",
    "upgrade": "NULL_NA",
    "gnaf_pid": "GAQLD155481060",
    "tech_change_status": "Not Planned",
    "program_type": "Fixed Wireless and Satellite Upgrade Program",
    "target_eligibility_quarter": "NA"
   }
  },
  {
   "type": "Feature",
   "geometry": {
    "type": "Point",
    "coordinates": [
     148.68306902,
     -20.62369296
    ]
   },
   "properties": {
    "name": "49 MARINE PARADE LAGUNA QUAYS 4800",
    "locID": "LOC000009933679",
    "tech": "WIRELESS",
    "upgrade": "NULL_NA",
    "gnaf_pid": "GAQLD155481061",
    "tech_change_status": "Not Planned",
    "program_type": "Fixed Wireless and Satellite Upgrade Program",
    "target_eligibility_quarter": "NA"
   }
  },
  {
   "type": "Feature",
   "geometry": {
    "type": "Point",
    "coordinates": [
     148.68321815,
     -20.62357926
    ]
   },
   "properties": {
    "name": "51 MARINE PARADE LAGUNA QUAYS 4800",
    "locID": "LOC000034358428",
    "tech": "WIRELESS",
    "upgrade": "NULL_NA",
    "gnaf_pid": "GAQLD155481062",
    "tech_change_status": "Not Planned",
    "program_type": "Fixed Wireless and Satellite Upgrade Program",
    "target_eligibility_quarter": "NA"
   }
  },
  {
   "type": "Feature",
   "geometry": {
    "type": "Point",
    "coordinates": [
     148.68046252,
     -20.62567503
    ]
   },
   "properties": {
    "name": "17 MARINE PARADE LAGUNA QUAYS 4800",
    "locID": "LOC000008570708",
    "tech": "WIRELESS",
    "upgrade": "NULL_NA",
    "gnaf_pid": "GAQLD156742278",
    "tech_change_status": "Not Planned",
    "program_type": "Fixed Wireless and Satellite Upgrade Program",
    "target_eligibility_quarter": "NA"
   }
  },
  {
   "type": "Feature",
   "geometry": {
    "type": "Point",
    "coordinates": [
     148.68063363,
     -20.6255355
    ]
   },
   "properties": {
    "name": "19 MARINE PARADE LAGUNA QUAYS 4800",
    "locID": "LOC000089715470",
    "tech": "WIRELESS",
    "upgrade": "NULL_NA",
    "gnaf_pid": "GAQLD156742280",
    "tech_change_status": "Not Planned",
    "program_type": "Fixed Wireless and Satellite Upgrade Program",
    "target_eligibility_quarter": "NA"
   }
  },
  {
   "type": "Feature",
   "geometry": {
    "type": "Point",
    "coordinates": [
     148.68080978,
     -20.62541524
    ]
   },
   "properties": {
    "name": "21 MARINE PARADE LAGUNA QUAYS 4800",
    "locID": "LOC000033308061",
    "tech": "WIRELESS",
    "upgrade": "NULL_NA",
    "gnaf_pid": "GAQLD156742282",
    "tech_change_status": "Not Planned",
    "program_type": "Fixed Wireless and Satellite Upgrade Program",
    "target_eligibility_quarter": "NA"
   }
  },
  {
   "type": "Feature",
   "geometry": {
    "type": "Point",
    "coordinates": [
     148.68092561,
     -20.62535933
    ]
   },
   "properties": {
    "name": "23 MARINE PARADE LAGUNA QUAYS 4800",
    "locID": "LOC000067573041",
    "tech": "WIRELESS",
    "upgrade": "NULL_NA",
    "gnaf_pid": "GAQLD156745833",
    "tech_change_status": "Not Planned",
    "program_type": "Fixed Wireless and Satellite Upgrade Program",
    "target_eligibility_quarter": "NA"
   }
  },
  {
   "type": "Feature",
   "geometry": {
    "type": "Point",
    "coordinates": [
     148.68110804,
     -20.6251879
    ]
   },
   "properties": {
    "name": "25 MARINE PARADE LAGUNA QUAYS 4800",
    "locID": "LOC000067530291",
    "tech": "WIRELESS",
    "upgrade": "NULL_NA",
    "gnaf_pid": "GAQLD156745835",
    "tech_change_status": "Not Planned",
    "program_type": "Fixed Wireless and Satellite Upgrade Program",
    "target_eligibility_quarter": "NA"
   }
  },
  {
   "type": "Feature",
   "geometry": {
    "type": "Point",
    "coordinates": [
     148.68125713,
     -20.62507427
    ]
   },
   "properties": {
    "name": "27 MARINE PARADE LAGUNA QUAYS 4800",
    "locID": "LOC000089673120",
    "tech": "WIRELESS",
    "upgrade": "NULL_NA",
    "gnaf_pid": "GAQLD156745837",
    "tech_change_status": "Not Planned",
    "program_type": "Fixed Wireless and Satellite Upgrade Program",
    "target_eligibility_quarter": "NA"
   }
  },
  {
   "type": "Feature",
   "geometry": {
    "type": "Point",
    "coordinates": [
     148.68169791,
     -20.62471221
    ]
   },
   "properties": {
    "name": "31 MARINE PARADE LAGUNA QUAYS 4800",
    "locID": "LOC000023241256",
    "tech": "WIRELESS",
    "upgrade": "NULL_NA",
    "gnaf_pid": "GAQLD156745841",
    "tech_change_status": "Not Planned",
    "program_type": "Fixed Wireless and Satellite Upgrade Program",
    "target_eligibility_quarter": "NA"
   }
  },
  {
   "type": "Feature",
   "geometry": {
    "type": "Point",
    "coordinates": [
     148.681876,
     -20.62460245
    ]
   },
   "properties": {
    "name": "33 MARINE PARADE LAGUNA QUAYS 4800",
    "locID": "LOC000023241256",
    "tech": "WIRELESS",
    "upgrade": "NULL_NA",
    "gnaf_pid": "GAQLD156745843",
    "tech_change_status": "Not Planned",
    "program_type": "Fixed Wireless and Satellite Upgrade Program",
    "target_eligibility_quarter": "NA"
   }
  },
  {
   "type": "Feature",
   "geometry": {
    "type": "Point",
    "coordinates": [
     148.68206967,
     -20.62445367
    ]
   },
   "properties": {
    "name": "35 MARINE PARADE LAGUNA QUAYS 4800",
    "locID": "LOC000088074272",
    "tech": "WIRELESS",
    "upgrade": "NULL_NA",
    "gnaf_pid": "GAQLD156745845",
    "tech_change_status": "Not Planned",
    "program_type": "Fixed Wireless and Satellite Upgrade Program",
    "target_eligibility_quarter": "NA"
   }
  },
  {
   "type": "Feature",
   "geometry": {
    "type": "Point",
    "coordinates": [
     148.68381001,
     -20.62310693
    ]
   },
   "properties": {
    "name": "59 MARINE PARADE LAGUNA QUAYS 4800",
    "locID": "LOC000005049616",
    "tech": "WIRELESS",
    "upgrade": "NULL_NA",
    "gnaf_pid": "GAQLD156750961",
    "tech_change_status": "Not Planned",
    "program_type": "Fixed Wireless and Satellite Upgrade Program",
    "target_eligibility_quarter": "NA"
   }
  },
  {
   "type": "Feature",
   "geometry": {
    "type": "Point",
    "coordinates": [
     148.68387581,
     -20.6229357
    ]
   },
   "properties": {
    "name": "61 MARINE PARADE LAGUNA QUAYS 4800",
    "locID": "LOC100087216433",
    "tech": "WIRELESS",
    "upgrade": "NULL_NA",
    "gnaf_pid": "GAQLD156750962",
    "tech_change_status": "Not Planned",
    "program_type": "Fixed Wireless and Satellite Upgrade Program",
    "target_eligibility_quarter": "NA"
   }
  },
  {
   "type": "Feature",
   "geometry": {
    "type": "Point",
    "coordinates": [
     148.66852523,
     -20.6072538
    ]
   },
   "properties": {
    "name": "LOT 13 KUNAPIPI ROAD LAGUNA QUAYS 4800",
    "locID": "LOC000129377433",
    "tech": "WIRELESS",
    "upgrade": "NULL_NA",
    "gnaf_pid": "GAQLD161205170",
    "tech_change_status": "Not Planned",
    "program_type": "Fixed Wireless and Satellite Upgrade Program",
    "target_eligibility_quarter": "NA"
   }
  },
  {
   "type": "Feature",
   "geometry": {
    "type": "Point",
    "coordinates": [
     148.6770537,
     -20.60330407
    ]
   },
   "properties": {
    "name": "LOT 14 KUNAPIPI ROAD LAGUNA QUAYS 4800",
    "locID": "LOC000109048794",
    "tech": "WIRELESS",
    "upgrade": "NULL_NA",
    "gnaf_pid": "GAQLD161205171",
    "tech_change_status": "Not Planned",
    "program_type": "Fixed Wireless and Satellite Upgrade Program",
    "target_eligibility_quarter": "NA"
   }
  },
  {
   "type": "Feature",
   "geometry": {
    "type": "Point",
    "coordinates": [
     148.66702937,
     -20.60756645
    ]
   },
   "properties": {
    "name": "LOT 15 KUNAPIPI ROAD LAGUNA QUAYS 4800",
    "locID": "LOC000129377433",
    "tech": "WIRELESS",
    "upgrade": "NULL_NA",
    "gnaf_pid": "GAQLD161205172",
    "tech_change_status": "Not Planned",
    "program_type": "Fixed Wireless and Satellite Upgrade Program",
    "target_eligibility_quarter": "NA"
   }
  },
  {
   "type": "Feature",
   "geometry": {
    "type": "Point",
    "coordinates": [
     148.66539832,
     -20.60382064
    ]
   },
   "properties": {
    "name": "LOT 16 KUNAPIPI ROAD LAGUNA QUAYS 4800",
    "locID": "LOC000129377433",
    "tech": "WIRELESS",
    "upgrade": "NULL_NA",
    "gnaf_pid": "GAQLD161205173",
    "tech_change_status": "Not Planned",
    "program_type": "Fixed Wireless and Satellite Upgrade Program",
    "target_eligibility_quarter": "NA"
   }
  },
  {
   "type": "Feature",
   "geometry": {
    "type": "Point",
    "coordinates": [
     148.66891196,
     -20.60789241
    ]
   },
   "properties": {
    "name": "LOT 17 KUNAPIPI ROAD LAGUNA QUAYS 4800",
    "locID": "LOC000129377433",
    "tech": "WIRELESS",
    "upgrade": "NULL_NA",
    "gnaf_pid": "GAQLD161205174",
    "tech_change_status": "Not Planned",
    "program_type": "Fixed Wireless and Satellite Upgrade Program",
    "target_eligibility_quarter": "NA"
   }
  },
  {
   "type": "Feature",
   "geometry": {
    "type": "Point",
    "coordinates": [
     148.66581902,
     -20.6064195
    ]
   },
   "properties": {
    "name": "LOT 18 KUNAPIPI ROAD LAGUNA QUAYS 4800",
    "locID": "LOC000146449030",
    "tech": "WIRELESS",
    "upgrade": "NULL_NA",
    "gnaf_pid": "GAQLD161205175",
    "tech_change_status": "Not Planned",
    "program_type": "Fixed Wireless and Satellite Upgrade Program",
    "target_eligibility_quarter": "NA"
   }
  },
  {
   "type": "Feature",
   "geometry": {
    "type": "Point",
    "coordinates": [
     148.66930492,
     -20.60771009
    ]
   },
   "properties": {
    "name": "LOT 19 KUNAPIPI ROAD LAGUNA QUAYS 4800",
    "locID": "LOC000129377433",
    "tech": "WIRELESS",
    "upgrade": "NULL_NA",
    "gnaf_pid": "GAQLD161205176",
    "tech_change_status": "Not Planned",
    "program_type": "Fixed Wireless and Satellite Upgrade Program",
    "target_eligibility_quarter": "NA"
   }
  },
  {
   "type": "Feature",
   "geometry": {
    "type": "Point",
    "coordinates": [
     148.66979504,
     -20.60993013
    ]
   },
   "properties": {
    "name": "LOT 1 KUNAPIPI ROAD LAGUNA QUAYS 4800",
    "locID": "LOC000187714579",
    "tech": "NULL",
    "upgrade": "NULL_NA",
    "gnaf_pid": "GAQLD161205177",
    "tech_change_status": "Not Planned"
   }
  },
  {
   "type": "Feature",
   "geometry": {
    "type": "Point",
    "coordinates": [
     148.6694822,
     -20.60754701
    ]
   },
   "properties": {
    "name": "LOT 20 KUNAPIPI ROAD LAGUNA QUAYS 4800",
    "locID": "LOC000129377433",
    "tech": "WIRELESS",
    "upgrade": "NULL_NA",
    "gnaf_pid": "GAQLD161205178",
    "tech_change_status": "Not Planned",
    "program_type": "Fixed Wireless and Satellite Upgrade Program",
    "target_eligibility_quarter": "NA"
   }
  },
  {
   "type": "Feature",
   "geometry": {
    "type": "Point",
    "coordinates": [
     148.67013914,
     -20.59923918
    ]
   },
   "properties": {
    "name": "LOT 21 KUNAPIPI ROAD LAGUNA QUAYS 4800",
    "locID": "LOC000129377433",
    "tech": "WIRELESS",
    "upgrade": "NULL_NA",
    "gnaf_pid": "GAQLD161205179",
    "tech_change_status": "Not Planned",
    "program_type": "Fixed Wireless and Satellite Upgrade Program",
    "target_eligibility_quarter": "NA"
   }
  },
  {
   "type": "Feature",
   "geometry": {
    "type": "Point",
    "coordinates": [
     148.67005578,
     -20.59948009
    ]
   },
   "properties": {
    "name": "LOT 22 KUNAPIPI ROAD LAGUNA QUAYS 4800",
    "locID": "LOC100078171240",
    "tech": "NULL",
    "upgrade": "NULL_NA",
    "gnaf_pid": "GAQLD161205180",
    "tech_change_status": "Not Planned"
   }
  },
  {
   "type": "Feature",
   "geometry": {
    "type": "Point",
    "coordinates": [
     148.67081508,
     -20.60670427
    ]
   },
   "properties": {
    "name": "LOT 23 KUNAPIPI ROAD LAGUNA QUAYS 4800",
    "locID": "LOC000129377433",
    "tech": "WIRELESS",
    "upgrade": "NULL_NA",
    "gnaf_pid": "GAQLD161205181",
    "tech_change_status": "Not Planned",
    "program_type": "Fixed Wireless and Satellite Upgrade Program",
    "target_eligibility_quarter": "NA"
   }
  },
  {
   "type": "Feature",
   "geometry": {
    "type": "Point",
    "coordinates": [
     148.67102825,
     -20.60657016
    ]
   },
   "properties": {
    "name": "LOT 24 KUNAPIPI ROAD LAGUNA QUAYS 4800",
    "locID": "LOC000129377433",
    "tech": "WIRELESS",
    "upgrade": "NULL_NA",
    "gnaf_pid": "GAQLD161205182",
    "tech_change_status": "Not Planned",
    "program_type": "Fixed Wireless and Satellite Upgrade Program",
    "target_eligibility_quarter": "NA"
   }
  },
  {
   "type": "Feature",
   "geometry": {
    "type": "Point",
    "coordinates": [
     148.67120739,
     -20.60638943
    ]
   },
   "properties": {
    "name": "LOT 25 KUNAPIPI ROAD LAGUNA QUAYS 4800",
    "locID": "LOC000129377433",
    "tech": "WIRELESS",
    "upgrade": "NULL_NA",
    "gnaf_pid": "GAQLD161205183",
    "tech_change_status": "Not Planned",
    "program_type": "Fixed Wireless and Satellite Upgrade Program",
    "target_eligibility_quarter": "NA"
   }
  },
  {
   "type": "Feature",
   "geometry": {
    "type": "Point",
    "coordinates": [
     148.67139474,
     -20.6062329
    ]
   },
   "properties": {
    "name": "LOT 26 KUNAPIPI ROAD LAGUNA QUAYS 4800",
    "locID": "LOC000129377433",
    "tech": "WIRELESS",
    "upgrade": "NULL_NA",
    "gnaf_pid": "GAQLD161205184",
    "tech_change_status": "Not Planned",
    "program_type": "Fixed Wireless and Satellite Upgrade Program",
    "target_eligibility_quarter": "NA"
   }
  },
  {
   "type": "Feature",
   "geometry": {
    "type": "Point",
    "coordinates": [
     148.6715849,
     -20.60610871
    ]
   },
   "properties": {
    "name": "LOT 27 KUNAPIPI ROAD LAGUNA QUAYS 4800",
    "locID": "LOC000129377433",
    "tech": "WIRELESS",
    "upgrade": "NULL_NA",
    "gnaf_pid": "GAQLD161205185",
    "tech_change_status": "Not Planned",
    "program_type": "Fixed Wireless and Satellite Upgrade Program",
    "target_eligibility_quarter": "NA"
   }
  },
  {
   "type": "Feature",
   "geometry": {
    "type": "Point",
    "coordinates": [
     148.67204058,
     -20.6071583
    ]
   },
   "properties": {
    "name": "LOT 28 KUNAPIPI ROAD LAGUNA QUAYS 4800",
    "locID": "LOC000129377433",
    "tech": "WIRELESS",
    "upgrade": "NULL_NA",
    "gnaf_pid": "GAQLD161205186",
    "tech_change_status": "Not Planned",
    "program_type": "Fixed Wireless and Satellite Upgrade Program",
    "target_eligibility_quarter": "NA"
   }
  },
  {
   "type": "Feature",
   "geometry": {
    "type": "Point",
    "coordinates": [
     148.67186198,
     -20.60735475
    ]
   },
   "properties": {
    "name": "LOT 29 KUNAPIPI ROAD LAGUNA QUAYS 4800",
    "locID": "LOC000129377433",
    "tech": "WIRELESS",
    "upgrade": "NULL_NA",
    "gnaf_pid": "GAQLD161205187",
    "tech_change_status": "Not Planned",
    "program_type": "Fixed Wireless and Satellite Upgrade Program",
    "target_eligibility_quarter": "NA"
   }
  },
  {
   "type": "Feature",
   "geometry": {
    "type": "Point",
    "coordinates": [
     148.67143814,
     -20.6054164
    ]
   },
   "properties": {
    "name": "LOT 2 KUNAPIPI ROAD LAGUNA QUAYS 4800",
    "locID": "LOC000129355861",
    "tech": "NULL",
    "upgrade": "NULL_NA",
    "gnaf_pid": "GAQLD161205188",
    "tech_change_status": "Not Planned"
   }
  },
  {
   "type": "Feature",
   "geometry": {
    "type": "Point",
    "coordinates": [
     148.67163535,
     -20.60742929
    ]
   },
   "properties": {
    "name": "LOT 30 KUNAPIPI ROAD LAGUNA QUAYS 4800",
    "locID": "LOC000129377433",
    "tech": "WIRELESS",
    "upgrade": "NULL_NA",
    "gnaf_pid": "GAQLD161205189",
    "tech_change_status": "Not Planned",
    "program_type": "Fixed Wireless and Satellite Upgrade Program",
    "target_eligibility_quarter": "NA"
   }
  },
  {
   "type": "Feature",
   "geometry": {
    "type": "Point",
    "coordinates": [
     148.67110743,
     -20.60732043
    ]
   },
   "properties": {
    "name": "LOT 32 KUNAPIPI ROAD LAGUNA QUAYS 4800",
    "locID": "LOC000129377433",
    "tech": "WIRELESS",
    "upgrade": "NULL_NA",
    "gnaf_pid": "GAQLD161205191",
    "tech_change_status": "Not Planned",
    "program_type": "Fixed Wireless and Satellite Upgrade Program",
    "target_eligibility_quarter": "NA"
   }
  },
  {
   "type": "Feature",
   "geometry": {
    "type": "Point",
    "coordinates": [
     148.67081951,
     -20.60732593
    ]
   },
   "properties": {
    "name": "LOT 33 KUNAPIPI ROAD LAGUNA QUAYS 4800",
    "locID": "LOC000129377433",
    "tech": "WIRELESS",
    "upgrade": "NULL_NA",
    "gnaf_pid": "GAQLD161205192",
    "tech_change_status": "Not Planned",
    "program_type": "Fixed Wireless and Satellite Upgrade Program",
    "target_eligibility_quarter": "NA"
   }
  },
  {
   "type": "Feature",
   "geometry": {
    "type": "Point",
    "coordinates": [
     148.67067068,
     -20.60749349
    ]
   },
   "properties": {
    "name": "LOT 34 KUNAPIPI ROAD LAGUNA QUAYS 4800",
    "locID": "LOC000129377217",
    "tech": "WIRELESS",
    "upgrade": "NULL_NA",
    "gnaf_pid": "GAQLD161205193",
    "tech_change_status": "Not Planned",
    "program_type": "Fixed Wireless and Satellite Upgrade Program",
    "target_eligibility_quarter": "NA"
   }
  },
  {
   "type": "Feature",
   "geometry": {
    "type": "Point",
    "coordinates": [
     148.67015358,
     -20.60790189
    ]
   },
   "properties": {
    "name": "LOT 35 KUNAPIPI ROAD LAGUNA QUAYS 4800",
    "locID": "LOC000129377433",
    "tech": "WIRELESS",
    "upgrade": "NULL_NA",
    "gnaf_pid": "GAQLD161205194",
    "tech_change_status": "Not Planned",
    "program_type": "Fixed Wireless and Satellite Upgrade Program",
    "target_eligibility_quarter": "NA"
   }
  },
  {
   "type": "Feature",
   "geometry": {
    "type": "Point",
    "coordinates": [
     148.67026942,
     -20.60799688
    ]
   },
   "properties": {
    "name": "LOT 36 KUNAPIPI ROAD LAGUNA QUAYS 4800",
    "locID": "LOC100087486979",
    "tech": "WIRELESS",
    "upgrade": "NULL_NA",
    "gnaf_pid": "GAQLD161205195",
    "tech_change_status": "Not Planned",
    "program_type": "Fixed Wireless and Satellite Upgrade Program",
    "target_eligibility_quarter": "NA"
   }
  },
  {
   "type": "Feature",
   "geometry": {
    "type": "Point",
    "coordinates": [
     148.6711442,
     -20.60799745
    ]
   },
   "properties": {
    "name": "LOT 39 KUNAPIPI ROAD LAGUNA QUAYS 4800",
    "locID": "LOC100087486922",
    "tech": "WIRELESS",
    "upgrade": "NULL_NA",
    "gnaf_pid": "GAQLD161205198",
    "tech_change_status": "Not Planned",
    "program_type": "Fixed Wireless and Satellite Upgrade Program",
    "target_eligibility_quarter": "NA"
   }
  },
  {
   "type": "Feature",
   "geometry": {
    "type": "Point",
    "coordinates": [
     148.66937026,
     -20.60973088
    ]
   },
   "properties": {
    "name": "LOT 3 KUNAPIPI ROAD LAGUNA QUAYS 4800",
    "locID": "LOC000170901862",
    "tech": "WIRELESS",
    "upgrade": "NULL_NA",
    "gnaf_pid": "GAQLD161205199",
    "tech_change_status": "Not Planned",
    "program_type": "Fixed Wireless and Satellite Upgrade Program",
    "target_eligibility_quarter": "NA"
   }
  },
  {
   "type": "Feature",
   "geometry": {
    "type": "Point",
    "coordinates": [
     148.67139051,
     -20.60800868
    ]
   },
   "properties": {
    "name": "LOT 40 KUNAPIPI ROAD LAGUNA QUAYS 4800",
    "locID": "LOC100087486946",
    "tech": "WIRELESS",
    "upgrade": "NULL_NA",
    "gnaf_pid": "GAQLD161205200",
    "tech_change_status": "Not Planned",
    "program_type": "Fixed Wireless and Satellite Upgrade Program",
    "target_eligibility_quarter": "NA"
   }
  },
  {
   "type": "Feature",
   "geometry": {
    "type": "Point",
    "coordinates": [
     148.67211109,
     -20.60812555
    ]
   },
   "properties": {
    "name": "LOT 43 KUNAPIPI ROAD LAGUNA QUAYS 4800",
    "locID": "LOC100087486905",
    "tech": "WIRELESS",
    "upgrade": "NULL_NA",
    "gnaf_pid": "GAQLD161205203",
    "tech_change_status": "Not Planned",
    "program_type": "Fixed Wireless and Satellite Upgrade Program",
    "target_eligibility_quarter": "NA"
   }
  },
  {
   "type": "Feature",
   "geometry": {
    "type": "Point",
    "coordinates": [
     148.6725769,
     -20.60824012
    ]
   },
   "properties": {
    "name": "LOT 45 KUNAPIPI ROAD LAGUNA QUAYS 4800",
    "locID": "LOC000129377217",
    "tech": "WIRELESS",
    "upgrade": "NULL_NA",
    "gnaf_pid": "GAQLD161205205",
    "tech_change_status": "Not Planned",
    "program_type": "Fixed Wireless and Satellite Upgrade Program",
    "target_eligibility_quarter": "NA"
   }
  },
  {
   "type": "Feature",
   "geometry": {
    "type": "Point",
    "coordinates": [
     148.67145242,
     -20.6026674
    ]
   },
   "properties": {
    "name": "LOT 48 KUNAPIPI ROAD LAGUNA QUAYS 4800",
    "locID": "LOC000129377433",
    "tech": "WIRELESS",
    "upgrade": "NULL_NA",
    "gnaf_pid": "GAQLD161205208",
    "tech_change_status": "Not Planned",
    "program_type": "Fixed Wireless and Satellite Upgrade Program",
    "target_eligibility_quarter": "NA"
   }
  },
  {
   "type": "Feature",
   "geometry": {
    "type": "Point",
    "coordinates": [
     148.67104035,
     -20.6057319
    ]
   },
   "properties": {
    "name": "LOT 4 KUNAPIPI ROAD LAGUNA QUAYS 4800",
    "locID": "LOC000109465069",
    "tech": "WIRELESS",
    "upgrade": "NULL_NA",
    "gnaf_pid": "GAQLD161205210",
    "tech_change_status": "Not Planned",
    "program_type": "Fixed Wireless and Satellite Upgrade Program",
    "target_eligibility_quarter": "NA"
   }
  },
  {
   "type": "Feature",
   "geometry": {
    "type": "Point",
    "coordinates": [
     148.6713459,
     -20.60341578
    ]
   },
   "properties": {
    "name": "LOT 53 KUNAPIPI ROAD LAGUNA QUAYS 4800",
    "locID": "LOC000129377414",
    "tech": "WIRELESS",
    "upgrade": "NULL_NA",
    "gnaf_pid": "GAQLD161205214",
    "tech_change_status": "Not Planned",
    "program_type": "Fixed Wireless and Satellite Upgrade Program",
    "target_eligibility_quarter": "NA"
   }
  },
  {
   "type": "Feature",
   "geometry": {
    "type": "Point",
    "coordinates": [
     148.67112508,
     -20.60348864
    ]
   },
   "properties": {
    "name": "LOT 54 KUNAPIPI ROAD LAGUNA QUAYS 4800",
    "locID": "LOC000129377422",
    "tech": "WIRELESS",
    "upgrade": "NULL_NA",
    "gnaf_pid": "GAQLD161205215",
    "tech_change_status": "Not Planned",
    "program_type": "Fixed Wireless and Satellite Upgrade Program",
    "target_eligibility_quarter": "NA"
   }
  },
  {
   "type": "Feature",
   "geometry": {
    "type": "Point",
    "coordinates": [
     148.66813161,
     -20.60394631
    ]
   },
   "properties": {
    "name": "LOT 55 KUNAPIPI ROAD LAGUNA QUAYS 4800",
    "locID": "LOC000129377433",
    "tech": "WIRELESS",
    "upgrade": "NULL_NA",
    "gnaf_pid": "GAQLD161205216",
    "tech_change_status": "Not Planned",
    "program_type": "Fixed Wireless and Satellite Upgrade Program",
    "target_eligibility_quarter": "NA"
   }
  },
  {
   "type": "Feature",
   "geometry": {
    "type": "Point",
    "coordinates": [
     148.66814827,
     -20.60385317
    ]
   },
   "properties": {
    "name": "LOT 56 KUNAPIPI ROAD LAGUNA QUAYS 4800",
    "locID": "LOC000129377446",
    "tech": "WIRELESS",
    "upgrade": "NULL_NA",
    "gnaf_pid": "GAQLD161205217",
    "tech_change_status": "Not Planned",
    "program_type": "Fixed Wireless and Satellite Upgrade Program",
    "target_eligibility_quarter": "NA"
   }
  },
  {
   "type": "Feature",
   "geometry": {
    "type": "Point",
    "coordinates": [
     148.66810996,
     -20.60379451
    ]
   },
   "properties": {
    "name": "LOT 57 KUNAPIPI ROAD LAGUNA QUAYS 4800",
    "locID": "LOC000129381199",
    "tech": "WIRELESS",
    "upgrade": "NULL_NA",
    "gnaf_pid": "GAQLD161205218",
    "tech_change_status": "Not Planned",
    "program_type": "Fixed Wireless and Satellite Upgrade Program",
    "target_eligibility_quarter": "NA"
   }
  },
  {
   "type": "Feature",
   "geometry": {
    "type": "Point",
    "coordinates": [
     148.66820628,
     -20.60406573
    ]
   },
   "properties": {
    "name": "LOT 59 KUNAPIPI ROAD LAGUNA QUAYS 4800",
    "locID": "LOC000129381217",
    "tech": "WIRELESS",
    "upgrade": "NULL_NA",
    "gnaf_pid": "GAQLD161205220",
    "tech_change_status": "Not Planned",
    "program_type": "Fixed Wireless and Satellite Upgrade Program",
    "target_eligibility_quarter": "NA"
   }
  },
  {
   "type": "Feature",
   "geometry": {
    "type": "Point",
    "coordinates": [
     148.67086715,
     -20.60590816
    ]
   },
   "properties": {
    "name": "LOT 5 KUNAPIPI ROAD LAGUNA QUAYS 4800",
    "locID": "LOC000129377433",
    "tech": "WIRELESS",
    "upgrade": "NULL_NA",
    "gnaf_pid": "GAQLD161205221",
    "tech_change_status": "Not Planned",
    "program_type": "Fixed Wireless and Satellite Upgrade Program",
    "target_eligibility_quarter": "NA"
   }
  },
  {
   "type": "Feature",
   "geometry": {
    "type": "Point",
    "coordinates": [
     148.66813161,
     -20.60394631
    ]
   },
   "properties": {
    "name": "LOT 61 KUNAPIPI ROAD LAGUNA QUAYS 4800",
    "locID": "LOC000170901862",
    "tech": "WIRELESS",
    "upgrade": "NULL_NA",
    "gnaf_pid": "GAQLD161205223",
    "tech_change_status": "Not Planned",
    "program_type": "Fixed Wireless and Satellite Upgrade Program",
    "target_eligibility_quarter": "NA"
   }
  },
  {
   "type": "Feature",
   "geometry": {
    "type": "Point",
    "coordinates": [
     148.66810778,
     -20.60379507
    ]
   },
   "properties": {
    "name": "LOT 63 KUNAPIPI ROAD LAGUNA QUAYS 4800",
    "locID": "LOC000129381272",
    "tech": "WIRELESS",
    "upgrade": "NULL_NA",
    "gnaf_pid": "GAQLD161205225",
    "tech_change_status": "Not Planned",
    "program_type": "Fixed Wireless and Satellite Upgrade Program",
    "target_eligibility_quarter": "NA"
   }
  },
  {
   "type": "Feature",
   "geometry": {
    "type": "Point",
    "coordinates": [
     148.66818125,
     -20.60348606
    ]
   },
   "properties": {
    "name": "LOT 65 KUNAPIPI ROAD LAGUNA QUAYS 4800",
    "locID": "LOC000129381293",
    "tech": "WIRELESS",
    "upgrade": "NULL_NA",
    "gnaf_pid": "GAQLD161205227",
    "tech_change_status": "Not Planned",
    "program_type": "Fixed Wireless and Satellite Upgrade Program",
    "target_eligibility_quarter": "NA"
   }
  },
  {
   "type": "Feature",
   "geometry": {
    "type": "Point",
    "coordinates": [
     148.66817492,
     -20.60333779
    ]
   },
   "properties": {
    "name": "LOT 67 KUNAPIPI ROAD LAGUNA QUAYS 4800",
    "locID": "LOC000129381319",
    "tech": "WIRELESS",
    "upgrade": "NULL_NA",
    "gnaf_pid": "GAQLD161205229",
    "tech_change_status": "Not Planned",
    "program_type": "Fixed Wireless and Satellite Upgrade Program",
    "target_eligibility_quarter": "NA"
   }
  },
  {
   "type": "Feature",
   "geometry": {
    "type": "Point",
    "coordinates": [
     148.66805398,
     -20.60929307
    ]
   },
   "properties": {
    "name": "LOT 6 KUNAPIPI ROAD LAGUNA QUAYS 4800",
    "locID": "LOC000170901862",
    "tech": "WIRELESS",
    "upgrade": "NULL_NA",
    "gnaf_pid": "GAQLD161205232",
    "tech_change_status": "Not Planned",
    "program_type": "Fixed Wireless and Satellite Upgrade Program",
    "target_eligibility_quarter": "NA"
   }
  },
  {
   "type": "Feature",
   "geometry": {
    "type": "Point",
    "coordinates": [
     148.66817918,
     -20.60348466
    ]
   },
   "properties": {
    "name": "LOT 71 KUNAPIPI ROAD LAGUNA QUAYS 4800",
    "locID": "LOC000129381357",
    "tech": "WIRELESS",
    "upgrade": "NULL_NA",
    "gnaf_pid": "GAQLD161205234",
    "tech_change_status": "Not Planned",
    "program_type": "Fixed Wireless and Satellite Upgrade Program",
    "target_eligibility_quarter": "NA"
   }
  },
  {
   "type": "Feature",
   "geometry": {
    "type": "Point",
    "coordinates": [
     148.66814974,
     -20.60340156
    ]
   },
   "properties": {
    "name": "LOT 72 KUNAPIPI ROAD LAGUNA QUAYS 4800",
    "locID": "LOC000129381361",
    "tech": "WIRELESS",
    "upgrade": "NULL_NA",
    "gnaf_pid": "GAQLD161205235",
    "tech_change_status": "Not Planned",
    "program_type": "Fixed Wireless and Satellite Upgrade Program",
    "target_eligibility_quarter": "NA"
   }
  },
  {
   "type": "Feature",
   "geometry": {
    "type": "Point",
    "coordinates": [
     148.66825484,
     -20.6030555
    ]
   },
   "properties": {
    "name": "LOT 76 KUNAPIPI ROAD LAGUNA QUAYS 4800",
    "locID": "LOC100032160421",
    "tech": "WIRELESS",
    "upgrade": "NULL_NA",
    "gnaf_pid": "GAQLD161205239",
    "tech_change_status": "Not Planned",
    "program_type": "Fixed Wireless and Satellite Upgrade Program",
    "target_eligibility_quarter": "NA"
   }
  },
  {
   "type": "Feature",
   "geometry": {
    "type": "Point",
    "coordinates": [
     148.66826931,
     -20.60284548
    ]
   },
   "properties": {
    "name": "LOT 79 KUNAPIPI ROAD LAGUNA QUAYS 4800",
    "locID": "LOC000129381433",
    "tech": "WIRELESS",
    "upgrade": "NULL_NA",
    "gnaf_pid": "GAQLD161205242",
    "tech_change_status": "Not Planned",
    "program_type": "Fixed Wireless and Satellite Upgrade Program",
    "target_eligibility_quarter": "NA"
   }
  },
  {
   "type": "Feature",
   "geometry": {
    "type": "Point",
    "coordinates": [
     148.66962817,
     -20.60296046
    ]
   },
   "properties": {
    "name": "LOT 7 KUNAPIPI ROAD LAGUNA QUAYS 4800",
    "locID": "LOC000129381361",
    "tech": "WIRELESS",
    "upgrade": "NULL_NA",
    "gnaf_pid": "GAQLD161205243",
    "tech_change_status": "Not Planned",
    "program_type": "Fixed Wireless and Satellite Upgrade Program",
    "target_eligibility_quarter": "NA"
   }
  },
  {
   "type": "Feature",
   "geometry": {
    "type": "Point",
    "coordinates": [
     148.66833221,
     -20.60270897
    ]
   },
   "properties": {
    "name": "LOT 81 KUNAPIPI ROAD LAGUNA QUAYS 4800",
    "locID": "LOC000129381451",
    "tech": "WIRELESS",
    "upgrade": "NULL_NA",
    "gnaf_pid": "GAQLD161205245",
    "tech_change_status": "Not Planned",
    "program_type": "Fixed Wireless and Satellite Upgrade Program",
    "target_eligibility_quarter": "NA"
   }
  },
  {
   "type": "Feature",
   "geometry": {
    "type": "Point",
    "coordinates": [
     148.66826236,
     -20.6029867
    ]
   },
   "properties": {
    "name": "LOT 83 KUNAPIPI ROAD LAGUNA QUAYS 4800",
    "locID": "LOC000129381479",
    "tech": "WIRELESS",
    "upgrade": "NULL_NA",
    "gnaf_pid": "GAQLD161205247",
    "tech_change_status": "Not Planned",
    "program_type": "Fixed Wireless and Satellite Upgrade Program",
    "target_eligibility_quarter": "NA"
   }
  },
  {
   "type": "Feature",
   "geometry": {
    "type": "Point",
    "coordinates": [
     148.66826931,
     -20.60284548
    ]
   },
   "properties": {
    "name": "LOT 85 KUNAPIPI ROAD LAGUNA QUAYS 4800",
    "locID": "LOC000129381498",
    "tech": "WIRELESS",
    "upgrade": "NULL_NA",
    "gnaf_pid": "GAQLD161205249",
    "tech_change_status": "Not Planned",
    "program_type": "Fixed Wireless and Satellite Upgrade Program",
    "target_eligibility_quarter": "NA"
   }
  },
  {
   "type": "Feature",
   "geometry": {
    "type": "Point",
    "coordinates": [
     148.66832829,
     -20.60277636
    ]
   },
   "properties": {
    "name": "LOT 86 KUNAPIPI ROAD LAGUNA QUAYS 4800",
    "locID": "LOC000129381507",
    "tech": "WIRELESS",
    "upgrade": "NULL_NA",
    "gnaf_pid": "GAQLD161205250",
    "tech_change_status": "Not Planned",
    "program_type": "Fixed Wireless and Satellite Upgrade Program",
    "target_eligibility_quarter": "NA"
   }
  },
  {
   "type": "Feature",
   "geometry": {
    "type": "Point",
    "coordinates": [
     148.66884818,
     -20.60594261
    ]
   },
   "properties": {
    "name": "LOT 8 KUNAPIPI ROAD LAGUNA QUAYS 4800",
    "locID": "LOC100087486998",
    "tech": "WIRELESS",
    "upgrade": "NULL_NA",
    "gnaf_pid": "GAQLD161205252",
    "tech_change_status": "Not Planned",
    "program_type": "Fixed Wireless and Satellite Upgrade Program",
    "target_eligibility_quarter": "NA"
   }
  },
  {
   "type": "Feature",
   "geometry": {
    "type": "Point",
    "coordinates": [
     148.66823108,
     -20.60891871
    ]
   },
   "properties": {
    "name": "LOT 9999 KUNAPIPI ROAD LAGUNA QUAYS 4800",
    "locID": "LOC000129377433",
    "tech": "WIRELESS",
    "upgrade": "NULL_NA",
    "gnaf_pid": "GAQLD161205253",
    "tech_change_status": "Not Planned",
    "program_type": "Fixed Wireless and Satellite Upgrade Program",
    "target_eligibility_quarter": "NA"
   }
  },
  {
   "type": "Feature",
   "geometry": {
    "type": "Point",
    "coordinates": [
     148.66379129,
     -20.60716753
    ]
   },
   "properties": {
    "name": "LOT 9 KUNAPIPI ROAD LAGUNA QUAYS 4800",
    "locID": "LOC000129377433",
    "tech": "WIRELESS",
    "upgrade": "NULL_NA",
    "gnaf_pid": "GAQLD161205254",
    "tech_change_status": "Not Planned",
    "program_type": "Fixed Wireless and Satellite Upgrade Program",
    "target_eligibility_quarter": "NA"
   }
  },
  {
   "type": "Feature",
   "geometry": {
    "type": "Point",
    "coordinates": [
     148.67173252,
     -20.65581124
    ]
   },
   "properties": {
    "name": "LOT 1 MIDGE POINT ROAD LAGUNA QUAYS 4800",
    "locID": "LOC000087031238",
    "tech": "SATELLITE",
    "upgrade": "NULL_NA",
    "gnaf_pid": "GAQLD161236321",
    "tech_change_status": "Not Planned"
   }
  },
  {
   "type": "Feature",
   "geometry": {
    "type": "Point",
    "coordinates": [
     148.68100614,
     -20.6253398
    ]
   },
   "properties": {
    "name": "UNIT 1, 23 MARINE PARADE LAGUNA QUAYS 4800",
    "locID": "LOC000067573041",
    "tech": "WIRELESS",
    "upgrade": "NULL_NA",
    "gnaf_pid": "GAQLD162047836",
    "tech_change_status": "Not Planned",
    "program_type": "Fixed Wireless and Satellite Upgrade Program",
    "target_eligibility_quarter": "NA"
   }
  },
  {
   "type": "Feature",
   "geometry": {
    "type": "Point",
    "coordinates": [
     148.68231855,
     -20.62430334
    ]
   },
   "properties": {
    "name": "UNIT 1, 39 MARINE PARADE LAGUNA QUAYS 4800",
    "locID": "LOC000087904394",
    "tech": "WIRELESS",
    "upgrade": "NULL_NA",
    "gnaf_pid": "GAQLD162047837",
    "tech_change_status": "Not Planned",
    "program_type": "Fixed Wireless and Satellite Upgrade Program",
    "target_eligibility_quarter": "NA"
   }
  },
  {
   "type": "Feature",
   "geometry": {
    "type": "Point",
    "coordinates": [
     148.68092088,
     -20.62522298
    ]
   },
   "properties": {
    "name": "UNIT 2, 23 MARINE PARADE LAGUNA QUAYS 4800",
    "locID": "LOC000067573041",
    "tech": "WIRELESS",
    "upgrade": "NULL_NA",
    "gnaf_pid": "GAQLD162047838",
    "tech_change_status": "Not Planned",
    "program_type": "Fixed Wireless and Satellite Upgrade Program",
    "target_eligibility_quarter": "NA"
   }
  },
  {
   "type": "Feature",
   "geometry": {
    "type": "Point",
    "coordinates": [
     148.68236794,
     -20.62426583
    ]
   },
   "properties": {
    "name": "UNIT 2, 39 MARINE PARADE LAGUNA QUAYS 4800",
    "locID": "LOC000087904394",
    "tech": "WIRELESS",
    "upgrade": "NULL_NA",
    "gnaf_pid": "GAQLD162047839",
    "tech_change_status": "Not Planned",
    "program_type": "Fixed Wireless and Satellite Upgrade Program",
    "target_eligibility_quarter": "NA"
   }
  },
  {
   "type": "Feature",
   "geometry": {
    "type": "Point",
    "coordinates": [
     148.67300721,
     -20.60505354
    ]
   },
   "properties": {
    "name": "UNIT 11, 61 KUNAPIPI ROAD LAGUNA QUAYS 4800",
    "locID": "LOC100081262229",
    "tech": "WIRELESS",
    "upgrade": "NULL_NA",
    "gnaf_pid": "GAQLD162511774",
    "tech_change_status": "Not Planned",
    "program_type": "Fixed Wireless and Satellite Upgrade Program",
    "target_eligibility_quarter": "NA"
   }
  },
  {
   "type": "Feature",
   "geometry": {
    "type": "Point",
    "coordinates": [
     148.67293427,
     -20.6054602
    ]
   },
   "properties": {
    "name": "UNIT 13, 61 KUNAPIPI ROAD LAGUNA QUAYS 4800",
    "locID": "LOC000188643680",
    "tech": "WIRELESS",
    "upgrade": "NULL_NA",
    "gnaf_pid": "GAQLD162511776",
    "tech_change_status": "Not Planned",
    "program_type": "Fixed Wireless and Satellite Upgrade Program",
    "target_eligibility_quarter": "NA"
   }
  },
  {
   "type": "Feature",
   "geometry": {
    "type": "Point",
    "coordinates": [
     148.67300186,
     -20.60582323
    ]
   },
   "properties": {
    "name": "UNIT 14, 61 KUNAPIPI ROAD LAGUNA QUAYS 4800",
    "locID": "LOC000176792916",
    "tech": "WIRELESS",
    "upgrade": "NULL_NA",
    "gnaf_pid": "GAQLD162511777",
    "tech_change_status": "Not Planned",
    "program_type": "Fixed Wireless and Satellite Upgrade Program",
    "target_eligibility_quarter": "NA"
   }
  },
  {
   "type": "Feature",
   "geometry": {
    "type": "Point",
    "coordinates": [
     148.67317901,
     -20.60594243
    ]
   },
   "properties": {
    "name": "UNIT 15, 61 KUNAPIPI ROAD LAGUNA QUAYS 4800",
    "locID": "LOC100087487014",
    "tech": "WIRELESS",
    "upgrade": "NULL_NA",
    "gnaf_pid": "GAQLD162511778",
    "tech_change_status": "Not Planned",
    "program_type": "Fixed Wireless and Satellite Upgrade Program",
    "target_eligibility_quarter": "NA"
   }
  },
  {
   "type": "Feature",
   "geometry": {
    "type": "Point",
    "coordinates": [
     148.67232925,
     -20.60647777
    ]
   },
   "properties": {
    "name": "UNIT 1, 61 KUNAPIPI ROAD LAGUNA QUAYS 4800",
    "locID": "LOC100081262229",
    "tech": "WIRELESS",
    "upgrade": "NULL_NA",
    "gnaf_pid": "GAQLD162511783",
    "tech_change_status": "Not Planned",
    "program_type": "Fixed Wireless and Satellite Upgrade Program",
    "target_eligibility_quarter": "NA"
   }
  },
  {
   "type": "Feature",
   "geometry": {
    "type": "Point",
    "coordinates": [
     148.67356336,
     -20.60691265
    ]
   },
   "properties": {
    "name": "UNIT 21, 61 KUNAPIPI ROAD LAGUNA QUAYS 4800",
    "locID": "LOC100087487079",
    "tech": "WIRELESS",
    "upgrade": "NULL_NA",
    "gnaf_pid": "GAQLD162511785",
    "tech_change_status": "Not Planned",
    "program_type": "Fixed Wireless and Satellite Upgrade Program",
    "target_eligibility_quarter": "NA"
   }
  },
  {
   "type": "Feature",
   "geometry": {
    "type": "Point",
    "coordinates": [
     148.67337698,
     -20.60726541
    ]
   },
   "properties": {
    "name": "UNIT 23, 61 KUNAPIPI ROAD LAGUNA QUAYS 4800",
    "locID": "LOC100087487098",
    "tech": "WIRELESS",
    "upgrade": "NULL_NA",
    "gnaf_pid": "GAQLD162511787",
    "tech_change_status": "Not Planned",
    "program_type": "Fixed Wireless and Satellite Upgrade Program",
    "target_eligibility_quarter": "NA"
   }
  },
  {
   "type": "Feature",
   "geometry": {
    "type": "Point",
    "coordinates": [
     148.67325837,
     -20.60761565
    ]
   },
   "properties": {
    "name": "UNIT 25, 61 KUNAPIPI ROAD LAGUNA QUAYS 4800",
    "locID": "LOC100087487033",
    "tech": "WIRELESS",
    "upgrade": "NULL_NA",
    "gnaf_pid": "GAQLD162511789",
    "tech_change_status": "Not Planned",
    "program_type": "Fixed Wireless and Satellite Upgrade Program",
    "target_eligibility_quarter": "NA"
   }
  },
  {
   "type": "Feature",
   "geometry": {
    "type": "Point",
    "coordinates": [
     148.67276964,
     -20.60739364
    ]
   },
   "properties": {
    "name": "UNIT 27, 61 KUNAPIPI ROAD LAGUNA QUAYS 4800",
    "locID": "LOC100087487051",
    "tech": "WIRELESS",
    "upgrade": "NULL_NA",
    "gnaf_pid": "GAQLD162511791",
    "tech_change_status": "Not Planned",
    "program_type": "Fixed Wireless and Satellite Upgrade Program",
    "target_eligibility_quarter": "NA"
   }
  },
  {
   "type": "Feature",
   "geometry": {
    "type": "Point",
    "coordinates": [
     148.67221577,
     -20.60627332
    ]
   },
   "properties": {
    "name": "UNIT 2, 61 KUNAPIPI ROAD LAGUNA QUAYS 4800",
    "locID": "LOC100087487033",
    "tech": "WIRELESS",
    "upgrade": "NULL_NA",
    "gnaf_pid": "GAQLD162511794",
    "tech_change_status": "Not Planned",
    "program_type": "Fixed Wireless and Satellite Upgrade Program",
    "target_eligibility_quarter": "NA"
   }
  },
  {
   "type": "Feature",
   "geometry": {
    "type": "Point",
    "coordinates": [
     148.6721816,
     -20.60606453
    ]
   },
   "properties": {
    "name": "UNIT 3, 61 KUNAPIPI ROAD LAGUNA QUAYS 4800",
    "locID": "LOC100087486979",
    "tech": "WIRELESS",
    "upgrade": "NULL_NA",
    "gnaf_pid": "GAQLD162511796",
    "tech_change_status": "Not Planned",
    "program_type": "Fixed Wireless and Satellite Upgrade Program",
    "target_eligibility_quarter": "NA"
   }
  },
  {
   "type": "Feature",
   "geometry": {
    "type": "Point",
    "coordinates": [
     148.67223721,
     -20.60586647
    ]
   },
   "properties": {
    "name": "UNIT 4, 61 KUNAPIPI ROAD LAGUNA QUAYS 4800",
    "locID": "LOC100081262229",
    "tech": "WIRELESS",
    "upgrade": "NULL_NA",
    "gnaf_pid": "GAQLD162511797",
    "tech_change_status": "Not Planned",
    "program_type": "Fixed Wireless and Satellite Upgrade Program",
    "target_eligibility_quarter": "NA"
   }
  },
  {
   "type": "Feature",
   "geometry": {
    "type": "Point",
    "coordinates": [
     148.67232698,
     -20.60567292
    ]
   },
   "properties": {
    "name": "UNIT 5, 61 KUNAPIPI ROAD LAGUNA QUAYS 4800",
    "locID": "LOC000129377446",
    "tech": "WIRELESS",
    "upgrade": "NULL_NA",
    "gnaf_pid": "GAQLD162511798",
    "tech_change_status": "Not Planned",
    "program_type": "Fixed Wireless and Satellite Upgrade Program",
    "target_eligibility_quarter": "NA"
   }
  },
  {
   "type": "Feature",
   "geometry": {
    "type": "Point",
    "coordinates": [
     148.6721944,
     -20.60511985
    ]
   },
   "properties": {
    "name": "UNIT 6, 61 KUNAPIPI ROAD LAGUNA QUAYS 4800",
    "locID": "LOC100081262229",
    "tech": "WIRELESS",
    "upgrade": "NULL_NA",
    "gnaf_pid": "GAQLD162511799",
    "tech_change_status": "Not Planned",
    "program_type": "Fixed Wireless and Satellite Upgrade Program",
    "target_eligibility_quarter": "NA"
   }
  },
  {
   "type": "Feature",
   "geometry": {
    "type": "Point",
    "coordinates": [
     148.67238611,
     -20.60505734
    ]
   },
   "properties": {
    "name": "UNIT 7, 61 KUNAPIPI ROAD LAGUNA QUAYS 4800",
    "locID": "LOC000129381357",
    "tech": "WIRELESS",
    "upgrade": "NULL_NA",
    "gnaf_pid": "GAQLD162511800",
    "tech_change_status": "Not Planned",
    "program_type": "Fixed Wireless and Satellite Upgrade Program",
    "target_eligibility_quarter": "NA"
   }
  },
  {
   "type": "Feature",
   "geometry": {
    "type": "Point",
    "coordinates": [
     148.67256178,
     -20.60491366
    ]
   },
   "properties": {
    "name": "UNIT 8, 61 KUNAPIPI ROAD LAGUNA QUAYS 4800",
    "locID": "LOC100087486998",
    "tech": "WIRELESS",
    "upgrade": "NULL_NA",
    "gnaf_pid": "GAQLD162511801",
    "tech_change_status": "Not Planned",
    "program_type": "Fixed Wireless and Satellite Upgrade Program",
    "target_eligibility_quarter": "NA"
   }
  },
  {
   "type": "Feature",
   "geometry": {
    "type": "Point",
    "coordinates": [
     148.672906,
     -20.60634696
    ]
   },
   "properties": {
    "name": "61 KUNAPIPI ROAD LAGUNA QUAYS 4800",
    "locID": "LOC000129381255",
    "tech": "WIRELESS",
    "upgrade": "NULL_NA",
    "gnaf_pid": "GAQLD162511803",
    "tech_change_status": "Not Planned",
    "program_type": "Fixed Wireless and Satellite Upgrade Program",
    "target_eligibility_quarter": "NA"
   }
  },
  {
   "type": "Feature",
   "geometry": {
    "type": "Point",
    "coordinates": [
     148.65436298,
     -20.64293778
    ]
   },
   "properties": {
    "name": "979 MIDGE POINT ROAD LAGUNA QUAYS 4800",
    "locID": "LOC000087031238",
    "tech": "SATELLITE",
    "upgrade": "NULL_NA",
    "gnaf_pid": "GAQLD162928063",
    "tech_change_status": "Not Planned"
   }
  },
  {
   "type": "Feature",
   "geometry": {
    "type": "Point",
    "coordinates": [
     148.66360147,
     -20.6001709
    ]
   },
   "properties": {
    "name": "573 KUNAPIPI ROAD LAGUNA QUAYS 4800",
    "locID": "LOC000187714579",
    "tech": "NULL",
    "upgrade": "NULL_NA",
    "gnaf_pid": "GAQLD162957399",
    "tech_change_status": "Not Planned"
   }
  },
  {
   "type": "Feature",
   "geometry": {
    "type": "Point",
    "coordinates": [
     148.66166872,
     -20.60723346
    ]
   },
   "properties": {
    "name": "615 KUNAPIPI ROAD LAGUNA QUAYS 4800",
    "locID": "LOC000197961908",
    "tech": "WIRELESS",
    "upgrade": "NULL_NA",
    "gnaf_pid": "GAQLD162957400",
    "tech_change_status": "Not Planned",
    "program_type": "Fixed Wireless and Satellite Upgrade Program",
    "target_eligibility_quarter": "NA"
   }
  },
  {
   "type": "Feature",
   "geometry": {
    "type": "Point",
    "coordinates": [
     148.68395436,
     -20.62301889
    ]
   },
   "properties": {
    "name": "UNIT 1, 61 MARINE PARADE LAGUNA QUAYS 4800",
    "locID": "LOC100087216405",
    "tech": "WIRELESS",
    "upgrade": "NULL_NA",
    "gnaf_pid": "GAQLD162958971",
    "tech_change_status": "Not Planned",
    "program_type": "Fixed Wireless and Satellite Upgrade Program",
    "target_eligibility_quarter": "NA"
   }
  },
  {
   "type": "Feature",
   "geometry": {
    "type": "Point",
    "coordinates": [
     148.68398801,
     -20.62297156
    ]
   },
   "properties": {
    "name": "UNIT 2, 61 MARINE PARADE LAGUNA QUAYS 4800",
    "locID": "LOC100087216433",
    "tech": "WIRELESS",
    "upgrade": "NULL_NA",
    "gnaf_pid": "GAQLD162958972",
    "tech_change_status": "Not Planned",
    "program_type": "Fixed Wireless and Satellite Upgrade Program",
    "target_eligibility_quarter": "NA"
   }
  },
  {
   "type": "Feature",
   "geometry": {
    "type": "Point",
    "coordinates": [
     148.66528395,
     -20.61894858
    ]
   },
   "properties": {
    "name": "1 KUNAPIPI ROAD LAGUNA QUAYS 4800",
    "locID": "LOC000182716118",
    "tech": "WIRELESS",
    "upgrade": "NULL_NA",
    "gnaf_pid": "GAQLD425269692",
    "tech_change_status": "Not Planned",
    "program_type": "Fixed Wireless and Satellite Upgrade Program",
    "target_eligibility_quarter": "NA"
   }
  },
  {
   "type": "Feature",
   "geometry": {
    "type": "Point",
    "coordinates": [
     148.66424172,
     -20.60626465
    ]
   },
   "properties": {
    "name": "UNIT 11, LOT 11 KUNAPIPI ROAD LAGUNA QUAYS 4800",
    "locID": "LOC000129377433",
    "tech": "WIRELESS",
    "upgrade": "NULL_NA",
    "gnaf_pid": "GAQLD719443698",
    "tech_change_status": "Not Planned",
    "program_type": "Fixed Wireless and Satellite Upgrade Program",
    "target_eligibility_quarter": "NA"
   }
  },
  {
   "type": "Feature",
   "geometry": {
    "type": "Point",
    "coordinates": [
     148.66798716,
     -20.60534292
    ]
   },
   "properties": {
    "name": "UNIT 13, LOT 13 KUNAPIPI ROAD LAGUNA QUAYS 4800",
    "locID": "LOC000129377433",
    "tech": "WIRELESS",
    "upgrade": "NULL_NA",
    "gnaf_pid": "GAQLD719443702",
    "tech_change_status": "Not Planned",
    "program_type": "Fixed Wireless and Satellite Upgrade Program",
    "target_eligibility_quarter": "NA"
   }
  },
  {
   "type": "Feature",
   "geometry": {
    "type": "Point",
    "coordinates": [
     148.66424172,
     -20.60626465
    ]
   },
   "properties": {
    "name": "UNIT 6, LOT 6 KUNAPIPI ROAD LAGUNA QUAYS 4800",
    "locID": "LOC000129377433",
    "tech": "WIRELESS",
    "upgrade": "NULL_NA",
    "gnaf_pid": "GAQLD719443703",
    "tech_change_status": "Not Planned",
    "program_type": "Fixed Wireless and Satellite Upgrade Program",
    "target_eligibility_quarter": "NA"
   }
  },
  {
   "type": "Feature",
   "geometry": {
    "type": "Point",
    "coordinates": [
     148.66826931,
     -20.60284548
    ]
   },
   "properties": {
    "name": "UNIT 85, LOT 85 KUNAPIPI ROAD LAGUNA QUAYS 4800",
    "locID": "LOC000129381498",
    "tech": "WIRELESS",
    "upgrade": "NULL_NA",
    "gnaf_pid": "GAQLD719443711",
    "tech_change_status": "Not Planned",
    "program_type": "Fixed Wireless and Satellite Upgrade Program",
    "target_eligibility_quarter": "NA"
   }
  },
  {
   "type": "Feature",
   "geometry": {
    "type": "Point",
    "coordinates": [
     148.6678893,
     -20.60546306
    ]
   },
   "properties": {
    "name": "UNIT 9, LOT 9 KUNAPIPI ROAD LAGUNA QUAYS 4800",
    "locID": "LOC000129377433",
    "tech": "WIRELESS",
    "upgrade": "NULL_NA",
    "gnaf_pid": "GAQLD719444577",
    "tech_change_status": "Not Planned",
    "program_type": "Fixed Wireless and Satellite Upgrade Program",
    "target_eligibility_quarter": "NA"
   }
  },
  {
   "type": "Feature",
   "geometry": {
    "type": "Point",
    "coordinates": [
     148.66798716,
     -20.60534292
    ]
   },
   "properties": {
    "name": "UNIT 7, LOT 7 KUNAPIPI ROAD LAGUNA QUAYS 4800",
    "locID": "LOC000129377433",
    "tech": "WIRELESS",
    "upgrade": "NULL_NA",
    "gnaf_pid": "GAQLD719444579",
    "tech_change_status": "Not Planned",
    "program_type": "Fixed Wireless and Satellite Upgrade Program",
    "target_eligibility_quarter": "NA"
   }
  },
  {
   "type": "Feature",
   "geometry": {
    "type": "Point",
    "coordinates": [
     148.66748501,
     -20.60581905
    ]
   },
   "properties": {
    "name": "UNIT 30, LOT 30 KUNAPIPI ROAD LAGUNA QUAYS 4800",
    "locID": "LOC000129377433",
    "tech": "WIRELESS",
    "upgrade": "NULL_NA",
    "gnaf_pid": "GAQLD719444585",
    "tech_change_status": "Not Planned",
    "program_type": "Fixed Wireless and Satellite Upgrade Program",
    "target_eligibility_quarter": "NA"
   }
  },
  {
   "type": "Feature",
   "geometry": {
    "type": "Point",
    "coordinates": [
     148.66359973,
     -20.60684935
    ]
   },
   "properties": {
    "name": "UNIT 31, LOT 31 KUNAPIPI ROAD LAGUNA QUAYS 4800",
    "locID": "LOC000129377433",
    "tech": "WIRELESS",
    "upgrade": "NULL_NA",
    "gnaf_pid": "GAQLD719445428",
    "tech_change_status": "Not Planned",
    "program_type": "Fixed Wireless and Satellite Upgrade Program",
    "target_eligibility_quarter": "NA"
   }
  },
  {
   "type": "Feature",
   "geometry": {
    "type": "Point",
    "coordinates": [
     148.66755065,
     -20.60578239
    ]
   },
   "properties": {
    "name": "UNIT 29, LOT 29 KUNAPIPI ROAD LAGUNA QUAYS 4800",
    "locID": "LOC000129377433",
    "tech": "WIRELESS",
    "upgrade": "NULL_NA",
    "gnaf_pid": "GAQLD719445429",
    "tech_change_status": "Not Planned",
    "program_type": "Fixed Wireless and Satellite Upgrade Program",
    "target_eligibility_quarter": "NA"
   }
  },
  {
   "type": "Feature",
   "geometry": {
    "type": "Point",
    "coordinates": [
     148.66827741,
     -20.60455457
    ]
   },
   "properties": {
    "name": "UNIT 39, LOT 39 KUNAPIPI ROAD LAGUNA QUAYS 4800",
    "locID": "LOC100087486922",
    "tech": "WIRELESS",
    "upgrade": "NULL_NA",
    "gnaf_pid": "GAQLD719445430",
    "tech_change_status": "Not Planned",
    "program_type": "Fixed Wireless and Satellite Upgrade Program",
    "target_eligibility_quarter": "NA"
   }
  },
  {
   "type": "Feature",
   "geometry": {
    "type": "Point",
    "coordinates": [
     148.66424172,
     -20.60626465
    ]
   },
   "properties": {
    "name": "UNIT 14, LOT 14 KUNAPIPI ROAD LAGUNA QUAYS 4800",
    "locID": "LOC000177655702",
    "tech": "WIRELESS",
    "upgrade": "NULL_NA",
    "gnaf_pid": "GAQLD719445431",
    "tech_change_status": "Not Planned",
    "program_type": "Fixed Wireless and Satellite Upgrade Program",
    "target_eligibility_quarter": "NA"
   }
  },
  {
   "type": "Feature",
   "geometry": {
    "type": "Point",
    "coordinates": [
     148.66814917,
     -20.60518812
    ]
   },
   "properties": {
    "name": "UNIT 4, LOT 4 KUNAPIPI ROAD LAGUNA QUAYS 4800",
    "locID": "LOC100078171240",
    "tech": "NULL",
    "upgrade": "NULL_NA",
    "gnaf_pid": "GAQLD719445438",
    "tech_change_status": "Not Planned"
   }
  },
  {
   "type": "Feature",
   "geometry": {
    "type": "Point",
    "coordinates": [
     148.66795216,
     -20.60542794
    ]
   },
   "properties": {
    "name": "UNIT 8, LOT 8 KUNAPIPI ROAD LAGUNA QUAYS 4800",
    "locID": "LOC000129377433",
    "tech": "WIRELESS",
    "upgrade": "NULL_NA",
    "gnaf_pid": "GAQLD719445439",
    "tech_change_status": "Not Planned",
    "program_type": "Fixed Wireless and Satellite Upgrade Program",
    "target_eligibility_quarter": "NA"
   }
  },
  {
   "type": "Feature",
   "geometry": {
    "type": "Point",
    "coordinates": [
     148.66742366,
     -20.60585339
    ]
   },
   "properties": {
    "name": "UNIT 23, LOT 23 KUNAPIPI ROAD LAGUNA QUAYS 4800",
    "locID": "LOC000129377433",
    "tech": "WIRELESS",
    "upgrade": "NULL_NA",
    "gnaf_pid": "GAQLD719445441",
    "tech_change_status": "Not Planned",
    "program_type": "Fixed Wireless and Satellite Upgrade Program",
    "target_eligibility_quarter": "NA"
   }
  },
  {
   "type": "Feature",
   "geometry": {
    "type": "Point",
    "coordinates": [
     148.66832981,
     -20.60442557
    ]
   },
   "properties": {
    "name": "UNIT 48, LOT 48 KUNAPIPI ROAD LAGUNA QUAYS 4800",
    "locID": "LOC000177655702",
    "tech": "WIRELESS",
    "upgrade": "NULL_NA",
    "gnaf_pid": "GAQLD719446272",
    "tech_change_status": "Not Planned",
    "program_type": "Fixed Wireless and Satellite Upgrade Program",
    "target_eligibility_quarter": "NA"
   }
  },
  {
   "type": "Feature",
   "geometry": {
    "type": "Point",
    "coordinates": [
     148.66833221,
     -20.60270897
    ]
   },
   "properties": {
    "name": "UNIT 81, LOT 81 KUNAPIPI ROAD LAGUNA QUAYS 4800",
    "locID": "LOC000129381451",
    "tech": "WIRELESS",
    "upgrade": "NULL_NA",
    "gnaf_pid": "GAQLD719446274",
    "tech_change_status": "Not Planned",
    "program_type": "Fixed Wireless and Satellite Upgrade Program",
    "target_eligibility_quarter": "NA"
   }
  },
  {
   "type": "Feature",
   "geometry": {
    "type": "Point",
    "coordinates": [
     148.6676779,
     -20.6057009
    ]
   },
   "properties": {
    "name": "UNIT 27, LOT 27 KUNAPIPI ROAD LAGUNA QUAYS 4800",
    "locID": "LOC000129377433",
    "tech": "WIRELESS",
    "upgrade": "NULL_NA",
    "gnaf_pid": "GAQLD719446282",
    "tech_change_status": "Not Planned",
    "program_type": "Fixed Wireless and Satellite Upgrade Program",
    "target_eligibility_quarter": "NA"
   }
  },
  {
   "type": "Feature",
   "geometry": {
    "type": "Point",
    "coordinates": [
     148.66810994,
     -20.60469759
    ]
   },
   "properties": {
    "name": "UNIT 36, LOT 36 KUNAPIPI ROAD LAGUNA QUAYS 4800",
    "locID": "LOC100087486979",
    "tech": "WIRELESS",
    "upgrade": "NULL_NA",
    "gnaf_pid": "GAQLD719447338",
    "tech_change_status": "Not Planned",
    "program_type": "Fixed Wireless and Satellite Upgrade Program",
    "target_eligibility_quarter": "NA"
   }
  },
  {
   "type": "Feature",
   "geometry": {
    "type": "Point",
    "coordinates": [
     148.66777518,
     -20.60559069
    ]
   },
   "properties": {
    "name": "UNIT 17, LOT 17 KUNAPIPI ROAD LAGUNA QUAYS 4800",
    "locID": "LOC000129377433",
    "tech": "WIRELESS",
    "upgrade": "NULL_NA",
    "gnaf_pid": "GAQLD719447339",
    "tech_change_status": "Not Planned",
    "program_type": "Fixed Wireless and Satellite Upgrade Program",
    "target_eligibility_quarter": "NA"
   }
  },
  {
   "type": "Feature",
   "geometry": {
    "type": "Point",
    "coordinates": [
     148.66826931,
     -20.60284548
    ]
   },
   "properties": {
    "name": "UNIT 79, LOT 79 KUNAPIPI ROAD LAGUNA QUAYS 4800",
    "locID": "LOC000129381433",
    "tech": "WIRELESS",
    "upgrade": "NULL_NA",
    "gnaf_pid": "GAQLD719447341",
    "tech_change_status": "Not Planned",
    "program_type": "Fixed Wireless and Satellite Upgrade Program",
    "target_eligibility_quarter": "NA"
   }
  },
  {
   "type": "Feature",
   "geometry": {
    "type": "Point",
    "coordinates": [
     148.66788509,
     -20.60545602
    ]
   },
   "properties": {
    "name": "UNIT 15, LOT 15 KUNAPIPI ROAD LAGUNA QUAYS 4800",
    "locID": "LOC000129377433",
    "tech": "WIRELESS",
    "upgrade": "NULL_NA",
    "gnaf_pid": "GAQLD719447342",
    "tech_change_status": "Not Planned",
    "program_type": "Fixed Wireless and Satellite Upgrade Program",
    "target_eligibility_quarter": "NA"
   }
  },
  {
   "type": "Feature",
   "geometry": {
    "type": "Point",
    "coordinates": [
     148.66820855,
     -20.60406519
    ]
   },
   "properties": {
    "name": "UNIT 53, LOT 53 KUNAPIPI ROAD LAGUNA QUAYS 4800",
    "locID": "LOC000129377414",
    "tech": "WIRELESS",
    "upgrade": "NULL_NA",
    "gnaf_pid": "GAQLD719447344",
    "tech_change_status": "Not Planned",
    "program_type": "Fixed Wireless and Satellite Upgrade Program",
    "target_eligibility_quarter": "NA"
   }
  },
  {
   "type": "Feature",
   "geometry": {
    "type": "Point",
    "coordinates": [
     148.66387129,
     -20.60652206
    ]
   },
   "properties": {
    "name": "UNIT 22, LOT 22 KUNAPIPI ROAD LAGUNA QUAYS 4800",
    "locID": "LOC100078171240",
    "tech": "NULL",
    "upgrade": "NULL_NA",
    "gnaf_pid": "GAQLD719447349",
    "tech_change_status": "Not Planned"
   }
  },
  {
   "type": "Feature",
   "geometry": {
    "type": "Point",
    "coordinates": [
     148.66827686,
     -20.60455233
    ]
   },
   "properties": {
    "name": "UNIT 43, LOT 43 KUNAPIPI ROAD LAGUNA QUAYS 4800",
    "locID": "LOC100087486905",
    "tech": "WIRELESS",
    "upgrade": "NULL_NA",
    "gnaf_pid": "GAQLD719447350",
    "tech_change_status": "Not Planned",
    "program_type": "Fixed Wireless and Satellite Upgrade Program",
    "target_eligibility_quarter": "NA"
   }
  },
  {
   "type": "Feature",
   "geometry": {
    "type": "Point",
    "coordinates": [
     148.66832829,
     -20.60277636
    ]
   },
   "properties": {
    "name": "UNIT 86, LOT 86 KUNAPIPI ROAD LAGUNA QUAYS 4800",
    "locID": "LOC000129381507",
    "tech": "WIRELESS",
    "upgrade": "NULL_NA",
    "gnaf_pid": "GAQLD719448258",
    "tech_change_status": "Not Planned",
    "program_type": "Fixed Wireless and Satellite Upgrade Program",
    "target_eligibility_quarter": "NA"
   }
  },
  {
   "type": "Feature",
   "geometry": {
    "type": "Point",
    "coordinates": [
     148.66817918,
     -20.60348466
    ]
   },
   "properties": {
    "name": "UNIT 71, LOT 71 KUNAPIPI ROAD LAGUNA QUAYS 4800",
    "locID": "LOC000129381357",
    "tech": "WIRELESS",
    "upgrade": "NULL_NA",
    "gnaf_pid": "GAQLD719448262",
    "tech_change_status": "Not Planned",
    "program_type": "Fixed Wireless and Satellite Upgrade Program",
    "target_eligibility_quarter": "NA"
   }
  },
  {
   "type": "Feature",
   "geometry": {
    "type": "Point",
    "coordinates": [
     148.66777301,
     -20.60558613
    ]
   },
   "properties": {
    "name": "UNIT 25, LOT 25 KUNAPIPI ROAD LAGUNA QUAYS 4800",
    "locID": "LOC100087487033",
    "tech": "WIRELESS",
    "upgrade": "NULL_NA",
    "gnaf_pid": "GAQLD719448264",
    "tech_change_status": "Not Planned",
    "program_type": "Fixed Wireless and Satellite Upgrade Program",
    "target_eligibility_quarter": "NA"
   }
  },
  {
   "type": "Feature",
   "geometry": {
    "type": "Point",
    "coordinates": [
     148.66813161,
     -20.60394631
    ]
   },
   "properties": {
    "name": "UNIT 61, LOT 61 KUNAPIPI ROAD LAGUNA QUAYS 4800",
    "locID": "LOC100087487098",
    "tech": "WIRELESS",
    "upgrade": "NULL_NA",
    "gnaf_pid": "GAQLD719448266",
    "tech_change_status": "Not Planned",
    "program_type": "Fixed Wireless and Satellite Upgrade Program",
    "target_eligibility_quarter": "NA"
   }
  },
  {
   "type": "Feature",
   "geometry": {
    "type": "Point",
    "coordinates": [
     148.66816913,
     -20.6040042
    ]
   },
   "properties": {
    "name": "UNIT 54, LOT 54 KUNAPIPI ROAD LAGUNA QUAYS 4800",
    "locID": "LOC000129377422",
    "tech": "WIRELESS",
    "upgrade": "NULL_NA",
    "gnaf_pid": "GAQLD719448267",
    "tech_change_status": "Not Planned",
    "program_type": "Fixed Wireless and Satellite Upgrade Program",
    "target_eligibility_quarter": "NA"
   }
  },
  {
   "type": "Feature",
   "geometry": {
    "type": "Point",
    "coordinates": [
     148.66825484,
     -20.6030555
    ]
   },
   "properties": {
    "name": "UNIT 76, LOT 76 KUNAPIPI ROAD LAGUNA QUAYS 4800",
    "locID": "LOC100032160421",
    "tech": "WIRELESS",
    "upgrade": "NULL_NA",
    "gnaf_pid": "GAQLD719448272",
    "tech_change_status": "Not Planned",
    "program_type": "Fixed Wireless and Satellite Upgrade Program",
    "target_eligibility_quarter": "NA"
   }
  },
  {
   "type": "Feature",
   "geometry": {
    "type": "Point",
    "coordinates": [
     148.66359973,
     -20.60684935
    ]
   },
   "properties": {
    "name": "UNIT 33, LOT 33 KUNAPIPI ROAD LAGUNA QUAYS 4800",
    "locID": "LOC000129377433",
    "tech": "WIRELESS",
    "upgrade": "NULL_NA",
    "gnaf_pid": "GAQLD719448273",
    "tech_change_status": "Not Planned",
    "program_type": "Fixed Wireless and Satellite Upgrade Program",
    "target_eligibility_quarter": "NA"
   }
  },
  {
   "type": "Feature",
   "geometry": {
    "type": "Point",
    "coordinates": [
     148.66308634,
     -20.60705619
    ]
   },
   "properties": {
    "name": "UNIT 35, LOT 35 KUNAPIPI ROAD LAGUNA QUAYS 4800",
    "locID": "LOC000129377433",
    "tech": "WIRELESS",
    "upgrade": "NULL_NA",
    "gnaf_pid": "GAQLD719448274",
    "tech_change_status": "Not Planned",
    "program_type": "Fixed Wireless and Satellite Upgrade Program",
    "target_eligibility_quarter": "NA"
   }
  },
  {
   "type": "Feature",
   "geometry": {
    "type": "Point",
    "coordinates": [
     148.66359973,
     -20.60684935
    ]
   },
   "properties": {
    "name": "UNIT 34, LOT 34 KUNAPIPI ROAD LAGUNA QUAYS 4800",
    "locID": "LOC000129377217",
    "tech": "WIRELESS",
    "upgrade": "NULL_NA",
    "gnaf_pid": "GAQLD719449170",
    "tech_change_status": "Not Planned",
    "program_type": "Fixed Wireless and Satellite Upgrade Program",
    "target_eligibility_quarter": "NA"
   }
  },
  {
   "type": "Feature",
   "geometry": {
    "type": "Point",
    "coordinates": [
     148.66808535,
     -20.60522334
    ]
   },
   "properties": {
    "name": "UNIT 5, LOT 5 KUNAPIPI ROAD LAGUNA QUAYS 4800",
    "locID": "LOC000129377446",
    "tech": "WIRELESS",
    "upgrade": "NULL_NA",
    "gnaf_pid": "GAQLD719449171",
    "tech_change_status": "Not Planned",
    "program_type": "Fixed Wireless and Satellite Upgrade Program",
    "target_eligibility_quarter": "NA"
   }
  },
  {
   "type": "Feature",
   "geometry": {
    "type": "Point",
    "coordinates": [
     148.66818125,
     -20.60348606
    ]
   },
   "properties": {
    "name": "UNIT 65, LOT 65 KUNAPIPI ROAD LAGUNA QUAYS 4800",
    "locID": "LOC000129381293",
    "tech": "WIRELESS",
    "upgrade": "NULL_NA",
    "gnaf_pid": "GAQLD719449174",
    "tech_change_status": "Not Planned",
    "program_type": "Fixed Wireless and Satellite Upgrade Program",
    "target_eligibility_quarter": "NA"
   }
  },
  {
   "type": "Feature",
   "geometry": {
    "type": "Point",
    "coordinates": [
     148.66761266,
     -20.60574804
    ]
   },
   "properties": {
    "name": "UNIT 20, LOT 20 KUNAPIPI ROAD LAGUNA QUAYS 4800",
    "locID": "LOC000129377433",
    "tech": "WIRELESS",
    "upgrade": "NULL_NA",
    "gnaf_pid": "GAQLD719449175",
    "tech_change_status": "Not Planned",
    "program_type": "Fixed Wireless and Satellite Upgrade Program",
    "target_eligibility_quarter": "NA"
   }
  },
  {
   "type": "Feature",
   "geometry": {
    "type": "Point",
    "coordinates": [
     148.6681081,
     -20.60469593
    ]
   },
   "properties": {
    "name": "UNIT 40, LOT 40 KUNAPIPI ROAD LAGUNA QUAYS 4800",
    "locID": "LOC100087486946",
    "tech": "WIRELESS",
    "upgrade": "NULL_NA",
    "gnaf_pid": "GAQLD719449181",
    "tech_change_status": "Not Planned",
    "program_type": "Fixed Wireless and Satellite Upgrade Program",
    "target_eligibility_quarter": "NA"
   }
  },
  {
   "type": "Feature",
   "geometry": {
    "type": "Point",
    "coordinates": [
     148.66387129,
     -20.60652206
    ]
   },
   "properties": {
    "name": "UNIT 18, LOT 18 KUNAPIPI ROAD LAGUNA QUAYS 4800",
    "locID": "LOC000177655702",
    "tech": "WIRELESS",
    "upgrade": "NULL_NA",
    "gnaf_pid": "GAQLD719450070",
    "tech_change_status": "Not Planned",
    "program_type": "Fixed Wireless and Satellite Upgrade Program",
    "target_eligibility_quarter": "NA"
   }
  },
  {
   "type": "Feature",
   "geometry": {
    "type": "Point",
    "coordinates": [
     148.66814827,
     -20.60385317
    ]
   },
   "properties": {
    "name": "UNIT 56, LOT 56 KUNAPIPI ROAD LAGUNA QUAYS 4800",
    "locID": "LOC000129377446",
    "tech": "WIRELESS",
    "upgrade": "NULL_NA",
    "gnaf_pid": "GAQLD719450071",
    "tech_change_status": "Not Planned",
    "program_type": "Fixed Wireless and Satellite Upgrade Program",
    "target_eligibility_quarter": "NA"
   }
  },
  {
   "type": "Feature",
   "geometry": {
    "type": "Point",
    "coordinates": [
     148.66755065,
     -20.60578239
    ]
   },
   "properties": {
    "name": "UNIT 21, LOT 21 KUNAPIPI ROAD LAGUNA QUAYS 4800",
    "locID": "LOC000129377433",
    "tech": "WIRELESS",
    "upgrade": "NULL_NA",
    "gnaf_pid": "GAQLD719450072",
    "tech_change_status": "Not Planned",
    "program_type": "Fixed Wireless and Satellite Upgrade Program",
    "target_eligibility_quarter": "NA"
   }
  },
  {
   "type": "Feature",
   "geometry": {
    "type": "Point",
    "coordinates": [
     148.66817492,
     -20.60333779
    ]
   },
   "properties": {
    "name": "UNIT 67, LOT 67 KUNAPIPI ROAD LAGUNA QUAYS 4800",
    "locID": "LOC000129381319",
    "tech": "WIRELESS",
    "upgrade": "NULL_NA",
    "gnaf_pid": "GAQLD719450075",
    "tech_change_status": "Not Planned",
    "program_type": "Fixed Wireless and Satellite Upgrade Program",
    "target_eligibility_quarter": "NA"
   }
  },
  {
   "type": "Feature",
   "geometry": {
    "type": "Point",
    "coordinates": [
     148.66826236,
     -20.6029867
    ]
   },
   "properties": {
    "name": "UNIT 83, LOT 83 KUNAPIPI ROAD LAGUNA QUAYS 4800",
    "locID": "LOC000129381479",
    "tech": "WIRELESS",
    "upgrade": "NULL_NA",
    "gnaf_pid": "GAQLD719450078",
    "tech_change_status": "Not Planned",
    "program_type": "Fixed Wireless and Satellite Upgrade Program",
    "target_eligibility_quarter": "NA"
   }
  },
  {
   "type": "Feature",
   "geometry": {
    "type": "Point",
    "coordinates": [
     148.66387129,
     -20.60652206
    ]
   },
   "properties": {
    "name": "UNIT 19, LOT 19 KUNAPIPI ROAD LAGUNA QUAYS 4800",
    "locID": "LOC000129377433",
    "tech": "WIRELESS",
    "upgrade": "NULL_NA",
    "gnaf_pid": "GAQLD719450079",
    "tech_change_status": "Not Planned",
    "program_type": "Fixed Wireless and Satellite Upgrade Program",
    "target_eligibility_quarter": "NA"
   }
  },
  {
   "type": "Feature",
   "geometry": {
    "type": "Point",
    "coordinates": [
     148.66831841,
     -20.60435905
    ]
   },
   "properties": {
    "name": "UNIT 45, LOT 45 KUNAPIPI ROAD LAGUNA QUAYS 4800",
    "locID": "LOC000129377217",
    "tech": "WIRELESS",
    "upgrade": "NULL_NA",
    "gnaf_pid": "GAQLD719450080",
    "tech_change_status": "Not Planned",
    "program_type": "Fixed Wireless and Satellite Upgrade Program",
    "target_eligibility_quarter": "NA"
   }
  },
  {
   "type": "Feature",
   "geometry": {
    "type": "Point",
    "coordinates": [
     148.66166872,
     -20.60723346
    ]
   },
   "properties": {
    "name": "UNIT 1412, 615 KUNAPIPI ROAD LAGUNA QUAYS 4800",
    "locID": "LOC100089565871",
    "tech": "WIRELESS",
    "upgrade": "NULL_NA",
    "gnaf_pid": "GAQLD721399191",
    "tech_change_status": "Not Planned",
    "program_type": "Fixed Wireless and Satellite Upgrade Program",
    "target_eligibility_quarter": "NA"
   }
  },
  {
   "type": "Feature",
   "geometry": {
    "type": "Point",
    "coordinates": [
     148.66166872,
     -20.60723346
    ]
   },
   "properties": {
    "name": "UNIT 1417, 615 KUNAPIPI ROAD LAGUNA QUAYS 4800",
    "locID": "LOC100087670494",
    "tech": "WIRELESS",
    "upgrade": "NULL_NA",
    "gnaf_pid": "GAQLD721514207",
    "tech_change_status": "Not Planned",
    "program_type": "Fixed Wireless and Satellite Upgrade Program",
    "target_eligibility_quarter": "NA"
   }
  },
  {
   "type": "Feature",
   "geometry": {
    "type": "Point",
    "coordinates": [
     148.66166872,
     -20.60723346
    ]
   },
   "properties": {
    "name": "UNIT 1404, 615 KUNAPIPI ROAD LAGUNA QUAYS 4800",
    "locID": "LOC100081999462",
    "tech": "WIRELESS",
    "upgrade": "NULL_NA",
    "gnaf_pid": "GAQLD721514278",
    "tech_change_status": "Not Planned",
    "program_type": "Fixed Wireless and Satellite Upgrade Program",
    "target_eligibility_quarter": "NA"
   }
  },
  {
   "type": "Feature",
   "geometry": {
    "type": "Point",
    "coordinates": [
     148.66166872,
     -20.60723346
    ]
   },
   "properties": {
    "name": "UNIT 1132, 615 KUNAPIPI ROAD LAGUNA QUAYS 4800",
    "locID": "LOC000189646374",
    "tech": "WIRELESS",
    "upgrade": "NULL_NA",
    "gnaf_pid": "GAQLD721514326",
    "tech_change_status": "Not Planned",
    "program_type": "Fixed Wireless and Satellite Upgrade Program",
    "target_eligibility_quarter": "NA"
   }
  },
  {
   "type": "Feature",
   "geometry": {
    "type": "Point",
    "coordinates": [
     148.66166872,
     -20.60723346
    ]
   },
   "properties": {
    "name": "UNIT 1430, 615 KUNAPIPI ROAD LAGUNA QUAYS 4800",
    "locID": "LOC000189835700",
    "tech": "WIRELESS",
    "upgrade": "NULL_NA",
    "gnaf_pid": "GAQLD721514327",
    "tech_change_status": "Not Planned",
    "program_type": "Fixed Wireless and Satellite Upgrade Program",
    "target_eligibility_quarter": "NA"
   }
  },
  {
   "type": "Feature",
   "geometry": {
    "type": "Point",
    "coordinates": [
     148.66166872,
     -20.60723346
    ]
   },
   "properties": {
    "name": "UNIT 1305, 615 KUNAPIPI ROAD LAGUNA QUAYS 4800",
    "locID": "LOC000192230450",
    "tech": "WIRELESS",
    "upgrade": "NULL_NA",
    "gnaf_pid": "GAQLD721514329",
    "tech_change_status": "Not Planned",
    "program_type": "Fixed Wireless and Satellite Upgrade Program",
    "target_eligibility_quarter": "NA"
   }
  },
  {
   "type": "Feature",
   "geometry": {
    "type": "Point",
    "coordinates": [
     148.66166872,
     -20.60723346
    ]
   },
   "properties": {
    "name": "UNIT 1460, 615 KUNAPIPI ROAD LAGUNA QUAYS 4800",
    "locID": "LOC100091126500",
    "tech": "WIRELESS",
    "upgrade": "NULL_NA",
    "gnaf_pid": "GAQLD721514331",
    "tech_change_status": "Not Planned",
    "program_type": "Fixed Wireless and Satellite Upgrade Program",
    "target_eligibility_quarter": "NA"
   }
  },
  {
   "type": "Feature",
   "geometry": {
    "type": "Point",
    "coordinates": [
     148.66166872,
     -20.60723346
    ]
   },
   "properties": {
    "name": "UNIT 1409, 615 KUNAPIPI ROAD LAGUNA QUAYS 4800",
    "locID": "LOC000176792916",
    "tech": "WIRELESS",
    "upgrade": "NULL_NA",
    "gnaf_pid": "GAQLD721514491",
    "tech_change_status": "Not Planned",
    "program_type": "Fixed Wireless and Satellite Upgrade Program",
    "target_eligibility_quarter": "NA"
   }
  },
  {
   "type": "Feature",
   "geometry": {
    "type": "Point",
    "coordinates": [
     148.66166872,
     -20.60723346
    ]
   },
   "properties": {
    "name": "UNIT 1453, 615 KUNAPIPI ROAD LAGUNA QUAYS 4800",
    "locID": "LOC100080278040",
    "tech": "WIRELESS",
    "upgrade": "NULL_NA",
    "gnaf_pid": "GAQLD721514514",
    "tech_change_status": "Not Planned",
    "program_type": "Fixed Wireless and Satellite Upgrade Program",
    "target_eligibility_quarter": "NA"
   }
  },
  {
   "type": "Feature",
   "geometry": {
    "type": "Point",
    "coordinates": [
     148.66166872,
     -20.60723346
    ]
   },
   "properties": {
    "name": "UNIT 1403, 615 KUNAPIPI ROAD LAGUNA QUAYS 4800",
    "locID": "LOC000190258049",
    "tech": "WIRELESS",
    "upgrade": "NULL_NA",
    "gnaf_pid": "GAQLD721514597",
    "tech_change_status": "Not Planned",
    "program_type": "Fixed Wireless and Satellite Upgrade Program",
    "target_eligibility_quarter": "NA"
   }
  },
  {
   "type": "Feature",
   "geometry": {
    "type": "Point",
    "coordinates": [
     148.66166872,
     -20.60723346
    ]
   },
   "properties": {
    "name": "UNIT 1416, 615 KUNAPIPI ROAD LAGUNA QUAYS 4800",
    "locID": "LOC100081306270",
    "tech": "WIRELESS",
    "upgrade": "NULL_NA",
    "gnaf_pid": "GAQLD721514611",
    "tech_change_status": "Not Planned",
    "program_type": "Fixed Wireless and Satellite Upgrade Program",
    "target_eligibility_quarter": "NA"
   }
  },
  {
   "type": "Feature",
   "geometry": {
    "type": "Point",
    "coordinates": [
     148.66166872,
     -20.60723346
    ]
   },
   "properties": {
    "name": "UNIT 1125, 615 KUNAPIPI ROAD LAGUNA QUAYS 4800",
    "locID": "LOC100089955942",
    "tech": "WIRELESS",
    "upgrade": "NULL_NA",
    "gnaf_pid": "GAQLD721514681",
    "tech_change_status": "Not Planned",
    "program_type": "Fixed Wireless and Satellite Upgrade Program",
    "target_eligibility_quarter": "NA"
   }
  },
  {
   "type": "Feature",
   "geometry": {
    "type": "Point",
    "coordinates": [
     148.66166872,
     -20.60723346
    ]
   },
   "properties": {
    "name": "UNIT 1435, 615 KUNAPIPI ROAD LAGUNA QUAYS 4800",
    "locID": "LOC000144092892",
    "tech": "WIRELESS",
    "upgrade": "NULL_NA",
    "gnaf_pid": "GAQLD721514715",
    "tech_change_status": "Not Planned",
    "program_type": "Fixed Wireless and Satellite Upgrade Program",
    "target_eligibility_quarter": "NA"
   }
  },
  {
   "type": "Feature",
   "geometry": {
    "type": "Point",
    "coordinates": [
     148.66166872,
     -20.60723346
    ]
   },
   "properties": {
    "name": "UNIT 1467, 615 KUNAPIPI ROAD LAGUNA QUAYS 4800",
    "locID": "LOC100087360566",
    "tech": "WIRELESS",
    "upgrade": "NULL_NA",
    "gnaf_pid": "GAQLD721514716",
    "tech_change_status": "Not Planned",
    "program_type": "Fixed Wireless and Satellite Upgrade Program",
    "target_eligibility_quarter": "NA"
   }
  },
  {
   "type": "Feature",
   "geometry": {
    "type": "Point",
    "coordinates": [
     148.66166872,
     -20.60723346
    ]
   },
   "properties": {
    "name": "UNIT 1456, 615 KUNAPIPI ROAD LAGUNA QUAYS 4800",
    "locID": "LOC000150408236",
    "tech": "WIRELESS",
    "upgrade": "NULL_NA",
    "gnaf_pid": "GAQLD721514811",
    "tech_change_status": "Not Planned",
    "program_type": "Fixed Wireless and Satellite Upgrade Program",
    "target_eligibility_quarter": "NA"
   }
  },
  {
   "type": "Feature",
   "geometry": {
    "type": "Point",
    "coordinates": [
     148.66166872,
     -20.60723346
    ]
   },
   "properties": {
    "name": "UNIT 1436, 615 KUNAPIPI ROAD LAGUNA QUAYS 4800",
    "locID": "LOC100081904312",
    "tech": "WIRELESS",
    "upgrade": "NULL_NA",
    "gnaf_pid": "GAQLD721514882",
    "tech_change_status": "Not Planned",
    "program_type": "Fixed Wireless and Satellite Upgrade Program",
    "target_eligibility_quarter": "NA"
   }
  },
  {
   "type": "Feature",
   "geometry": {
    "type": "Point",
    "coordinates": [
     148.66166872,
     -20.60723346
    ]
   },
   "properties": {
    "name": "UNIT 1108, 615 KUNAPIPI ROAD LAGUNA QUAYS 4800",
    "locID": "LOC000197961908",
    "tech": "WIRELESS",
    "upgrade": "NULL_NA",
    "gnaf_pid": "GAQLD721514885",
    "tech_change_status": "Not Planned",
    "program_type": "Fixed Wireless and Satellite Upgrade Program",
    "target_eligibility_quarter": "NA"
   }
  },
  {
   "type": "Feature",
   "geometry": {
    "type": "Point",
    "coordinates": [
     148.66166872,
     -20.60723346
    ]
   },
   "properties": {
    "name": "UNIT 1138, 615 KUNAPIPI ROAD LAGUNA QUAYS 4800",
    "locID": "LOC000181948176",
    "tech": "WIRELESS",
    "upgrade": "NULL_NA",
    "gnaf_pid": "GAQLD721514886",
    "tech_change_status": "Not Planned",
    "program_type": "Fixed Wireless and Satellite Upgrade Program",
    "target_eligibility_quarter": "NA"
   }
  },
  {
   "type": "Feature",
   "geometry": {
    "type": "Point",
    "coordinates": [
     148.66166872,
     -20.60723346
    ]
   },
   "properties": {
    "name": "UNIT 1114, 615 KUNAPIPI ROAD LAGUNA QUAYS 4800",
    "locID": "LOC000190240087",
    "tech": "WIRELESS",
    "upgrade": "NULL_NA",
    "gnaf_pid": "GAQLD721514934",
    "tech_change_status": "Not Planned",
    "program_type": "Fixed Wireless and Satellite Upgrade Program",
    "target_eligibility_quarter": "NA"
   }
  },
  {
   "type": "Feature",
   "geometry": {
    "type": "Point",
    "coordinates": [
     148.66166872,
     -20.60723346
    ]
   },
   "properties": {
    "name": "UNIT 1421, 615 KUNAPIPI ROAD LAGUNA QUAYS 4800",
    "locID": "LOC000187023629",
    "tech": "WIRELESS",
    "upgrade": "NULL_NA",
    "gnaf_pid": "GAQLD721514935",
    "tech_change_status": "Not Planned",
    "program_type": "Fixed Wireless and Satellite Upgrade Program",
    "target_eligibility_quarter": "NA"
   }
  },
  {
   "type": "Feature",
   "geometry": {
    "type": "Point",
    "coordinates": [
     148.66166872,
     -20.60723346
    ]
   },
   "properties": {
    "name": "UNIT 1446, 615 KUNAPIPI ROAD LAGUNA QUAYS 4800",
    "locID": "LOC000195036933",
    "tech": "WIRELESS",
    "upgrade": "NULL_NA",
    "gnaf_pid": "GAQLD721515003",
    "tech_change_status": "Not Planned",
    "program_type": "Fixed Wireless and Satellite Upgrade Program",
    "target_eligibility_quarter": "NA"
   }
  },
  {
   "type": "Feature",
   "geometry": {
    "type": "Point",
    "coordinates": [
     148.66166872,
     -20.60723346
    ]
   },
   "properties": {
    "name": "UNIT 1451, 615 KUNAPIPI ROAD LAGUNA QUAYS 4800",
    "locID": "LOC000190170720",
    "tech": "WIRELESS",
    "upgrade": "NULL_NA",
    "gnaf_pid": "GAQLD721515006",
    "tech_change_status": "Not Planned",
    "program_type": "Fixed Wireless and Satellite Upgrade Program",
    "target_eligibility_quarter": "NA"
   }
  },
  {
   "type": "Feature",
   "geometry": {
    "type": "Point",
    "coordinates": [
     148.66166872,
     -20.60723346
    ]
   },
   "properties": {
    "name": "UNIT 1459, 615 KUNAPIPI ROAD LAGUNA QUAYS 4800",
    "locID": "LOC000185724626",
    "tech": "WIRELESS",
    "upgrade": "NULL_NA",
    "gnaf_pid": "GAQLD721515111",
    "tech_change_status": "Not Planned",
    "program_type": "Fixed Wireless and Satellite Upgrade Program",
    "target_eligibility_quarter": "NA"
   }
  },
  {
   "type": "Feature",
   "geometry": {
    "type": "Point",
    "coordinates": [
     148.66166872,
     -20.60723346
    ]
   },
   "properties": {
    "name": "UNIT 1111, 615 KUNAPIPI ROAD LAGUNA QUAYS 4800",
    "locID": "LOC000176044981",
    "tech": "WIRELESS",
    "upgrade": "NULL_NA",
    "gnaf_pid": "GAQLD721515126",
    "tech_change_status": "Not Planned",
    "program_type": "Fixed Wireless and Satellite Upgrade Program",
    "target_eligibility_quarter": "NA"
   }
  },
  {
   "type": "Feature",
   "geometry": {
    "type": "Point",
    "coordinates": [
     148.66166872,
     -20.60723346
    ]
   },
   "properties": {
    "name": "UNIT 1447, 615 KUNAPIPI ROAD LAGUNA QUAYS 4800",
    "locID": "LOC100090396371",
    "tech": "WIRELESS",
    "upgrade": "NULL_NA",
    "gnaf_pid": "GAQLD721515128",
    "tech_change_status": "Not Planned",
    "program_type": "Fixed Wireless and Satellite Upgrade Program",
    "target_eligibility_quarter": "NA"
   }
  },
  {
   "type": "Feature",
   "geometry": {
    "type": "Point",
    "coordinates": [
     148.66166872,
     -20.60723346
    ]
   },
   "properties": {
    "name": "UNIT 1464, 615 KUNAPIPI ROAD LAGUNA QUAYS 4800",
    "locID": "LOC000181301535",
    "tech": "WIRELESS",
    "upgrade": "NULL_NA",
    "gnaf_pid": "GAQLD721515151",
    "tech_change_status": "Not Planned",
    "program_type": "Fixed Wireless and Satellite Upgrade Program",
    "target_eligibility_quarter": "NA"
   }
  },
  {
   "type": "Feature",
   "geometry": {
    "type": "Point",
    "coordinates": [
     148.66166872,
     -20.60723346
    ]
   },
   "properties": {
    "name": "UNIT 1134, 615 KUNAPIPI ROAD LAGUNA QUAYS 4800",
    "locID": "LOC000189624604",
    "tech": "WIRELESS",
    "upgrade": "NULL_NA",
    "gnaf_pid": "GAQLD721515215",
    "tech_change_status": "Not Planned",
    "program_type": "Fixed Wireless and Satellite Upgrade Program",
    "target_eligibility_quarter": "NA"
   }
  },
  {
   "type": "Feature",
   "geometry": {
    "type": "Point",
    "coordinates": [
     148.66166872,
     -20.60723346
    ]
   },
   "properties": {
    "name": "UNIT 1469, 615 KUNAPIPI ROAD LAGUNA QUAYS 4800",
    "locID": "LOC000171231352",
    "tech": "WIRELESS",
    "upgrade": "NULL_NA",
    "gnaf_pid": "GAQLD721515257",
    "tech_change_status": "Not Planned",
    "program_type": "Fixed Wireless and Satellite Upgrade Program",
    "target_eligibility_quarter": "NA"
   }
  },
  {
   "type": "Feature",
   "geometry": {
    "type": "Point",
    "coordinates": [
     148.66166872,
     -20.60723346
    ]
   },
   "properties": {
    "name": "UNIT 1113, 615 KUNAPIPI ROAD LAGUNA QUAYS 4800",
    "locID": "LOC100082667785",
    "tech": "WIRELESS",
    "upgrade": "NULL_NA",
    "gnaf_pid": "GAQLD721515288",
    "tech_change_status": "Not Planned",
    "program_type": "Fixed Wireless and Satellite Upgrade Program",
    "target_eligibility_quarter": "NA"
   }
  },
  {
   "type": "Feature",
   "geometry": {
    "type": "Point",
    "coordinates": [
     148.66166872,
     -20.60723346
    ]
   },
   "properties": {
    "name": "UNIT 1428, 615 KUNAPIPI ROAD LAGUNA QUAYS 4800",
    "locID": "LOC100085541061",
    "tech": "WIRELESS",
    "upgrade": "NULL_NA",
    "gnaf_pid": "GAQLD721515348",
    "tech_change_status": "Not Planned",
    "program_type": "Fixed Wireless and Satellite Upgrade Program",
    "target_eligibility_quarter": "NA"
   }
  },
  {
   "type": "Feature",
   "geometry": {
    "type": "Point",
    "coordinates": [
     148.66166872,
     -20.60723346
    ]
   },
   "properties": {
    "name": "UNIT 1480, 615 KUNAPIPI ROAD LAGUNA QUAYS 4800",
    "locID": "LOC100080877399",
    "tech": "WIRELESS",
    "upgrade": "NULL_NA",
    "gnaf_pid": "GAQLD721515400",
    "tech_change_status": "Not Planned",
    "program_type": "Fixed Wireless and Satellite Upgrade Program",
    "target_eligibility_quarter": "NA"
   }
  },
  {
   "type": "Feature",
   "geometry": {
    "type": "Point",
    "coordinates": [
     148.66166872,
     -20.60723346
    ]
   },
   "properties": {
    "name": "UNIT 1458, 615 KUNAPIPI ROAD LAGUNA QUAYS 4800",
    "locID": "LOC000170595380",
    "tech": "WIRELESS",
    "upgrade": "NULL_NA",
    "gnaf_pid": "GAQLD721515401",
    "tech_change_status": "Not Planned",
    "program_type": "Fixed Wireless and Satellite Upgrade Program",
    "target_eligibility_quarter": "NA"
   }
  },
  {
   "type": "Feature",
   "geometry": {
    "type": "Point",
    "coordinates": [
     148.66166872,
     -20.60723346
    ]
   },
   "properties": {
    "name": "UNIT 1133, 615 KUNAPIPI ROAD LAGUNA QUAYS 4800",
    "locID": "LOC000177590229",
    "tech": "WIRELESS",
    "upgrade": "NULL_NA",
    "gnaf_pid": "GAQLD721515402",
    "tech_change_status": "Not Planned",
    "program_type": "Fixed Wireless and Satellite Upgrade Program",
    "target_eligibility_quarter": "NA"
   }
  },
  {
   "type": "Feature",
   "geometry": {
    "type": "Point",
    "coordinates": [
     148.66166872,
     -20.60723346
    ]
   },
   "properties": {
    "name": "UNIT 1131, 615 KUNAPIPI ROAD LAGUNA QUAYS 4800",
    "locID": "LOC100082737770",
    "tech": "WIRELESS",
    "upgrade": "NULL_NA",
    "gnaf_pid": "GAQLD721515492",
    "tech_change_status": "Not Planned",
    "program_type": "Fixed Wireless and Satellite Upgrade Program",
    "target_eligibility_quarter": "NA"
   }
  },
  {
   "type": "Feature",
   "geometry": {
    "type": "Point",
    "coordinates": [
     148.66166872,
     -20.60723346
    ]
   },
   "properties": {
    "name": "UNIT 1449, 615 KUNAPIPI ROAD LAGUNA QUAYS 4800",
    "locID": "LOC000164335432",
    "tech": "WIRELESS",
    "upgrade": "NULL_NA",
    "gnaf_pid": "GAQLD721515547",
    "tech_change_status": "Not Planned",
    "program_type": "Fixed Wireless and Satellite Upgrade Program",
    "target_eligibility_quarter": "NA"
   }
  },
  {
   "type": "Feature",
   "geometry": {
    "type": "Point",
    "coordinates": [
     148.66166872,
     -20.60723346
    ]
   },
   "properties": {
    "name": "UNIT 1310, 615 KUNAPIPI ROAD LAGUNA QUAYS 4800",
    "locID": "LOC000145060246",
    "tech": "SATELLITE",
    "upgrade": "NULL_NA",
    "gnaf_pid": "GAQLD721515567",
    "tech_change_status": "Not Planned"
   }
  },
  {
   "type": "Feature",
   "geometry": {
    "type": "Point",
    "coordinates": [
     148.66166872,
     -20.60723346
    ]
   },
   "properties": {
    "name": "UNIT 1472, 615 KUNAPIPI ROAD LAGUNA QUAYS 4800",
    "locID": "LOC100084639783",
    "tech": "WIRELESS",
    "upgrade": "NULL_NA",
    "gnaf_pid": "GAQLD721515569",
    "tech_change_status": "Not Planned",
    "program_type": "Fixed Wireless and Satellite Upgrade Program",
    "target_eligibility_quarter": "NA"
   }
  },
  {
   "type": "Feature",
   "geometry": {
    "type": "Point",
    "coordinates": [
     148.66166872,
     -20.60723346
    ]
   },
   "properties": {
    "name": "UNIT 1457, 615 KUNAPIPI ROAD LAGUNA QUAYS 4800",
    "locID": "LOC000189706855",
    "tech": "WIRELESS",
    "upgrade": "NULL_NA",
    "gnaf_pid": "GAQLD721515592",
    "tech_change_status": "Not Planned",
    "program_type": "Fixed Wireless and Satellite Upgrade Program",
    "target_eligibility_quarter": "NA"
   }
  },
  {
   "type": "Feature",
   "geometry": {
    "type": "Point",
    "coordinates": [
     148.66166872,
     -20.60723346
    ]
   },
   "properties": {
    "name": "UNIT 1431, 615 KUNAPIPI ROAD LAGUNA QUAYS 4800",
    "locID": "LOC100090060267",
    "tech": "WIRELESS",
    "upgrade": "NULL_NA",
    "gnaf_pid": "GAQLD721515635",
    "tech_change_status": "Not Planned",
    "program_type": "Fixed Wireless and Satellite Upgrade Program",
    "target_eligibility_quarter": "NA"
   }
  },
  {
   "type": "Feature",
   "geometry": {
    "type": "Point",
    "coordinates": [
     148.66166872,
     -20.60723346
    ]
   },
   "properties": {
    "name": "UNIT 1440, 615 KUNAPIPI ROAD LAGUNA QUAYS 4800",
    "locID": "LOC100085325173",
    "tech": "WIRELESS",
    "upgrade": "NULL_NA",
    "gnaf_pid": "GAQLD721515705",
    "tech_change_status": "Not Planned",
    "program_type": "Fixed Wireless and Satellite Upgrade Program",
    "target_eligibility_quarter": "NA"
   }
  },
  {
   "type": "Feature",
   "geometry": {
    "type": "Point",
    "coordinates": [
     148.66166872,
     -20.60723346
    ]
   },
   "properties": {
    "name": "UNIT 1433, 615 KUNAPIPI ROAD LAGUNA QUAYS 4800",
    "locID": "LOC000193799025",
    "tech": "WIRELESS",
    "upgrade": "NULL_NA",
    "gnaf_pid": "GAQLD721515808",
    "tech_change_status": "Not Planned",
    "program_type": "Fixed Wireless and Satellite Upgrade Program",
    "target_eligibility_quarter": "NA"
   }
  },
  {
   "type": "Feature",
   "geometry": {
    "type": "Point",
    "coordinates": [
     148.66166872,
     -20.60723346
    ]
   },
   "properties": {
    "name": "UNIT 1470, 615 KUNAPIPI ROAD LAGUNA QUAYS 4800",
    "locID": "LOC000171081089",
    "tech": "WIRELESS",
    "upgrade": "NULL_NA",
    "gnaf_pid": "GAQLD721515809",
    "tech_change_status": "Not Planned",
    "program_type": "Fixed Wireless and Satellite Upgrade Program",
    "target_eligibility_quarter": "NA"
   }
  },
  {
   "type": "Feature",
   "geometry": {
    "type": "Point",
    "coordinates": [
     148.66166872,
     -20.60723346
    ]
   },
   "properties": {
    "name": "UNIT 1465, 615 KUNAPIPI ROAD LAGUNA QUAYS 4800",
    "locID": "LOC100081199269",
    "tech": "WIRELESS",
    "upgrade": "NULL_NA",
    "gnaf_pid": "GAQLD721515810",
    "tech_change_status": "Not Planned",
    "program_type": "Fixed Wireless and Satellite Upgrade Program",
    "target_eligibility_quarter": "NA"
   }
  },
  {
   "type": "Feature",
   "geometry": {
    "type": "Point",
    "coordinates": [
     148.66166872,
     -20.60723346
    ]
   },
   "properties": {
    "name": "UNIT 1441, 615 KUNAPIPI ROAD LAGUNA QUAYS 4800",
    "locID": "LOC000178756210",
    "tech": "WIRELESS",
    "upgrade": "NULL_NA",
    "gnaf_pid": "GAQLD721515816",
    "tech_change_status": "Not Planned",
    "program_type": "Fixed Wireless and Satellite Upgrade Program",
    "target_eligibility_quarter": "NA"
   }
  },
  {
   "type": "Feature",
   "geometry": {
    "type": "Point",
    "coordinates": [
     148.66166872,
     -20.60723346
    ]
   },
   "properties": {
    "name": "UNIT 1443, 615 KUNAPIPI ROAD LAGUNA QUAYS 4800",
    "locID": "LOC100080893862",
    "tech": "WIRELESS",
    "upgrade": "NULL_NA",
    "gnaf_pid": "GAQLD721644678",
    "tech_change_status": "Not Planned",
    "program_type": "Fixed Wireless and Satellite Upgrade Program",
    "target_eligibility_quarter": "NA"
   }
  },
  {
   "type": "Feature",
   "geometry": {
    "type": "Point",
    "coordinates": [
     148.66166872,
     -20.60723346
    ]
   },
   "properties": {
    "name": "UNIT 1434, 615 KUNAPIPI ROAD LAGUNA QUAYS 4800",
    "locID": "LOC100090939522",
    "tech": "WIRELESS",
    "upgrade": "NULL_NA",
    "gnaf_pid": "GAQLD721692376",
    "tech_change_status": "Not Planned",
    "program_type": "Fixed Wireless and Satellite Upgrade Program",
    "target_eligibility_quarter": "NA"
   }
  },
  {
   "type": "Feature",
   "geometry": {
    "type": "Point",
    "coordinates": [
     148.66166872,
     -20.60723346
    ]
   },
   "properties": {
    "name": "UNIT 1109, 615 KUNAPIPI ROAD LAGUNA QUAYS 4800",
    "locID": "LOC100085468000",
    "tech": "WIRELESS",
    "upgrade": "NULL_NA",
    "gnaf_pid": "GAQLD721693432",
    "tech_change_status": "Not Planned",
    "program_type": "Fixed Wireless and Satellite Upgrade Program",
    "target_eligibility_quarter": "NA"
   }
  },
  {
   "type": "Feature",
   "geometry": {
    "type": "Point",
    "coordinates": [
     148.66166872,
     -20.60723346
    ]
   },
   "properties": {
    "name": "UNIT 1112, 615 KUNAPIPI ROAD LAGUNA QUAYS 4800",
    "locID": "LOC100081262229",
    "tech": "WIRELESS",
    "upgrade": "NULL_NA",
    "gnaf_pid": "GAQLD721761539",
    "tech_change_status": "Not Planned",
    "program_type": "Fixed Wireless and Satellite Upgrade Program",
    "target_eligibility_quarter": "NA"
   }
  },
  {
   "type": "Feature",
   "geometry": {
    "type": "Point",
    "coordinates": [
     148.66166872,
     -20.60723346
    ]
   },
   "properties": {
    "name": "UNIT 1427, 615 KUNAPIPI ROAD LAGUNA QUAYS 4800",
    "locID": "LOC100091805933",
    "tech": "WIRELESS",
    "upgrade": "NULL_NA",
    "gnaf_pid": "GAQLD721761770",
    "tech_change_status": "Not Planned",
    "program_type": "Fixed Wireless and Satellite Upgrade Program",
    "target_eligibility_quarter": "NA"
   }
  }
 ]
}