{
 "type": "FeatureCollection",
 "generated": "2026-04-15T08:13:16.232852",
 "suburb": "LESLIE DAM",
 "features": [
  {
   "type": "Feature",
   "geometry": {
    "type": "Point",
    "coordinates": [
     151.89587413,
     -28.24598452
    ]
   },
   "properties": {
    "name": "LOT 1 GLENVALE ROAD LESLIE DAM 4370",
    "locID": "LOC000107662180",
    "tech": "WIRELESS",
    "upgrade": "NULL_NA",
    "gnaf_pid": "GAQLD155793326",
    "tech_change_status": "Not Planned",
    "program_type": "Fixed Wireless and Satellite Upgrade Program",
    "target_eligibility_quarter": "NA"
   }
  },
  {
   "type": "Feature",
   "geometry": {
    "type": "Point",
    "coordinates": [
     151.87393959,
     -28.24204071
    ]
   },
   "properties": {
    "name": "496 ROCKLAND ROAD LESLIE DAM 4370",
    "locID": "LOC000043818693",
    "tech": "SATELLITE",
    "upgrade": "NULL_NA",
    "gnaf_pid": "GAQLD158170592",
    "tech_change_status": "Not Planned"
   }
  },
  {
   "type": "Feature",
   "geometry": {
    "type": "Point",
    "coordinates": [
     151.92667489,
     -28.22793306
    ]
   },
   "properties": {
    "name": "113 SADDLEDAM ROAD LESLIE DAM 4370",
    "locID": "LOC000015282695",
    "tech": "WIRELESS",
    "upgrade": "NULL_NA",
    "gnaf_pid": "GAQLD158179039",
    "tech_change_status": "Not Planned",
    "program_type": "Fixed Wireless and Satellite Upgrade Program",
    "target_eligibility_quarter": "NA"
   }
  },
  {
   "type": "Feature",
   "geometry": {
    "type": "Point",
    "coordinates": [
     151.9232675,
     -28.19239575
    ]
   },
   "properties": {
    "name": "46 PINK GUM LANE LESLIE DAM 4370",
    "locID": "LOC000177171611",
    "tech": "WIRELESS",
    "upgrade": "NULL_NA",
    "gnaf_pid": "GAQLD158179041",
    "tech_change_status": "Not Planned",
    "program_type": "Fixed Wireless and Satellite Upgrade Program",
    "target_eligibility_quarter": "NA"
   }
  },
  {
   "type": "Feature",
   "geometry": {
    "type": "Point",
    "coordinates": [
     151.87956504,
     -28.28943736
    ]
   },
   "properties": {
    "name": "991 ROCKLAND ROAD LESLIE DAM 4370",
    "locID": "LOC100055362237",
    "tech": "WIRELESS",
    "upgrade": "NULL_NA",
    "gnaf_pid": "GAQLD158179043",
    "tech_change_status": "Not Planned",
    "program_type": "Fixed Wireless and Satellite Upgrade Program",
    "target_eligibility_quarter": "NA"
   }
  },
  {
   "type": "Feature",
   "geometry": {
    "type": "Point",
    "coordinates": [
     151.93686551,
     -28.20390778
    ]
   },
   "properties": {
    "name": "100 LESLIE DAM ROAD LESLIE DAM 4370",
    "locID": "LOC100077360537",
    "tech": "WIRELESS",
    "upgrade": "NULL_NA",
    "gnaf_pid": "GAQLD158205126",
    "tech_change_status": "Not Planned",
    "program_type": "Fixed Wireless and Satellite Upgrade Program",
    "target_eligibility_quarter": "NA"
   }
  },
  {
   "type": "Feature",
   "geometry": {
    "type": "Point",
    "coordinates": [
     151.92235141,
     -28.19717227
    ]
   },
   "properties": {
    "name": "102 PINK GUM LANE LESLIE DAM 4370",
    "locID": "LOC000107068360",
    "tech": "WIRELESS",
    "upgrade": "NULL_NA",
    "gnaf_pid": "GAQLD158205132",
    "tech_change_status": "Not Planned",
    "program_type": "Fixed Wireless and Satellite Upgrade Program",
    "target_eligibility_quarter": "NA"
   }
  },
  {
   "type": "Feature",
   "geometry": {
    "type": "Point",
    "coordinates": [
     151.9108294,
     -28.18141939
    ]
   },
   "properties": {
    "name": "15051 CUNNINGHAM HIGHWAY LESLIE DAM 4370",
    "locID": "LOC100055362216",
    "tech": "WIRELESS",
    "upgrade": "NULL_NA",
    "gnaf_pid": "GAQLD160685828",
    "tech_change_status": "Not Planned",
    "program_type": "Fixed Wireless and Satellite Upgrade Program",
    "target_eligibility_quarter": "NA"
   }
  },
  {
   "type": "Feature",
   "geometry": {
    "type": "Point",
    "coordinates": [
     151.91914057,
     -28.23812428
    ]
   },
   "properties": {
    "name": "724 WASHPOOL ROAD LESLIE DAM 4370",
    "locID": "LOC000072076611",
    "tech": "SATELLITE",
    "upgrade": "NULL_NA",
    "gnaf_pid": "GAQLD160695004",
    "tech_change_status": "Not Planned"
   }
  },
  {
   "type": "Feature",
   "geometry": {
    "type": "Point",
    "coordinates": [
     151.88900063,
     -28.27391621
    ]
   },
   "properties": {
    "name": "212 WOODHILL ROAD LESLIE DAM 4370",
    "locID": "LOC000002537625",
    "tech": "NULL",
    "upgrade": "NULL_NA",
    "gnaf_pid": "GAQLD160695005",
    "tech_change_status": "Not Planned"
   }
  },
  {
   "type": "Feature",
   "geometry": {
    "type": "Point",
    "coordinates": [
     151.92276587,
     -28.19478859
    ]
   },
   "properties": {
    "name": "82 PINK GUM LANE LESLIE DAM 4370",
    "locID": "LOC000084474131",
    "tech": "WIRELESS",
    "upgrade": "NULL_NA",
    "gnaf_pid": "GAQLD160695006",
    "tech_change_status": "Not Planned",
    "program_type": "Fixed Wireless and Satellite Upgrade Program",
    "target_eligibility_quarter": "NA"
   }
  },
  {
   "type": "Feature",
   "geometry": {
    "type": "Point",
    "coordinates": [
     151.91477077,
     -28.29075608
    ]
   },
   "properties": {
    "name": "730 GLENVALE ROAD LESLIE DAM 4370",
    "locID": "LOC000054627805",
    "tech": "NULL",
    "upgrade": "NULL_NA",
    "gnaf_pid": "GAQLD160950097",
    "tech_change_status": "Not Planned"
   }
  },
  {
   "type": "Feature",
   "geometry": {
    "type": "Point",
    "coordinates": [
     151.94163617,
     -28.19259308
    ]
   },
   "properties": {
    "name": "LOT 2 CUNNINGHAM HIGHWAY LESLIE DAM 4370",
    "locID": "LOC000014044428",
    "tech": "FTTP",
    "upgrade": "NULL_NA",
    "gnaf_pid": "GAQLD161117155"
   }
  },
  {
   "type": "Feature",
   "geometry": {
    "type": "Point",
    "coordinates": [
     151.93602806,
     -28.22377284
    ]
   },
   "properties": {
    "name": "LOT 1 LESLIE DAM ROAD LESLIE DAM 4370",
    "locID": "LOC000144340760",
    "tech": "WIRELESS",
    "upgrade": "NULL_NA",
    "gnaf_pid": "GAQLD161212618",
    "tech_change_status": "Not Planned",
    "program_type": "Fixed Wireless and Satellite Upgrade Program",
    "target_eligibility_quarter": "NA"
   }
  },
  {
   "type": "Feature",
   "geometry": {
    "type": "Point",
    "coordinates": [
     151.94016999,
     -28.22412741
    ]
   },
   "properties": {
    "name": "LOT 2 LESLIE DAM ROAD LESLIE DAM 4370",
    "locID": "LOC000144340760",
    "tech": "WIRELESS",
    "upgrade": "NULL_NA",
    "gnaf_pid": "GAQLD161212619",
    "tech_change_status": "Not Planned",
    "program_type": "Fixed Wireless and Satellite Upgrade Program",
    "target_eligibility_quarter": "NA"
   }
  },
  {
   "type": "Feature",
   "geometry": {
    "type": "Point",
    "coordinates": [
     151.88901329,
     -28.26565781
    ]
   },
   "properties": {
    "name": "LOT 1 ROCKLAND ROAD LESLIE DAM 4370",
    "locID": "LOC000127904995",
    "tech": "NULL",
    "upgrade": "NULL_NA",
    "gnaf_pid": "GAQLD161293540",
    "tech_change_status": "Not Planned"
   }
  },
  {
   "type": "Feature",
   "geometry": {
    "type": "Point",
    "coordinates": [
     151.92335301,
     -28.22555354
    ]
   },
   "properties": {
    "name": "LOT 2 SADDLEDAM ROAD LESLIE DAM 4370",
    "locID": "LOC000015282695",
    "tech": "WIRELESS",
    "upgrade": "NULL_NA",
    "gnaf_pid": "GAQLD161298618",
    "tech_change_status": "Not Planned",
    "program_type": "Fixed Wireless and Satellite Upgrade Program",
    "target_eligibility_quarter": "NA"
   }
  },
  {
   "type": "Feature",
   "geometry": {
    "type": "Point",
    "coordinates": [
     151.92445908,
     -28.22729331
    ]
   },
   "properties": {
    "name": "LOT 3 SADDLEDAM ROAD LESLIE DAM 4370",
    "locID": "LOC100078032096",
    "tech": "WIRELESS",
    "upgrade": "NULL_NA",
    "gnaf_pid": "GAQLD161298619",
    "tech_change_status": "Not Planned",
    "program_type": "Fixed Wireless and Satellite Upgrade Program",
    "target_eligibility_quarter": "NA"
   }
  },
  {
   "type": "Feature",
   "geometry": {
    "type": "Point",
    "coordinates": [
     151.92524898,
     -28.22847137
    ]
   },
   "properties": {
    "name": "LOT 4 SADDLEDAM ROAD LESLIE DAM 4370",
    "locID": "LOC000015282695",
    "tech": "WIRELESS",
    "upgrade": "NULL_NA",
    "gnaf_pid": "GAQLD161298620",
    "tech_change_status": "Not Planned",
    "program_type": "Fixed Wireless and Satellite Upgrade Program",
    "target_eligibility_quarter": "NA"
   }
  },
  {
   "type": "Feature",
   "geometry": {
    "type": "Point",
    "coordinates": [
     151.91686276,
     -28.23639166
    ]
   },
   "properties": {
    "name": "LOT 236 WASHPOOL ROAD LESLIE DAM 4370",
    "locID": "LOC000127868673",
    "tech": "SATELLITE",
    "upgrade": "NULL_NA",
    "gnaf_pid": "GAQLD161347401",
    "tech_change_status": "Not Planned"
   }
  },
  {
   "type": "Feature",
   "geometry": {
    "type": "Point",
    "coordinates": [
     151.90150231,
     -28.24593982
    ]
   },
   "properties": {
    "name": "422 GLENVALE ROAD LESLIE DAM 4370",
    "locID": "LOC000115953443",
    "tech": "WIRELESS",
    "upgrade": "NULL_NA",
    "gnaf_pid": "GAQLD161437700",
    "tech_change_status": "Not Planned",
    "program_type": "Fixed Wireless and Satellite Upgrade Program",
    "target_eligibility_quarter": "NA"
   }
  },
  {
   "type": "Feature",
   "geometry": {
    "type": "Point",
    "coordinates": [
     151.91498534,
     -28.27820506
    ]
   },
   "properties": {
    "name": "452 GLENVALE ROAD LESLIE DAM 4370",
    "locID": "LOC000115954356",
    "tech": "NULL",
    "upgrade": "NULL_NA",
    "gnaf_pid": "GAQLD161437701",
    "tech_change_status": "Not Planned"
   }
  },
  {
   "type": "Feature",
   "geometry": {
    "type": "Point",
    "coordinates": [
     151.91680124,
     -28.19386941
    ]
   },
   "properties": {
    "name": "191 IRON BARK LANE LESLIE DAM 4370",
    "locID": "LOC000022449173",
    "tech": "WIRELESS",
    "upgrade": "NULL_NA",
    "gnaf_pid": "GAQLD161440781",
    "tech_change_status": "Not Planned",
    "program_type": "Fixed Wireless and Satellite Upgrade Program",
    "target_eligibility_quarter": "NA"
   }
  },
  {
   "type": "Feature",
   "geometry": {
    "type": "Point",
    "coordinates": [
     151.92350172,
     -28.18966948
    ]
   },
   "properties": {
    "name": "23 IRON BARK LANE LESLIE DAM 4370",
    "locID": "LOC100077360528",
    "tech": "WIRELESS",
    "upgrade": "NULL_NA",
    "gnaf_pid": "GAQLD161440782",
    "tech_change_status": "Not Planned",
    "program_type": "Fixed Wireless and Satellite Upgrade Program",
    "target_eligibility_quarter": "NA"
   }
  },
  {
   "type": "Feature",
   "geometry": {
    "type": "Point",
    "coordinates": [
     151.92611604,
     -28.21996098
    ]
   },
   "properties": {
    "name": "476 LESLIE DAM ROAD LESLIE DAM 4370",
    "locID": "LOC000045408949",
    "tech": "WIRELESS",
    "upgrade": "NULL_NA",
    "gnaf_pid": "GAQLD161443951"
   }
  },
  {
   "type": "Feature",
   "geometry": {
    "type": "Point",
    "coordinates": [
     151.92305992,
     -28.21326637
    ]
   },
   "properties": {
    "name": "578 LESLIE DAM ROAD LESLIE DAM 4370",
    "locID": "LOC000056065858",
    "tech": "SATELLITE",
    "upgrade": "NULL_NA",
    "gnaf_pid": "GAQLD161443953",
    "tech_change_status": "Not Planned"
   }
  },
  {
   "type": "Feature",
   "geometry": {
    "type": "Point",
    "coordinates": [
     151.8751475,
     -28.31212553
    ]
   },
   "properties": {
    "name": "89 LUNAVALE ROAD LESLIE DAM 4370",
    "locID": "LOC100055362665",
    "tech": "NULL",
    "upgrade": "NULL_NA",
    "gnaf_pid": "GAQLD161444728",
    "tech_change_status": "Not Planned"
   }
  },
  {
   "type": "Feature",
   "geometry": {
    "type": "Point",
    "coordinates": [
     151.90455422,
     -28.32016476
    ]
   },
   "properties": {
    "name": "309 PIKEDALE ROAD LESLIE DAM 4370",
    "locID": "LOC000085666836",
    "tech": "SATELLITE",
    "upgrade": "NULL_NA",
    "gnaf_pid": "GAQLD161453257",
    "tech_change_status": "Not Planned"
   }
  },
  {
   "type": "Feature",
   "geometry": {
    "type": "Point",
    "coordinates": [
     151.89546831,
     -28.31205189
    ]
   },
   "properties": {
    "name": "355 PIKEDALE ROAD LESLIE DAM 4370",
    "locID": "LOC000094931425",
    "tech": "NULL",
    "upgrade": "NULL_NA",
    "gnaf_pid": "GAQLD161453258",
    "tech_change_status": "Not Planned"
   }
  },
  {
   "type": "Feature",
   "geometry": {
    "type": "Point",
    "coordinates": [
     151.88650645,
     -28.3105989
    ]
   },
   "properties": {
    "name": "473 PIKEDALE ROAD LESLIE DAM 4370",
    "locID": "LOC000068965879",
    "tech": "NULL",
    "upgrade": "NULL_NA",
    "gnaf_pid": "GAQLD161453259",
    "tech_change_status": "Not Planned"
   }
  },
  {
   "type": "Feature",
   "geometry": {
    "type": "Point",
    "coordinates": [
     151.87111793,
     -28.312214
    ]
   },
   "properties": {
    "name": "679 PIKEDALE ROAD LESLIE DAM 4370",
    "locID": "LOC000023321617",
    "tech": "NULL",
    "upgrade": "NULL_NA",
    "gnaf_pid": "GAQLD161453260",
    "tech_change_status": "Not Planned"
   }
  },
  {
   "type": "Feature",
   "geometry": {
    "type": "Point",
    "coordinates": [
     151.89403712,
     -28.28759263
    ]
   },
   "properties": {
    "name": "338 ROCKLAND ROAD LESLIE DAM 4370",
    "locID": "LOC000189995702",
    "tech": "SATELLITE",
    "upgrade": "NULL_NA",
    "gnaf_pid": "GAQLD161455919",
    "tech_change_status": "Not Planned"
   }
  },
  {
   "type": "Feature",
   "geometry": {
    "type": "Point",
    "coordinates": [
     151.88266253,
     -28.29783149
    ]
   },
   "properties": {
    "name": "73 ROCKLAND ROAD LESLIE DAM 4370",
    "locID": "LOC000127904995",
    "tech": "NULL",
    "upgrade": "NULL_NA",
    "gnaf_pid": "GAQLD161455920",
    "tech_change_status": "Not Planned"
   }
  },
  {
   "type": "Feature",
   "geometry": {
    "type": "Point",
    "coordinates": [
     151.92354707,
     -28.23751082
    ]
   },
   "properties": {
    "name": "256 SADDLEDAM ROAD LESLIE DAM 4370",
    "locID": "LOC000115953306",
    "tech": "WIRELESS",
    "upgrade": "NULL_NA",
    "gnaf_pid": "GAQLD161456455",
    "tech_change_status": "Not Planned",
    "program_type": "Fixed Wireless and Satellite Upgrade Program",
    "target_eligibility_quarter": "NA"
   }
  },
  {
   "type": "Feature",
   "geometry": {
    "type": "Point",
    "coordinates": [
     151.9227003,
     -28.22480159
    ]
   },
   "properties": {
    "name": "88 SADDLEDAM ROAD LESLIE DAM 4370",
    "locID": "LOC000096412249",
    "tech": "NULL",
    "upgrade": "NULL_NA",
    "gnaf_pid": "GAQLD161456456",
    "tech_change_status": "Not Planned"
   }
  },
  {
   "type": "Feature",
   "geometry": {
    "type": "Point",
    "coordinates": [
     151.88648839,
     -28.28659177
    ]
   },
   "properties": {
    "name": "48 WOODHILL ROAD LESLIE DAM 4370",
    "locID": "LOC000081621394",
    "tech": "NULL",
    "upgrade": "NULL_NA",
    "gnaf_pid": "GAQLD161464473",
    "tech_change_status": "Not Planned"
   }
  },
  {
   "type": "Feature",
   "geometry": {
    "type": "Point",
    "coordinates": [
     151.91696063,
     -28.18564551
    ]
   },
   "properties": {
    "name": "611 SANDY CREEK ROAD LESLIE DAM 4370",
    "locID": "LOC000127896861",
    "tech": "WIRELESS",
    "upgrade": "NULL_NA",
    "gnaf_pid": "GAQLD162063976",
    "tech_change_status": "Not Planned",
    "program_type": "Fixed Wireless and Satellite Upgrade Program",
    "target_eligibility_quarter": "NA"
   }
  },
  {
   "type": "Feature",
   "geometry": {
    "type": "Point",
    "coordinates": [
     151.92088721,
     -28.26601502
    ]
   },
   "properties": {
    "name": "LOT 3 GLENVALE ROAD LESLIE DAM 4370",
    "locID": "LOC100090197892",
    "tech": "WIRELESS",
    "upgrade": "NULL_NA",
    "gnaf_pid": "GAQLD162148331",
    "tech_change_status": "Not Planned",
    "program_type": "Fixed Wireless and Satellite Upgrade Program",
    "target_eligibility_quarter": "NA"
   }
  },
  {
   "type": "Feature",
   "geometry": {
    "type": "Point",
    "coordinates": [
     151.92606524,
     -28.23125345
    ]
   },
   "properties": {
    "name": "LOT 5 SADDLEDAM ROAD LESLIE DAM 4370",
    "locID": "LOC100078032096",
    "tech": "WIRELESS",
    "upgrade": "NULL_NA",
    "gnaf_pid": "GAQLD162192184",
    "tech_change_status": "Not Planned",
    "program_type": "Fixed Wireless and Satellite Upgrade Program",
    "target_eligibility_quarter": "NA"
   }
  },
  {
   "type": "Feature",
   "geometry": {
    "type": "Point",
    "coordinates": [
     151.92522426,
     -28.24217232
    ]
   },
   "properties": {
    "name": "LOT 3 WASHPOOL ROAD LESLIE DAM 4370",
    "locID": "LOC100081244268",
    "tech": "SATELLITE",
    "upgrade": "NULL_NA",
    "gnaf_pid": "GAQLD162204951",
    "tech_change_status": "Not Planned"
   }
  },
  {
   "type": "Feature",
   "geometry": {
    "type": "Point",
    "coordinates": [
     151.92542633,
     -28.24390875
    ]
   },
   "properties": {
    "name": "LOT 4 WASHPOOL ROAD LESLIE DAM 4370",
    "locID": "LOC000127904969",
    "tech": "SATELLITE",
    "upgrade": "NULL_NA",
    "gnaf_pid": "GAQLD162204952",
    "tech_change_status": "Not Planned"
   }
  },
  {
   "type": "Feature",
   "geometry": {
    "type": "Point",
    "coordinates": [
     151.93336423,
     -28.24542175
    ]
   },
   "properties": {
    "name": "LOT 5 WASHPOOL ROAD LESLIE DAM 4370",
    "locID": "LOC100081244268",
    "tech": "SATELLITE",
    "upgrade": "NULL_NA",
    "gnaf_pid": "GAQLD162204953",
    "tech_change_status": "Not Planned"
   }
  },
  {
   "type": "Feature",
   "geometry": {
    "type": "Point",
    "coordinates": [
     151.91721129,
     -28.19149955
    ]
   },
   "properties": {
    "name": "159 IRON BARK LANE LESLIE DAM 4370",
    "locID": "LOC000059823210",
    "tech": "WIRELESS",
    "upgrade": "NULL_NA",
    "gnaf_pid": "GAQLD162454557",
    "tech_change_status": "Not Planned",
    "program_type": "Fixed Wireless and Satellite Upgrade Program",
    "target_eligibility_quarter": "NA"
   }
  },
  {
   "type": "Feature",
   "geometry": {
    "type": "Point",
    "coordinates": [
     151.91638258,
     -28.19628188
    ]
   },
   "properties": {
    "name": "217 IRON BARK LANE LESLIE DAM 4370",
    "locID": "LOC000006628201",
    "tech": "WIRELESS",
    "upgrade": "NULL_NA",
    "gnaf_pid": "GAQLD162454558",
    "tech_change_status": "Not Planned",
    "program_type": "Fixed Wireless and Satellite Upgrade Program",
    "target_eligibility_quarter": "NA"
   }
  },
  {
   "type": "Feature",
   "geometry": {
    "type": "Point",
    "coordinates": [
     151.91421852,
     -28.199513
    ]
   },
   "properties": {
    "name": "234 IRON BARK LANE LESLIE DAM 4370",
    "locID": "LOC000083592719",
    "tech": "WIRELESS",
    "upgrade": "NULL_NA",
    "gnaf_pid": "GAQLD162454559",
    "tech_change_status": "Not Planned",
    "program_type": "Fixed Wireless and Satellite Upgrade Program",
    "target_eligibility_quarter": "NA"
   }
  },
  {
   "type": "Feature",
   "geometry": {
    "type": "Point",
    "coordinates": [
     151.91760258,
     -28.18914356
    ]
   },
   "properties": {
    "name": "69 IRON BARK LANE LESLIE DAM 4370",
    "locID": "LOC100078973114",
    "tech": "WIRELESS",
    "upgrade": "NULL_NA",
    "gnaf_pid": "GAQLD162454560",
    "tech_change_status": "Not Planned",
    "program_type": "Fixed Wireless and Satellite Upgrade Program",
    "target_eligibility_quarter": "NA"
   }
  },
  {
   "type": "Feature",
   "geometry": {
    "type": "Point",
    "coordinates": [
     151.91716498,
     -28.19990616
    ]
   },
   "properties": {
    "name": "268 IRON BARK LANE LESLIE DAM 4370",
    "locID": "LOC000084701868",
    "tech": "WIRELESS",
    "upgrade": "NULL_NA",
    "gnaf_pid": "GAQLD162470652",
    "tech_change_status": "Not Planned",
    "program_type": "Fixed Wireless and Satellite Upgrade Program",
    "target_eligibility_quarter": "NA"
   }
  },
  {
   "type": "Feature",
   "geometry": {
    "type": "Point",
    "coordinates": [
     151.92022416,
     -28.20032191
    ]
   },
   "properties": {
    "name": "LOT 365 IRON BARK LANE LESLIE DAM 4370",
    "locID": "LOC100035021415",
    "tech": "WIRELESS",
    "upgrade": "NULL_NA",
    "gnaf_pid": "GAQLD162510425",
    "tech_change_status": "Not Planned",
    "program_type": "Fixed Wireless and Satellite Upgrade Program",
    "target_eligibility_quarter": "NA"
   }
  },
  {
   "type": "Feature",
   "geometry": {
    "type": "Point",
    "coordinates": [
     151.92105059,
     -28.24267964
    ]
   },
   "properties": {
    "name": "711 WASHPOOL ROAD LESLIE DAM 4370",
    "locID": "LOC000127904969",
    "tech": "SATELLITE",
    "upgrade": "NULL_NA",
    "gnaf_pid": "GAQLD162526245",
    "tech_change_status": "Not Planned"
   }
  },
  {
   "type": "Feature",
   "geometry": {
    "type": "Point",
    "coordinates": [
     151.89307015,
     -28.25376112
    ]
   },
   "properties": {
    "name": "LOT 4 GLENVALE ROAD LESLIE DAM 4370",
    "locID": "LOC000054627805",
    "tech": "NULL",
    "upgrade": "NULL_NA",
    "gnaf_pid": "GAQLD162955234",
    "tech_change_status": "Not Planned"
   }
  },
  {
   "type": "Feature",
   "geometry": {
    "type": "Point",
    "coordinates": [
     151.9043646,
     -28.28873868
    ]
   },
   "properties": {
    "name": "154 ROCKLAND ROAD LESLIE DAM 4370",
    "locID": "LOC000110376293",
    "tech": "NULL",
    "upgrade": "NULL_NA",
    "gnaf_pid": "GAQLD162963817",
    "tech_change_status": "Not Planned"
   }
  },
  {
   "type": "Feature",
   "geometry": {
    "type": "Point",
    "coordinates": [
     151.90286021,
     -28.27681479
    ]
   },
   "properties": {
    "name": "160 WOODHILL ROAD LESLIE DAM 4370",
    "locID": "LOC000127912669",
    "tech": "NULL",
    "upgrade": "NULL_NA",
    "gnaf_pid": "GAQLD163119477",
    "tech_change_status": "Not Planned"
   }
  },
  {
   "type": "Feature",
   "geometry": {
    "type": "Point",
    "coordinates": [
     151.91623979,
     -28.22032885
    ]
   },
   "properties": {
    "name": "1 CAMPBELL STREET LESLIE DAM 4370",
    "locID": "LOC000010773193",
    "tech": "NULL",
    "upgrade": "NULL_NA",
    "gnaf_pid": "GAQLD163248257",
    "tech_change_status": "Not Planned"
   }
  },
  {
   "type": "Feature",
   "geometry": {
    "type": "Point",
    "coordinates": [
     151.91623979,
     -28.22032885
    ]
   },
   "properties": {
    "name": "5 CAMPBELL STREET LESLIE DAM 4370",
    "locID": "LOC000010773193",
    "tech": "NULL",
    "upgrade": "NULL_NA",
    "gnaf_pid": "GAQLD163248259",
    "tech_change_status": "Not Planned"
   }
  },
  {
   "type": "Feature",
   "geometry": {
    "type": "Point",
    "coordinates": [
     151.93586045,
     -28.20596612
    ]
   },
   "properties": {
    "name": "150 LESLIE DAM ROAD LESLIE DAM 4370",
    "locID": "LOC100078032096",
    "tech": "WIRELESS",
    "upgrade": "NULL_NA",
    "gnaf_pid": "GAQLD424859252",
    "tech_change_status": "Not Planned",
    "program_type": "Fixed Wireless and Satellite Upgrade Program",
    "target_eligibility_quarter": "NA"
   }
  },
  {
   "type": "Feature",
   "geometry": {
    "type": "Point",
    "coordinates": [
     151.93412325,
     -28.21508691
    ]
   },
   "properties": {
    "name": "250 LESLIE DAM ROAD LESLIE DAM 4370",
    "locID": "LOC000144340760",
    "tech": "WIRELESS",
    "upgrade": "NULL_NA",
    "gnaf_pid": "GAQLD425125358",
    "tech_change_status": "Not Planned",
    "program_type": "Fixed Wireless and Satellite Upgrade Program",
    "target_eligibility_quarter": "NA"
   }
  },
  {
   "type": "Feature",
   "geometry": {
    "type": "Point",
    "coordinates": [
     151.93437838,
     -28.21984835
    ]
   },
   "properties": {
    "name": "278 LESLIE DAM ROAD LESLIE DAM 4370",
    "locID": "LOC000150186878",
    "tech": "SATELLITE",
    "upgrade": "NULL_NA",
    "gnaf_pid": "GAQLD425377787",
    "tech_change_status": "Not Planned"
   }
  },
  {
   "type": "Feature",
   "geometry": {
    "type": "Point",
    "coordinates": [
     151.93557348,
     -28.21166828
    ]
   },
   "properties": {
    "name": "LOT 478 LESLIE DAM ROAD LESLIE DAM 4370",
    "locID": "LOC000045408949",
    "tech": "WIRELESS",
    "upgrade": "NULL_NA",
    "gnaf_pid": "GAQLD425408683"
   }
  },
  {
   "type": "Feature",
   "geometry": {
    "type": "Point",
    "coordinates": [
     151.91545748,
     -28.25592404
    ]
   },
   "properties": {
    "name": "LOT 6 GLENVALE ROAD LESLIE DAM 4370",
    "locID": "LOC100072075678",
    "tech": "NULL",
    "upgrade": "NULL_NA",
    "gnaf_pid": "GAQLD719131223",
    "tech_change_status": "Not Planned"
   }
  },
  {
   "type": "Feature",
   "geometry": {
    "type": "Point",
    "coordinates": [
     151.91755043,
     -28.2562998
    ]
   },
   "properties": {
    "name": "LOT 5 GLENVALE ROAD LESLIE DAM 4370",
    "locID": "LOC100072075666",
    "tech": "NULL",
    "upgrade": "NULL_NA",
    "gnaf_pid": "GAQLD719138797",
    "tech_change_status": "Not Planned"
   }
  },
  {
   "type": "Feature",
   "geometry": {
    "type": "Point",
    "coordinates": [
     151.90672047,
     -28.2397504
    ]
   },
   "properties": {
    "name": "LOT 190 WASHPOOL ROAD LESLIE DAM 4370",
    "locID": "LOC100081244268",
    "tech": "SATELLITE",
    "upgrade": "NULL_NA",
    "gnaf_pid": "GAQLD719448887",
    "tech_change_status": "Not Planned"
   }
  },
  {
   "type": "Feature",
   "geometry": {
    "type": "Point",
    "coordinates": [
     151.90853308,
     -28.26572575
    ]
   },
   "properties": {
    "name": "LOT 14 GLENVALE ROAD LESLIE DAM 4370",
    "locID": "LOC000148361624",
    "tech": "NULL",
    "upgrade": "NULL_NA",
    "gnaf_pid": "GAQLD720113376",
    "tech_change_status": "Not Planned"
   }
  },
  {
   "type": "Feature",
   "geometry": {
    "type": "Point",
    "coordinates": [
     151.91577768,
     -28.25877437
    ]
   },
   "properties": {
    "name": "LOT 13 GLENVALE ROAD LESLIE DAM 4370",
    "locID": "LOC000148361624",
    "tech": "NULL",
    "upgrade": "NULL_NA",
    "gnaf_pid": "GAQLD720118089",
    "tech_change_status": "Not Planned"
   }
  },
  {
   "type": "Feature",
   "geometry": {
    "type": "Point",
    "coordinates": [
     151.9143598,
     -28.28384714
    ]
   },
   "properties": {
    "name": "502 GLENVALE ROAD LESLIE DAM 4370",
    "locID": "LOC100087366753",
    "tech": "NULL",
    "upgrade": "NULL_NA",
    "gnaf_pid": "GAQLD720675483",
    "tech_change_status": "Not Planned"
   }
  },
  {
   "type": "Feature",
   "geometry": {
    "type": "Point",
    "coordinates": [
     151.92289443,
     -28.24415404
    ]
   },
   "properties": {
    "name": "695 WASHPOOL ROAD LESLIE DAM 4370",
    "locID": "LOC000189809547",
    "tech": "SATELLITE",
    "upgrade": "NULL_NA",
    "gnaf_pid": "GAQLD720730563",
    "tech_change_status": "Not Planned"
   }
  },
  {
   "type": "Feature",
   "geometry": {
    "type": "Point",
    "coordinates": [
     151.89891022,
     -28.30043234
    ]
   },
   "properties": {
    "name": "89 ROCKLAND ROAD LESLIE DAM 4370",
    "locID": "LOC100087366769",
    "tech": "NULL",
    "upgrade": "NULL_NA",
    "gnaf_pid": "GAQLD720978258",
    "tech_change_status": "Not Planned"
   }
  },
  {
   "type": "Feature",
   "geometry": {
    "type": "Point",
    "coordinates": [
     151.92314348,
     -28.23996174
    ]
   },
   "properties": {
    "name": "696 WASHPOOL ROAD LESLIE DAM 4370",
    "locID": "LOC100086332368",
    "tech": "WIRELESS",
    "upgrade": "NULL_NA",
    "gnaf_pid": "GAQLD721120709",
    "tech_change_status": "Not Planned",
    "program_type": "Fixed Wireless and Satellite Upgrade Program",
    "target_eligibility_quarter": "NA"
   }
  },
  {
   "type": "Feature",
   "geometry": {
    "type": "Point",
    "coordinates": [
     151.92869551,
     -28.19831947
    ]
   },
   "properties": {
    "name": "LOT 8 PINK GUM LANE LESLIE DAM 4370",
    "locID": "LOC000084474131",
    "tech": "WIRELESS",
    "upgrade": "NULL_NA",
    "gnaf_pid": "GAQLD721152218",
    "tech_change_status": "Not Planned",
    "program_type": "Fixed Wireless and Satellite Upgrade Program",
    "target_eligibility_quarter": "NA"
   }
  },
  {
   "type": "Feature",
   "geometry": {
    "type": "Point",
    "coordinates": [
     151.88134044,
     -28.31362633
    ]
   },
   "properties": {
    "name": "680 MOUNTSIDE ROAD LESLIE DAM 4370",
    "locID": "LOC000027520119",
    "tech": "WIRELESS",
    "upgrade": "NULL_NA",
    "gnaf_pid": "GAQLD721426191",
    "tech_change_status": "Not Planned",
    "program_type": "Fixed Wireless and Satellite Upgrade Program",
    "target_eligibility_quarter": "NA"
   }
  },
  {
   "type": "Feature",
   "geometry": {
    "type": "Point",
    "coordinates": [
     151.89121822,
     -28.28024372
    ]
   },
   "properties": {
    "name": "243 WARNER STREET LESLIE DAM 4370",
    "locID": "LOC000029428664",
    "tech": "WIRELESS",
    "upgrade": "NULL_NA",
    "gnaf_pid": "GAQLD721436342",
    "tech_change_status": "Not Planned",
    "program_type": "Fixed Wireless and Satellite Upgrade Program",
    "target_eligibility_quarter": "NA"
   }
  }
 ]
}