{
 "type": "FeatureCollection",
 "generated": "2026-05-14T06:56:22.275433",
 "suburb": "LOWMEAD",
 "features": [
  {
   "type": "Feature",
   "geometry": {
    "type": "Point",
    "coordinates": [
     151.68842007,
     -24.68215985
    ]
   },
   "properties": {
    "name": "39973 BRUCE HIGHWAY LOWMEAD 4676",
    "locID": "LOC000001711324",
    "tech": "SATELLITE",
    "upgrade": "NULL_NA",
    "gnaf_pid": "GAQLD155496712",
    "tech_change_status": "Not Planned"
   }
  },
  {
   "type": "Feature",
   "geometry": {
    "type": "Point",
    "coordinates": [
     151.72302948,
     -24.55061097
    ]
   },
   "properties": {
    "name": "LOT 31 JOHN CLIFFORD WAY LOWMEAD 4676",
    "locID": "LOC000177724238",
    "tech": "SATELLITE",
    "upgrade": "NULL_NA",
    "gnaf_pid": "GAQLD155498482",
    "tech_change_status": "Not Planned"
   }
  },
  {
   "type": "Feature",
   "geometry": {
    "type": "Point",
    "coordinates": [
     151.73216657,
     -24.4811525
    ]
   },
   "properties": {
    "name": "LOT 4 LOWMEAD ROAD LOWMEAD 4676",
    "locID": "LOC000097851607",
    "tech": "NULL",
    "upgrade": "NULL_NA",
    "gnaf_pid": "GAQLD155499514",
    "tech_change_status": "Not Planned"
   }
  },
  {
   "type": "Feature",
   "geometry": {
    "type": "Point",
    "coordinates": [
     151.78225394,
     -24.54515506
    ]
   },
   "properties": {
    "name": "3537 LOWMEAD ROAD LOWMEAD 4676",
    "locID": "LOC000060613128",
    "tech": "SATELLITE",
    "upgrade": "NULL_NA",
    "gnaf_pid": "GAQLD155499515",
    "tech_change_status": "Not Planned"
   }
  },
  {
   "type": "Feature",
   "geometry": {
    "type": "Point",
    "coordinates": [
     151.7852561,
     -24.54819702
    ]
   },
   "properties": {
    "name": "3597 LOWMEAD ROAD LOWMEAD 4676",
    "locID": "LOC000012497995",
    "tech": "NULL",
    "upgrade": "NULL_NA",
    "gnaf_pid": "GAQLD155499516",
    "tech_change_status": "Not Planned"
   }
  },
  {
   "type": "Feature",
   "geometry": {
    "type": "Point",
    "coordinates": [
     151.79624546,
     -24.56001633
    ]
   },
   "properties": {
    "name": "3727 LOWMEAD ROAD LOWMEAD 4676",
    "locID": "LOC000034420346",
    "tech": "SATELLITE",
    "upgrade": "NULL_NA",
    "gnaf_pid": "GAQLD155499517",
    "tech_change_status": "Not Planned"
   }
  },
  {
   "type": "Feature",
   "geometry": {
    "type": "Point",
    "coordinates": [
     151.78948165,
     -24.55231767
    ]
   },
   "properties": {
    "name": "3651 LOWMEAD ROAD LOWMEAD 4676",
    "locID": "LOC000031465993",
    "tech": "WIRELESS",
    "upgrade": "NULL_NA",
    "gnaf_pid": "GAQLD156058074",
    "tech_change_status": "Not Planned",
    "program_type": "Fixed Wireless and Satellite Upgrade Program",
    "target_eligibility_quarter": "NA"
   }
  },
  {
   "type": "Feature",
   "geometry": {
    "type": "Point",
    "coordinates": [
     151.72450413,
     -24.48557327
    ]
   },
   "properties": {
    "name": "2511 LOWMEAD ROAD LOWMEAD 4676",
    "locID": "LOC000064796153",
    "tech": "SATELLITE",
    "upgrade": "NULL_NA",
    "gnaf_pid": "GAQLD156770018",
    "tech_change_status": "Not Planned"
   }
  },
  {
   "type": "Feature",
   "geometry": {
    "type": "Point",
    "coordinates": [
     151.74678725,
     -24.54046362
    ]
   },
   "properties": {
    "name": "1353 JOHN CLIFFORD WAY LOWMEAD 4676",
    "locID": "LOC000107250400",
    "tech": "NULL",
    "upgrade": "NULL_NA",
    "gnaf_pid": "GAQLD158172397",
    "tech_change_status": "Not Planned"
   }
  },
  {
   "type": "Feature",
   "geometry": {
    "type": "Point",
    "coordinates": [
     151.69810321,
     -24.54862529
    ]
   },
   "properties": {
    "name": "252 TURNER ROAD LOWMEAD 4676",
    "locID": "LOC000142353259",
    "tech": "SATELLITE",
    "upgrade": "NULL_NA",
    "gnaf_pid": "GAQLD158172399",
    "tech_change_status": "Not Planned"
   }
  },
  {
   "type": "Feature",
   "geometry": {
    "type": "Point",
    "coordinates": [
     151.73893614,
     -24.55967713
    ]
   },
   "properties": {
    "name": "1158 JOHN CLIFFORD WAY LOWMEAD 4676",
    "locID": "LOC000054944781",
    "tech": "NULL",
    "upgrade": "NULL_NA",
    "gnaf_pid": "GAQLD158172401",
    "tech_change_status": "Not Planned"
   }
  },
  {
   "type": "Feature",
   "geometry": {
    "type": "Point",
    "coordinates": [
     151.74181193,
     -24.54482322
    ]
   },
   "properties": {
    "name": "1283 JOHN CLIFFORD WAY LOWMEAD 4676",
    "locID": "LOC000089978171",
    "tech": "NULL",
    "upgrade": "NULL_NA",
    "gnaf_pid": "GAQLD158176217",
    "tech_change_status": "Not Planned"
   }
  },
  {
   "type": "Feature",
   "geometry": {
    "type": "Point",
    "coordinates": [
     151.73866542,
     -24.53363411
    ]
   },
   "properties": {
    "name": "1425 JOHN CLIFFORD WAY LOWMEAD 4676",
    "locID": "LOC000038371828",
    "tech": "SATELLITE",
    "upgrade": "NULL_NA",
    "gnaf_pid": "GAQLD158176219",
    "tech_change_status": "Not Planned"
   }
  },
  {
   "type": "Feature",
   "geometry": {
    "type": "Point",
    "coordinates": [
     151.75014906,
     -24.49459924
    ]
   },
   "properties": {
    "name": "313 GORGE ROAD LOWMEAD 4676",
    "locID": "LOC000011643109",
    "tech": "SATELLITE",
    "upgrade": "NULL_NA",
    "gnaf_pid": "GAQLD158176220",
    "tech_change_status": "Not Planned"
   }
  },
  {
   "type": "Feature",
   "geometry": {
    "type": "Point",
    "coordinates": [
     151.75228942,
     -24.54357702
    ]
   },
   "properties": {
    "name": "1392 JOHN CLIFFORD WAY LOWMEAD 4676",
    "locID": "LOC000068879582",
    "tech": "SATELLITE",
    "upgrade": "NULL_NA",
    "gnaf_pid": "GAQLD158176221",
    "tech_change_status": "Not Planned"
   }
  },
  {
   "type": "Feature",
   "geometry": {
    "type": "Point",
    "coordinates": [
     151.74596122,
     -24.5384113
    ]
   },
   "properties": {
    "name": "1383 JOHN CLIFFORD WAY LOWMEAD 4676",
    "locID": "LOC000105608633",
    "tech": "NULL",
    "upgrade": "NULL_NA",
    "gnaf_pid": "GAQLD158176222",
    "tech_change_status": "Not Planned"
   }
  },
  {
   "type": "Feature",
   "geometry": {
    "type": "Point",
    "coordinates": [
     151.73424337,
     -24.48711228
    ]
   },
   "properties": {
    "name": "2551 LOWMEAD ROAD LOWMEAD 4676",
    "locID": "LOC000065982128",
    "tech": "SATELLITE",
    "upgrade": "NULL_NA",
    "gnaf_pid": "GAQLD158186322",
    "tech_change_status": "Not Planned"
   }
  },
  {
   "type": "Feature",
   "geometry": {
    "type": "Point",
    "coordinates": [
     151.73611443,
     -24.54084554
    ]
   },
   "properties": {
    "name": "1337 JOHN CLIFFORD WAY LOWMEAD 4676",
    "locID": "LOC000080545742",
    "tech": "SATELLITE",
    "upgrade": "NULL_NA",
    "gnaf_pid": "GAQLD158186325",
    "tech_change_status": "Not Planned"
   }
  },
  {
   "type": "Feature",
   "geometry": {
    "type": "Point",
    "coordinates": [
     151.79567094,
     -24.55687952
    ]
   },
   "properties": {
    "name": "3719 LOWMEAD ROAD LOWMEAD 4676",
    "locID": "LOC000087170211",
    "tech": "NULL",
    "upgrade": "NULL_NA",
    "gnaf_pid": "GAQLD158186326",
    "tech_change_status": "Not Planned"
   }
  },
  {
   "type": "Feature",
   "geometry": {
    "type": "Point",
    "coordinates": [
     151.72381947,
     -24.48387333
    ]
   },
   "properties": {
    "name": "2489 LOWMEAD ROAD LOWMEAD 4676",
    "locID": "LOC000064738497",
    "tech": "SATELLITE",
    "upgrade": "NULL_NA",
    "gnaf_pid": "GAQLD158193130",
    "tech_change_status": "Not Planned"
   }
  },
  {
   "type": "Feature",
   "geometry": {
    "type": "Point",
    "coordinates": [
     151.7531219,
     -24.53213367
    ]
   },
   "properties": {
    "name": "19 CLAYTONS ROAD LOWMEAD 4676",
    "locID": "LOC000085749933",
    "tech": "NULL",
    "upgrade": "NULL_NA",
    "gnaf_pid": "GAQLD158193132",
    "tech_change_status": "Not Planned"
   }
  },
  {
   "type": "Feature",
   "geometry": {
    "type": "Point",
    "coordinates": [
     151.75675731,
     -24.50403322
    ]
   },
   "properties": {
    "name": "238 GORGE ROAD LOWMEAD 4676",
    "locID": "LOC000004112657",
    "tech": "NULL",
    "upgrade": "NULL_NA",
    "gnaf_pid": "GAQLD158193133",
    "tech_change_status": "Not Planned"
   }
  },
  {
   "type": "Feature",
   "geometry": {
    "type": "Point",
    "coordinates": [
     151.7623251,
     -24.49014427
    ]
   },
   "properties": {
    "name": "470 GORGE ROAD LOWMEAD 4676",
    "locID": "LOC000019051152",
    "tech": "SATELLITE",
    "upgrade": "NULL_NA",
    "gnaf_pid": "GAQLD158193134",
    "tech_change_status": "Not Planned"
   }
  },
  {
   "type": "Feature",
   "geometry": {
    "type": "Point",
    "coordinates": [
     151.78670117,
     -24.55028113
    ]
   },
   "properties": {
    "name": "3621 LOWMEAD ROAD LOWMEAD 4676",
    "locID": "LOC000052029417",
    "tech": "NULL",
    "upgrade": "NULL_NA",
    "gnaf_pid": "GAQLD158200965",
    "tech_change_status": "Not Planned"
   }
  },
  {
   "type": "Feature",
   "geometry": {
    "type": "Point",
    "coordinates": [
     151.74036717,
     -24.61060961
    ]
   },
   "properties": {
    "name": "700 JOHN CLIFFORD WAY LOWMEAD 4676",
    "locID": "LOC000096661886",
    "tech": "SATELLITE",
    "upgrade": "NULL_NA",
    "gnaf_pid": "GAQLD158200967",
    "tech_change_status": "Not Planned"
   }
  },
  {
   "type": "Feature",
   "geometry": {
    "type": "Point",
    "coordinates": [
     151.76193249,
     -24.49284322
    ]
   },
   "properties": {
    "name": "436 GORGE ROAD LOWMEAD 4676",
    "locID": "LOC000041372836",
    "tech": "SATELLITE",
    "upgrade": "NULL_NA",
    "gnaf_pid": "GAQLD158200968",
    "tech_change_status": "Not Planned"
   }
  },
  {
   "type": "Feature",
   "geometry": {
    "type": "Point",
    "coordinates": [
     151.7267127,
     -24.49983525
    ]
   },
   "properties": {
    "name": "2691 LOWMEAD ROAD LOWMEAD 4676",
    "locID": "LOC000004955983",
    "tech": "SATELLITE",
    "upgrade": "NULL_NA",
    "gnaf_pid": "GAQLD158200969",
    "tech_change_status": "Not Planned"
   }
  },
  {
   "type": "Feature",
   "geometry": {
    "type": "Point",
    "coordinates": [
     151.74038862,
     -24.513673
    ]
   },
   "properties": {
    "name": "93 GORGE ROAD LOWMEAD 4676",
    "locID": "LOC000050373160",
    "tech": "NULL",
    "upgrade": "NULL_NA",
    "gnaf_pid": "GAQLD158203319",
    "tech_change_status": "Not Planned"
   }
  },
  {
   "type": "Feature",
   "geometry": {
    "type": "Point",
    "coordinates": [
     151.76319917,
     -24.48709524
    ]
   },
   "properties": {
    "name": "484 GORGE ROAD LOWMEAD 4676",
    "locID": "LOC000078325407",
    "tech": "SATELLITE",
    "upgrade": "NULL_NA",
    "gnaf_pid": "GAQLD158203320",
    "tech_change_status": "Not Planned"
   }
  },
  {
   "type": "Feature",
   "geometry": {
    "type": "Point",
    "coordinates": [
     151.72376653,
     -24.51891542
    ]
   },
   "properties": {
    "name": "131 TURNER ROAD LOWMEAD 4676",
    "locID": "LOC000004111522",
    "tech": "NULL",
    "upgrade": "NULL_NA",
    "gnaf_pid": "GAQLD158207245",
    "tech_change_status": "Not Planned"
   }
  },
  {
   "type": "Feature",
   "geometry": {
    "type": "Point",
    "coordinates": [
     151.75824401,
     -24.49667291
    ]
   },
   "properties": {
    "name": "408 GORGE ROAD LOWMEAD 4676",
    "locID": "LOC000030689712",
    "tech": "SATELLITE",
    "upgrade": "NULL_NA",
    "gnaf_pid": "GAQLD158209461",
    "tech_change_status": "Not Planned"
   }
  },
  {
   "type": "Feature",
   "geometry": {
    "type": "Point",
    "coordinates": [
     151.77794298,
     -24.5384116
    ]
   },
   "properties": {
    "name": "3471 LOWMEAD ROAD LOWMEAD 4676",
    "locID": "LOC000079401842",
    "tech": "SATELLITE",
    "upgrade": "NULL_NA",
    "gnaf_pid": "GAQLD158212661",
    "tech_change_status": "Not Planned"
   }
  },
  {
   "type": "Feature",
   "geometry": {
    "type": "Point",
    "coordinates": [
     151.60191746,
     -24.66169024
    ]
   },
   "properties": {
    "name": "256 ROWS ROAD LOWMEAD 4676",
    "locID": "LOC000098906803",
    "tech": "NULL",
    "upgrade": "NULL_NA",
    "gnaf_pid": "GAQLD158212662",
    "tech_change_status": "Not Planned"
   }
  },
  {
   "type": "Feature",
   "geometry": {
    "type": "Point",
    "coordinates": [
     151.76162286,
     -24.52323478
    ]
   },
   "properties": {
    "name": "3247 LOWMEAD ROAD LOWMEAD 4676",
    "locID": "LOC000085563225",
    "tech": "SATELLITE",
    "upgrade": "NULL_NA",
    "gnaf_pid": "GAQLD158215126",
    "tech_change_status": "Not Planned"
   }
  },
  {
   "type": "Feature",
   "geometry": {
    "type": "Point",
    "coordinates": [
     151.6844722,
     -24.50383704
    ]
   },
   "properties": {
    "name": "135 MACKELLOR ROAD LOWMEAD 4676",
    "locID": "LOC000001711975",
    "tech": "NULL",
    "upgrade": "NULL_NA",
    "gnaf_pid": "GAQLD158215130",
    "tech_change_status": "Not Planned"
   }
  },
  {
   "type": "Feature",
   "geometry": {
    "type": "Point",
    "coordinates": [
     151.69454345,
     -24.70214579
    ]
   },
   "properties": {
    "name": "39542 BRUCE HIGHWAY LOWMEAD 4676",
    "locID": "LOC000023510053",
    "tech": "NULL",
    "upgrade": "NULL_NA",
    "gnaf_pid": "GAQLD158215135",
    "tech_change_status": "Not Planned"
   }
  },
  {
   "type": "Feature",
   "geometry": {
    "type": "Point",
    "coordinates": [
     151.70693816,
     -24.50761714
    ]
   },
   "properties": {
    "name": "162 CLARKES ROAD LOWMEAD 4676",
    "locID": "LOC000018235354",
    "tech": "SATELLITE",
    "upgrade": "NULL_NA",
    "gnaf_pid": "GAQLD160304091",
    "tech_change_status": "Not Planned"
   }
  },
  {
   "type": "Feature",
   "geometry": {
    "type": "Point",
    "coordinates": [
     151.6995018,
     -24.51347295
    ]
   },
   "properties": {
    "name": "256 CLARKES ROAD LOWMEAD 4676",
    "locID": "LOC000097544862",
    "tech": "SATELLITE",
    "upgrade": "NULL_NA",
    "gnaf_pid": "GAQLD160304092",
    "tech_change_status": "Not Planned"
   }
  },
  {
   "type": "Feature",
   "geometry": {
    "type": "Point",
    "coordinates": [
     151.68594792,
     -24.52179719
    ]
   },
   "properties": {
    "name": "456 CLARKES ROAD LOWMEAD 4676",
    "locID": "LOC000015845355",
    "tech": "SATELLITE",
    "upgrade": "NULL_NA",
    "gnaf_pid": "GAQLD160304093",
    "tech_change_status": "Not Planned"
   }
  },
  {
   "type": "Feature",
   "geometry": {
    "type": "Point",
    "coordinates": [
     151.68267633,
     -24.52225054
    ]
   },
   "properties": {
    "name": "458 CLARKES ROAD LOWMEAD 4676",
    "locID": "LOC000105114491",
    "tech": "SATELLITE",
    "upgrade": "NULL_NA",
    "gnaf_pid": "GAQLD160304094",
    "tech_change_status": "Not Planned"
   }
  },
  {
   "type": "Feature",
   "geometry": {
    "type": "Point",
    "coordinates": [
     151.66647681,
     -24.51722271
    ]
   },
   "properties": {
    "name": "604 CLARKES ROAD LOWMEAD 4676",
    "locID": "LOC000056199579",
    "tech": "NULL",
    "upgrade": "NULL_NA",
    "gnaf_pid": "GAQLD160304095",
    "tech_change_status": "Not Planned"
   }
  },
  {
   "type": "Feature",
   "geometry": {
    "type": "Point",
    "coordinates": [
     151.66474146,
     -24.54608478
    ]
   },
   "properties": {
    "name": "783 CLARKES ROAD LOWMEAD 4676",
    "locID": "LOC000052634455",
    "tech": "SATELLITE",
    "upgrade": "NULL_NA",
    "gnaf_pid": "GAQLD160304096",
    "tech_change_status": "Not Planned"
   }
  },
  {
   "type": "Feature",
   "geometry": {
    "type": "Point",
    "coordinates": [
     151.67505562,
     -24.57320852
    ]
   },
   "properties": {
    "name": "1170 CLARKES ROAD LOWMEAD 4676",
    "locID": "LOC000061152948",
    "tech": "SATELLITE",
    "upgrade": "NULL_NA",
    "gnaf_pid": "GAQLD160304097",
    "tech_change_status": "Not Planned"
   }
  },
  {
   "type": "Feature",
   "geometry": {
    "type": "Point",
    "coordinates": [
     151.75701893,
     -24.53287259
    ]
   },
   "properties": {
    "name": "51 CLAYTONS ROAD LOWMEAD 4676",
    "locID": "LOC000025765047",
    "tech": "SATELLITE",
    "upgrade": "NULL_NA",
    "gnaf_pid": "GAQLD160304099",
    "tech_change_status": "Not Planned"
   }
  },
  {
   "type": "Feature",
   "geometry": {
    "type": "Point",
    "coordinates": [
     151.75196653,
     -24.49129994
    ]
   },
   "properties": {
    "name": "397 GORGE ROAD LOWMEAD 4676",
    "locID": "LOC000086907147",
    "tech": "NULL",
    "upgrade": "NULL_NA",
    "gnaf_pid": "GAQLD160304104",
    "tech_change_status": "Not Planned"
   }
  },
  {
   "type": "Feature",
   "geometry": {
    "type": "Point",
    "coordinates": [
     151.72656774,
     -24.49088495
    ]
   },
   "properties": {
    "name": "2567 LOWMEAD ROAD LOWMEAD 4676",
    "locID": "LOC100079106133",
    "tech": "NULL",
    "upgrade": "NULL_NA",
    "gnaf_pid": "GAQLD160305485",
    "tech_change_status": "Not Planned"
   }
  },
  {
   "type": "Feature",
   "geometry": {
    "type": "Point",
    "coordinates": [
     151.74524849,
     -24.52356582
    ]
   },
   "properties": {
    "name": "3077-3083 LOWMEAD ROAD LOWMEAD 4676",
    "locID": "LOC000084471975",
    "tech": "SATELLITE",
    "upgrade": "NULL_NA",
    "gnaf_pid": "GAQLD160305488",
    "tech_change_status": "Not Planned"
   }
  },
  {
   "type": "Feature",
   "geometry": {
    "type": "Point",
    "coordinates": [
     151.73886708,
     -24.52625972
    ]
   },
   "properties": {
    "name": "108 KORENAN SERVICE ROAD LOWMEAD 4676",
    "locID": "LOC000076626993",
    "tech": "SATELLITE",
    "upgrade": "NULL_NA",
    "gnaf_pid": "GAQLD160306190",
    "tech_change_status": "Not Planned"
   }
  },
  {
   "type": "Feature",
   "geometry": {
    "type": "Point",
    "coordinates": [
     151.72207945,
     -24.53309113
    ]
   },
   "properties": {
    "name": "4 KORENAN SERVICE ROAD LOWMEAD 4676",
    "locID": "LOC000107143927",
    "tech": "NULL",
    "upgrade": "NULL_NA",
    "gnaf_pid": "GAQLD160306191",
    "tech_change_status": "Not Planned"
   }
  },
  {
   "type": "Feature",
   "geometry": {
    "type": "Point",
    "coordinates": [
     151.73206351,
     -24.52795428
    ]
   },
   "properties": {
    "name": "64 KORENAN SERVICE ROAD LOWMEAD 4676",
    "locID": "LOC000094929414",
    "tech": "NULL",
    "upgrade": "NULL_NA",
    "gnaf_pid": "GAQLD160306192",
    "tech_change_status": "Not Planned"
   }
  },
  {
   "type": "Feature",
   "geometry": {
    "type": "Point",
    "coordinates": [
     151.65175935,
     -24.64156074
    ]
   },
   "properties": {
    "name": "495 CHARNWOOD ROAD LOWMEAD 4676",
    "locID": "LOC000128923414",
    "tech": "SATELLITE",
    "upgrade": "NULL_NA",
    "gnaf_pid": "GAQLD160322948",
    "tech_change_status": "Not Planned"
   }
  },
  {
   "type": "Feature",
   "geometry": {
    "type": "Point",
    "coordinates": [
     151.6783696,
     -24.62156719
    ]
   },
   "properties": {
    "name": "38 JOHN CLIFFORD WAY LOWMEAD 4676",
    "locID": "LOC000084694430",
    "tech": "NULL",
    "upgrade": "NULL_NA",
    "gnaf_pid": "GAQLD160323738",
    "tech_change_status": "Not Planned"
   }
  },
  {
   "type": "Feature",
   "geometry": {
    "type": "Point",
    "coordinates": [
     151.71682876,
     -24.58032598
    ]
   },
   "properties": {
    "name": "760 JOHN CLIFFORD WAY LOWMEAD 4676",
    "locID": "LOC000073443579",
    "tech": "SATELLITE",
    "upgrade": "NULL_NA",
    "gnaf_pid": "GAQLD160323741",
    "tech_change_status": "Not Planned"
   }
  },
  {
   "type": "Feature",
   "geometry": {
    "type": "Point",
    "coordinates": [
     151.70211026,
     -24.57005671
    ]
   },
   "properties": {
    "name": "785 JOHN CLIFFORD WAY LOWMEAD 4676",
    "locID": "LOC000052172445",
    "tech": "SATELLITE",
    "upgrade": "NULL_NA",
    "gnaf_pid": "GAQLD160323742",
    "tech_change_status": "Not Planned"
   }
  },
  {
   "type": "Feature",
   "geometry": {
    "type": "Point",
    "coordinates": [
     151.7467724,
     -24.53670703
    ]
   },
   "properties": {
    "name": "1403 JOHN CLIFFORD WAY LOWMEAD 4676",
    "locID": "LOC000034404955",
    "tech": "SATELLITE",
    "upgrade": "NULL_NA",
    "gnaf_pid": "GAQLD160323749",
    "tech_change_status": "Not Planned"
   }
  },
  {
   "type": "Feature",
   "geometry": {
    "type": "Point",
    "coordinates": [
     151.68906876,
     -24.51852483
    ]
   },
   "properties": {
    "name": "404 CLARKES ROAD LOWMEAD 4676",
    "locID": "LOC000029949244",
    "tech": "SATELLITE",
    "upgrade": "NULL_NA",
    "gnaf_pid": "GAQLD160327597",
    "tech_change_status": "Not Planned"
   }
  },
  {
   "type": "Feature",
   "geometry": {
    "type": "Point",
    "coordinates": [
     151.70571305,
     -24.53524116
    ]
   },
   "properties": {
    "name": "388 TURNER ROAD LOWMEAD 4676",
    "locID": "LOC000039664813",
    "tech": "SATELLITE",
    "upgrade": "NULL_NA",
    "gnaf_pid": "GAQLD160685999",
    "tech_change_status": "Not Planned"
   }
  },
  {
   "type": "Feature",
   "geometry": {
    "type": "Point",
    "coordinates": [
     151.74391659,
     -24.54301986
    ]
   },
   "properties": {
    "name": "1329 JOHN CLIFFORD WAY LOWMEAD 4676",
    "locID": "LOC000065732500",
    "tech": "NULL",
    "upgrade": "NULL_NA",
    "gnaf_pid": "GAQLD160952169",
    "tech_change_status": "Not Planned"
   }
  },
  {
   "type": "Feature",
   "geometry": {
    "type": "Point",
    "coordinates": [
     151.67582723,
     -24.63427577
    ]
   },
   "properties": {
    "name": "40418 BRUCE HIGHWAY LOWMEAD 4676",
    "locID": "LOC000033299981",
    "tech": "NULL",
    "upgrade": "NULL_NA",
    "gnaf_pid": "GAQLD161009469",
    "tech_change_status": "Not Planned"
   }
  },
  {
   "type": "Feature",
   "geometry": {
    "type": "Point",
    "coordinates": [
     151.75282305,
     -24.53423537
    ]
   },
   "properties": {
    "name": "18 CLAYTONS ROAD LOWMEAD 4676",
    "locID": "LOC000128902039",
    "tech": "SATELLITE",
    "upgrade": "NULL_NA",
    "gnaf_pid": "GAQLD161010691",
    "tech_change_status": "Not Planned"
   }
  },
  {
   "type": "Feature",
   "geometry": {
    "type": "Point",
    "coordinates": [
     151.74918515,
     -24.5132518
    ]
   },
   "properties": {
    "name": "92 GORGE ROAD LOWMEAD 4676",
    "locID": "LOC000069068153",
    "tech": "SATELLITE",
    "upgrade": "NULL_NA",
    "gnaf_pid": "GAQLD161014558",
    "tech_change_status": "Not Planned"
   }
  },
  {
   "type": "Feature",
   "geometry": {
    "type": "Point",
    "coordinates": [
     151.75221314,
     -24.53114738
    ]
   },
   "properties": {
    "name": "1459 JOHN CLIFFORD WAY LOWMEAD 4676",
    "locID": "LOC000128901992",
    "tech": "NULL",
    "upgrade": "NULL_NA",
    "gnaf_pid": "GAQLD161016454",
    "tech_change_status": "Not Planned"
   }
  },
  {
   "type": "Feature",
   "geometry": {
    "type": "Point",
    "coordinates": [
     151.75244967,
     -24.53085341
    ]
   },
   "properties": {
    "name": "1463 JOHN CLIFFORD WAY LOWMEAD 4676",
    "locID": "LOC000128902018",
    "tech": "NULL",
    "upgrade": "NULL_NA",
    "gnaf_pid": "GAQLD161016456",
    "tech_change_status": "Not Planned"
   }
  },
  {
   "type": "Feature",
   "geometry": {
    "type": "Point",
    "coordinates": [
     151.75249277,
     -24.53060459
    ]
   },
   "properties": {
    "name": "1465 JOHN CLIFFORD WAY LOWMEAD 4676",
    "locID": "LOC000128902025",
    "tech": "NULL",
    "upgrade": "NULL_NA",
    "gnaf_pid": "GAQLD161016457",
    "tech_change_status": "Not Planned"
   }
  },
  {
   "type": "Feature",
   "geometry": {
    "type": "Point",
    "coordinates": [
     151.77953198,
     -24.54220496
    ]
   },
   "properties": {
    "name": "3489 LOWMEAD ROAD LOWMEAD 4676",
    "locID": "LOC000020021244",
    "tech": "SATELLITE",
    "upgrade": "NULL_NA",
    "gnaf_pid": "GAQLD161018084",
    "tech_change_status": "Not Planned"
   }
  },
  {
   "type": "Feature",
   "geometry": {
    "type": "Point",
    "coordinates": [
     151.66558333,
     -24.61998128
    ]
   },
   "properties": {
    "name": "LOT 1 BRUCE HIGHWAY LOWMEAD 4676",
    "locID": "LOC000033299981",
    "tech": "NULL",
    "upgrade": "NULL_NA",
    "gnaf_pid": "GAQLD161082245",
    "tech_change_status": "Not Planned"
   }
  },
  {
   "type": "Feature",
   "geometry": {
    "type": "Point",
    "coordinates": [
     151.76004938,
     -24.49520365
    ]
   },
   "properties": {
    "name": "LOT 4 GORGE ROAD LOWMEAD 4676",
    "locID": "LOC000058637946",
    "tech": "NULL",
    "upgrade": "NULL_NA",
    "gnaf_pid": "GAQLD161165064",
    "tech_change_status": "Not Planned"
   }
  },
  {
   "type": "Feature",
   "geometry": {
    "type": "Point",
    "coordinates": [
     151.74175586,
     -24.52148952
    ]
   },
   "properties": {
    "name": "LOT 10 KORENAN SERVICE ROAD LOWMEAD 4676",
    "locID": "LOC000076626993",
    "tech": "SATELLITE",
    "upgrade": "NULL_NA",
    "gnaf_pid": "GAQLD161204421",
    "tech_change_status": "Not Planned"
   }
  },
  {
   "type": "Feature",
   "geometry": {
    "type": "Point",
    "coordinates": [
     151.78224195,
     -24.55445185
    ]
   },
   "properties": {
    "name": "LOT 10 LOWMEAD ROAD LOWMEAD 4676",
    "locID": "LOC000031465993",
    "tech": "WIRELESS",
    "upgrade": "NULL_NA",
    "gnaf_pid": "GAQLD161217921",
    "tech_change_status": "Not Planned",
    "program_type": "Fixed Wireless and Satellite Upgrade Program",
    "target_eligibility_quarter": "NA"
   }
  },
  {
   "type": "Feature",
   "geometry": {
    "type": "Point",
    "coordinates": [
     151.7520191,
     -24.52940744
    ]
   },
   "properties": {
    "name": "LOT 11 LOWMEAD ROAD LOWMEAD 4676",
    "locID": "LOC000087170211",
    "tech": "NULL",
    "upgrade": "NULL_NA",
    "gnaf_pid": "GAQLD161217922",
    "tech_change_status": "Not Planned"
   }
  },
  {
   "type": "Feature",
   "geometry": {
    "type": "Point",
    "coordinates": [
     151.78451931,
     -24.59324709
    ]
   },
   "properties": {
    "name": "LOT 1 LOWMEAD ROAD LOWMEAD 4676",
    "locID": "LOC000079401842",
    "tech": "SATELLITE",
    "upgrade": "NULL_NA",
    "gnaf_pid": "GAQLD161217923",
    "tech_change_status": "Not Planned"
   }
  },
  {
   "type": "Feature",
   "geometry": {
    "type": "Point",
    "coordinates": [
     151.7807568,
     -24.60760561
    ]
   },
   "properties": {
    "name": "LOT 2 LOWMEAD ROAD LOWMEAD 4676",
    "locID": "LOC000064154706",
    "tech": "SATELLITE",
    "upgrade": "NULL_NA",
    "gnaf_pid": "GAQLD161217926",
    "tech_change_status": "Not Planned"
   }
  },
  {
   "type": "Feature",
   "geometry": {
    "type": "Point",
    "coordinates": [
     151.76487751,
     -24.56228271
    ]
   },
   "properties": {
    "name": "LOT 33 LOWMEAD ROAD LOWMEAD 4676",
    "locID": "LOC000128918763",
    "tech": "SATELLITE",
    "upgrade": "NULL_NA",
    "gnaf_pid": "GAQLD161217927",
    "tech_change_status": "Not Planned"
   }
  },
  {
   "type": "Feature",
   "geometry": {
    "type": "Point",
    "coordinates": [
     151.76931565,
     -24.53570766
    ]
   },
   "properties": {
    "name": "LOT 5 LOWMEAD ROAD LOWMEAD 4676",
    "locID": "LOC000128918763",
    "tech": "SATELLITE",
    "upgrade": "NULL_NA",
    "gnaf_pid": "GAQLD161217930",
    "tech_change_status": "Not Planned"
   }
  },
  {
   "type": "Feature",
   "geometry": {
    "type": "Point",
    "coordinates": [
     151.78176,
     -24.55618416
    ]
   },
   "properties": {
    "name": "LOT 61 LOWMEAD ROAD LOWMEAD 4676",
    "locID": "LOC000004859717",
    "tech": "SATELLITE",
    "upgrade": "NULL_NA",
    "gnaf_pid": "GAQLD161217931",
    "tech_change_status": "Not Planned"
   }
  },
  {
   "type": "Feature",
   "geometry": {
    "type": "Point",
    "coordinates": [
     151.76907825,
     -24.53687414
    ]
   },
   "properties": {
    "name": "LOT 6 LOWMEAD ROAD LOWMEAD 4676",
    "locID": "LOC100079106133",
    "tech": "NULL",
    "upgrade": "NULL_NA",
    "gnaf_pid": "GAQLD161217932",
    "tech_change_status": "Not Planned"
   }
  },
  {
   "type": "Feature",
   "geometry": {
    "type": "Point",
    "coordinates": [
     151.72711878,
     -24.4926732
    ]
   },
   "properties": {
    "name": "LOT 7 LOWMEAD ROAD LOWMEAD 4676",
    "locID": "LOC000012497995",
    "tech": "NULL",
    "upgrade": "NULL_NA",
    "gnaf_pid": "GAQLD161217933",
    "tech_change_status": "Not Planned"
   }
  },
  {
   "type": "Feature",
   "geometry": {
    "type": "Point",
    "coordinates": [
     151.71291428,
     -24.4876003
    ]
   },
   "properties": {
    "name": "LOT 89 LOWMEAD ROAD LOWMEAD 4676",
    "locID": "LOC000128918763",
    "tech": "SATELLITE",
    "upgrade": "NULL_NA",
    "gnaf_pid": "GAQLD161217934",
    "tech_change_status": "Not Planned"
   }
  },
  {
   "type": "Feature",
   "geometry": {
    "type": "Point",
    "coordinates": [
     151.76303703,
     -24.5330673
    ]
   },
   "properties": {
    "name": "LOT 92 LOWMEAD ROAD LOWMEAD 4676",
    "locID": "LOC000069068153",
    "tech": "SATELLITE",
    "upgrade": "NULL_NA",
    "gnaf_pid": "GAQLD161217936",
    "tech_change_status": "Not Planned"
   }
  },
  {
   "type": "Feature",
   "geometry": {
    "type": "Point",
    "coordinates": [
     151.75949094,
     -24.53649598
    ]
   },
   "properties": {
    "name": "LOT 93 LOWMEAD ROAD LOWMEAD 4676",
    "locID": "LOC000050373160",
    "tech": "NULL",
    "upgrade": "NULL_NA",
    "gnaf_pid": "GAQLD161217937",
    "tech_change_status": "Not Planned"
   }
  },
  {
   "type": "Feature",
   "geometry": {
    "type": "Point",
    "coordinates": [
     151.73255436,
     -24.51877714
    ]
   },
   "properties": {
    "name": "LOT 9 LOWMEAD ROAD LOWMEAD 4676",
    "locID": "LOC000019999051",
    "tech": "NULL",
    "upgrade": "NULL_NA",
    "gnaf_pid": "GAQLD161217938",
    "tech_change_status": "Not Planned"
   }
  },
  {
   "type": "Feature",
   "geometry": {
    "type": "Point",
    "coordinates": [
     151.63067121,
     -24.67751751
    ]
   },
   "properties": {
    "name": "LOT 1007 ROWS ROAD LOWMEAD 4676",
    "locID": "LOC000098906803",
    "tech": "NULL",
    "upgrade": "NULL_NA",
    "gnaf_pid": "GAQLD161296962",
    "tech_change_status": "Not Planned"
   }
  },
  {
   "type": "Feature",
   "geometry": {
    "type": "Point",
    "coordinates": [
     151.66202766,
     -24.64707507
    ]
   },
   "properties": {
    "name": "LOT 248 ROWS ROAD LOWMEAD 4676",
    "locID": "LOC000098906803",
    "tech": "NULL",
    "upgrade": "NULL_NA",
    "gnaf_pid": "GAQLD161296964",
    "tech_change_status": "Not Planned"
   }
  },
  {
   "type": "Feature",
   "geometry": {
    "type": "Point",
    "coordinates": [
     151.60707386,
     -24.70021379
    ]
   },
   "properties": {
    "name": "LOT 7 ROWS ROAD LOWMEAD 4676",
    "locID": "LOC000098906803",
    "tech": "NULL",
    "upgrade": "NULL_NA",
    "gnaf_pid": "GAQLD161296965",
    "tech_change_status": "Not Planned"
   }
  },
  {
   "type": "Feature",
   "geometry": {
    "type": "Point",
    "coordinates": [
     151.75012091,
     -24.50367321
    ]
   },
   "properties": {
    "name": "LOT 5 GORGE ROAD LOWMEAD 4676",
    "locID": "LOC000030689712",
    "tech": "SATELLITE",
    "upgrade": "NULL_NA",
    "gnaf_pid": "GAQLD161691775",
    "tech_change_status": "Not Planned"
   }
  },
  {
   "type": "Feature",
   "geometry": {
    "type": "Point",
    "coordinates": [
     151.75012091,
     -24.50367321
    ]
   },
   "properties": {
    "name": "LOT 8 GORGE ROAD LOWMEAD 4676",
    "locID": "LOC000086907147",
    "tech": "NULL",
    "upgrade": "NULL_NA",
    "gnaf_pid": "GAQLD161691776",
    "tech_change_status": "Not Planned"
   }
  },
  {
   "type": "Feature",
   "geometry": {
    "type": "Point",
    "coordinates": [
     151.66775821,
     -24.6122597
    ]
   },
   "properties": {
    "name": "LOT 88 BRUCE HIGHWAY LOWMEAD 4676",
    "locID": "LOC000033299981",
    "tech": "NULL",
    "upgrade": "NULL_NA",
    "gnaf_pid": "GAQLD162014113",
    "tech_change_status": "Not Planned"
   }
  },
  {
   "type": "Feature",
   "geometry": {
    "type": "Point",
    "coordinates": [
     151.75663079,
     -24.53282869
    ]
   },
   "properties": {
    "name": "LOT 55 CLAYTONS ROAD LOWMEAD 4676",
    "locID": "LOC000128908455",
    "tech": "SATELLITE",
    "upgrade": "NULL_NA",
    "gnaf_pid": "GAQLD162017916",
    "tech_change_status": "Not Planned"
   }
  },
  {
   "type": "Feature",
   "geometry": {
    "type": "Point",
    "coordinates": [
     151.75338393,
     -24.49660015
    ]
   },
   "properties": {
    "name": "360 GORGE ROAD LOWMEAD 4676",
    "locID": "LOC000019109782",
    "tech": "NULL",
    "upgrade": "NULL_NA",
    "gnaf_pid": "GAQLD162032826",
    "tech_change_status": "Not Planned"
   }
  },
  {
   "type": "Feature",
   "geometry": {
    "type": "Point",
    "coordinates": [
     151.73692417,
     -24.57168503
    ]
   },
   "properties": {
    "name": "1060 JOHN CLIFFORD WAY LOWMEAD 4676",
    "locID": "LOC000076274185",
    "tech": "NULL",
    "upgrade": "NULL_NA",
    "gnaf_pid": "GAQLD162039699",
    "tech_change_status": "Not Planned"
   }
  },
  {
   "type": "Feature",
   "geometry": {
    "type": "Point",
    "coordinates": [
     151.71930227,
     -24.56366526
    ]
   },
   "properties": {
    "name": "LOT 3 JOHN CLIFFORD WAY LOWMEAD 4676",
    "locID": "LOC000034404955",
    "tech": "SATELLITE",
    "upgrade": "NULL_NA",
    "gnaf_pid": "GAQLD162039703",
    "tech_change_status": "Not Planned"
   }
  },
  {
   "type": "Feature",
   "geometry": {
    "type": "Point",
    "coordinates": [
     151.75240678,
     -24.5286772
    ]
   },
   "properties": {
    "name": "3163 LOWMEAD ROAD LOWMEAD 4676",
    "locID": "LOC000068668586",
    "tech": "NULL",
    "upgrade": "NULL_NA",
    "gnaf_pid": "GAQLD162045236",
    "tech_change_status": "Not Planned"
   }
  },
  {
   "type": "Feature",
   "geometry": {
    "type": "Point",
    "coordinates": [
     151.75325952,
     -24.52982681
    ]
   },
   "properties": {
    "name": "3176 LOWMEAD ROAD LOWMEAD 4676",
    "locID": "LOC000102553068",
    "tech": "NULL",
    "upgrade": "NULL_NA",
    "gnaf_pid": "GAQLD162045237",
    "tech_change_status": "Not Planned"
   }
  },
  {
   "type": "Feature",
   "geometry": {
    "type": "Point",
    "coordinates": [
     151.75376102,
     -24.52946512
    ]
   },
   "properties": {
    "name": "3179 LOWMEAD ROAD LOWMEAD 4676",
    "locID": "LOC000064154706",
    "tech": "SATELLITE",
    "upgrade": "NULL_NA",
    "gnaf_pid": "GAQLD162045238",
    "tech_change_status": "Not Planned"
   }
  },
  {
   "type": "Feature",
   "geometry": {
    "type": "Point",
    "coordinates": [
     151.75630828,
     -24.52395644
    ]
   },
   "properties": {
    "name": "3183 LOWMEAD ROAD LOWMEAD 4676",
    "locID": "LOC000019999051",
    "tech": "NULL",
    "upgrade": "NULL_NA",
    "gnaf_pid": "GAQLD162045239",
    "tech_change_status": "Not Planned"
   }
  },
  {
   "type": "Feature",
   "geometry": {
    "type": "Point",
    "coordinates": [
     151.75362799,
     -24.53083364
    ]
   },
   "properties": {
    "name": "LOT 34 LOWMEAD ROAD LOWMEAD 4676",
    "locID": "LOC000079401842",
    "tech": "SATELLITE",
    "upgrade": "NULL_NA",
    "gnaf_pid": "GAQLD162045240",
    "tech_change_status": "Not Planned"
   }
  },
  {
   "type": "Feature",
   "geometry": {
    "type": "Point",
    "coordinates": [
     151.74203164,
     -24.50720184
    ]
   },
   "properties": {
    "name": "LOT 98 LOWMEAD ROAD LOWMEAD 4676",
    "locID": "LOC000128918763",
    "tech": "SATELLITE",
    "upgrade": "NULL_NA",
    "gnaf_pid": "GAQLD162045241",
    "tech_change_status": "Not Planned"
   }
  },
  {
   "type": "Feature",
   "geometry": {
    "type": "Point",
    "coordinates": [
     151.69704027,
     -24.51057643
    ]
   },
   "properties": {
    "name": "LOT 16 MACKELLOR ROAD LOWMEAD 4676",
    "locID": "LOC000142304082",
    "tech": "SATELLITE",
    "upgrade": "NULL_NA",
    "gnaf_pid": "GAQLD162046041",
    "tech_change_status": "Not Planned"
   }
  },
  {
   "type": "Feature",
   "geometry": {
    "type": "Point",
    "coordinates": [
     151.6918228,
     -24.51533269
    ]
   },
   "properties": {
    "name": "LOT 5 MACKELLOR ROAD LOWMEAD 4676",
    "locID": "LOC000142304082",
    "tech": "SATELLITE",
    "upgrade": "NULL_NA",
    "gnaf_pid": "GAQLD162046042",
    "tech_change_status": "Not Planned"
   }
  },
  {
   "type": "Feature",
   "geometry": {
    "type": "Point",
    "coordinates": [
     151.69004844,
     -24.51027098
    ]
   },
   "properties": {
    "name": "61 MACKELLOR ROAD LOWMEAD 4676",
    "locID": "LOC000004859717",
    "tech": "SATELLITE",
    "upgrade": "NULL_NA",
    "gnaf_pid": "GAQLD162046043",
    "tech_change_status": "Not Planned"
   }
  },
  {
   "type": "Feature",
   "geometry": {
    "type": "Point",
    "coordinates": [
     151.64699831,
     -24.68001482
    ]
   },
   "properties": {
    "name": "LOT 1231 ROWS ROAD LOWMEAD 4676",
    "locID": "LOC000098906803",
    "tech": "NULL",
    "upgrade": "NULL_NA",
    "gnaf_pid": "GAQLD162063125",
    "tech_change_status": "Not Planned"
   }
  },
  {
   "type": "Feature",
   "geometry": {
    "type": "Point",
    "coordinates": [
     151.63232177,
     -24.70074452
    ]
   },
   "properties": {
    "name": "LOT 3 ROWS ROAD LOWMEAD 4676",
    "locID": "LOC000098906803",
    "tech": "NULL",
    "upgrade": "NULL_NA",
    "gnaf_pid": "GAQLD162063126",
    "tech_change_status": "Not Planned"
   }
  },
  {
   "type": "Feature",
   "geometry": {
    "type": "Point",
    "coordinates": [
     151.64302425,
     -24.66795524
    ]
   },
   "properties": {
    "name": "LOT 4 ROWS ROAD LOWMEAD 4676",
    "locID": "LOC000098906803",
    "tech": "NULL",
    "upgrade": "NULL_NA",
    "gnaf_pid": "GAQLD162063127",
    "tech_change_status": "Not Planned"
   }
  },
  {
   "type": "Feature",
   "geometry": {
    "type": "Point",
    "coordinates": [
     151.67697898,
     -24.65641943
    ]
   },
   "properties": {
    "name": "LOT 9 ROWS ROAD LOWMEAD 4676",
    "locID": "LOC000098906803",
    "tech": "NULL",
    "upgrade": "NULL_NA",
    "gnaf_pid": "GAQLD162063128",
    "tech_change_status": "Not Planned"
   }
  },
  {
   "type": "Feature",
   "geometry": {
    "type": "Point",
    "coordinates": [
     151.75621463,
     -24.4913126
    ]
   },
   "properties": {
    "name": "409 GORGE ROAD LOWMEAD 4676",
    "locID": "LOC000058637946",
    "tech": "NULL",
    "upgrade": "NULL_NA",
    "gnaf_pid": "GAQLD162383445",
    "tech_change_status": "Not Planned"
   }
  },
  {
   "type": "Feature",
   "geometry": {
    "type": "Point",
    "coordinates": [
     151.69347279,
     -24.50476181
    ]
   },
   "properties": {
    "name": "LOT 3 MACKELLOR ROAD LOWMEAD 4676",
    "locID": "LOC000142304082",
    "tech": "SATELLITE",
    "upgrade": "NULL_NA",
    "gnaf_pid": "GAQLD162384882",
    "tech_change_status": "Not Planned"
   }
  },
  {
   "type": "Feature",
   "geometry": {
    "type": "Point",
    "coordinates": [
     151.69347279,
     -24.50476181
    ]
   },
   "properties": {
    "name": "LOT 46 MACKELLOR ROAD LOWMEAD 4676",
    "locID": "LOC000001711975",
    "tech": "NULL",
    "upgrade": "NULL_NA",
    "gnaf_pid": "GAQLD162384883",
    "tech_change_status": "Not Planned"
   }
  },
  {
   "type": "Feature",
   "geometry": {
    "type": "Point",
    "coordinates": [
     151.75721794,
     -24.53286285
    ]
   },
   "properties": {
    "name": "55 CLAYTONS ROAD LOWMEAD 4676",
    "locID": "LOC000128908455",
    "tech": "SATELLITE",
    "upgrade": "NULL_NA",
    "gnaf_pid": "GAQLD162452463",
    "tech_change_status": "Not Planned"
   }
  },
  {
   "type": "Feature",
   "geometry": {
    "type": "Point",
    "coordinates": [
     151.75847974,
     -24.53244728
    ]
   },
   "properties": {
    "name": "LOT 4 CLAYTONS ROAD LOWMEAD 4676",
    "locID": "LOC000128908455",
    "tech": "SATELLITE",
    "upgrade": "NULL_NA",
    "gnaf_pid": "GAQLD162503173",
    "tech_change_status": "Not Planned"
   }
  },
  {
   "type": "Feature",
   "geometry": {
    "type": "Point",
    "coordinates": [
     151.75891022,
     -24.5325463
    ]
   },
   "properties": {
    "name": "LOT 5 CLAYTONS ROAD LOWMEAD 4676",
    "locID": "LOC000128908455",
    "tech": "SATELLITE",
    "upgrade": "NULL_NA",
    "gnaf_pid": "GAQLD162503174",
    "tech_change_status": "Not Planned"
   }
  },
  {
   "type": "Feature",
   "geometry": {
    "type": "Point",
    "coordinates": [
     151.75289068,
     -24.52898119
    ]
   },
   "properties": {
    "name": "3167 LOWMEAD ROAD LOWMEAD 4676",
    "locID": "LOC000097851607",
    "tech": "NULL",
    "upgrade": "NULL_NA",
    "gnaf_pid": "GAQLD162512701",
    "tech_change_status": "Not Planned"
   }
  },
  {
   "type": "Feature",
   "geometry": {
    "type": "Point",
    "coordinates": [
     151.76900075,
     -24.57766961
    ]
   },
   "properties": {
    "name": "4044 LOWMEAD ROAD LOWMEAD 4676",
    "locID": "LOC100078014123",
    "tech": "NULL",
    "upgrade": "NULL_NA",
    "gnaf_pid": "GAQLD162512703",
    "tech_change_status": "Not Planned"
   }
  },
  {
   "type": "Feature",
   "geometry": {
    "type": "Point",
    "coordinates": [
     151.7908664,
     -24.61003508
    ]
   },
   "properties": {
    "name": "LOT 48 LOWMEAD ROAD LOWMEAD 4676",
    "locID": "LOC000078325407",
    "tech": "SATELLITE",
    "upgrade": "NULL_NA",
    "gnaf_pid": "GAQLD162512704",
    "tech_change_status": "Not Planned"
   }
  },
  {
   "type": "Feature",
   "geometry": {
    "type": "Point",
    "coordinates": [
     151.69790389,
     -24.51596946
    ]
   },
   "properties": {
    "name": "LOT 17 CLARKES ROAD LOWMEAD 4676",
    "locID": "LOC000128908383",
    "tech": "NULL",
    "upgrade": "NULL_NA",
    "gnaf_pid": "GAQLD162600217",
    "tech_change_status": "Not Planned"
   }
  },
  {
   "type": "Feature",
   "geometry": {
    "type": "Point",
    "coordinates": [
     151.69024777,
     -24.51679721
    ]
   },
   "properties": {
    "name": "LOT 4 CLARKES ROAD LOWMEAD 4676",
    "locID": "LOC000128908383",
    "tech": "NULL",
    "upgrade": "NULL_NA",
    "gnaf_pid": "GAQLD162600220",
    "tech_change_status": "Not Planned"
   }
  },
  {
   "type": "Feature",
   "geometry": {
    "type": "Point",
    "coordinates": [
     151.70170248,
     -24.51176447
    ]
   },
   "properties": {
    "name": "208 CLARKES ROAD LOWMEAD 4676",
    "locID": "LOC000028502272",
    "tech": "SATELLITE",
    "upgrade": "NULL_NA",
    "gnaf_pid": "GAQLD162886767",
    "tech_change_status": "Not Planned"
   }
  },
  {
   "type": "Feature",
   "geometry": {
    "type": "Point",
    "coordinates": [
     151.71160006,
     -24.48621856
    ]
   },
   "properties": {
    "name": "2448 LOWMEAD ROAD LOWMEAD 4676",
    "locID": "LOC000068809111",
    "tech": "NULL",
    "upgrade": "NULL_NA",
    "gnaf_pid": "GAQLD162903067",
    "tech_change_status": "Not Planned"
   }
  },
  {
   "type": "Feature",
   "geometry": {
    "type": "Point",
    "coordinates": [
     151.75147029,
     -24.53243892
    ]
   },
   "properties": {
    "name": "1445 JOHN CLIFFORD WAY LOWMEAD 4676",
    "locID": "LOC000128901937",
    "tech": "SATELLITE",
    "upgrade": "NULL_NA",
    "gnaf_pid": "GAQLD162956866",
    "tech_change_status": "Not Planned"
   }
  },
  {
   "type": "Feature",
   "geometry": {
    "type": "Point",
    "coordinates": [
     151.75188968,
     -24.53157958
    ]
   },
   "properties": {
    "name": "1453 JOHN CLIFFORD WAY LOWMEAD 4676",
    "locID": "LOC000128901963",
    "tech": "NULL",
    "upgrade": "NULL_NA",
    "gnaf_pid": "GAQLD162956870",
    "tech_change_status": "Not Planned"
   }
  },
  {
   "type": "Feature",
   "geometry": {
    "type": "Point",
    "coordinates": [
     151.7519844,
     -24.53143611
    ]
   },
   "properties": {
    "name": "1455 JOHN CLIFFORD WAY LOWMEAD 4676",
    "locID": "LOC000128901971",
    "tech": "SATELLITE",
    "upgrade": "NULL_NA",
    "gnaf_pid": "GAQLD162956871",
    "tech_change_status": "Not Planned"
   }
  },
  {
   "type": "Feature",
   "geometry": {
    "type": "Point",
    "coordinates": [
     151.75209659,
     -24.53129445
    ]
   },
   "properties": {
    "name": "1457 JOHN CLIFFORD WAY LOWMEAD 4676",
    "locID": "LOC000128901985",
    "tech": "NULL",
    "upgrade": "NULL_NA",
    "gnaf_pid": "GAQLD162956872",
    "tech_change_status": "Not Planned"
   }
  },
  {
   "type": "Feature",
   "geometry": {
    "type": "Point",
    "coordinates": [
     151.75233652,
     -24.53100163
    ]
   },
   "properties": {
    "name": "1461 JOHN CLIFFORD WAY LOWMEAD 4676",
    "locID": "LOC100078014049",
    "tech": "NULL",
    "upgrade": "NULL_NA",
    "gnaf_pid": "GAQLD162956873",
    "tech_change_status": "Not Planned"
   }
  },
  {
   "type": "Feature",
   "geometry": {
    "type": "Point",
    "coordinates": [
     151.79314597,
     -24.56284335
    ]
   },
   "properties": {
    "name": "3771 LOWMEAD ROAD LOWMEAD 4676",
    "locID": "LOC000128881201",
    "tech": "SATELLITE",
    "upgrade": "NULL_NA",
    "gnaf_pid": "GAQLD162958141",
    "tech_change_status": "Not Planned"
   }
  },
  {
   "type": "Feature",
   "geometry": {
    "type": "Point",
    "coordinates": [
     151.74735955,
     -24.53309689
    ]
   },
   "properties": {
    "name": "1435 JOHN CLIFFORD WAY LOWMEAD 4676",
    "locID": "LOC000033300051",
    "tech": "NULL",
    "upgrade": "NULL_NA",
    "gnaf_pid": "GAQLD163107164",
    "tech_change_status": "Not Planned"
   }
  },
  {
   "type": "Feature",
   "geometry": {
    "type": "Point",
    "coordinates": [
     151.74513734,
     -24.52158091
    ]
   },
   "properties": {
    "name": "LOT 20 LOWMEAD ROAD LOWMEAD 4676",
    "locID": "LOC100071899339",
    "tech": "NULL",
    "upgrade": "NULL_NA",
    "gnaf_pid": "GAQLD163108304",
    "tech_change_status": "Not Planned"
   }
  },
  {
   "type": "Feature",
   "geometry": {
    "type": "Point",
    "coordinates": [
     151.73743916,
     -24.74552775
    ]
   },
   "properties": {
    "name": "LOT 2 STOCKBRIDGE ROAD LOWMEAD 4676",
    "locID": "LOC000180865198",
    "tech": "NULL",
    "upgrade": "NULL_NA",
    "gnaf_pid": "GAQLD163117070",
    "tech_change_status": "Not Planned"
   }
  },
  {
   "type": "Feature",
   "geometry": {
    "type": "Point",
    "coordinates": [
     151.69347279,
     -24.50476181
    ]
   },
   "properties": {
    "name": "293 MACKELLOR ROAD LOWMEAD 4676",
    "locID": "LOC000091986619",
    "tech": "NULL",
    "upgrade": "NULL_NA",
    "gnaf_pid": "GAQLD163264502",
    "tech_change_status": "Not Planned"
   }
  },
  {
   "type": "Feature",
   "geometry": {
    "type": "Point",
    "coordinates": [
     151.76995608,
     -24.54738341
    ]
   },
   "properties": {
    "name": "1394 JOHN CLIFFORD WAY LOWMEAD 4676",
    "locID": "LOC000116094924",
    "tech": "SATELLITE",
    "upgrade": "NULL_NA",
    "gnaf_pid": "GAQLD424858659",
    "tech_change_status": "Not Planned"
   }
  },
  {
   "type": "Feature",
   "geometry": {
    "type": "Point",
    "coordinates": [
     151.75983977,
     -24.51193234
    ]
   },
   "properties": {
    "name": "LOT 103 SEEDS ROAD LOWMEAD 4676",
    "locID": "LOC000128888981",
    "tech": "NULL",
    "upgrade": "NULL_NA",
    "gnaf_pid": "GAQLD424995286",
    "tech_change_status": "Not Planned"
   }
  },
  {
   "type": "Feature",
   "geometry": {
    "type": "Point",
    "coordinates": [
     151.68736792,
     -24.51980938
    ]
   },
   "properties": {
    "name": "406 CLARKES ROAD LOWMEAD 4676",
    "locID": "LOC000128902087",
    "tech": "NULL",
    "upgrade": "NULL_NA",
    "gnaf_pid": "GAQLD425054860",
    "tech_change_status": "Not Planned"
   }
  },
  {
   "type": "Feature",
   "geometry": {
    "type": "Point",
    "coordinates": [
     151.75399387,
     -24.53704774
    ]
   },
   "properties": {
    "name": "LOT 94 LOWMEAD ROAD LOWMEAD 4676",
    "locID": "LOC000128918763",
    "tech": "SATELLITE",
    "upgrade": "NULL_NA",
    "gnaf_pid": "GAQLD425174617",
    "tech_change_status": "Not Planned"
   }
  },
  {
   "type": "Feature",
   "geometry": {
    "type": "Point",
    "coordinates": [
     151.71550418,
     -24.57827652
    ]
   },
   "properties": {
    "name": "1469 JOHN CLIFFORD WAY LOWMEAD 4676",
    "locID": "LOC000189738519",
    "tech": "SATELLITE",
    "upgrade": "NULL_NA",
    "gnaf_pid": "GAQLD425348583",
    "tech_change_status": "Not Planned"
   }
  },
  {
   "type": "Feature",
   "geometry": {
    "type": "Point",
    "coordinates": [
     151.75069216,
     -24.48510861
    ]
   },
   "properties": {
    "name": "493 GORGE ROAD LOWMEAD 4676",
    "locID": "LOC000128912169",
    "tech": "NULL",
    "upgrade": "NULL_NA",
    "gnaf_pid": "GAQLD425794777",
    "tech_change_status": "Not Planned"
   }
  },
  {
   "type": "Feature",
   "geometry": {
    "type": "Point",
    "coordinates": [
     151.77404568,
     -24.54036063
    ]
   },
   "properties": {
    "name": "3460 LOWMEAD ROAD LOWMEAD 4676",
    "locID": "LOC100071899339",
    "tech": "NULL",
    "upgrade": "NULL_NA",
    "gnaf_pid": "GAQLD425796226",
    "tech_change_status": "Not Planned"
   }
  },
  {
   "type": "Feature",
   "geometry": {
    "type": "Point",
    "coordinates": [
     151.77458536,
     -24.54173715
    ]
   },
   "properties": {
    "name": "3472 LOWMEAD ROAD LOWMEAD 4676",
    "locID": "LOC000116079617",
    "tech": "NULL",
    "upgrade": "NULL_NA",
    "gnaf_pid": "GAQLD425796227",
    "tech_change_status": "Not Planned"
   }
  },
  {
   "type": "Feature",
   "geometry": {
    "type": "Point",
    "coordinates": [
     151.76556879,
     -24.60721028
    ]
   },
   "properties": {
    "name": "LOT 38 LOWMEAD ROAD LOWMEAD 4676",
    "locID": "LOC000039664813",
    "tech": "SATELLITE",
    "upgrade": "NULL_NA",
    "gnaf_pid": "GAQLD719622987",
    "tech_change_status": "Not Planned"
   }
  },
  {
   "type": "Feature",
   "geometry": {
    "type": "Point",
    "coordinates": [
     151.74372254,
     -24.50072637
    ]
   },
   "properties": {
    "name": "311 GORGE ROAD LOWMEAD 4676",
    "locID": "LOC000108664411",
    "tech": "NULL",
    "upgrade": "NULL_NA",
    "gnaf_pid": "GAQLD719713131",
    "tech_change_status": "Not Planned"
   }
  },
  {
   "type": "Feature",
   "geometry": {
    "type": "Point",
    "coordinates": [
     151.74371486,
     -24.51704386
    ]
   },
   "properties": {
    "name": "LOT 112 LOWMEAD ROAD LOWMEAD 4676",
    "locID": "LOC000128918763",
    "tech": "SATELLITE",
    "upgrade": "NULL_NA",
    "gnaf_pid": "GAQLD719961776",
    "tech_change_status": "Not Planned"
   }
  },
  {
   "type": "Feature",
   "geometry": {
    "type": "Point",
    "coordinates": [
     151.72580458,
     -24.49659819
    ]
   },
   "properties": {
    "name": "2677 LOWMEAD ROAD LOWMEAD 4676",
    "locID": "LOC100078614124",
    "tech": "SATELLITE",
    "upgrade": "NULL_NA",
    "gnaf_pid": "GAQLD720314087",
    "tech_change_status": "Not Planned"
   }
  },
  {
   "type": "Feature",
   "geometry": {
    "type": "Point",
    "coordinates": [
     151.71944508,
     -24.71559201
    ]
   },
   "properties": {
    "name": "398 STOCKBRIDGE ROAD LOWMEAD 4676",
    "locID": "LOC000180865198",
    "tech": "NULL",
    "upgrade": "NULL_NA",
    "gnaf_pid": "GAQLD720378273",
    "tech_change_status": "Not Planned"
   }
  },
  {
   "type": "Feature",
   "geometry": {
    "type": "Point",
    "coordinates": [
     151.68703874,
     -24.70945675
    ]
   },
   "properties": {
    "name": "LOT 28 BRUCE HIGHWAY LOWMEAD 4676",
    "locID": "LOC000033299981",
    "tech": "NULL",
    "upgrade": "NULL_NA",
    "gnaf_pid": "GAQLD720593169",
    "tech_change_status": "Not Planned"
   }
  },
  {
   "type": "Feature",
   "geometry": {
    "type": "Point",
    "coordinates": [
     151.73822138,
     -24.70679381
    ]
   },
   "properties": {
    "name": "426 STOCKBRIDGE ROAD LOWMEAD 4676",
    "locID": "LOC000180865198",
    "tech": "NULL",
    "upgrade": "NULL_NA",
    "gnaf_pid": "GAQLD720875029",
    "tech_change_status": "Not Planned"
   }
  },
  {
   "type": "Feature",
   "geometry": {
    "type": "Point",
    "coordinates": [
     151.752839,
     -24.52396743
    ]
   },
   "properties": {
    "name": "3161 LOWMEAD ROAD LOWMEAD 4676",
    "locID": "LOC100087346008",
    "tech": "NULL",
    "upgrade": "NULL_NA",
    "gnaf_pid": "GAQLD721149063",
    "tech_change_status": "Not Planned"
   }
  },
  {
   "type": "Feature",
   "geometry": {
    "type": "Point",
    "coordinates": [
     151.75313581,
     -24.52913515
    ]
   },
   "properties": {
    "name": "3171 LOWMEAD ROAD LOWMEAD 4676",
    "locID": "LOC100087688466",
    "tech": "NULL",
    "upgrade": "NULL_NA",
    "gnaf_pid": "GAQLD721504692",
    "tech_change_status": "Not Planned"
   }
  }
 ]
}