{
 "type": "FeatureCollection",
 "generated": "2025-02-07T11:51:28.577162",
 "suburb": "MIMOSA",
 "features": [
  {
   "type": "Feature",
   "geometry": {
    "type": "Point",
    "coordinates": [
     149.49029442,
     -24.25036246
    ]
   },
   "properties": {
    "name": "16368 FITZROY DEVELOPMENTAL ROAD MIMOSA 4702",
    "locID": "LOC000069645089",
    "tech": "SATELLITE",
    "upgrade": "NULL_NA",
    "gnaf_pid": "GAQLD160972183",
    "tech_change_status": "Not Planned"
   }
  },
  {
   "type": "Feature",
   "geometry": {
    "type": "Point",
    "coordinates": [
     149.52288408,
     -24.07554554
    ]
   },
   "properties": {
    "name": "17132 FITZROY DEVELOPMENTAL ROAD MIMOSA 4702",
    "locID": "LOC000065885686",
    "tech": "NULL",
    "upgrade": "NULL_NA",
    "gnaf_pid": "GAQLD160972184",
    "tech_change_status": "Not Planned"
   }
  },
  {
   "type": "Feature",
   "geometry": {
    "type": "Point",
    "coordinates": [
     149.67756813,
     -24.32826378
    ]
   },
   "properties": {
    "name": "LOT 35 COCKLEBINDA ROAD MIMOSA 4702",
    "locID": "LOC000019971713",
    "tech": "SATELLITE",
    "upgrade": "NULL_NA",
    "gnaf_pid": "GAQLD161106030",
    "tech_change_status": "Not Planned"
   }
  },
  {
   "type": "Feature",
   "geometry": {
    "type": "Point",
    "coordinates": [
     149.52829888,
     -24.13172644
    ]
   },
   "properties": {
    "name": "LOT 1 FITZROY DEVELOPMENTAL ROAD MIMOSA 4702",
    "locID": "LOC000142298493",
    "tech": "NULL",
    "upgrade": "NULL_NA",
    "gnaf_pid": "GAQLD161148576",
    "tech_change_status": "Not Planned"
   }
  },
  {
   "type": "Feature",
   "geometry": {
    "type": "Point",
    "coordinates": [
     149.61706567,
     -24.24277289
    ]
   },
   "properties": {
    "name": "LOT 36 REDCLIFFE ROAD MIMOSA 4702",
    "locID": "LOC000054740908",
    "tech": "SATELLITE",
    "upgrade": "NULL_NA",
    "gnaf_pid": "GAQLD161287649",
    "tech_change_status": "Not Planned"
   }
  },
  {
   "type": "Feature",
   "geometry": {
    "type": "Point",
    "coordinates": [
     149.60612128,
     -24.14873235
    ]
   },
   "properties": {
    "name": "LOT 3 REDCLIFFE ROAD MIMOSA 4702",
    "locID": "LOC000054740908",
    "tech": "SATELLITE",
    "upgrade": "NULL_NA",
    "gnaf_pid": "GAQLD161287650",
    "tech_change_status": "Not Planned"
   }
  },
  {
   "type": "Feature",
   "geometry": {
    "type": "Point",
    "coordinates": [
     149.54275014,
     -24.29258081
    ]
   },
   "properties": {
    "name": "LOT 62 REDCLIFFE ROAD MIMOSA 4702",
    "locID": "LOC000054740908",
    "tech": "SATELLITE",
    "upgrade": "NULL_NA",
    "gnaf_pid": "GAQLD161287653",
    "tech_change_status": "Not Planned"
   }
  },
  {
   "type": "Feature",
   "geometry": {
    "type": "Point",
    "coordinates": [
     149.53560287,
     -24.16616464
    ]
   },
   "properties": {
    "name": "LOT 6 REDCLIFFE ROAD MIMOSA 4702",
    "locID": "LOC000054740908",
    "tech": "SATELLITE",
    "upgrade": "NULL_NA",
    "gnaf_pid": "GAQLD161287654",
    "tech_change_status": "Not Planned"
   }
  },
  {
   "type": "Feature",
   "geometry": {
    "type": "Point",
    "coordinates": [
     149.56462911,
     -24.349484
    ]
   },
   "properties": {
    "name": "1840 REDCLIFFE ROAD MIMOSA 4702",
    "locID": "LOC000034161304",
    "tech": "SATELLITE",
    "upgrade": "NULL_NA",
    "gnaf_pid": "GAQLD161379937",
    "tech_change_status": "Not Planned"
   }
  },
  {
   "type": "Feature",
   "geometry": {
    "type": "Point",
    "coordinates": [
     149.55750039,
     -24.22174835
    ]
   },
   "properties": {
    "name": "690 REDCLIFFE ROAD MIMOSA 4702",
    "locID": "LOC000054740908",
    "tech": "SATELLITE",
    "upgrade": "NULL_NA",
    "gnaf_pid": "GAQLD161379938",
    "tech_change_status": "Not Planned"
   }
  },
  {
   "type": "Feature",
   "geometry": {
    "type": "Point",
    "coordinates": [
     149.68530944,
     -24.31168292
    ]
   },
   "properties": {
    "name": "598 COCKLEBINDA ROAD MIMOSA 4702",
    "locID": "LOC000049055226",
    "tech": "SATELLITE",
    "upgrade": "NULL_NA",
    "gnaf_pid": "GAQLD161653453",
    "tech_change_status": "Not Planned"
   }
  },
  {
   "type": "Feature",
   "geometry": {
    "type": "Point",
    "coordinates": [
     149.6481648,
     -24.25703326
    ]
   },
   "properties": {
    "name": "485 COCKLEBINDA ROAD MIMOSA 4702",
    "locID": "LOC000019971713",
    "tech": "SATELLITE",
    "upgrade": "NULL_NA",
    "gnaf_pid": "GAQLD161683549",
    "tech_change_status": "Not Planned"
   }
  },
  {
   "type": "Feature",
   "geometry": {
    "type": "Point",
    "coordinates": [
     149.74362213,
     -24.50614112
    ]
   },
   "properties": {
    "name": "1709 BEARS LAGOON ROAD MIMOSA 4702",
    "locID": "LOC000006693577",
    "tech": "SATELLITE",
    "upgrade": "NULL_NA",
    "gnaf_pid": "GAQLD161775793",
    "tech_change_status": "Not Planned"
   }
  },
  {
   "type": "Feature",
   "geometry": {
    "type": "Point",
    "coordinates": [
     149.72047374,
     -24.47232871
    ]
   },
   "properties": {
    "name": "2301 BEARS LAGOON ROAD MIMOSA 4702",
    "locID": "LOC000043011105",
    "tech": "NULL",
    "upgrade": "NULL_NA",
    "gnaf_pid": "GAQLD161775794",
    "tech_change_status": "Not Planned"
   }
  },
  {
   "type": "Feature",
   "geometry": {
    "type": "Point",
    "coordinates": [
     149.73836166,
     -24.38896446
    ]
   },
   "properties": {
    "name": "3794 REDCLIFFE ROAD MIMOSA 4702",
    "locID": "LOC000009451249",
    "tech": "NULL",
    "upgrade": "NULL_NA",
    "gnaf_pid": "GAQLD161796218",
    "tech_change_status": "Not Planned"
   }
  },
  {
   "type": "Feature",
   "geometry": {
    "type": "Point",
    "coordinates": [
     149.70011786,
     -24.42541575
    ]
   },
   "properties": {
    "name": "3483 BEARS LAGOON ROAD MIMOSA 4702",
    "locID": "LOC000070325992",
    "tech": "SATELLITE",
    "upgrade": "NULL_NA",
    "gnaf_pid": "GAQLD161806938",
    "tech_change_status": "Not Planned"
   }
  },
  {
   "type": "Feature",
   "geometry": {
    "type": "Point",
    "coordinates": [
     149.61751399,
     -24.37880145
    ]
   },
   "properties": {
    "name": "2745 REDCLIFFE ROAD MIMOSA 4702",
    "locID": "LOC000048887250",
    "tech": "SATELLITE",
    "upgrade": "NULL_NA",
    "gnaf_pid": "GAQLD162322180",
    "tech_change_status": "Not Planned"
   }
  },
  {
   "type": "Feature",
   "geometry": {
    "type": "Point",
    "coordinates": [
     149.65103051,
     -24.1326654
    ]
   },
   "properties": {
    "name": "LOT 24 FITZROY DEVELOPMENTAL ROAD MIMOSA 4702",
    "locID": "LOC000077893674",
    "tech": "NULL",
    "upgrade": "NULL_NA",
    "gnaf_pid": "GAQLD425475157",
    "tech_change_status": "Not Planned"
   }
  },
  {
   "type": "Feature",
   "geometry": {
    "type": "Point",
    "coordinates": [
     149.60946419,
     -24.06880416
    ]
   },
   "properties": {
    "name": "LOT 25 FITZROY DEVELOPMENTAL ROAD MIMOSA 4702",
    "locID": "LOC000078555070",
    "tech": "SATELLITE",
    "upgrade": "NULL_NA",
    "gnaf_pid": "GAQLD425475158",
    "tech_change_status": "Not Planned"
   }
  },
  {
   "type": "Feature",
   "geometry": {
    "type": "Point",
    "coordinates": [
     149.56413914,
     -24.09123141
    ]
   },
   "properties": {
    "name": "LOT 2 FITZROY DEVELOPMENTAL ROAD MIMOSA 4702",
    "locID": "LOC100079105994",
    "tech": "NULL",
    "upgrade": "NULL_NA",
    "gnaf_pid": "GAQLD425475159",
    "tech_change_status": "Not Planned"
   }
  },
  {
   "type": "Feature",
   "geometry": {
    "type": "Point",
    "coordinates": [
     149.58466874,
     -24.08303671
    ]
   },
   "properties": {
    "name": "LOT 212 REDCLIFFE ROAD MIMOSA 4702",
    "locID": "LOC000054740908",
    "tech": "SATELLITE",
    "upgrade": "NULL_NA",
    "gnaf_pid": "GAQLD720593535",
    "tech_change_status": "Not Planned"
   }
  }
 ]
}