{
 "type": "FeatureCollection",
 "generated": "2025-02-07T12:00:04.997302",
 "suburb": "MISSEN FLAT",
 "features": [
  {
   "type": "Feature",
   "geometry": {
    "type": "Point",
    "coordinates": [
     151.96949761,
     -27.90602928
    ]
   },
   "properties": {
    "name": "581 BEUTEL ROAD MISSEN FLAT 4361",
    "locID": "LOC000064105108",
    "tech": "WIRELESS",
    "upgrade": "NULL_NA",
    "gnaf_pid": "GAQLD155571676",
    "tech_change_status": "Not Planned",
    "program_type": "Fixed Wireless and Satellite Upgrade Program",
    "target_eligibility_quarter": "NA"
   }
  },
  {
   "type": "Feature",
   "geometry": {
    "type": "Point",
    "coordinates": [
     151.97958829,
     -27.90321936
    ]
   },
   "properties": {
    "name": "15987 NEW ENGLAND HIGHWAY MISSEN FLAT 4361",
    "locID": "LOC000008653559",
    "tech": "WIRELESS",
    "upgrade": "NULL_NA",
    "gnaf_pid": "GAQLD155571680",
    "tech_change_status": "Not Planned",
    "program_type": "Fixed Wireless and Satellite Upgrade Program",
    "target_eligibility_quarter": "NA"
   }
  },
  {
   "type": "Feature",
   "geometry": {
    "type": "Point",
    "coordinates": [
     151.95886918,
     -27.9005808
    ]
   },
   "properties": {
    "name": "260 WILLOW SPRINGS ROAD MISSEN FLAT 4361",
    "locID": "LOC000102763333",
    "tech": "WIRELESS",
    "upgrade": "NULL_NA",
    "gnaf_pid": "GAQLD155571682",
    "tech_change_status": "Not Planned",
    "program_type": "Fixed Wireless and Satellite Upgrade Program",
    "target_eligibility_quarter": "NA"
   }
  },
  {
   "type": "Feature",
   "geometry": {
    "type": "Point",
    "coordinates": [
     151.9813448,
     -27.89951032
    ]
   },
   "properties": {
    "name": "58 MITCHELL ROAD MISSEN FLAT 4361",
    "locID": "LOC000072361937",
    "tech": "WIRELESS",
    "upgrade": "NULL_NA",
    "gnaf_pid": "GAQLD160717051",
    "tech_change_status": "Not Planned",
    "program_type": "Fixed Wireless and Satellite Upgrade Program",
    "target_eligibility_quarter": "NA"
   }
  },
  {
   "type": "Feature",
   "geometry": {
    "type": "Point",
    "coordinates": [
     151.98158446,
     -27.8967282
    ]
   },
   "properties": {
    "name": "62 MITCHELL ROAD MISSEN FLAT 4361",
    "locID": "LOC000105594108",
    "tech": "WIRELESS",
    "upgrade": "NULL_NA",
    "gnaf_pid": "GAQLD160717052",
    "tech_change_status": "Not Planned",
    "program_type": "Fixed Wireless and Satellite Upgrade Program",
    "target_eligibility_quarter": "NA"
   }
  },
  {
   "type": "Feature",
   "geometry": {
    "type": "Point",
    "coordinates": [
     151.95886918,
     -27.9005808
    ]
   },
   "properties": {
    "name": "LOT 103 KUHN ROAD MISSEN FLAT 4361",
    "locID": "LOC000011673025",
    "tech": "WIRELESS",
    "upgrade": "NULL_NA",
    "gnaf_pid": "GAQLD161204906",
    "tech_change_status": "Not Planned",
    "program_type": "Fixed Wireless and Satellite Upgrade Program",
    "target_eligibility_quarter": "NA"
   }
  },
  {
   "type": "Feature",
   "geometry": {
    "type": "Point",
    "coordinates": [
     151.97479509,
     -27.90676451
    ]
   },
   "properties": {
    "name": "LOT 1 NEW ENGLAND HIGHWAY MISSEN FLAT 4361",
    "locID": "LOC000008653559",
    "tech": "WIRELESS",
    "upgrade": "NULL_NA",
    "gnaf_pid": "GAQLD161254417",
    "tech_change_status": "Not Planned",
    "program_type": "Fixed Wireless and Satellite Upgrade Program",
    "target_eligibility_quarter": "NA"
   }
  },
  {
   "type": "Feature",
   "geometry": {
    "type": "Point",
    "coordinates": [
     151.97860653,
     -27.90021854
    ]
   },
   "properties": {
    "name": "LOT 4 NEW ENGLAND HIGHWAY MISSEN FLAT 4361",
    "locID": "LOC000107644866",
    "tech": "WIRELESS",
    "upgrade": "NULL_NA",
    "gnaf_pid": "GAQLD161254420",
    "tech_change_status": "Not Planned",
    "program_type": "Fixed Wireless and Satellite Upgrade Program",
    "target_eligibility_quarter": "NA"
   }
  },
  {
   "type": "Feature",
   "geometry": {
    "type": "Point",
    "coordinates": [
     151.95909837,
     -27.90665721
    ]
   },
   "properties": {
    "name": "LOT 2 KUHN ROAD MISSEN FLAT 4361",
    "locID": "LOC000011673025",
    "tech": "WIRELESS",
    "upgrade": "NULL_NA",
    "gnaf_pid": "GAQLD161697477",
    "tech_change_status": "Not Planned",
    "program_type": "Fixed Wireless and Satellite Upgrade Program",
    "target_eligibility_quarter": "NA"
   }
  },
  {
   "type": "Feature",
   "geometry": {
    "type": "Point",
    "coordinates": [
     151.94962132,
     -27.90677801
    ]
   },
   "properties": {
    "name": "LOT 102 WILLOW SPRINGS ROAD MISSEN FLAT 4361",
    "locID": "LOC000127802529",
    "tech": "WIRELESS",
    "upgrade": "NULL_NA",
    "gnaf_pid": "GAQLD161721951",
    "tech_change_status": "Not Planned",
    "program_type": "Fixed Wireless and Satellite Upgrade Program",
    "target_eligibility_quarter": "NA"
   }
  },
  {
   "type": "Feature",
   "geometry": {
    "type": "Point",
    "coordinates": [
     151.94962132,
     -27.90677801
    ]
   },
   "properties": {
    "name": "LOT 1 WILLOW SPRINGS ROAD MISSEN FLAT 4361",
    "locID": "LOC000102763333",
    "tech": "WIRELESS",
    "upgrade": "NULL_NA",
    "gnaf_pid": "GAQLD161721953",
    "tech_change_status": "Not Planned",
    "program_type": "Fixed Wireless and Satellite Upgrade Program",
    "target_eligibility_quarter": "NA"
   }
  },
  {
   "type": "Feature",
   "geometry": {
    "type": "Point",
    "coordinates": [
     151.94962132,
     -27.90677801
    ]
   },
   "properties": {
    "name": "LOT 245 WILLOW SPRINGS ROAD MISSEN FLAT 4361",
    "locID": "LOC000111503388",
    "tech": "WIRELESS",
    "upgrade": "NULL_NA",
    "gnaf_pid": "GAQLD161721954",
    "tech_change_status": "Not Planned",
    "program_type": "Fixed Wireless and Satellite Upgrade Program",
    "target_eligibility_quarter": "NA"
   }
  },
  {
   "type": "Feature",
   "geometry": {
    "type": "Point",
    "coordinates": [
     151.94962132,
     -27.90677801
    ]
   },
   "properties": {
    "name": "LOT 2 WILLOW SPRINGS ROAD MISSEN FLAT 4361",
    "locID": "LOC000111503388",
    "tech": "WIRELESS",
    "upgrade": "NULL_NA",
    "gnaf_pid": "GAQLD161721955",
    "tech_change_status": "Not Planned",
    "program_type": "Fixed Wireless and Satellite Upgrade Program",
    "target_eligibility_quarter": "NA"
   }
  },
  {
   "type": "Feature",
   "geometry": {
    "type": "Point",
    "coordinates": [
     151.98183563,
     -27.91335654
    ]
   },
   "properties": {
    "name": "LOT 2 NEW ENGLAND HIGHWAY MISSEN FLAT 4361",
    "locID": "LOC000006636140",
    "tech": "WIRELESS",
    "upgrade": "NULL_NA",
    "gnaf_pid": "GAQLD163314715",
    "tech_change_status": "Not Planned"
   }
  },
  {
   "type": "Feature",
   "geometry": {
    "type": "Point",
    "coordinates": [
     151.95059317,
     -27.9034416
    ]
   },
   "properties": {
    "name": "311 WILLOW SPRINGS ROAD MISSEN FLAT 4361",
    "locID": "LOC000111503388",
    "tech": "WIRELESS",
    "upgrade": "NULL_NA",
    "gnaf_pid": "GAQLD163321873",
    "tech_change_status": "Not Planned",
    "program_type": "Fixed Wireless and Satellite Upgrade Program",
    "target_eligibility_quarter": "NA"
   }
  },
  {
   "type": "Feature",
   "geometry": {
    "type": "Point",
    "coordinates": [
     151.98104353,
     -27.89638434
    ]
   },
   "properties": {
    "name": "42 MITCHELL ROAD MISSEN FLAT 4361",
    "locID": "LOC000172438935",
    "tech": "WIRELESS",
    "upgrade": "NULL_NA",
    "gnaf_pid": "GAQLD719558309",
    "tech_change_status": "Not Planned",
    "program_type": "Fixed Wireless and Satellite Upgrade Program",
    "target_eligibility_quarter": "NA"
   }
  },
  {
   "type": "Feature",
   "geometry": {
    "type": "Point",
    "coordinates": [
     151.95509341,
     -27.9110828
    ]
   },
   "properties": {
    "name": "LOT 100 KUHN ROAD MISSEN FLAT 4361",
    "locID": "LOC000011673025",
    "tech": "WIRELESS",
    "upgrade": "NULL_NA",
    "gnaf_pid": "GAQLD720034437",
    "tech_change_status": "Not Planned",
    "program_type": "Fixed Wireless and Satellite Upgrade Program",
    "target_eligibility_quarter": "NA"
   }
  }
 ]
}