{
 "type": "FeatureCollection",
 "generated": "2025-03-05T03:12:32.744276",
 "suburb": "MOOMBRA",
 "features": [
  {
   "type": "Feature",
   "geometry": {
    "type": "Point",
    "coordinates": [
     152.51529574,
     -27.28852734
    ]
   },
   "properties": {
    "name": "4300 BRISBANE VALLEY HIGHWAY MOOMBRA 4312",
    "locID": "LOC000028112391",
    "tech": "WIRELESS",
    "upgrade": "NULL_NA",
    "gnaf_pid": "GAQLD159866186",
    "tech_change_status": "Not Planned",
    "program_type": "Fixed Wireless and Satellite Upgrade Program",
    "target_eligibility_quarter": "NA"
   }
  },
  {
   "type": "Feature",
   "geometry": {
    "type": "Point",
    "coordinates": [
     152.49672572,
     -27.26907841
    ]
   },
   "properties": {
    "name": "4570 BRISBANE VALLEY HIGHWAY MOOMBRA 4312",
    "locID": "LOC000066174991",
    "tech": "WIRELESS",
    "upgrade": "NULL_NA",
    "gnaf_pid": "GAQLD159866187",
    "tech_change_status": "Not Planned",
    "program_type": "Fixed Wireless and Satellite Upgrade Program",
    "target_eligibility_quarter": "NA"
   }
  },
  {
   "type": "Feature",
   "geometry": {
    "type": "Point",
    "coordinates": [
     152.52283209,
     -27.2814607
    ]
   },
   "properties": {
    "name": "LOT 2 BRISBANE VALLEY HIGHWAY MOOMBRA 4312",
    "locID": "LOC000095489202",
    "tech": "WIRELESS",
    "upgrade": "NULL_NA",
    "gnaf_pid": "GAQLD161078230",
    "tech_change_status": "Not Planned",
    "program_type": "Fixed Wireless and Satellite Upgrade Program",
    "target_eligibility_quarter": "NA"
   }
  },
  {
   "type": "Feature",
   "geometry": {
    "type": "Point",
    "coordinates": [
     152.46706419,
     -27.2770579
    ]
   },
   "properties": {
    "name": "LOT 38 BRISBANE VALLEY HIGHWAY MOOMBRA 4312",
    "locID": "LOC000023655513",
    "tech": "NULL",
    "upgrade": "NULL_NA",
    "gnaf_pid": "GAQLD161078233",
    "tech_change_status": "Not Planned"
   }
  },
  {
   "type": "Feature",
   "geometry": {
    "type": "Point",
    "coordinates": [
     152.50572111,
     -27.29029551
    ]
   },
   "properties": {
    "name": "LOT 3 BRISBANE VALLEY HIGHWAY MOOMBRA 4312",
    "locID": "LOC000023655513",
    "tech": "NULL",
    "upgrade": "NULL_NA",
    "gnaf_pid": "GAQLD161078234",
    "tech_change_status": "Not Planned"
   }
  },
  {
   "type": "Feature",
   "geometry": {
    "type": "Point",
    "coordinates": [
     152.49662432,
     -27.2721272
    ]
   },
   "properties": {
    "name": "1 MCGRATHS ROAD MOOMBRA 4312",
    "locID": "LOC000002539442",
    "tech": "WIRELESS",
    "upgrade": "NULL_NA",
    "gnaf_pid": "GAQLD161474251",
    "tech_change_status": "Not Planned",
    "program_type": "Fixed Wireless and Satellite Upgrade Program",
    "target_eligibility_quarter": "NA"
   }
  },
  {
   "type": "Feature",
   "geometry": {
    "type": "Point",
    "coordinates": [
     152.51768911,
     -27.2660185
    ]
   },
   "properties": {
    "name": "LOT 1 MCGRATHS ROAD MOOMBRA 4312",
    "locID": "LOC000002539442",
    "tech": "WIRELESS",
    "upgrade": "NULL_NA",
    "gnaf_pid": "GAQLD161702365",
    "tech_change_status": "Not Planned",
    "program_type": "Fixed Wireless and Satellite Upgrade Program",
    "target_eligibility_quarter": "NA"
   }
  },
  {
   "type": "Feature",
   "geometry": {
    "type": "Point",
    "coordinates": [
     152.5002385,
     -27.3249035
    ]
   },
   "properties": {
    "name": "3861 BRISBANE VALLEY HIGHWAY MOOMBRA 4312",
    "locID": "LOC000023655513",
    "tech": "NULL",
    "upgrade": "NULL_NA",
    "gnaf_pid": "GAQLD162013334",
    "tech_change_status": "Not Planned"
   }
  },
  {
   "type": "Feature",
   "geometry": {
    "type": "Point",
    "coordinates": [
     152.49072568,
     -27.26994533
    ]
   },
   "properties": {
    "name": "4597 BRISBANE VALLEY HIGHWAY MOOMBRA 4312",
    "locID": "LOC000095489202",
    "tech": "WIRELESS",
    "upgrade": "NULL_NA",
    "gnaf_pid": "GAQLD162013335",
    "tech_change_status": "Not Planned",
    "program_type": "Fixed Wireless and Satellite Upgrade Program",
    "target_eligibility_quarter": "NA"
   }
  },
  {
   "type": "Feature",
   "geometry": {
    "type": "Point",
    "coordinates": [
     152.51777084,
     -27.29662724
    ]
   },
   "properties": {
    "name": "LOT 4 HAMON ROAD MOOMBRA 4312",
    "locID": "LOC000127524032",
    "tech": "WIRELESS",
    "upgrade": "NULL_NA",
    "gnaf_pid": "GAQLD162034401",
    "tech_change_status": "Not Planned",
    "program_type": "Fixed Wireless and Satellite Upgrade Program",
    "target_eligibility_quarter": "NA"
   }
  },
  {
   "type": "Feature",
   "geometry": {
    "type": "Point",
    "coordinates": [
     152.51328839,
     -27.26693093
    ]
   },
   "properties": {
    "name": "LOT 2 MCGRATHS ROAD MOOMBRA 4312",
    "locID": "LOC100078026845",
    "tech": "WIRELESS",
    "upgrade": "NULL_NA",
    "gnaf_pid": "GAQLD163058089",
    "tech_change_status": "Not Planned",
    "program_type": "Fixed Wireless and Satellite Upgrade Program",
    "target_eligibility_quarter": "NA"
   }
  },
  {
   "type": "Feature",
   "geometry": {
    "type": "Point",
    "coordinates": [
     152.50501502,
     -27.26811531
    ]
   },
   "properties": {
    "name": "LOT 4 MCGRATHS ROAD MOOMBRA 4312",
    "locID": "LOC100078026845",
    "tech": "WIRELESS",
    "upgrade": "NULL_NA",
    "gnaf_pid": "GAQLD163058091",
    "tech_change_status": "Not Planned",
    "program_type": "Fixed Wireless and Satellite Upgrade Program",
    "target_eligibility_quarter": "NA"
   }
  },
  {
   "type": "Feature",
   "geometry": {
    "type": "Point",
    "coordinates": [
     152.50057486,
     -27.26943153
    ]
   },
   "properties": {
    "name": "13 MCGRATHS ROAD MOOMBRA 4312",
    "locID": "LOC000127560563",
    "tech": "WIRELESS",
    "upgrade": "NULL_NA",
    "gnaf_pid": "GAQLD163219520",
    "tech_change_status": "Not Planned",
    "program_type": "Fixed Wireless and Satellite Upgrade Program",
    "target_eligibility_quarter": "NA"
   }
  },
  {
   "type": "Feature",
   "geometry": {
    "type": "Point",
    "coordinates": [
     152.51927118,
     -27.34791817
    ]
   },
   "properties": {
    "name": "274 STELEY ROAD MOOMBRA 4312",
    "locID": "LOC000081782521",
    "tech": "WIRELESS",
    "upgrade": "NULL_NA",
    "gnaf_pid": "GAQLD163374900",
    "tech_change_status": "Not Planned",
    "program_type": "Fixed Wireless and Satellite Upgrade Program",
    "target_eligibility_quarter": "NA"
   }
  },
  {
   "type": "Feature",
   "geometry": {
    "type": "Point",
    "coordinates": [
     152.50496814,
     -27.33899134
    ]
   },
   "properties": {
    "name": "93 STELEY ROAD MOOMBRA 4312",
    "locID": "LOC000113149456",
    "tech": "WIRELESS",
    "upgrade": "NULL_NA",
    "gnaf_pid": "GAQLD163374901",
    "tech_change_status": "Not Planned",
    "program_type": "Fixed Wireless and Satellite Upgrade Program",
    "target_eligibility_quarter": "NA"
   }
  },
  {
   "type": "Feature",
   "geometry": {
    "type": "Point",
    "coordinates": [
     152.51216684,
     -27.29578475
    ]
   },
   "properties": {
    "name": "42 HAMON ROAD MOOMBRA 4312",
    "locID": "LOC000127524032",
    "tech": "WIRELESS",
    "upgrade": "NULL_NA",
    "gnaf_pid": "GAQLD424987146",
    "tech_change_status": "Not Planned",
    "program_type": "Fixed Wireless and Satellite Upgrade Program",
    "target_eligibility_quarter": "NA"
   }
  }
 ]
}