{
 "type": "FeatureCollection",
 "generated": "2026-05-16T00:56:08.776517",
 "suburb": "MOORLAND",
 "features": [
  {
   "type": "Feature",
   "geometry": {
    "type": "Point",
    "coordinates": [
     152.20387098,
     -24.7213826
    ]
   },
   "properties": {
    "name": "LOT 1 BOOYAN ROAD MOORLAND 4670",
    "locID": "LOC100087396520",
    "tech": "WIRELESS",
    "upgrade": "NULL_NA",
    "gnaf_pid": "GAQLD155562660",
    "tech_change_status": "Not Planned",
    "program_type": "Fixed Wireless and Satellite Upgrade Program",
    "target_eligibility_quarter": "NA"
   }
  },
  {
   "type": "Feature",
   "geometry": {
    "type": "Point",
    "coordinates": [
     152.23640489,
     -24.73397971
    ]
   },
   "properties": {
    "name": "439 BOOYAN ROAD MOORLAND 4670",
    "locID": "LOC000043492076",
    "tech": "WIRELESS",
    "upgrade": "NULL_NA",
    "gnaf_pid": "GAQLD155562661",
    "tech_change_status": "Not Planned",
    "program_type": "Fixed Wireless and Satellite Upgrade Program",
    "target_eligibility_quarter": "NA"
   }
  },
  {
   "type": "Feature",
   "geometry": {
    "type": "Point",
    "coordinates": [
     152.23658815,
     -24.73260786
    ]
   },
   "properties": {
    "name": "453 BOOYAN ROAD MOORLAND 4670",
    "locID": "LOC000030752069",
    "tech": "WIRELESS",
    "upgrade": "NULL_NA",
    "gnaf_pid": "GAQLD155562662",
    "tech_change_status": "Not Planned",
    "program_type": "Fixed Wireless and Satellite Upgrade Program",
    "target_eligibility_quarter": "NA"
   }
  },
  {
   "type": "Feature",
   "geometry": {
    "type": "Point",
    "coordinates": [
     152.22618006,
     -24.73487996
    ]
   },
   "properties": {
    "name": "523 BOOYAN ROAD MOORLAND 4670",
    "locID": "LOC000031604193",
    "tech": "WIRELESS",
    "upgrade": "NULL_NA",
    "gnaf_pid": "GAQLD155562663",
    "tech_change_status": "Not Planned",
    "program_type": "Fixed Wireless and Satellite Upgrade Program",
    "target_eligibility_quarter": "NA"
   }
  },
  {
   "type": "Feature",
   "geometry": {
    "type": "Point",
    "coordinates": [
     152.22734549,
     -24.73035475
    ]
   },
   "properties": {
    "name": "563 BOOYAN ROAD MOORLAND 4670",
    "locID": "LOC000177746187",
    "tech": "WIRELESS",
    "upgrade": "NULL_NA",
    "gnaf_pid": "GAQLD155562664",
    "tech_change_status": "Not Planned",
    "program_type": "Fixed Wireless and Satellite Upgrade Program",
    "target_eligibility_quarter": "NA"
   }
  },
  {
   "type": "Feature",
   "geometry": {
    "type": "Point",
    "coordinates": [
     152.20096634,
     -24.78635225
    ]
   },
   "properties": {
    "name": "205 QUINNS ROAD MOORLAND 4670",
    "locID": "LOC000073442671",
    "tech": "WIRELESS",
    "upgrade": "NULL_NA",
    "gnaf_pid": "GAQLD155562700",
    "tech_change_status": "Not Planned",
    "program_type": "Fixed Wireless and Satellite Upgrade Program",
    "target_eligibility_quarter": "NA"
   }
  },
  {
   "type": "Feature",
   "geometry": {
    "type": "Point",
    "coordinates": [
     152.20076506,
     -24.79244255
    ]
   },
   "properties": {
    "name": "283 QUINNS ROAD MOORLAND 4670",
    "locID": "LOC000100214990",
    "tech": "WIRELESS",
    "upgrade": "NULL_NA",
    "gnaf_pid": "GAQLD155562701",
    "tech_change_status": "Not Planned",
    "program_type": "Fixed Wireless and Satellite Upgrade Program",
    "target_eligibility_quarter": "NA"
   }
  },
  {
   "type": "Feature",
   "geometry": {
    "type": "Point",
    "coordinates": [
     152.20195502,
     -24.79259388
    ]
   },
   "properties": {
    "name": "291 QUINNS ROAD MOORLAND 4670",
    "locID": "LOC000104959750",
    "tech": "WIRELESS",
    "upgrade": "NULL_NA",
    "gnaf_pid": "GAQLD155562702",
    "tech_change_status": "Not Planned",
    "program_type": "Fixed Wireless and Satellite Upgrade Program",
    "target_eligibility_quarter": "NA"
   }
  },
  {
   "type": "Feature",
   "geometry": {
    "type": "Point",
    "coordinates": [
     152.22956376,
     -24.75151647
    ]
   },
   "properties": {
    "name": "286 VECELLIOS ROAD MOORLAND 4670",
    "locID": "LOC000058723348",
    "tech": "WIRELESS",
    "upgrade": "NULL_NA",
    "gnaf_pid": "GAQLD155564677",
    "tech_change_status": "Not Planned",
    "program_type": "Fixed Wireless and Satellite Upgrade Program",
    "target_eligibility_quarter": "NA"
   }
  },
  {
   "type": "Feature",
   "geometry": {
    "type": "Point",
    "coordinates": [
     152.21371998,
     -24.75694495
    ]
   },
   "properties": {
    "name": "456 VECELLIOS ROAD MOORLAND 4670",
    "locID": "LOC000033554816",
    "tech": "WIRELESS",
    "upgrade": "NULL_NA",
    "gnaf_pid": "GAQLD155564678",
    "tech_change_status": "Not Planned",
    "program_type": "Fixed Wireless and Satellite Upgrade Program",
    "target_eligibility_quarter": "NA"
   }
  },
  {
   "type": "Feature",
   "geometry": {
    "type": "Point",
    "coordinates": [
     152.23611754,
     -24.74581722
    ]
   },
   "properties": {
    "name": "LOT 2 VECELLIOS ROAD MOORLAND 4670",
    "locID": "LOC000058723348",
    "tech": "WIRELESS",
    "upgrade": "NULL_NA",
    "gnaf_pid": "GAQLD155950551",
    "tech_change_status": "Not Planned",
    "program_type": "Fixed Wireless and Satellite Upgrade Program",
    "target_eligibility_quarter": "NA"
   }
  },
  {
   "type": "Feature",
   "geometry": {
    "type": "Point",
    "coordinates": [
     152.2029162,
     -24.79944967
    ]
   },
   "properties": {
    "name": "376 QUINNS ROAD MOORLAND 4670",
    "locID": "LOC000001736650",
    "tech": "SATELLITE",
    "upgrade": "NULL_NA",
    "gnaf_pid": "GAQLD156048807",
    "tech_change_status": "Not Planned"
   }
  },
  {
   "type": "Feature",
   "geometry": {
    "type": "Point",
    "coordinates": [
     152.21075772,
     -24.76348879
    ]
   },
   "properties": {
    "name": "LOT 10 VECELLIOS ROAD MOORLAND 4670",
    "locID": "LOC000099486406",
    "tech": "WIRELESS",
    "upgrade": "NULL_NA",
    "gnaf_pid": "GAQLD156086712",
    "tech_change_status": "Not Planned",
    "program_type": "Fixed Wireless and Satellite Upgrade Program",
    "target_eligibility_quarter": "NA"
   }
  },
  {
   "type": "Feature",
   "geometry": {
    "type": "Point",
    "coordinates": [
     152.18279684,
     -24.72684546
    ]
   },
   "properties": {
    "name": "36 SCOTNEYS ROAD MOORLAND 4670",
    "locID": "LOC000083434630",
    "tech": "WIRELESS",
    "upgrade": "NULL_NA",
    "gnaf_pid": "GAQLD158274922",
    "tech_change_status": "Not Planned",
    "program_type": "Fixed Wireless and Satellite Upgrade Program",
    "target_eligibility_quarter": "NA"
   }
  },
  {
   "type": "Feature",
   "geometry": {
    "type": "Point",
    "coordinates": [
     152.21356499,
     -24.73318575
    ]
   },
   "properties": {
    "name": "80 STEWARTS ROAD MOORLAND 4670",
    "locID": "LOC000004136092",
    "tech": "WIRELESS",
    "upgrade": "NULL_NA",
    "gnaf_pid": "GAQLD158274923",
    "tech_change_status": "Not Planned",
    "program_type": "Fixed Wireless and Satellite Upgrade Program",
    "target_eligibility_quarter": "NA"
   }
  },
  {
   "type": "Feature",
   "geometry": {
    "type": "Point",
    "coordinates": [
     152.22321968,
     -24.74998862
    ]
   },
   "properties": {
    "name": "328 VECELLIOS ROAD MOORLAND 4670",
    "locID": "LOC000083478330",
    "tech": "WIRELESS",
    "upgrade": "NULL_NA",
    "gnaf_pid": "GAQLD158274924",
    "tech_change_status": "Not Planned",
    "program_type": "Fixed Wireless and Satellite Upgrade Program",
    "target_eligibility_quarter": "NA"
   }
  },
  {
   "type": "Feature",
   "geometry": {
    "type": "Point",
    "coordinates": [
     152.17719706,
     -24.73647101
    ]
   },
   "properties": {
    "name": "15 SCOTNEYS ROAD MOORLAND 4670",
    "locID": "LOC000009952924",
    "tech": "WIRELESS",
    "upgrade": "NULL_NA",
    "gnaf_pid": "GAQLD158274926",
    "tech_change_status": "Not Planned",
    "program_type": "Fixed Wireless and Satellite Upgrade Program",
    "target_eligibility_quarter": "NA"
   }
  },
  {
   "type": "Feature",
   "geometry": {
    "type": "Point",
    "coordinates": [
     152.23118546,
     -24.73166241
    ]
   },
   "properties": {
    "name": "521 BOOYAN ROAD MOORLAND 4670",
    "locID": "LOC000067279707",
    "tech": "SATELLITE",
    "upgrade": "NULL_NA",
    "gnaf_pid": "GAQLD158274927",
    "tech_change_status": "Not Planned"
   }
  },
  {
   "type": "Feature",
   "geometry": {
    "type": "Point",
    "coordinates": [
     152.24323102,
     -24.74090803
    ]
   },
   "properties": {
    "name": "100 VECELLIOS ROAD MOORLAND 4670",
    "locID": "LOC000099486406",
    "tech": "WIRELESS",
    "upgrade": "NULL_NA",
    "gnaf_pid": "GAQLD158274928",
    "tech_change_status": "Not Planned",
    "program_type": "Fixed Wireless and Satellite Upgrade Program",
    "target_eligibility_quarter": "NA"
   }
  },
  {
   "type": "Feature",
   "geometry": {
    "type": "Point",
    "coordinates": [
     152.23183846,
     -24.74177857
    ]
   },
   "properties": {
    "name": "351 BOOYAN ROAD MOORLAND 4670",
    "locID": "LOC000064819049",
    "tech": "WIRELESS",
    "upgrade": "NULL_NA",
    "gnaf_pid": "GAQLD158285075",
    "tech_change_status": "Not Planned",
    "program_type": "Fixed Wireless and Satellite Upgrade Program",
    "target_eligibility_quarter": "NA"
   }
  },
  {
   "type": "Feature",
   "geometry": {
    "type": "Point",
    "coordinates": [
     152.20339855,
     -24.8009944
    ]
   },
   "properties": {
    "name": "394 QUINNS ROAD MOORLAND 4670",
    "locID": "LOC000108318047",
    "tech": "WIRELESS",
    "upgrade": "NULL_NA",
    "gnaf_pid": "GAQLD158292951",
    "tech_change_status": "Not Planned",
    "program_type": "Fixed Wireless and Satellite Upgrade Program",
    "target_eligibility_quarter": "NA"
   }
  },
  {
   "type": "Feature",
   "geometry": {
    "type": "Point",
    "coordinates": [
     152.20803395,
     -24.77277159
    ]
   },
   "properties": {
    "name": "93 KNIGHTS ROAD MOORLAND 4670",
    "locID": "LOC000043783288",
    "tech": "WIRELESS",
    "upgrade": "NULL_NA",
    "gnaf_pid": "GAQLD158292954",
    "tech_change_status": "Not Planned",
    "program_type": "Fixed Wireless and Satellite Upgrade Program",
    "target_eligibility_quarter": "NA"
   }
  },
  {
   "type": "Feature",
   "geometry": {
    "type": "Point",
    "coordinates": [
     152.23617402,
     -24.73236029
    ]
   },
   "properties": {
    "name": "463 BOOYAN ROAD MOORLAND 4670",
    "locID": "LOC000027427489",
    "tech": "WIRELESS",
    "upgrade": "NULL_NA",
    "gnaf_pid": "GAQLD158294811",
    "tech_change_status": "Not Planned",
    "program_type": "Fixed Wireless and Satellite Upgrade Program",
    "target_eligibility_quarter": "NA"
   }
  },
  {
   "type": "Feature",
   "geometry": {
    "type": "Point",
    "coordinates": [
     152.20930178,
     -24.7705719
    ]
   },
   "properties": {
    "name": "94 KNIGHTS ROAD MOORLAND 4670",
    "locID": "LOC000070014050",
    "tech": "WIRELESS",
    "upgrade": "NULL_NA",
    "gnaf_pid": "GAQLD158298911",
    "tech_change_status": "Not Planned",
    "program_type": "Fixed Wireless and Satellite Upgrade Program",
    "target_eligibility_quarter": "NA"
   }
  },
  {
   "type": "Feature",
   "geometry": {
    "type": "Point",
    "coordinates": [
     152.19275602,
     -24.80431031
    ]
   },
   "properties": {
    "name": "27 PARCEMI ROAD MOORLAND 4670",
    "locID": "LOC000068625750",
    "tech": "WIRELESS",
    "upgrade": "NULL_NA",
    "gnaf_pid": "GAQLD158298912",
    "tech_change_status": "Not Planned",
    "program_type": "Fixed Wireless and Satellite Upgrade Program",
    "target_eligibility_quarter": "NA"
   }
  },
  {
   "type": "Feature",
   "geometry": {
    "type": "Point",
    "coordinates": [
     152.20352425,
     -24.80054075
    ]
   },
   "properties": {
    "name": "388 QUINNS ROAD MOORLAND 4670",
    "locID": "LOC000036392161",
    "tech": "WIRELESS",
    "upgrade": "NULL_NA",
    "gnaf_pid": "GAQLD158298913",
    "tech_change_status": "Not Planned",
    "program_type": "Fixed Wireless and Satellite Upgrade Program",
    "target_eligibility_quarter": "NA"
   }
  },
  {
   "type": "Feature",
   "geometry": {
    "type": "Point",
    "coordinates": [
     152.18864039,
     -24.76236979
    ]
   },
   "properties": {
    "name": "19 BOBBERMANS ROAD MOORLAND 4670",
    "locID": "LOC000004100734",
    "tech": "WIRELESS",
    "upgrade": "NULL_NA",
    "gnaf_pid": "GAQLD158298914",
    "tech_change_status": "Not Planned",
    "program_type": "Fixed Wireless and Satellite Upgrade Program",
    "target_eligibility_quarter": "NA"
   }
  },
  {
   "type": "Feature",
   "geometry": {
    "type": "Point",
    "coordinates": [
     152.18945237,
     -24.76107332
    ]
   },
   "properties": {
    "name": "20 BOBBERMANS ROAD MOORLAND 4670",
    "locID": "LOC000062763553",
    "tech": "WIRELESS",
    "upgrade": "NULL_NA",
    "gnaf_pid": "GAQLD158312428",
    "tech_change_status": "Not Planned",
    "program_type": "Fixed Wireless and Satellite Upgrade Program",
    "target_eligibility_quarter": "NA"
   }
  },
  {
   "type": "Feature",
   "geometry": {
    "type": "Point",
    "coordinates": [
     152.21577175,
     -24.7754633
    ]
   },
   "properties": {
    "name": "54 KNIGHTS ROAD MOORLAND 4670",
    "locID": "LOC000002521520",
    "tech": "WIRELESS",
    "upgrade": "NULL_NA",
    "gnaf_pid": "GAQLD158312431",
    "tech_change_status": "Not Planned",
    "program_type": "Fixed Wireless and Satellite Upgrade Program",
    "target_eligibility_quarter": "NA"
   }
  },
  {
   "type": "Feature",
   "geometry": {
    "type": "Point",
    "coordinates": [
     152.20152235,
     -24.80483693
    ]
   },
   "properties": {
    "name": "478 QUINNS ROAD MOORLAND 4670",
    "locID": "LOC000052169810",
    "tech": "WIRELESS",
    "upgrade": "NULL_NA",
    "gnaf_pid": "GAQLD158312433",
    "tech_change_status": "Not Planned",
    "program_type": "Fixed Wireless and Satellite Upgrade Program",
    "target_eligibility_quarter": "NA"
   }
  },
  {
   "type": "Feature",
   "geometry": {
    "type": "Point",
    "coordinates": [
     152.17186647,
     -24.73866335
    ]
   },
   "properties": {
    "name": "99 SCOTNEYS ROAD MOORLAND 4670",
    "locID": "LOC000046828585",
    "tech": "WIRELESS",
    "upgrade": "NULL_NA",
    "gnaf_pid": "GAQLD158315525",
    "tech_change_status": "Not Planned",
    "program_type": "Fixed Wireless and Satellite Upgrade Program",
    "target_eligibility_quarter": "NA"
   }
  },
  {
   "type": "Feature",
   "geometry": {
    "type": "Point",
    "coordinates": [
     152.22360563,
     -24.73021704
    ]
   },
   "properties": {
    "name": "597 BOOYAN ROAD MOORLAND 4670",
    "locID": "LOC000062869174",
    "tech": "WIRELESS",
    "upgrade": "NULL_NA",
    "gnaf_pid": "GAQLD158315530",
    "tech_change_status": "Not Planned",
    "program_type": "Fixed Wireless and Satellite Upgrade Program",
    "target_eligibility_quarter": "NA"
   }
  },
  {
   "type": "Feature",
   "geometry": {
    "type": "Point",
    "coordinates": [
     152.20753399,
     -24.74768949
    ]
   },
   "properties": {
    "name": "205 STEWARTS ROAD MOORLAND 4670",
    "locID": "LOC000045099829",
    "tech": "WIRELESS",
    "upgrade": "NULL_NA",
    "gnaf_pid": "GAQLD158315533",
    "tech_change_status": "Not Planned",
    "program_type": "Fixed Wireless and Satellite Upgrade Program",
    "target_eligibility_quarter": "NA"
   }
  },
  {
   "type": "Feature",
   "geometry": {
    "type": "Point",
    "coordinates": [
     152.22795828,
     -24.7503319
    ]
   },
   "properties": {
    "name": "294 VECELLIOS ROAD MOORLAND 4670",
    "locID": "LOC000060440729",
    "tech": "WIRELESS",
    "upgrade": "NULL_NA",
    "gnaf_pid": "GAQLD158315534",
    "tech_change_status": "Not Planned",
    "program_type": "Fixed Wireless and Satellite Upgrade Program",
    "target_eligibility_quarter": "NA"
   }
  },
  {
   "type": "Feature",
   "geometry": {
    "type": "Point",
    "coordinates": [
     152.21758417,
     -24.743248
    ]
   },
   "properties": {
    "name": "163 STEWARTS ROAD MOORLAND 4670",
    "locID": "LOC000065955885",
    "tech": "WIRELESS",
    "upgrade": "NULL_NA",
    "gnaf_pid": "GAQLD158315538",
    "tech_change_status": "Not Planned",
    "program_type": "Fixed Wireless and Satellite Upgrade Program",
    "target_eligibility_quarter": "NA"
   }
  },
  {
   "type": "Feature",
   "geometry": {
    "type": "Point",
    "coordinates": [
     152.22558496,
     -24.72772038
    ]
   },
   "properties": {
    "name": "585 BOOYAN ROAD MOORLAND 4670",
    "locID": "LOC000062798166",
    "tech": "WIRELESS",
    "upgrade": "NULL_NA",
    "gnaf_pid": "GAQLD158319407",
    "tech_change_status": "Not Planned",
    "program_type": "Fixed Wireless and Satellite Upgrade Program",
    "target_eligibility_quarter": "NA"
   }
  },
  {
   "type": "Feature",
   "geometry": {
    "type": "Point",
    "coordinates": [
     152.20370932,
     -24.79756592
    ]
   },
   "properties": {
    "name": "356 QUINNS ROAD MOORLAND 4670",
    "locID": "LOC000029107280",
    "tech": "WIRELESS",
    "upgrade": "NULL_NA",
    "gnaf_pid": "GAQLD158320969",
    "tech_change_status": "Not Planned",
    "program_type": "Fixed Wireless and Satellite Upgrade Program",
    "target_eligibility_quarter": "NA"
   }
  },
  {
   "type": "Feature",
   "geometry": {
    "type": "Point",
    "coordinates": [
     152.1964745,
     -24.77982959
    ]
   },
   "properties": {
    "name": "145 QUINNS ROAD MOORLAND 4670",
    "locID": "LOC000067043924",
    "tech": "WIRELESS",
    "upgrade": "NULL_NA",
    "gnaf_pid": "GAQLD158320971",
    "tech_change_status": "Not Planned",
    "program_type": "Fixed Wireless and Satellite Upgrade Program",
    "target_eligibility_quarter": "NA"
   }
  },
  {
   "type": "Feature",
   "geometry": {
    "type": "Point",
    "coordinates": [
     152.20370937,
     -24.79834614
    ]
   },
   "properties": {
    "name": "362 QUINNS ROAD MOORLAND 4670",
    "locID": "LOC000093270202",
    "tech": "WIRELESS",
    "upgrade": "NULL_NA",
    "gnaf_pid": "GAQLD158320972",
    "tech_change_status": "Not Planned",
    "program_type": "Fixed Wireless and Satellite Upgrade Program",
    "target_eligibility_quarter": "NA"
   }
  },
  {
   "type": "Feature",
   "geometry": {
    "type": "Point",
    "coordinates": [
     152.2029178,
     -24.79887836
    ]
   },
   "properties": {
    "name": "368 QUINNS ROAD MOORLAND 4670",
    "locID": "LOC000078233894",
    "tech": "WIRELESS",
    "upgrade": "NULL_NA",
    "gnaf_pid": "GAQLD158320973",
    "tech_change_status": "Not Planned",
    "program_type": "Fixed Wireless and Satellite Upgrade Program",
    "target_eligibility_quarter": "NA"
   }
  },
  {
   "type": "Feature",
   "geometry": {
    "type": "Point",
    "coordinates": [
     152.19813074,
     -24.80792879
    ]
   },
   "properties": {
    "name": "10 PARCEMI ROAD MOORLAND 4670",
    "locID": "LOC000065796279",
    "tech": "WIRELESS",
    "upgrade": "NULL_NA",
    "gnaf_pid": "GAQLD158320974",
    "tech_change_status": "Not Planned",
    "program_type": "Fixed Wireless and Satellite Upgrade Program",
    "target_eligibility_quarter": "NA"
   }
  },
  {
   "type": "Feature",
   "geometry": {
    "type": "Point",
    "coordinates": [
     152.18345547,
     -24.73099598
    ]
   },
   "properties": {
    "name": "22 SCOTNEYS ROAD MOORLAND 4670",
    "locID": "LOC000083882505",
    "tech": "WIRELESS",
    "upgrade": "NULL_NA",
    "gnaf_pid": "GAQLD158321146",
    "tech_change_status": "Not Planned",
    "program_type": "Fixed Wireless and Satellite Upgrade Program",
    "target_eligibility_quarter": "NA"
   }
  },
  {
   "type": "Feature",
   "geometry": {
    "type": "Point",
    "coordinates": [
     152.22391719,
     -24.72706862
    ]
   },
   "properties": {
    "name": "599 BOOYAN ROAD MOORLAND 4670",
    "locID": "LOC000097811405",
    "tech": "WIRELESS",
    "upgrade": "NULL_NA",
    "gnaf_pid": "GAQLD158321148",
    "tech_change_status": "Not Planned",
    "program_type": "Fixed Wireless and Satellite Upgrade Program",
    "target_eligibility_quarter": "NA"
   }
  },
  {
   "type": "Feature",
   "geometry": {
    "type": "Point",
    "coordinates": [
     152.19063029,
     -24.80270688
    ]
   },
   "properties": {
    "name": "1328 ROSEDALE ROAD MOORLAND 4670",
    "locID": "LOC000008274177",
    "tech": "WIRELESS",
    "upgrade": "NULL_NA",
    "gnaf_pid": "GAQLD158323071",
    "tech_change_status": "Not Planned",
    "program_type": "Fixed Wireless and Satellite Upgrade Program",
    "target_eligibility_quarter": "NA"
   }
  },
  {
   "type": "Feature",
   "geometry": {
    "type": "Point",
    "coordinates": [
     152.19473188,
     -24.78590724
    ]
   },
   "properties": {
    "name": "206 QUINNS ROAD MOORLAND 4670",
    "locID": "LOC000105562379",
    "tech": "WIRELESS",
    "upgrade": "NULL_NA",
    "gnaf_pid": "GAQLD158323072",
    "tech_change_status": "Not Planned",
    "program_type": "Fixed Wireless and Satellite Upgrade Program",
    "target_eligibility_quarter": "NA"
   }
  },
  {
   "type": "Feature",
   "geometry": {
    "type": "Point",
    "coordinates": [
     152.19987563,
     -24.79539261
    ]
   },
   "properties": {
    "name": "288 QUINNS ROAD MOORLAND 4670",
    "locID": "LOC000104817570",
    "tech": "WIRELESS",
    "upgrade": "NULL_NA",
    "gnaf_pid": "GAQLD158323079",
    "tech_change_status": "Not Planned",
    "program_type": "Fixed Wireless and Satellite Upgrade Program",
    "target_eligibility_quarter": "NA"
   }
  },
  {
   "type": "Feature",
   "geometry": {
    "type": "Point",
    "coordinates": [
     152.20337056,
     -24.80167489
    ]
   },
   "properties": {
    "name": "402 QUINNS ROAD MOORLAND 4670",
    "locID": "LOC000014159150",
    "tech": "SATELLITE",
    "upgrade": "NULL_NA",
    "gnaf_pid": "GAQLD158323081",
    "tech_change_status": "Not Planned"
   }
  },
  {
   "type": "Feature",
   "geometry": {
    "type": "Point",
    "coordinates": [
     152.20192443,
     -24.80043401
    ]
   },
   "properties": {
    "name": "382 QUINNS ROAD MOORLAND 4670",
    "locID": "LOC000068855546",
    "tech": "WIRELESS",
    "upgrade": "NULL_NA",
    "gnaf_pid": "GAQLD158323082",
    "tech_change_status": "Not Planned",
    "program_type": "Fixed Wireless and Satellite Upgrade Program",
    "target_eligibility_quarter": "NA"
   }
  },
  {
   "type": "Feature",
   "geometry": {
    "type": "Point",
    "coordinates": [
     152.20432233,
     -24.81025189
    ]
   },
   "properties": {
    "name": "1170 ROSEDALE ROAD MOORLAND 4670",
    "locID": "LOC000188075785",
    "tech": "WIRELESS",
    "upgrade": "NULL_NA",
    "gnaf_pid": "GAQLD158323084",
    "tech_change_status": "Not Planned",
    "program_type": "Fixed Wireless and Satellite Upgrade Program",
    "target_eligibility_quarter": "NA"
   }
  },
  {
   "type": "Feature",
   "geometry": {
    "type": "Point",
    "coordinates": [
     152.20319206,
     -24.81098328
    ]
   },
   "properties": {
    "name": "1176 ROSEDALE ROAD MOORLAND 4670",
    "locID": "LOC000019959715",
    "tech": "WIRELESS",
    "upgrade": "NULL_NA",
    "gnaf_pid": "GAQLD158323085",
    "tech_change_status": "Not Planned",
    "program_type": "Fixed Wireless and Satellite Upgrade Program",
    "target_eligibility_quarter": "NA"
   }
  },
  {
   "type": "Feature",
   "geometry": {
    "type": "Point",
    "coordinates": [
     152.20020938,
     -24.79203032
    ]
   },
   "properties": {
    "name": "279 QUINNS ROAD MOORLAND 4670",
    "locID": "LOC000010841474",
    "tech": "WIRELESS",
    "upgrade": "NULL_NA",
    "gnaf_pid": "GAQLD158323086",
    "tech_change_status": "Not Planned",
    "program_type": "Fixed Wireless and Satellite Upgrade Program",
    "target_eligibility_quarter": "NA"
   }
  },
  {
   "type": "Feature",
   "geometry": {
    "type": "Point",
    "coordinates": [
     152.17258337,
     -24.73365211
    ]
   },
   "properties": {
    "name": "97 SCOTNEYS ROAD MOORLAND 4670",
    "locID": "LOC000047128475",
    "tech": "WIRELESS",
    "upgrade": "NULL_NA",
    "gnaf_pid": "GAQLD158323228",
    "tech_change_status": "Not Planned",
    "program_type": "Fixed Wireless and Satellite Upgrade Program",
    "target_eligibility_quarter": "NA"
   }
  },
  {
   "type": "Feature",
   "geometry": {
    "type": "Point",
    "coordinates": [
     152.22884849,
     -24.73139983
    ]
   },
   "properties": {
    "name": "525 BOOYAN ROAD MOORLAND 4670",
    "locID": "LOC000077705624",
    "tech": "WIRELESS",
    "upgrade": "NULL_NA",
    "gnaf_pid": "GAQLD158323229",
    "tech_change_status": "Not Planned",
    "program_type": "Fixed Wireless and Satellite Upgrade Program",
    "target_eligibility_quarter": "NA"
   }
  },
  {
   "type": "Feature",
   "geometry": {
    "type": "Point",
    "coordinates": [
     152.17606406,
     -24.73323476
    ]
   },
   "properties": {
    "name": "95 SCOTNEYS ROAD MOORLAND 4670",
    "locID": "LOC000068590355",
    "tech": "WIRELESS",
    "upgrade": "NULL_NA",
    "gnaf_pid": "GAQLD158323231",
    "tech_change_status": "Not Planned",
    "program_type": "Fixed Wireless and Satellite Upgrade Program",
    "target_eligibility_quarter": "NA"
   }
  },
  {
   "type": "Feature",
   "geometry": {
    "type": "Point",
    "coordinates": [
     152.17642062,
     -24.72448622
    ]
   },
   "properties": {
    "name": "96 SCOTNEYS ROAD MOORLAND 4670",
    "locID": "LOC000014399100",
    "tech": "WIRELESS",
    "upgrade": "NULL_NA",
    "gnaf_pid": "GAQLD158323232",
    "tech_change_status": "Not Planned",
    "program_type": "Fixed Wireless and Satellite Upgrade Program",
    "target_eligibility_quarter": "NA"
   }
  },
  {
   "type": "Feature",
   "geometry": {
    "type": "Point",
    "coordinates": [
     152.23263903,
     -24.7328667
    ]
   },
   "properties": {
    "name": "503 BOOYAN ROAD MOORLAND 4670",
    "locID": "LOC000078281946",
    "tech": "WIRELESS",
    "upgrade": "NULL_NA",
    "gnaf_pid": "GAQLD158323233",
    "tech_change_status": "Not Planned",
    "program_type": "Fixed Wireless and Satellite Upgrade Program",
    "target_eligibility_quarter": "NA"
   }
  },
  {
   "type": "Feature",
   "geometry": {
    "type": "Point",
    "coordinates": [
     152.2257539,
     -24.72983824
    ]
   },
   "properties": {
    "name": "577 BOOYAN ROAD MOORLAND 4670",
    "locID": "LOC000035835463",
    "tech": "WIRELESS",
    "upgrade": "NULL_NA",
    "gnaf_pid": "GAQLD158323238",
    "tech_change_status": "Not Planned",
    "program_type": "Fixed Wireless and Satellite Upgrade Program",
    "target_eligibility_quarter": "NA"
   }
  },
  {
   "type": "Feature",
   "geometry": {
    "type": "Point",
    "coordinates": [
     152.24934762,
     -24.73647008
    ]
   },
   "properties": {
    "name": "319 BOOYAN ROAD MOORLAND 4670",
    "locID": "LOC000093197992",
    "tech": "WIRELESS",
    "upgrade": "NULL_NA",
    "gnaf_pid": "GAQLD158323241",
    "tech_change_status": "Not Planned",
    "program_type": "Fixed Wireless and Satellite Upgrade Program",
    "target_eligibility_quarter": "NA"
   }
  },
  {
   "type": "Feature",
   "geometry": {
    "type": "Point",
    "coordinates": [
     152.24455407,
     -24.73516946
    ]
   },
   "properties": {
    "name": "369 BOOYAN ROAD MOORLAND 4670",
    "locID": "LOC000047313171",
    "tech": "WIRELESS",
    "upgrade": "NULL_NA",
    "gnaf_pid": "GAQLD158325654",
    "tech_change_status": "Not Planned",
    "program_type": "Fixed Wireless and Satellite Upgrade Program",
    "target_eligibility_quarter": "NA"
   }
  },
  {
   "type": "Feature",
   "geometry": {
    "type": "Point",
    "coordinates": [
     152.19835306,
     -24.79097149
    ]
   },
   "properties": {
    "name": "260 QUINNS ROAD MOORLAND 4670",
    "locID": "LOC000067886162",
    "tech": "WIRELESS",
    "upgrade": "NULL_NA",
    "gnaf_pid": "GAQLD158326991",
    "tech_change_status": "Not Planned",
    "program_type": "Fixed Wireless and Satellite Upgrade Program",
    "target_eligibility_quarter": "NA"
   }
  },
  {
   "type": "Feature",
   "geometry": {
    "type": "Point",
    "coordinates": [
     152.23871525,
     -24.73991874
    ]
   },
   "properties": {
    "name": "353 BOOYAN ROAD MOORLAND 4670",
    "locID": "LOC100079082467",
    "tech": "WIRELESS",
    "upgrade": "NULL_NA",
    "gnaf_pid": "GAQLD158329471",
    "tech_change_status": "Not Planned",
    "program_type": "Fixed Wireless and Satellite Upgrade Program",
    "target_eligibility_quarter": "NA"
   }
  },
  {
   "type": "Feature",
   "geometry": {
    "type": "Point",
    "coordinates": [
     152.19054323,
     -24.77633756
    ]
   },
   "properties": {
    "name": "81 HUNTS CROSSING ROAD MOORLAND 4670",
    "locID": "LOC000016576846",
    "tech": "WIRELESS",
    "upgrade": "NULL_NA",
    "gnaf_pid": "GAQLD160289760",
    "tech_change_status": "Not Planned",
    "program_type": "Fixed Wireless and Satellite Upgrade Program",
    "target_eligibility_quarter": "NA"
   }
  },
  {
   "type": "Feature",
   "geometry": {
    "type": "Point",
    "coordinates": [
     152.18795417,
     -24.77241304
    ]
   },
   "properties": {
    "name": "82 HUNTS CROSSING ROAD MOORLAND 4670",
    "locID": "LOC000042935927",
    "tech": "WIRELESS",
    "upgrade": "NULL_NA",
    "gnaf_pid": "GAQLD160289761",
    "tech_change_status": "Not Planned",
    "program_type": "Fixed Wireless and Satellite Upgrade Program",
    "target_eligibility_quarter": "NA"
   }
  },
  {
   "type": "Feature",
   "geometry": {
    "type": "Point",
    "coordinates": [
     152.21297396,
     -24.77260432
    ]
   },
   "properties": {
    "name": "74 KNIGHTS ROAD MOORLAND 4670",
    "locID": "LOC000101696819",
    "tech": "WIRELESS",
    "upgrade": "NULL_NA",
    "gnaf_pid": "GAQLD160289763",
    "tech_change_status": "Not Planned",
    "program_type": "Fixed Wireless and Satellite Upgrade Program",
    "target_eligibility_quarter": "NA"
   }
  },
  {
   "type": "Feature",
   "geometry": {
    "type": "Point",
    "coordinates": [
     152.22975276,
     -24.74989443
    ]
   },
   "properties": {
    "name": "274 VECELLIOS ROAD MOORLAND 4670",
    "locID": "LOC000089285873",
    "tech": "WIRELESS",
    "upgrade": "NULL_NA",
    "gnaf_pid": "GAQLD160290512",
    "tech_change_status": "Not Planned",
    "program_type": "Fixed Wireless and Satellite Upgrade Program",
    "target_eligibility_quarter": "NA"
   }
  },
  {
   "type": "Feature",
   "geometry": {
    "type": "Point",
    "coordinates": [
     152.20436744,
     -24.76982142
    ]
   },
   "properties": {
    "name": "964 MOORLANDS ROAD MOORLAND 4670",
    "locID": "LOC000097236890",
    "tech": "WIRELESS",
    "upgrade": "NULL_NA",
    "gnaf_pid": "GAQLD160295145",
    "tech_change_status": "Eligible to Order",
    "program_type": "Fixed Wireless and Satellite Upgrade Program",
    "target_eligibility_quarter": "NA"
   }
  },
  {
   "type": "Feature",
   "geometry": {
    "type": "Point",
    "coordinates": [
     152.198915,
     -24.77001312
    ]
   },
   "properties": {
    "name": "970 MOORLANDS ROAD MOORLAND 4670",
    "locID": "LOC000099127654",
    "tech": "SATELLITE",
    "upgrade": "NULL_NA",
    "gnaf_pid": "GAQLD160295146",
    "tech_change_status": "Not Planned"
   }
  },
  {
   "type": "Feature",
   "geometry": {
    "type": "Point",
    "coordinates": [
     152.19762098,
     -24.76761937
    ]
   },
   "properties": {
    "name": "1000 MOORLANDS ROAD MOORLAND 4670",
    "locID": "LOC000039500470",
    "tech": "WIRELESS",
    "upgrade": "NULL_NA",
    "gnaf_pid": "GAQLD160295147",
    "tech_change_status": "Not Planned",
    "program_type": "Fixed Wireless and Satellite Upgrade Program",
    "target_eligibility_quarter": "NA"
   }
  },
  {
   "type": "Feature",
   "geometry": {
    "type": "Point",
    "coordinates": [
     152.19634064,
     -24.76513959
    ]
   },
   "properties": {
    "name": "1040 MOORLANDS ROAD MOORLAND 4670",
    "locID": "LOC000043282399",
    "tech": "WIRELESS",
    "upgrade": "NULL_NA",
    "gnaf_pid": "GAQLD160295148",
    "tech_change_status": "Not Planned",
    "program_type": "Fixed Wireless and Satellite Upgrade Program",
    "target_eligibility_quarter": "NA"
   }
  },
  {
   "type": "Feature",
   "geometry": {
    "type": "Point",
    "coordinates": [
     152.19830734,
     -24.76081509
    ]
   },
   "properties": {
    "name": "1056 MOORLANDS ROAD MOORLAND 4670",
    "locID": "LOC000083824315",
    "tech": "WIRELESS",
    "upgrade": "NULL_NA",
    "gnaf_pid": "GAQLD160295149",
    "tech_change_status": "Not Planned",
    "program_type": "Fixed Wireless and Satellite Upgrade Program",
    "target_eligibility_quarter": "NA"
   }
  },
  {
   "type": "Feature",
   "geometry": {
    "type": "Point",
    "coordinates": [
     152.1896209,
     -24.75961181
    ]
   },
   "properties": {
    "name": "1117 MOORLANDS ROAD MOORLAND 4670",
    "locID": "LOC000075967148",
    "tech": "WIRELESS",
    "upgrade": "NULL_NA",
    "gnaf_pid": "GAQLD160295150",
    "tech_change_status": "Not Planned",
    "program_type": "Fixed Wireless and Satellite Upgrade Program",
    "target_eligibility_quarter": "NA"
   }
  },
  {
   "type": "Feature",
   "geometry": {
    "type": "Point",
    "coordinates": [
     152.19090739,
     -24.75845924
    ]
   },
   "properties": {
    "name": "1124 MOORLANDS ROAD MOORLAND 4670",
    "locID": "LOC000087768812",
    "tech": "WIRELESS",
    "upgrade": "NULL_NA",
    "gnaf_pid": "GAQLD160295151",
    "tech_change_status": "Not Planned",
    "program_type": "Fixed Wireless and Satellite Upgrade Program",
    "target_eligibility_quarter": "NA"
   }
  },
  {
   "type": "Feature",
   "geometry": {
    "type": "Point",
    "coordinates": [
     152.18565503,
     -24.75243426
    ]
   },
   "properties": {
    "name": "1215 MOORLANDS ROAD MOORLAND 4670",
    "locID": "LOC000013339371",
    "tech": "WIRELESS",
    "upgrade": "NULL_NA",
    "gnaf_pid": "GAQLD160295152",
    "tech_change_status": "Not Planned",
    "program_type": "Fixed Wireless and Satellite Upgrade Program",
    "target_eligibility_quarter": "NA"
   }
  },
  {
   "type": "Feature",
   "geometry": {
    "type": "Point",
    "coordinates": [
     152.18427632,
     -24.74986199
    ]
   },
   "properties": {
    "name": "1243 MOORLANDS ROAD MOORLAND 4670",
    "locID": "LOC000097339129",
    "tech": "WIRELESS",
    "upgrade": "NULL_NA",
    "gnaf_pid": "GAQLD160295153",
    "tech_change_status": "Not Planned",
    "program_type": "Fixed Wireless and Satellite Upgrade Program",
    "target_eligibility_quarter": "NA"
   }
  },
  {
   "type": "Feature",
   "geometry": {
    "type": "Point",
    "coordinates": [
     152.1855496,
     -24.74894773
    ]
   },
   "properties": {
    "name": "1252 MOORLANDS ROAD MOORLAND 4670",
    "locID": "LOC000002547156",
    "tech": "WIRELESS",
    "upgrade": "NULL_NA",
    "gnaf_pid": "GAQLD160295154",
    "tech_change_status": "Not Planned",
    "program_type": "Fixed Wireless and Satellite Upgrade Program",
    "target_eligibility_quarter": "NA"
   }
  },
  {
   "type": "Feature",
   "geometry": {
    "type": "Point",
    "coordinates": [
     152.18474985,
     -24.74530352
    ]
   },
   "properties": {
    "name": "1262 MOORLANDS ROAD MOORLAND 4670",
    "locID": "LOC000022553848",
    "tech": "WIRELESS",
    "upgrade": "NULL_NA",
    "gnaf_pid": "GAQLD160295155",
    "tech_change_status": "Not Planned",
    "program_type": "Fixed Wireless and Satellite Upgrade Program",
    "target_eligibility_quarter": "NA"
   }
  },
  {
   "type": "Feature",
   "geometry": {
    "type": "Point",
    "coordinates": [
     152.18961585,
     -24.73345684
    ]
   },
   "properties": {
    "name": "1505 MOORLANDS ROAD MOORLAND 4670",
    "locID": "LOC000054853819",
    "tech": "WIRELESS",
    "upgrade": "NULL_NA",
    "gnaf_pid": "GAQLD160295156",
    "tech_change_status": "Not Planned",
    "program_type": "Fixed Wireless and Satellite Upgrade Program",
    "target_eligibility_quarter": "NA"
   }
  },
  {
   "type": "Feature",
   "geometry": {
    "type": "Point",
    "coordinates": [
     152.19715187,
     -24.72928896
    ]
   },
   "properties": {
    "name": "1622 MOORLANDS ROAD MOORLAND 4670",
    "locID": "LOC000017511520",
    "tech": "WIRELESS",
    "upgrade": "NULL_NA",
    "gnaf_pid": "GAQLD160295157",
    "tech_change_status": "Not Planned",
    "program_type": "Fixed Wireless and Satellite Upgrade Program",
    "target_eligibility_quarter": "NA"
   }
  },
  {
   "type": "Feature",
   "geometry": {
    "type": "Point",
    "coordinates": [
     152.19098862,
     -24.71840376
    ]
   },
   "properties": {
    "name": "1681 MOORLANDS ROAD MOORLAND 4670",
    "locID": "LOC000065811692",
    "tech": "WIRELESS",
    "upgrade": "NULL_NA",
    "gnaf_pid": "GAQLD160295158",
    "tech_change_status": "Not Planned",
    "program_type": "Fixed Wireless and Satellite Upgrade Program",
    "target_eligibility_quarter": "NA"
   }
  },
  {
   "type": "Feature",
   "geometry": {
    "type": "Point",
    "coordinates": [
     152.19185787,
     -24.71610512
    ]
   },
   "properties": {
    "name": "1723 MOORLANDS ROAD MOORLAND 4670",
    "locID": "LOC000098976702",
    "tech": "WIRELESS",
    "upgrade": "NULL_NA",
    "gnaf_pid": "GAQLD160295159",
    "tech_change_status": "Not Planned",
    "program_type": "Fixed Wireless and Satellite Upgrade Program",
    "target_eligibility_quarter": "NA"
   }
  },
  {
   "type": "Feature",
   "geometry": {
    "type": "Point",
    "coordinates": [
     152.19323315,
     -24.71570253
    ]
   },
   "properties": {
    "name": "1735 MOORLANDS ROAD MOORLAND 4670",
    "locID": "LOC000105098541",
    "tech": "WIRELESS",
    "upgrade": "NULL_NA",
    "gnaf_pid": "GAQLD160295160",
    "tech_change_status": "Not Planned",
    "program_type": "Fixed Wireless and Satellite Upgrade Program",
    "target_eligibility_quarter": "NA"
   }
  },
  {
   "type": "Feature",
   "geometry": {
    "type": "Point",
    "coordinates": [
     152.19184705,
     -24.71418376
    ]
   },
   "properties": {
    "name": "1749 MOORLANDS ROAD MOORLAND 4670",
    "locID": "LOC000106832394",
    "tech": "WIRELESS",
    "upgrade": "NULL_NA",
    "gnaf_pid": "GAQLD160295161",
    "tech_change_status": "Not Planned",
    "program_type": "Fixed Wireless and Satellite Upgrade Program",
    "target_eligibility_quarter": "NA"
   }
  },
  {
   "type": "Feature",
   "geometry": {
    "type": "Point",
    "coordinates": [
     152.21810538,
     -24.77941989
    ]
   },
   "properties": {
    "name": "742 MOORLANDS ROAD MOORLAND 4670",
    "locID": "LOC000016695191",
    "tech": "WIRELESS",
    "upgrade": "NULL_NA",
    "gnaf_pid": "GAQLD160303021",
    "tech_change_status": "Not Planned",
    "program_type": "Fixed Wireless and Satellite Upgrade Program",
    "target_eligibility_quarter": "NA"
   }
  },
  {
   "type": "Feature",
   "geometry": {
    "type": "Point",
    "coordinates": [
     152.21401249,
     -24.77902965
    ]
   },
   "properties": {
    "name": "766 MOORLANDS ROAD MOORLAND 4670",
    "locID": "LOC000020944856",
    "tech": "WIRELESS",
    "upgrade": "NULL_NA",
    "gnaf_pid": "GAQLD160303022",
    "tech_change_status": "Not Planned",
    "program_type": "Fixed Wireless and Satellite Upgrade Program",
    "target_eligibility_quarter": "NA"
   }
  },
  {
   "type": "Feature",
   "geometry": {
    "type": "Point",
    "coordinates": [
     152.21234276,
     -24.77785734
    ]
   },
   "properties": {
    "name": "790 MOORLANDS ROAD MOORLAND 4670",
    "locID": "LOC000081425005",
    "tech": "WIRELESS",
    "upgrade": "NULL_NA",
    "gnaf_pid": "GAQLD160303023",
    "tech_change_status": "Not Planned",
    "program_type": "Fixed Wireless and Satellite Upgrade Program",
    "target_eligibility_quarter": "NA"
   }
  },
  {
   "type": "Feature",
   "geometry": {
    "type": "Point",
    "coordinates": [
     152.20730092,
     -24.7756889
    ]
   },
   "properties": {
    "name": "838 MOORLANDS ROAD MOORLAND 4670",
    "locID": "LOC000093628264",
    "tech": "WIRELESS",
    "upgrade": "NULL_NA",
    "gnaf_pid": "GAQLD160303024",
    "tech_change_status": "Not Planned",
    "program_type": "Fixed Wireless and Satellite Upgrade Program",
    "target_eligibility_quarter": "NA"
   }
  },
  {
   "type": "Feature",
   "geometry": {
    "type": "Point",
    "coordinates": [
     152.20112228,
     -24.77437579
    ]
   },
   "properties": {
    "name": "940 MOORLANDS ROAD MOORLAND 4670",
    "locID": "LOC000012755235",
    "tech": "WIRELESS",
    "upgrade": "NULL_NA",
    "gnaf_pid": "GAQLD160303025",
    "tech_change_status": "Not Planned",
    "program_type": "Fixed Wireless and Satellite Upgrade Program",
    "target_eligibility_quarter": "NA"
   }
  },
  {
   "type": "Feature",
   "geometry": {
    "type": "Point",
    "coordinates": [
     152.20003052,
     -24.77216213
    ]
   },
   "properties": {
    "name": "956 MOORLANDS ROAD MOORLAND 4670",
    "locID": "LOC000084666471",
    "tech": "WIRELESS",
    "upgrade": "NULL_NA",
    "gnaf_pid": "GAQLD160303026",
    "tech_change_status": "Not Planned",
    "program_type": "Fixed Wireless and Satellite Upgrade Program",
    "target_eligibility_quarter": "NA"
   }
  },
  {
   "type": "Feature",
   "geometry": {
    "type": "Point",
    "coordinates": [
     152.19655856,
     -24.78770459
    ]
   },
   "properties": {
    "name": "5 BERYLS ROAD MOORLAND 4670",
    "locID": "LOC000053888313",
    "tech": "WIRELESS",
    "upgrade": "NULL_NA",
    "gnaf_pid": "GAQLD160303543",
    "tech_change_status": "Not Planned",
    "program_type": "Fixed Wireless and Satellite Upgrade Program",
    "target_eligibility_quarter": "NA"
   }
  },
  {
   "type": "Feature",
   "geometry": {
    "type": "Point",
    "coordinates": [
     152.19410416,
     -24.78950197
    ]
   },
   "properties": {
    "name": "61 BERYLS ROAD MOORLAND 4670",
    "locID": "LOC000035725501",
    "tech": "WIRELESS",
    "upgrade": "NULL_NA",
    "gnaf_pid": "GAQLD160313601",
    "tech_change_status": "Not Planned",
    "program_type": "Fixed Wireless and Satellite Upgrade Program",
    "target_eligibility_quarter": "NA"
   }
  },
  {
   "type": "Feature",
   "geometry": {
    "type": "Point",
    "coordinates": [
     152.19622083,
     -24.78728164
    ]
   },
   "properties": {
    "name": "65 BERYLS ROAD MOORLAND 4670",
    "locID": "LOC000018273164",
    "tech": "WIRELESS",
    "upgrade": "NULL_NA",
    "gnaf_pid": "GAQLD160313602",
    "tech_change_status": "Not Planned",
    "program_type": "Fixed Wireless and Satellite Upgrade Program",
    "target_eligibility_quarter": "NA"
   }
  },
  {
   "type": "Feature",
   "geometry": {
    "type": "Point",
    "coordinates": [
     152.20998805,
     -24.77705268
    ]
   },
   "properties": {
    "name": "65 KNIGHTS ROAD MOORLAND 4670",
    "locID": "LOC000053737857",
    "tech": "WIRELESS",
    "upgrade": "NULL_NA",
    "gnaf_pid": "GAQLD160682021",
    "tech_change_status": "Not Planned",
    "program_type": "Fixed Wireless and Satellite Upgrade Program",
    "target_eligibility_quarter": "NA"
   }
  },
  {
   "type": "Feature",
   "geometry": {
    "type": "Point",
    "coordinates": [
     152.18642332,
     -24.8003348
    ]
   },
   "properties": {
    "name": "1380 ROSEDALE ROAD MOORLAND 4670",
    "locID": "LOC000018190210",
    "tech": "WIRELESS",
    "upgrade": "NULL_NA",
    "gnaf_pid": "GAQLD160698351",
    "tech_change_status": "Not Planned",
    "program_type": "Fixed Wireless and Satellite Upgrade Program",
    "target_eligibility_quarter": "NA"
   }
  },
  {
   "type": "Feature",
   "geometry": {
    "type": "Point",
    "coordinates": [
     152.16806221,
     -24.74372561
    ]
   },
   "properties": {
    "name": "20 BEESTONS ROAD MOORLAND 4670",
    "locID": "LOC000044823695",
    "tech": "WIRELESS",
    "upgrade": "NULL_NA",
    "gnaf_pid": "GAQLD160943332",
    "tech_change_status": "Not Planned",
    "program_type": "Fixed Wireless and Satellite Upgrade Program",
    "target_eligibility_quarter": "NA"
   }
  },
  {
   "type": "Feature",
   "geometry": {
    "type": "Point",
    "coordinates": [
     152.17696735,
     -24.74817999
    ]
   },
   "properties": {
    "name": "75 BEESTONS ROAD MOORLAND 4670",
    "locID": "LOC000008562067",
    "tech": "WIRELESS",
    "upgrade": "NULL_NA",
    "gnaf_pid": "GAQLD160943333",
    "tech_change_status": "Not Planned",
    "program_type": "Fixed Wireless and Satellite Upgrade Program",
    "target_eligibility_quarter": "NA"
   }
  },
  {
   "type": "Feature",
   "geometry": {
    "type": "Point",
    "coordinates": [
     152.23928279,
     -24.73628967
    ]
   },
   "properties": {
    "name": "355 BOOYAN ROAD MOORLAND 4670",
    "locID": "LOC000068503129",
    "tech": "WIRELESS",
    "upgrade": "NULL_NA",
    "gnaf_pid": "GAQLD160944137",
    "tech_change_status": "Not Planned",
    "program_type": "Fixed Wireless and Satellite Upgrade Program",
    "target_eligibility_quarter": "NA"
   }
  },
  {
   "type": "Feature",
   "geometry": {
    "type": "Point",
    "coordinates": [
     152.20714414,
     -24.80722012
    ]
   },
   "properties": {
    "name": "449 QUINNS ROAD MOORLAND 4670",
    "locID": "LOC000067881801",
    "tech": "WIRELESS",
    "upgrade": "NULL_NA",
    "gnaf_pid": "GAQLD160959283",
    "tech_change_status": "Not Planned",
    "program_type": "Fixed Wireless and Satellite Upgrade Program",
    "target_eligibility_quarter": "NA"
   }
  },
  {
   "type": "Feature",
   "geometry": {
    "type": "Point",
    "coordinates": [
     152.2123402,
     -24.74252653
    ]
   },
   "properties": {
    "name": "165 STEWARTS ROAD MOORLAND 4670",
    "locID": "LOC000014458972",
    "tech": "WIRELESS",
    "upgrade": "NULL_NA",
    "gnaf_pid": "GAQLD160961933",
    "tech_change_status": "Not Planned",
    "program_type": "Fixed Wireless and Satellite Upgrade Program",
    "target_eligibility_quarter": "NA"
   }
  },
  {
   "type": "Feature",
   "geometry": {
    "type": "Point",
    "coordinates": [
     152.17542151,
     -24.7325543
    ]
   },
   "properties": {
    "name": "84 SCOTNEYS ROAD MOORLAND 4670",
    "locID": "LOC000021811667",
    "tech": "WIRELESS",
    "upgrade": "NULL_NA",
    "gnaf_pid": "GAQLD161023356",
    "tech_change_status": "Not Planned",
    "program_type": "Fixed Wireless and Satellite Upgrade Program",
    "target_eligibility_quarter": "NA"
   }
  },
  {
   "type": "Feature",
   "geometry": {
    "type": "Point",
    "coordinates": [
     152.17721904,
     -24.7443511
    ]
   },
   "properties": {
    "name": "LOT 1 BEESTONS ROAD MOORLAND 4670",
    "locID": "LOC000044823695",
    "tech": "WIRELESS",
    "upgrade": "NULL_NA",
    "gnaf_pid": "GAQLD161063561",
    "tech_change_status": "Not Planned",
    "program_type": "Fixed Wireless and Satellite Upgrade Program",
    "target_eligibility_quarter": "NA"
   }
  },
  {
   "type": "Feature",
   "geometry": {
    "type": "Point",
    "coordinates": [
     152.16464455,
     -24.74414014
    ]
   },
   "properties": {
    "name": "LOT 2 BEESTONS ROAD MOORLAND 4670",
    "locID": "LOC000044823695",
    "tech": "WIRELESS",
    "upgrade": "NULL_NA",
    "gnaf_pid": "GAQLD161063562",
    "tech_change_status": "Not Planned",
    "program_type": "Fixed Wireless and Satellite Upgrade Program",
    "target_eligibility_quarter": "NA"
   }
  },
  {
   "type": "Feature",
   "geometry": {
    "type": "Point",
    "coordinates": [
     152.22560795,
     -24.73900937
    ]
   },
   "properties": {
    "name": "LOT 2 BOOYAN ROAD MOORLAND 4670",
    "locID": "LOC000064819049",
    "tech": "WIRELESS",
    "upgrade": "NULL_NA",
    "gnaf_pid": "GAQLD161072973",
    "tech_change_status": "Not Planned",
    "program_type": "Fixed Wireless and Satellite Upgrade Program",
    "target_eligibility_quarter": "NA"
   }
  },
  {
   "type": "Feature",
   "geometry": {
    "type": "Point",
    "coordinates": [
     152.21844422,
     -24.7274743
    ]
   },
   "properties": {
    "name": "LOT 3 BOOYAN ROAD MOORLAND 4670",
    "locID": "LOC000093197992",
    "tech": "WIRELESS",
    "upgrade": "NULL_NA",
    "gnaf_pid": "GAQLD161072974",
    "tech_change_status": "Not Planned",
    "program_type": "Fixed Wireless and Satellite Upgrade Program",
    "target_eligibility_quarter": "NA"
   }
  },
  {
   "type": "Feature",
   "geometry": {
    "type": "Point",
    "coordinates": [
     152.2304327,
     -24.73666771
    ]
   },
   "properties": {
    "name": "LOT 9 BOOYAN ROAD MOORLAND 4670",
    "locID": "LOC000029843237",
    "tech": "WIRELESS",
    "upgrade": "NULL_NA",
    "gnaf_pid": "GAQLD161072977",
    "tech_change_status": "Not Planned",
    "program_type": "Fixed Wireless and Satellite Upgrade Program",
    "target_eligibility_quarter": "NA"
   }
  },
  {
   "type": "Feature",
   "geometry": {
    "type": "Point",
    "coordinates": [
     152.18309655,
     -24.77422447
    ]
   },
   "properties": {
    "name": "LOT 2 HUNTS CROSSING ROAD MOORLAND 4670",
    "locID": "LOC000016576846",
    "tech": "WIRELESS",
    "upgrade": "NULL_NA",
    "gnaf_pid": "GAQLD161184818",
    "tech_change_status": "Not Planned",
    "program_type": "Fixed Wireless and Satellite Upgrade Program",
    "target_eligibility_quarter": "NA"
   }
  },
  {
   "type": "Feature",
   "geometry": {
    "type": "Point",
    "coordinates": [
     152.19244694,
     -24.73771298
    ]
   },
   "properties": {
    "name": "LOT 3 MOORLANDS ROAD MOORLAND 4670",
    "locID": "LOC000187561336",
    "tech": "WIRELESS",
    "upgrade": "NULL_NA",
    "gnaf_pid": "GAQLD161243088",
    "tech_change_status": "Not Planned",
    "program_type": "Fixed Wireless and Satellite Upgrade Program",
    "target_eligibility_quarter": "NA"
   }
  },
  {
   "type": "Feature",
   "geometry": {
    "type": "Point",
    "coordinates": [
     152.1866648,
     -24.74655437
    ]
   },
   "properties": {
    "name": "LOT 4 MOORLANDS ROAD MOORLAND 4670",
    "locID": "LOC000002547156",
    "tech": "WIRELESS",
    "upgrade": "NULL_NA",
    "gnaf_pid": "GAQLD161243090",
    "tech_change_status": "Not Planned",
    "program_type": "Fixed Wireless and Satellite Upgrade Program",
    "target_eligibility_quarter": "NA"
   }
  },
  {
   "type": "Feature",
   "geometry": {
    "type": "Point",
    "coordinates": [
     152.19083149,
     -24.75565801
    ]
   },
   "properties": {
    "name": "LOT 6 MOORLANDS ROAD MOORLAND 4670",
    "locID": "LOC000081425005",
    "tech": "WIRELESS",
    "upgrade": "NULL_NA",
    "gnaf_pid": "GAQLD161243093",
    "tech_change_status": "Not Planned",
    "program_type": "Fixed Wireless and Satellite Upgrade Program",
    "target_eligibility_quarter": "NA"
   }
  },
  {
   "type": "Feature",
   "geometry": {
    "type": "Point",
    "coordinates": [
     152.18732918,
     -24.77488071
    ]
   },
   "properties": {
    "name": "LOT 1 QUINNS ROAD MOORLAND 4670",
    "locID": "LOC000073442671",
    "tech": "WIRELESS",
    "upgrade": "NULL_NA",
    "gnaf_pid": "GAQLD161284310",
    "tech_change_status": "Not Planned",
    "program_type": "Fixed Wireless and Satellite Upgrade Program",
    "target_eligibility_quarter": "NA"
   }
  },
  {
   "type": "Feature",
   "geometry": {
    "type": "Point",
    "coordinates": [
     152.19686499,
     -24.78757064
    ]
   },
   "properties": {
    "name": "LOT 2 QUINNS ROAD MOORLAND 4670",
    "locID": "LOC000067886162",
    "tech": "WIRELESS",
    "upgrade": "NULL_NA",
    "gnaf_pid": "GAQLD161284311",
    "tech_change_status": "Not Planned",
    "program_type": "Fixed Wireless and Satellite Upgrade Program",
    "target_eligibility_quarter": "NA"
   }
  },
  {
   "type": "Feature",
   "geometry": {
    "type": "Point",
    "coordinates": [
     152.212378,
     -24.79363334
    ]
   },
   "properties": {
    "name": "LOT 3 QUINNS ROAD MOORLAND 4670",
    "locID": "LOC000029107280",
    "tech": "WIRELESS",
    "upgrade": "NULL_NA",
    "gnaf_pid": "GAQLD161284312",
    "tech_change_status": "Not Planned",
    "program_type": "Fixed Wireless and Satellite Upgrade Program",
    "target_eligibility_quarter": "NA"
   }
  },
  {
   "type": "Feature",
   "geometry": {
    "type": "Point",
    "coordinates": [
     152.19969957,
     -24.79063115
    ]
   },
   "properties": {
    "name": "LOT 4 QUINNS ROAD MOORLAND 4670",
    "locID": "LOC000104817570",
    "tech": "WIRELESS",
    "upgrade": "NULL_NA",
    "gnaf_pid": "GAQLD161284313",
    "tech_change_status": "Not Planned",
    "program_type": "Fixed Wireless and Satellite Upgrade Program",
    "target_eligibility_quarter": "NA"
   }
  },
  {
   "type": "Feature",
   "geometry": {
    "type": "Point",
    "coordinates": [
     152.19780184,
     -24.78951969
    ]
   },
   "properties": {
    "name": "LOT 5 QUINNS ROAD MOORLAND 4670",
    "locID": "LOC000009048721",
    "tech": "WIRELESS",
    "upgrade": "NULL_NA",
    "gnaf_pid": "GAQLD161284315"
   }
  },
  {
   "type": "Feature",
   "geometry": {
    "type": "Point",
    "coordinates": [
     152.20187238,
     -24.79179347
    ]
   },
   "properties": {
    "name": "LOT 6 QUINNS ROAD MOORLAND 4670",
    "locID": "LOC000067881801",
    "tech": "WIRELESS",
    "upgrade": "NULL_NA",
    "gnaf_pid": "GAQLD161284316",
    "tech_change_status": "Not Planned",
    "program_type": "Fixed Wireless and Satellite Upgrade Program",
    "target_eligibility_quarter": "NA"
   }
  },
  {
   "type": "Feature",
   "geometry": {
    "type": "Point",
    "coordinates": [
     152.17133934,
     -24.73166974
    ]
   },
   "properties": {
    "name": "LOT 1 SCOTNEYS ROAD MOORLAND 4670",
    "locID": "LOC000068590355",
    "tech": "WIRELESS",
    "upgrade": "NULL_NA",
    "gnaf_pid": "GAQLD161303429",
    "tech_change_status": "Not Planned",
    "program_type": "Fixed Wireless and Satellite Upgrade Program",
    "target_eligibility_quarter": "NA"
   }
  },
  {
   "type": "Feature",
   "geometry": {
    "type": "Point",
    "coordinates": [
     152.17093913,
     -24.73138937
    ]
   },
   "properties": {
    "name": "LOT 6 SCOTNEYS ROAD MOORLAND 4670",
    "locID": "LOC000021811667",
    "tech": "WIRELESS",
    "upgrade": "NULL_NA",
    "gnaf_pid": "GAQLD161303433",
    "tech_change_status": "Not Planned",
    "program_type": "Fixed Wireless and Satellite Upgrade Program",
    "target_eligibility_quarter": "NA"
   }
  },
  {
   "type": "Feature",
   "geometry": {
    "type": "Point",
    "coordinates": [
     152.18063795,
     -24.73988325
    ]
   },
   "properties": {
    "name": "LOT 7 SCOTNEYS ROAD MOORLAND 4670",
    "locID": "LOC000014399100",
    "tech": "WIRELESS",
    "upgrade": "NULL_NA",
    "gnaf_pid": "GAQLD161303434",
    "tech_change_status": "Not Planned",
    "program_type": "Fixed Wireless and Satellite Upgrade Program",
    "target_eligibility_quarter": "NA"
   }
  },
  {
   "type": "Feature",
   "geometry": {
    "type": "Point",
    "coordinates": [
     152.22043344,
     -24.73665866
    ]
   },
   "properties": {
    "name": "LOT 2 STEWARTS ROAD MOORLAND 4670",
    "locID": "LOC000014458972",
    "tech": "WIRELESS",
    "upgrade": "NULL_NA",
    "gnaf_pid": "GAQLD161318012",
    "tech_change_status": "Not Planned",
    "program_type": "Fixed Wireless and Satellite Upgrade Program",
    "target_eligibility_quarter": "NA"
   }
  },
  {
   "type": "Feature",
   "geometry": {
    "type": "Point",
    "coordinates": [
     152.21677437,
     -24.75488269
    ]
   },
   "properties": {
    "name": "LOT 1 VECELLIOS ROAD MOORLAND 4670",
    "locID": "LOC000099486406",
    "tech": "WIRELESS",
    "upgrade": "NULL_NA",
    "gnaf_pid": "GAQLD161339791",
    "tech_change_status": "Not Planned",
    "program_type": "Fixed Wireless and Satellite Upgrade Program",
    "target_eligibility_quarter": "NA"
   }
  },
  {
   "type": "Feature",
   "geometry": {
    "type": "Point",
    "coordinates": [
     152.21016634,
     -24.74446978
    ]
   },
   "properties": {
    "name": "LOT 4 VECELLIOS ROAD MOORLAND 4670",
    "locID": "LOC000099486406",
    "tech": "WIRELESS",
    "upgrade": "NULL_NA",
    "gnaf_pid": "GAQLD161339792",
    "tech_change_status": "Not Planned",
    "program_type": "Fixed Wireless and Satellite Upgrade Program",
    "target_eligibility_quarter": "NA"
   }
  },
  {
   "type": "Feature",
   "geometry": {
    "type": "Point",
    "coordinates": [
     152.19007008,
     -24.78614835
    ]
   },
   "properties": {
    "name": "LOT 2 BERYLS ROAD MOORLAND 4670",
    "locID": "LOC000035725501",
    "tech": "WIRELESS",
    "upgrade": "NULL_NA",
    "gnaf_pid": "GAQLD161426601",
    "tech_change_status": "Not Planned",
    "program_type": "Fixed Wireless and Satellite Upgrade Program",
    "target_eligibility_quarter": "NA"
   }
  },
  {
   "type": "Feature",
   "geometry": {
    "type": "Point",
    "coordinates": [
     152.20844599,
     -24.73970919
    ]
   },
   "properties": {
    "name": "LOT 1 STEWARTS ROAD MOORLAND 4670",
    "locID": "LOC000065955885",
    "tech": "WIRELESS",
    "upgrade": "NULL_NA",
    "gnaf_pid": "GAQLD161459565",
    "tech_change_status": "Not Planned",
    "program_type": "Fixed Wireless and Satellite Upgrade Program",
    "target_eligibility_quarter": "NA"
   }
  },
  {
   "type": "Feature",
   "geometry": {
    "type": "Point",
    "coordinates": [
     152.21449528,
     -24.72526353
    ]
   },
   "properties": {
    "name": "701 BOOYAN ROAD MOORLAND 4670",
    "locID": "LOC000073989578",
    "tech": "WIRELESS",
    "upgrade": "NULL_NA",
    "gnaf_pid": "GAQLD161777081",
    "tech_change_status": "Not Planned",
    "program_type": "Fixed Wireless and Satellite Upgrade Program",
    "target_eligibility_quarter": "NA"
   }
  },
  {
   "type": "Feature",
   "geometry": {
    "type": "Point",
    "coordinates": [
     152.17172986,
     -24.75062893
    ]
   },
   "properties": {
    "name": "LOT 4 BEESTONS ROAD MOORLAND 4670",
    "locID": "LOC000008562067",
    "tech": "WIRELESS",
    "upgrade": "NULL_NA",
    "gnaf_pid": "GAQLD162009340",
    "tech_change_status": "Not Planned",
    "program_type": "Fixed Wireless and Satellite Upgrade Program",
    "target_eligibility_quarter": "NA"
   }
  },
  {
   "type": "Feature",
   "geometry": {
    "type": "Point",
    "coordinates": [
     152.20761163,
     -24.73528828
    ]
   },
   "properties": {
    "name": "LOT 14 STEWARTS ROAD MOORLAND 4670",
    "locID": "LOC000111368798",
    "tech": "WIRELESS",
    "upgrade": "NULL_NA",
    "gnaf_pid": "GAQLD162197410",
    "tech_change_status": "Not Planned",
    "program_type": "Fixed Wireless and Satellite Upgrade Program",
    "target_eligibility_quarter": "NA"
   }
  },
  {
   "type": "Feature",
   "geometry": {
    "type": "Point",
    "coordinates": [
     152.20661495,
     -24.75972474
    ]
   },
   "properties": {
    "name": "588 VECELLIOS ROAD MOORLAND 4670",
    "locID": "LOC000021735498",
    "tech": "WIRELESS",
    "upgrade": "NULL_NA",
    "gnaf_pid": "GAQLD162202837",
    "tech_change_status": "Not Planned",
    "program_type": "Fixed Wireless and Satellite Upgrade Program",
    "target_eligibility_quarter": "NA"
   }
  },
  {
   "type": "Feature",
   "geometry": {
    "type": "Point",
    "coordinates": [
     152.23368768,
     -24.73382527
    ]
   },
   "properties": {
    "name": "471 BOOYAN ROAD MOORLAND 4670",
    "locID": "LOC000019189489",
    "tech": "WIRELESS",
    "upgrade": "NULL_NA",
    "gnaf_pid": "GAQLD162281911",
    "tech_change_status": "Not Planned",
    "program_type": "Fixed Wireless and Satellite Upgrade Program",
    "target_eligibility_quarter": "NA"
   }
  },
  {
   "type": "Feature",
   "geometry": {
    "type": "Point",
    "coordinates": [
     152.22343641,
     -24.72689899
    ]
   },
   "properties": {
    "name": "603 BOOYAN ROAD MOORLAND 4670",
    "locID": "LOC000088538469",
    "tech": "WIRELESS",
    "upgrade": "NULL_NA",
    "gnaf_pid": "GAQLD162342255",
    "tech_change_status": "Not Planned",
    "program_type": "Fixed Wireless and Satellite Upgrade Program",
    "target_eligibility_quarter": "NA"
   }
  },
  {
   "type": "Feature",
   "geometry": {
    "type": "Point",
    "coordinates": [
     152.20128492,
     -24.7643296
    ]
   },
   "properties": {
    "name": "1022 MOORLANDS ROAD MOORLAND 4670",
    "locID": "LOC000016533427",
    "tech": "WIRELESS",
    "upgrade": "NULL_NA",
    "gnaf_pid": "GAQLD162358377",
    "tech_change_status": "Not Planned",
    "program_type": "Fixed Wireless and Satellite Upgrade Program",
    "target_eligibility_quarter": "NA"
   }
  },
  {
   "type": "Feature",
   "geometry": {
    "type": "Point",
    "coordinates": [
     152.19093387,
     -24.72172695
    ]
   },
   "properties": {
    "name": "1655 MOORLANDS ROAD MOORLAND 4670",
    "locID": "LOC000076557140",
    "tech": "WIRELESS",
    "upgrade": "NULL_NA",
    "gnaf_pid": "GAQLD162515266",
    "tech_change_status": "Eligible to Order",
    "program_type": "Fixed Wireless and Satellite Upgrade Program",
    "target_eligibility_quarter": "NA"
   }
  },
  {
   "type": "Feature",
   "geometry": {
    "type": "Point",
    "coordinates": [
     152.19418447,
     -24.7987067
    ]
   },
   "properties": {
    "name": "78 PARCEMI ROAD MOORLAND 4670",
    "locID": "LOC000080680852",
    "tech": "WIRELESS",
    "upgrade": "NULL_NA",
    "gnaf_pid": "GAQLD162517944",
    "tech_change_status": "Not Planned",
    "program_type": "Fixed Wireless and Satellite Upgrade Program",
    "target_eligibility_quarter": "NA"
   }
  },
  {
   "type": "Feature",
   "geometry": {
    "type": "Point",
    "coordinates": [
     152.2227351,
     -24.7265582
    ]
   },
   "properties": {
    "name": "605 BOOYAN ROAD MOORLAND 4670",
    "locID": "LOC000107061946",
    "tech": "WIRELESS",
    "upgrade": "NULL_NA",
    "gnaf_pid": "GAQLD163055304",
    "tech_change_status": "Not Planned",
    "program_type": "Fixed Wireless and Satellite Upgrade Program",
    "target_eligibility_quarter": "NA"
   }
  },
  {
   "type": "Feature",
   "geometry": {
    "type": "Point",
    "coordinates": [
     152.18223675,
     -24.74436007
    ]
   },
   "properties": {
    "name": "1299 MOORLANDS ROAD MOORLAND 4670",
    "locID": "LOC000097418829",
    "tech": "WIRELESS",
    "upgrade": "NULL_NA",
    "gnaf_pid": "GAQLD163058220",
    "tech_change_status": "Not Planned",
    "program_type": "Fixed Wireless and Satellite Upgrade Program",
    "target_eligibility_quarter": "NA"
   }
  },
  {
   "type": "Feature",
   "geometry": {
    "type": "Point",
    "coordinates": [
     152.22739135,
     -24.75231166
    ]
   },
   "properties": {
    "name": "308 VECELLIOS ROAD MOORLAND 4670",
    "locID": "LOC000065733717",
    "tech": "WIRELESS",
    "upgrade": "NULL_NA",
    "gnaf_pid": "GAQLD163118253",
    "tech_change_status": "Not Planned",
    "program_type": "Fixed Wireless and Satellite Upgrade Program",
    "target_eligibility_quarter": "NA"
   }
  },
  {
   "type": "Feature",
   "geometry": {
    "type": "Point",
    "coordinates": [
     152.20340245,
     -24.79527226
    ]
   },
   "properties": {
    "name": "325 QUINNS ROAD MOORLAND 4670",
    "locID": "LOC000033411982",
    "tech": "WIRELESS",
    "upgrade": "NULL_NA",
    "gnaf_pid": "GAQLD163172969",
    "tech_change_status": "Not Planned",
    "program_type": "Fixed Wireless and Satellite Upgrade Program",
    "target_eligibility_quarter": "NA"
   }
  },
  {
   "type": "Feature",
   "geometry": {
    "type": "Point",
    "coordinates": [
     152.22147184,
     -24.73023159
    ]
   },
   "properties": {
    "name": "55 STEWARTS ROAD MOORLAND 4670",
    "locID": "LOC000111368798",
    "tech": "WIRELESS",
    "upgrade": "NULL_NA",
    "gnaf_pid": "GAQLD163299578",
    "tech_change_status": "Not Planned",
    "program_type": "Fixed Wireless and Satellite Upgrade Program",
    "target_eligibility_quarter": "NA"
   }
  },
  {
   "type": "Feature",
   "geometry": {
    "type": "Point",
    "coordinates": [
     152.1904659,
     -24.72324549
    ]
   },
   "properties": {
    "name": "1633 MOORLANDS ROAD MOORLAND 4670",
    "locID": "LOC000112610374",
    "tech": "WIRELESS",
    "upgrade": "NULL_NA",
    "gnaf_pid": "GAQLD163313916",
    "tech_change_status": "Not Planned",
    "program_type": "Fixed Wireless and Satellite Upgrade Program",
    "target_eligibility_quarter": "NA"
   }
  },
  {
   "type": "Feature",
   "geometry": {
    "type": "Point",
    "coordinates": [
     152.20682722,
     -24.78094088
    ]
   },
   "properties": {
    "name": "725 MOORLANDS ROAD MOORLAND 4670",
    "locID": "LOC100087013610",
    "tech": "NULL",
    "upgrade": "NULL_NA",
    "gnaf_pid": "GAQLD425127169",
    "tech_change_status": "Not Planned"
   }
  },
  {
   "type": "Feature",
   "geometry": {
    "type": "Point",
    "coordinates": [
     152.18706901,
     -24.73327861
    ]
   },
   "properties": {
    "name": "1487 MOORLANDS ROAD MOORLAND 4670",
    "locID": "LOC100071899534",
    "tech": "WIRELESS",
    "upgrade": "NULL_NA",
    "gnaf_pid": "GAQLD425265439",
    "tech_change_status": "Not Planned",
    "program_type": "Fixed Wireless and Satellite Upgrade Program",
    "target_eligibility_quarter": "NA"
   }
  },
  {
   "type": "Feature",
   "geometry": {
    "type": "Point",
    "coordinates": [
     152.17258337,
     -24.73365211
    ]
   },
   "properties": {
    "name": "LOT 97 SCOTNEYS ROAD MOORLAND 4670",
    "locID": "LOC000047128475",
    "tech": "WIRELESS",
    "upgrade": "NULL_NA",
    "gnaf_pid": "GAQLD425660146",
    "tech_change_status": "Not Planned",
    "program_type": "Fixed Wireless and Satellite Upgrade Program",
    "target_eligibility_quarter": "NA"
   }
  },
  {
   "type": "Feature",
   "geometry": {
    "type": "Point",
    "coordinates": [
     152.19677203,
     -24.78398108
    ]
   },
   "properties": {
    "name": "189 QUINNS ROAD MOORLAND 4670",
    "locID": "LOC100071899568",
    "tech": "WIRELESS",
    "upgrade": "NULL_NA",
    "gnaf_pid": "GAQLD425665183",
    "tech_change_status": "Not Planned",
    "program_type": "Fixed Wireless and Satellite Upgrade Program",
    "target_eligibility_quarter": "NA"
   }
  },
  {
   "type": "Feature",
   "geometry": {
    "type": "Point",
    "coordinates": [
     152.18832307,
     -24.7552812
    ]
   },
   "properties": {
    "name": "LOT 53 MOORLANDS ROAD MOORLAND 4670",
    "locID": "LOC000150748056",
    "tech": "SATELLITE",
    "upgrade": "NULL_NA",
    "gnaf_pid": "GAQLD425769312",
    "tech_change_status": "Not Planned"
   }
  },
  {
   "type": "Feature",
   "geometry": {
    "type": "Point",
    "coordinates": [
     152.17804222,
     -24.73263533
    ]
   },
   "properties": {
    "name": "LOT 2 SCOTNEYS ROAD MOORLAND 4670",
    "locID": "LOC000047128475",
    "tech": "WIRELESS",
    "upgrade": "NULL_NA",
    "gnaf_pid": "GAQLD425770988",
    "tech_change_status": "Not Planned",
    "program_type": "Fixed Wireless and Satellite Upgrade Program",
    "target_eligibility_quarter": "NA"
   }
  },
  {
   "type": "Feature",
   "geometry": {
    "type": "Point",
    "coordinates": [
     152.18789238,
     -24.76655526
    ]
   },
   "properties": {
    "name": "1097 MOORLANDS ROAD MOORLAND 4670",
    "locID": "LOC000128853693",
    "tech": "WIRELESS",
    "upgrade": "NULL_NA",
    "gnaf_pid": "GAQLD719444886",
    "tech_change_status": "Not Planned",
    "program_type": "Fixed Wireless and Satellite Upgrade Program",
    "target_eligibility_quarter": "NA"
   }
  },
  {
   "type": "Feature",
   "geometry": {
    "type": "Point",
    "coordinates": [
     152.18508093,
     -24.73286802
    ]
   },
   "properties": {
    "name": "1457 MOORLANDS ROAD MOORLAND 4670",
    "locID": "LOC000187561336",
    "tech": "WIRELESS",
    "upgrade": "NULL_NA",
    "gnaf_pid": "GAQLD720482870",
    "tech_change_status": "Not Planned",
    "program_type": "Fixed Wireless and Satellite Upgrade Program",
    "target_eligibility_quarter": "NA"
   }
  },
  {
   "type": "Feature",
   "geometry": {
    "type": "Point",
    "coordinates": [
     152.18416113,
     -24.75924079
    ]
   },
   "properties": {
    "name": "LOT 1 MOORLANDS ROAD MOORLAND 4670",
    "locID": "LOC000083824315",
    "tech": "WIRELESS",
    "upgrade": "NULL_NA",
    "gnaf_pid": "GAQLD720500773",
    "tech_change_status": "Not Planned",
    "program_type": "Fixed Wireless and Satellite Upgrade Program",
    "target_eligibility_quarter": "NA"
   }
  },
  {
   "type": "Feature",
   "geometry": {
    "type": "Point",
    "coordinates": [
     152.19118177,
     -24.72030072
    ]
   },
   "properties": {
    "name": "1675 MOORLANDS ROAD MOORLAND 4670",
    "locID": "LOC000128849965",
    "tech": "WIRELESS",
    "upgrade": "NULL_NA",
    "gnaf_pid": "GAQLD720503176",
    "tech_change_status": "Not Planned",
    "program_type": "Fixed Wireless and Satellite Upgrade Program",
    "target_eligibility_quarter": "NA"
   }
  },
  {
   "type": "Feature",
   "geometry": {
    "type": "Point",
    "coordinates": [
     152.21097694,
     -24.72415121
    ]
   },
   "properties": {
    "name": "725 BOOYAN ROAD MOORLAND 4670",
    "locID": "LOC100087396520",
    "tech": "WIRELESS",
    "upgrade": "NULL_NA",
    "gnaf_pid": "GAQLD720868501",
    "tech_change_status": "Not Planned",
    "program_type": "Fixed Wireless and Satellite Upgrade Program",
    "target_eligibility_quarter": "NA"
   }
  }
 ]
}