{
 "type": "FeatureCollection",
 "generated": "2024-10-24T13:59:00.931073",
 "suburb": "MORETON BAY",
 "features": [
  {
   "type": "Feature",
   "geometry": {
    "type": "Point",
    "coordinates": [
     153.19027492,
     -27.45571974
    ]
   },
   "properties": {
    "name": "470 ROYAL ESPLANADE MORETON BAY 4178",
    "locID": "LOC000030707646",
    "tech": "HFC",
    "upgrade": "NULL_NA",
    "gnaf_pid": "GAQLD425642359"
   }
  },
  {
   "type": "Feature",
   "geometry": {
    "type": "Point",
    "coordinates": [
     153.18678427,
     -27.45728964
    ]
   },
   "properties": {
    "name": "570 ROYAL ESPLANADE MORETON BAY 4178",
    "locID": "LOC000030707646",
    "tech": "HFC",
    "upgrade": "NULL_NA",
    "gnaf_pid": "GAQLD425646726"
   }
  }
 ]
}