{
 "type": "FeatureCollection",
 "generated": "2024-12-03T01:17:46.999472",
 "suburb": "MORGAN PARK",
 "features": [
  {
   "type": "Feature",
   "geometry": {
    "type": "Point",
    "coordinates": [
     152.03999993,
     -28.24773472
    ]
   },
   "properties": {
    "name": "92 OLD STANTHORPE ROAD MORGAN PARK 4370",
    "locID": "LOC000027522241",
    "tech": "WIRELESS",
    "upgrade": "NULL_NA",
    "gnaf_pid": "GAQLD158304145",
    "tech_change_status": "Not Planned",
    "program_type": "Fixed Wireless and Satellite Upgrade Program",
    "target_eligibility_quarter": "Dec 2024"
   }
  },
  {
   "type": "Feature",
   "geometry": {
    "type": "Point",
    "coordinates": [
     152.05581205,
     -28.26830385
    ]
   },
   "properties": {
    "name": "347 OLD STANTHORPE ROAD MORGAN PARK 4370",
    "locID": "LOC000068264202",
    "tech": "SATELLITE",
    "upgrade": "NULL_NA",
    "gnaf_pid": "GAQLD158325272",
    "tech_change_status": "Not Planned"
   }
  },
  {
   "type": "Feature",
   "geometry": {
    "type": "Point",
    "coordinates": [
     152.0388917,
     -28.24410457
    ]
   },
   "properties": {
    "name": "44 OLD STANTHORPE ROAD MORGAN PARK 4370",
    "locID": "LOC000003374340",
    "tech": "WIRELESS",
    "upgrade": "NULL_NA",
    "gnaf_pid": "GAQLD158325273",
    "tech_change_status": "Not Planned",
    "program_type": "Fixed Wireless and Satellite Upgrade Program",
    "target_eligibility_quarter": "Dec 2024"
   }
  },
  {
   "type": "Feature",
   "geometry": {
    "type": "Point",
    "coordinates": [
     152.03479601,
     -28.24533715
    ]
   },
   "properties": {
    "name": "LOT 2 KENILWORTH STREET MORGAN PARK 4370",
    "locID": "LOC000029908356",
    "tech": "WIRELESS",
    "upgrade": "NULL_NA",
    "gnaf_pid": "GAQLD158949157",
    "tech_change_status": "Not Planned",
    "program_type": "Fixed Wireless and Satellite Upgrade Program",
    "target_eligibility_quarter": "Dec 2024"
   }
  },
  {
   "type": "Feature",
   "geometry": {
    "type": "Point",
    "coordinates": [
     152.0349242,
     -28.24626991
    ]
   },
   "properties": {
    "name": "84 KENILWORTH STREET MORGAN PARK 4370",
    "locID": "LOC000013546395",
    "tech": "WIRELESS",
    "upgrade": "NULL_NA",
    "gnaf_pid": "GAQLD160696485",
    "tech_change_status": "Not Planned",
    "program_type": "Fixed Wireless and Satellite Upgrade Program",
    "target_eligibility_quarter": "Dec 2024"
   }
  },
  {
   "type": "Feature",
   "geometry": {
    "type": "Point",
    "coordinates": [
     152.03552063,
     -28.24647817
    ]
   },
   "properties": {
    "name": "66 KENILWORTH STREET MORGAN PARK 4370",
    "locID": "LOC000076381356",
    "tech": "WIRELESS",
    "upgrade": "NULL_NA",
    "gnaf_pid": "GAQLD160696488",
    "tech_change_status": "Not Planned",
    "program_type": "Fixed Wireless and Satellite Upgrade Program",
    "target_eligibility_quarter": "Dec 2024"
   }
  },
  {
   "type": "Feature",
   "geometry": {
    "type": "Point",
    "coordinates": [
     152.03559727,
     -28.24674556
    ]
   },
   "properties": {
    "name": "70 KENILWORTH STREET MORGAN PARK 4370",
    "locID": "LOC000039362132",
    "tech": "WIRELESS",
    "upgrade": "NULL_NA",
    "gnaf_pid": "GAQLD160952505",
    "tech_change_status": "Not Planned",
    "program_type": "Fixed Wireless and Satellite Upgrade Program",
    "target_eligibility_quarter": "Dec 2024"
   }
  },
  {
   "type": "Feature",
   "geometry": {
    "type": "Point",
    "coordinates": [
     152.03294909,
     -28.25227792
    ]
   },
   "properties": {
    "name": "LOT 12 KENILWORTH STREET MORGAN PARK 4370",
    "locID": "LOC000076381356",
    "tech": "WIRELESS",
    "upgrade": "NULL_NA",
    "gnaf_pid": "GAQLD161197525",
    "tech_change_status": "Not Planned",
    "program_type": "Fixed Wireless and Satellite Upgrade Program",
    "target_eligibility_quarter": "Dec 2024"
   }
  },
  {
   "type": "Feature",
   "geometry": {
    "type": "Point",
    "coordinates": [
     152.0374383,
     -28.24426611
    ]
   },
   "properties": {
    "name": "LOT 84 KENILWORTH STREET MORGAN PARK 4370",
    "locID": "LOC000013546395",
    "tech": "WIRELESS",
    "upgrade": "NULL_NA",
    "gnaf_pid": "GAQLD161197578",
    "tech_change_status": "Not Planned",
    "program_type": "Fixed Wireless and Satellite Upgrade Program",
    "target_eligibility_quarter": "Dec 2024"
   }
  },
  {
   "type": "Feature",
   "geometry": {
    "type": "Point",
    "coordinates": [
     152.03500167,
     -28.26049919
    ]
   },
   "properties": {
    "name": "LOT 132 OLD STANTHORPE ROAD MORGAN PARK 4370",
    "locID": "LOC000180586019",
    "tech": "WIRELESS",
    "upgrade": "NULL_NA",
    "gnaf_pid": "GAQLD161265005",
    "tech_change_status": "Not Planned",
    "program_type": "Fixed Wireless and Satellite Upgrade Program",
    "target_eligibility_quarter": "Dec 2024"
   }
  },
  {
   "type": "Feature",
   "geometry": {
    "type": "Point",
    "coordinates": [
     152.0454193,
     -28.24674136
    ]
   },
   "properties": {
    "name": "65 OLD STANTHORPE ROAD MORGAN PARK 4370",
    "locID": "LOC000005721056",
    "tech": "WIRELESS",
    "upgrade": "NULL_NA",
    "gnaf_pid": "GAQLD161370423",
    "tech_change_status": "Not Planned",
    "program_type": "Fixed Wireless and Satellite Upgrade Program",
    "target_eligibility_quarter": "Dec 2024"
   }
  },
  {
   "type": "Feature",
   "geometry": {
    "type": "Point",
    "coordinates": [
     152.06472021,
     -28.26346799
    ]
   },
   "properties": {
    "name": "674 WARWICK - KILLARNEY ROAD MORGAN PARK 4370",
    "locID": "LOC000045698809",
    "tech": "SATELLITE",
    "upgrade": "NULL_NA",
    "gnaf_pid": "GAQLD161372583",
    "tech_change_status": "Not Planned"
   }
  },
  {
   "type": "Feature",
   "geometry": {
    "type": "Point",
    "coordinates": [
     152.03570014,
     -28.24293654
    ]
   },
   "properties": {
    "name": "26 KENILWORTH STREET MORGAN PARK 4370",
    "locID": "LOC000036607506",
    "tech": "WIRELESS",
    "upgrade": "NULL_NA",
    "gnaf_pid": "GAQLD161442087",
    "tech_change_status": "Not Planned",
    "program_type": "Fixed Wireless and Satellite Upgrade Program",
    "target_eligibility_quarter": "Dec 2024"
   }
  },
  {
   "type": "Feature",
   "geometry": {
    "type": "Point",
    "coordinates": [
     152.03698531,
     -28.24300389
    ]
   },
   "properties": {
    "name": "27 KENILWORTH STREET MORGAN PARK 4370",
    "locID": "LOC000051302473",
    "tech": "WIRELESS",
    "upgrade": "NULL_NA",
    "gnaf_pid": "GAQLD161442088",
    "tech_change_status": "Not Planned",
    "program_type": "Fixed Wireless and Satellite Upgrade Program",
    "target_eligibility_quarter": "Dec 2024"
   }
  },
  {
   "type": "Feature",
   "geometry": {
    "type": "Point",
    "coordinates": [
     152.03599294,
     -28.24634841
    ]
   },
   "properties": {
    "name": "56 KENILWORTH STREET MORGAN PARK 4370",
    "locID": "LOC000060622115",
    "tech": "WIRELESS",
    "upgrade": "NULL_NA",
    "gnaf_pid": "GAQLD161442089",
    "tech_change_status": "Not Planned",
    "program_type": "Fixed Wireless and Satellite Upgrade Program",
    "target_eligibility_quarter": "Dec 2024"
   }
  },
  {
   "type": "Feature",
   "geometry": {
    "type": "Point",
    "coordinates": [
     152.03632199,
     -28.24569305
    ]
   },
   "properties": {
    "name": "59 KENILWORTH STREET MORGAN PARK 4370",
    "locID": "LOC000029908356",
    "tech": "WIRELESS",
    "upgrade": "NULL_NA",
    "gnaf_pid": "GAQLD161442090",
    "tech_change_status": "Not Planned",
    "program_type": "Fixed Wireless and Satellite Upgrade Program",
    "target_eligibility_quarter": "Dec 2024"
   }
  },
  {
   "type": "Feature",
   "geometry": {
    "type": "Point",
    "coordinates": [
     152.03694191,
     -28.24617144
    ]
   },
   "properties": {
    "name": "67 KENILWORTH STREET MORGAN PARK 4370",
    "locID": "LOC000064427859",
    "tech": "WIRELESS",
    "upgrade": "NULL_NA",
    "gnaf_pid": "GAQLD161442091",
    "tech_change_status": "Not Planned",
    "program_type": "Fixed Wireless and Satellite Upgrade Program",
    "target_eligibility_quarter": "Dec 2024"
   }
  },
  {
   "type": "Feature",
   "geometry": {
    "type": "Point",
    "coordinates": [
     152.03789163,
     -28.24952881
    ]
   },
   "properties": {
    "name": "95 KENILWORTH STREET MORGAN PARK 4370",
    "locID": "LOC000043360675",
    "tech": "WIRELESS",
    "upgrade": "NULL_NA",
    "gnaf_pid": "GAQLD161442092",
    "tech_change_status": "Not Planned",
    "program_type": "Fixed Wireless and Satellite Upgrade Program",
    "target_eligibility_quarter": "Dec 2024"
   }
  },
  {
   "type": "Feature",
   "geometry": {
    "type": "Point",
    "coordinates": [
     152.03788485,
     -28.25060505
    ]
   },
   "properties": {
    "name": "97 KENILWORTH STREET MORGAN PARK 4370",
    "locID": "LOC000080836158",
    "tech": "WIRELESS",
    "upgrade": "NULL_NA",
    "gnaf_pid": "GAQLD161442093",
    "tech_change_status": "Not Planned",
    "program_type": "Fixed Wireless and Satellite Upgrade Program",
    "target_eligibility_quarter": "Dec 2024"
   }
  },
  {
   "type": "Feature",
   "geometry": {
    "type": "Point",
    "coordinates": [
     152.0337818,
     -28.24270855
    ]
   },
   "properties": {
    "name": "45 NORTH AVENUE MORGAN PARK 4370",
    "locID": "LOC000004106239",
    "tech": "WIRELESS",
    "upgrade": "NULL_NA",
    "gnaf_pid": "GAQLD161450573",
    "tech_change_status": "Not Planned",
    "program_type": "Fixed Wireless and Satellite Upgrade Program",
    "target_eligibility_quarter": "Dec 2024"
   }
  },
  {
   "type": "Feature",
   "geometry": {
    "type": "Point",
    "coordinates": [
     152.03726615,
     -28.24224176
    ]
   },
   "properties": {
    "name": "10 OLD STANTHORPE ROAD MORGAN PARK 4370",
    "locID": "LOC000040748509",
    "tech": "WIRELESS",
    "upgrade": "NULL_NA",
    "gnaf_pid": "GAQLD161451501",
    "tech_change_status": "Not Planned",
    "program_type": "Fixed Wireless and Satellite Upgrade Program",
    "target_eligibility_quarter": "Dec 2024"
   }
  },
  {
   "type": "Feature",
   "geometry": {
    "type": "Point",
    "coordinates": [
     152.04873711,
     -28.25022189
    ]
   },
   "properties": {
    "name": "143 OLD STANTHORPE ROAD MORGAN PARK 4370",
    "locID": "LOC000050014108",
    "tech": "WIRELESS",
    "upgrade": "NULL_NA",
    "gnaf_pid": "GAQLD161451502",
    "tech_change_status": "Not Planned",
    "program_type": "Fixed Wireless and Satellite Upgrade Program",
    "target_eligibility_quarter": "Dec 2024"
   }
  },
  {
   "type": "Feature",
   "geometry": {
    "type": "Point",
    "coordinates": [
     152.03500167,
     -28.26049919
    ]
   },
   "properties": {
    "name": "228 OLD STANTHORPE ROAD MORGAN PARK 4370",
    "locID": "LOC000062973795",
    "tech": "WIRELESS",
    "upgrade": "NULL_NA",
    "gnaf_pid": "GAQLD161451503",
    "tech_change_status": "Not Planned",
    "program_type": "Fixed Wireless and Satellite Upgrade Program",
    "target_eligibility_quarter": "Dec 2024"
   }
  },
  {
   "type": "Feature",
   "geometry": {
    "type": "Point",
    "coordinates": [
     152.05566458,
     -28.26491912
    ]
   },
   "properties": {
    "name": "329 OLD STANTHORPE ROAD MORGAN PARK 4370",
    "locID": "LOC000011647961",
    "tech": "SATELLITE",
    "upgrade": "NULL_NA",
    "gnaf_pid": "GAQLD161451505",
    "tech_change_status": "Not Planned"
   }
  },
  {
   "type": "Feature",
   "geometry": {
    "type": "Point",
    "coordinates": [
     152.03839807,
     -28.24338711
    ]
   },
   "properties": {
    "name": "34 OLD STANTHORPE ROAD MORGAN PARK 4370",
    "locID": "LOC000060810602",
    "tech": "WIRELESS",
    "upgrade": "NULL_NA",
    "gnaf_pid": "GAQLD161451506",
    "tech_change_status": "Not Planned",
    "program_type": "Fixed Wireless and Satellite Upgrade Program",
    "target_eligibility_quarter": "Dec 2024"
   }
  },
  {
   "type": "Feature",
   "geometry": {
    "type": "Point",
    "coordinates": [
     152.05662927,
     -28.27144165
    ]
   },
   "properties": {
    "name": "411 OLD STANTHORPE ROAD MORGAN PARK 4370",
    "locID": "LOC000059945089",
    "tech": "WIRELESS",
    "upgrade": "NULL_NA",
    "gnaf_pid": "GAQLD161451507",
    "tech_change_status": "Not Planned",
    "program_type": "Fixed Wireless and Satellite Upgrade Program",
    "target_eligibility_quarter": "Dec 2024"
   }
  },
  {
   "type": "Feature",
   "geometry": {
    "type": "Point",
    "coordinates": [
     152.03940889,
     -28.24463639
    ]
   },
   "properties": {
    "name": "50 OLD STANTHORPE ROAD MORGAN PARK 4370",
    "locID": "LOC000027522241",
    "tech": "WIRELESS",
    "upgrade": "NULL_NA",
    "gnaf_pid": "GAQLD161451509",
    "tech_change_status": "Not Planned",
    "program_type": "Fixed Wireless and Satellite Upgrade Program",
    "target_eligibility_quarter": "Dec 2024"
   }
  },
  {
   "type": "Feature",
   "geometry": {
    "type": "Point",
    "coordinates": [
     152.04221612,
     -28.24327083
    ]
   },
   "properties": {
    "name": "332 WARWICK - KILLARNEY ROAD MORGAN PARK 4370",
    "locID": "LOC000033394410",
    "tech": "WIRELESS",
    "upgrade": "NULL_NA",
    "gnaf_pid": "GAQLD161462809",
    "tech_change_status": "Not Planned",
    "program_type": "Fixed Wireless and Satellite Upgrade Program",
    "target_eligibility_quarter": "Dec 2024"
   }
  },
  {
   "type": "Feature",
   "geometry": {
    "type": "Point",
    "coordinates": [
     152.05102911,
     -28.24802437
    ]
   },
   "properties": {
    "name": "478 WARWICK - KILLARNEY ROAD MORGAN PARK 4370",
    "locID": "LOC000065777221",
    "tech": "WIRELESS",
    "upgrade": "NULL_NA",
    "gnaf_pid": "GAQLD161462810",
    "tech_change_status": "Not Planned",
    "program_type": "Fixed Wireless and Satellite Upgrade Program",
    "target_eligibility_quarter": "Dec 2024"
   }
  },
  {
   "type": "Feature",
   "geometry": {
    "type": "Point",
    "coordinates": [
     152.05238935,
     -28.24880394
    ]
   },
   "properties": {
    "name": "484 WARWICK - KILLARNEY ROAD MORGAN PARK 4370",
    "locID": "LOC000042936287",
    "tech": "WIRELESS",
    "upgrade": "NULL_NA",
    "gnaf_pid": "GAQLD161462811",
    "tech_change_status": "Not Planned",
    "program_type": "Fixed Wireless and Satellite Upgrade Program",
    "target_eligibility_quarter": "Dec 2024"
   }
  },
  {
   "type": "Feature",
   "geometry": {
    "type": "Point",
    "coordinates": [
     152.05841598,
     -28.25584768
    ]
   },
   "properties": {
    "name": "568 WARWICK - KILLARNEY ROAD MORGAN PARK 4370",
    "locID": "LOC000015817173",
    "tech": "WIRELESS",
    "upgrade": "NULL_NA",
    "gnaf_pid": "GAQLD161462812",
    "tech_change_status": "Not Planned",
    "program_type": "Fixed Wireless and Satellite Upgrade Program",
    "target_eligibility_quarter": "Dec 2024"
   }
  },
  {
   "type": "Feature",
   "geometry": {
    "type": "Point",
    "coordinates": [
     152.04510774,
     -28.24439961
    ]
   },
   "properties": {
    "name": "398 WARWICK - KILLARNEY ROAD MORGAN PARK 4370",
    "locID": "LOC000041383518",
    "tech": "WIRELESS",
    "upgrade": "NULL_NA",
    "gnaf_pid": "GAQLD161671166",
    "tech_change_status": "Not Planned",
    "program_type": "Fixed Wireless and Satellite Upgrade Program",
    "target_eligibility_quarter": "Dec 2024"
   }
  },
  {
   "type": "Feature",
   "geometry": {
    "type": "Point",
    "coordinates": [
     152.06789683,
     -28.26293164
    ]
   },
   "properties": {
    "name": "694 WARWICK - KILLARNEY ROAD MORGAN PARK 4370",
    "locID": "LOC000021653666",
    "tech": "WIRELESS",
    "upgrade": "NULL_NA",
    "gnaf_pid": "GAQLD161970071",
    "tech_change_status": "Not Planned",
    "program_type": "Fixed Wireless and Satellite Upgrade Program",
    "target_eligibility_quarter": "Dec 2024"
   }
  },
  {
   "type": "Feature",
   "geometry": {
    "type": "Point",
    "coordinates": [
     152.03636497,
     -28.24604186
    ]
   },
   "properties": {
    "name": "61 KENILWORTH STREET MORGAN PARK 4370",
    "locID": "LOC000017490499",
    "tech": "WIRELESS",
    "upgrade": "NULL_NA",
    "gnaf_pid": "GAQLD162103286",
    "tech_change_status": "Not Planned",
    "program_type": "Fixed Wireless and Satellite Upgrade Program",
    "target_eligibility_quarter": "Dec 2024"
   }
  },
  {
   "type": "Feature",
   "geometry": {
    "type": "Point",
    "coordinates": [
     152.03643428,
     -28.24631038
    ]
   },
   "properties": {
    "name": "65 KENILWORTH STREET MORGAN PARK 4370",
    "locID": "LOC000026555901",
    "tech": "WIRELESS",
    "upgrade": "NULL_NA",
    "gnaf_pid": "GAQLD162103287",
    "tech_change_status": "Not Planned",
    "program_type": "Fixed Wireless and Satellite Upgrade Program",
    "target_eligibility_quarter": "Dec 2024"
   }
  },
  {
   "type": "Feature",
   "geometry": {
    "type": "Point",
    "coordinates": [
     152.03815934,
     -28.24865779
    ]
   },
   "properties": {
    "name": "93 KENILWORTH STREET MORGAN PARK 4370",
    "locID": "LOC000051032799",
    "tech": "WIRELESS",
    "upgrade": "NULL_NA",
    "gnaf_pid": "GAQLD162103288",
    "tech_change_status": "Not Planned",
    "program_type": "Fixed Wireless and Satellite Upgrade Program",
    "target_eligibility_quarter": "Dec 2024"
   }
  },
  {
   "type": "Feature",
   "geometry": {
    "type": "Point",
    "coordinates": [
     152.0393386,
     -28.24506426
    ]
   },
   "properties": {
    "name": "LOT 94 SECOND AVENUE MORGAN PARK 4370",
    "locID": "LOC000127887182",
    "tech": "WIRELESS",
    "upgrade": "NULL_NA",
    "gnaf_pid": "GAQLD162194136",
    "tech_change_status": "Not Planned",
    "program_type": "Fixed Wireless and Satellite Upgrade Program",
    "target_eligibility_quarter": "Dec 2024"
   }
  },
  {
   "type": "Feature",
   "geometry": {
    "type": "Point",
    "coordinates": [
     152.0353662,
     -28.24421967
    ]
   },
   "properties": {
    "name": "40 KENILWORTH STREET MORGAN PARK 4370",
    "locID": "LOC000067328989",
    "tech": "WIRELESS",
    "upgrade": "NULL_NA",
    "gnaf_pid": "GAQLD162287590",
    "tech_change_status": "Not Planned",
    "program_type": "Fixed Wireless and Satellite Upgrade Program",
    "target_eligibility_quarter": "Dec 2024"
   }
  },
  {
   "type": "Feature",
   "geometry": {
    "type": "Point",
    "coordinates": [
     152.03856073,
     -28.24380529
    ]
   },
   "properties": {
    "name": "40 OLD STANTHORPE ROAD MORGAN PARK 4370",
    "locID": "LOC000036393607",
    "tech": "WIRELESS",
    "upgrade": "NULL_NA",
    "gnaf_pid": "GAQLD162290562",
    "tech_change_status": "Not Planned",
    "program_type": "Fixed Wireless and Satellite Upgrade Program",
    "target_eligibility_quarter": "Dec 2024"
   }
  },
  {
   "type": "Feature",
   "geometry": {
    "type": "Point",
    "coordinates": [
     152.03676935,
     -28.24537168
    ]
   },
   "properties": {
    "name": "53 KENILWORTH STREET MORGAN PARK 4370",
    "locID": "LOC000077476565",
    "tech": "WIRELESS",
    "upgrade": "NULL_NA",
    "gnaf_pid": "GAQLD162511222",
    "tech_change_status": "Not Planned",
    "program_type": "Fixed Wireless and Satellite Upgrade Program",
    "target_eligibility_quarter": "Dec 2024"
   }
  },
  {
   "type": "Feature",
   "geometry": {
    "type": "Point",
    "coordinates": [
     152.06818384,
     -28.27016309
    ]
   },
   "properties": {
    "name": "60 BENTLEY ROAD MORGAN PARK 4370",
    "locID": "LOC000062029072",
    "tech": "WIRELESS",
    "upgrade": "NULL_NA",
    "gnaf_pid": "GAQLD162844041",
    "tech_change_status": "Not Planned",
    "program_type": "Fixed Wireless and Satellite Upgrade Program",
    "target_eligibility_quarter": "Dec 2024"
   }
  },
  {
   "type": "Feature",
   "geometry": {
    "type": "Point",
    "coordinates": [
     152.06866883,
     -28.26651859
    ]
   },
   "properties": {
    "name": "36 BENTLEY ROAD MORGAN PARK 4370",
    "locID": "LOC000054548645",
    "tech": "WIRELESS",
    "upgrade": "NULL_NA",
    "gnaf_pid": "GAQLD162852419",
    "tech_change_status": "Not Planned",
    "program_type": "Fixed Wireless and Satellite Upgrade Program",
    "target_eligibility_quarter": "Dec 2024"
   }
  },
  {
   "type": "Feature",
   "geometry": {
    "type": "Point",
    "coordinates": [
     152.05541679,
     -28.26112032
    ]
   },
   "properties": {
    "name": "271 OLD STANTHORPE ROAD MORGAN PARK 4370",
    "locID": "LOC000096745059",
    "tech": "WIRELESS",
    "upgrade": "NULL_NA",
    "gnaf_pid": "GAQLD163039082",
    "tech_change_status": "Not Planned",
    "program_type": "Fixed Wireless and Satellite Upgrade Program",
    "target_eligibility_quarter": "Dec 2024"
   }
  },
  {
   "type": "Feature",
   "geometry": {
    "type": "Point",
    "coordinates": [
     152.0354913,
     -28.2527834
    ]
   },
   "properties": {
    "name": "LOT 11 KENILWORTH STREET MORGAN PARK 4370",
    "locID": "LOC000013546395",
    "tech": "WIRELESS",
    "upgrade": "NULL_NA",
    "gnaf_pid": "GAQLD163107377",
    "tech_change_status": "Not Planned",
    "program_type": "Fixed Wireless and Satellite Upgrade Program",
    "target_eligibility_quarter": "Dec 2024"
   }
  },
  {
   "type": "Feature",
   "geometry": {
    "type": "Point",
    "coordinates": [
     152.03335313,
     -28.25340611
    ]
   },
   "properties": {
    "name": "LOT 14 KENILWORTH STREET MORGAN PARK 4370",
    "locID": "LOC000064427859",
    "tech": "WIRELESS",
    "upgrade": "NULL_NA",
    "gnaf_pid": "GAQLD163107379",
    "tech_change_status": "Not Planned",
    "program_type": "Fixed Wireless and Satellite Upgrade Program",
    "target_eligibility_quarter": "Dec 2024"
   }
  },
  {
   "type": "Feature",
   "geometry": {
    "type": "Point",
    "coordinates": [
     152.03319201,
     -28.25431716
    ]
   },
   "properties": {
    "name": "LOT 15 KENILWORTH STREET MORGAN PARK 4370",
    "locID": "LOC000036607506",
    "tech": "WIRELESS",
    "upgrade": "NULL_NA",
    "gnaf_pid": "GAQLD163107380",
    "tech_change_status": "Not Planned",
    "program_type": "Fixed Wireless and Satellite Upgrade Program",
    "target_eligibility_quarter": "Dec 2024"
   }
  },
  {
   "type": "Feature",
   "geometry": {
    "type": "Point",
    "coordinates": [
     152.03633626,
     -28.24957608
    ]
   },
   "properties": {
    "name": "LOT 4 KENILWORTH STREET MORGAN PARK 4370",
    "locID": "LOC000127921228",
    "tech": "WIRELESS",
    "upgrade": "NULL_NA",
    "gnaf_pid": "GAQLD163107400",
    "tech_change_status": "Not Planned",
    "program_type": "Fixed Wireless and Satellite Upgrade Program",
    "target_eligibility_quarter": "Dec 2024"
   }
  },
  {
   "type": "Feature",
   "geometry": {
    "type": "Point",
    "coordinates": [
     152.03640991,
     -28.25014503
    ]
   },
   "properties": {
    "name": "LOT 5 KENILWORTH STREET MORGAN PARK 4370",
    "locID": "LOC000029908356",
    "tech": "WIRELESS",
    "upgrade": "NULL_NA",
    "gnaf_pid": "GAQLD163107401",
    "tech_change_status": "Not Planned",
    "program_type": "Fixed Wireless and Satellite Upgrade Program",
    "target_eligibility_quarter": "Dec 2024"
   }
  },
  {
   "type": "Feature",
   "geometry": {
    "type": "Point",
    "coordinates": [
     152.03653589,
     -28.25065833
    ]
   },
   "properties": {
    "name": "LOT 6 KENILWORTH STREET MORGAN PARK 4370",
    "locID": "LOC000017490499",
    "tech": "WIRELESS",
    "upgrade": "NULL_NA",
    "gnaf_pid": "GAQLD163107402",
    "tech_change_status": "Not Planned",
    "program_type": "Fixed Wireless and Satellite Upgrade Program",
    "target_eligibility_quarter": "Dec 2024"
   }
  },
  {
   "type": "Feature",
   "geometry": {
    "type": "Point",
    "coordinates": [
     152.03664996,
     -28.25116868
    ]
   },
   "properties": {
    "name": "LOT 7 KENILWORTH STREET MORGAN PARK 4370",
    "locID": "LOC000039362132",
    "tech": "WIRELESS",
    "upgrade": "NULL_NA",
    "gnaf_pid": "GAQLD163107403",
    "tech_change_status": "Not Planned",
    "program_type": "Fixed Wireless and Satellite Upgrade Program",
    "target_eligibility_quarter": "Dec 2024"
   }
  },
  {
   "type": "Feature",
   "geometry": {
    "type": "Point",
    "coordinates": [
     152.03750204,
     -28.25244103
    ]
   },
   "properties": {
    "name": "LOT 8 KENILWORTH STREET MORGAN PARK 4370",
    "locID": "LOC000013546395",
    "tech": "WIRELESS",
    "upgrade": "NULL_NA",
    "gnaf_pid": "GAQLD163107404",
    "tech_change_status": "Not Planned",
    "program_type": "Fixed Wireless and Satellite Upgrade Program",
    "target_eligibility_quarter": "Dec 2024"
   }
  },
  {
   "type": "Feature",
   "geometry": {
    "type": "Point",
    "coordinates": [
     152.03759766,
     -28.25429237
    ]
   },
   "properties": {
    "name": "LOT 9 KENILWORTH STREET MORGAN PARK 4370",
    "locID": "LOC000051032799",
    "tech": "WIRELESS",
    "upgrade": "NULL_NA",
    "gnaf_pid": "GAQLD163107405",
    "tech_change_status": "Not Planned",
    "program_type": "Fixed Wireless and Satellite Upgrade Program",
    "target_eligibility_quarter": "Dec 2024"
   }
  },
  {
   "type": "Feature",
   "geometry": {
    "type": "Point",
    "coordinates": [
     152.03656413,
     -28.24684387
    ]
   },
   "properties": {
    "name": "71 KENILWORTH STREET MORGAN PARK 4370",
    "locID": "LOC000025344746",
    "tech": "WIRELESS",
    "upgrade": "NULL_NA",
    "gnaf_pid": "GAQLD163328583",
    "tech_change_status": "Not Planned",
    "program_type": "Fixed Wireless and Satellite Upgrade Program",
    "target_eligibility_quarter": "Dec 2024"
   }
  },
  {
   "type": "Feature",
   "geometry": {
    "type": "Point",
    "coordinates": [
     152.03812245,
     -28.24484057
    ]
   },
   "properties": {
    "name": "LOT 89 SECOND AVENUE MORGAN PARK 4370",
    "locID": "LOC000185375036",
    "tech": "WIRELESS",
    "upgrade": "NULL_NA",
    "gnaf_pid": "GAQLD425131698",
    "tech_change_status": "Not Planned",
    "program_type": "Fixed Wireless and Satellite Upgrade Program",
    "target_eligibility_quarter": "Dec 2024"
   }
  },
  {
   "type": "Feature",
   "geometry": {
    "type": "Point",
    "coordinates": [
     152.06418238,
     -28.26966465
    ]
   },
   "properties": {
    "name": "50 PIERCE ROAD MORGAN PARK 4370",
    "locID": "LOC000031511484",
    "tech": "WIRELESS",
    "upgrade": "NULL_NA",
    "gnaf_pid": "GAQLD425333108",
    "tech_change_status": "Not Planned",
    "program_type": "Fixed Wireless and Satellite Upgrade Program",
    "target_eligibility_quarter": "Dec 2024"
   }
  },
  {
   "type": "Feature",
   "geometry": {
    "type": "Point",
    "coordinates": [
     152.06077485,
     -28.26727985
    ]
   },
   "properties": {
    "name": "82 PIERCE ROAD MORGAN PARK 4370",
    "locID": "LOC000060711901",
    "tech": "WIRELESS",
    "upgrade": "NULL_NA",
    "gnaf_pid": "GAQLD425333109",
    "tech_change_status": "Not Planned",
    "program_type": "Fixed Wireless and Satellite Upgrade Program",
    "target_eligibility_quarter": "Dec 2024"
   }
  },
  {
   "type": "Feature",
   "geometry": {
    "type": "Point",
    "coordinates": [
     152.03697122,
     -28.2466455
    ]
   },
   "properties": {
    "name": "69 KENILWORTH STREET MORGAN PARK 4370",
    "locID": "LOC000185504398",
    "tech": "WIRELESS",
    "upgrade": "NULL_NA",
    "gnaf_pid": "GAQLD425751259",
    "tech_change_status": "Not Planned",
    "program_type": "Fixed Wireless and Satellite Upgrade Program",
    "target_eligibility_quarter": "Dec 2024"
   }
  },
  {
   "type": "Feature",
   "geometry": {
    "type": "Point",
    "coordinates": [
     152.04279614,
     -28.25373389
    ]
   },
   "properties": {
    "name": "190 OLD STANTHORPE ROAD MORGAN PARK 4370",
    "locID": "LOC000187263215",
    "tech": "WIRELESS",
    "upgrade": "NULL_NA",
    "gnaf_pid": "GAQLD720371945",
    "tech_change_status": "Not Planned",
    "program_type": "Fixed Wireless and Satellite Upgrade Program",
    "target_eligibility_quarter": "Dec 2024"
   }
  },
  {
   "type": "Feature",
   "geometry": {
    "type": "Point",
    "coordinates": [
     152.04279614,
     -28.25373389
    ]
   },
   "properties": {
    "name": "SHOP 1, 190 OLD STANTHORPE ROAD MORGAN PARK 4370",
    "locID": "LOC000187263215",
    "tech": "WIRELESS",
    "upgrade": "NULL_NA",
    "gnaf_pid": "GAQLD721584439",
    "tech_change_status": "Not Planned",
    "program_type": "Fixed Wireless and Satellite Upgrade Program",
    "target_eligibility_quarter": "Dec 2024"
   }
  }
 ]
}