{
 "type": "FeatureCollection",
 "generated": "2024-11-11T12:20:50.968744",
 "suburb": "MORINISH SOUTH",
 "features": [
  {
   "type": "Feature",
   "geometry": {
    "type": "Point",
    "coordinates": [
     150.12401986,
     -23.39085551
    ]
   },
   "properties": {
    "name": "520 DONOVAN ROAD MORINISH SOUTH 4702",
    "locID": "LOC000094059419",
    "tech": "NULL",
    "upgrade": "NULL_NA",
    "gnaf_pid": "GAQLD158311759",
    "tech_change_status": "Not Planned"
   }
  },
  {
   "type": "Feature",
   "geometry": {
    "type": "Point",
    "coordinates": [
     149.99885974,
     -23.32366234
    ]
   },
   "properties": {
    "name": "5 CONNOR ROAD MORINISH SOUTH 4702",
    "locID": "LOC000023945802",
    "tech": "NULL",
    "upgrade": "NULL_NA",
    "gnaf_pid": "GAQLD160338578",
    "tech_change_status": "Not Planned"
   }
  },
  {
   "type": "Feature",
   "geometry": {
    "type": "Point",
    "coordinates": [
     150.03542221,
     -23.30801001
    ]
   },
   "properties": {
    "name": "317 CONNOR ROAD MORINISH SOUTH 4702",
    "locID": "LOC000017440699",
    "tech": "NULL",
    "upgrade": "NULL_NA",
    "gnaf_pid": "GAQLD160338579",
    "tech_change_status": "Not Planned"
   }
  },
  {
   "type": "Feature",
   "geometry": {
    "type": "Point",
    "coordinates": [
     149.95367213,
     -23.38256396
    ]
   },
   "properties": {
    "name": "1164 BARRETT ROAD MORINISH SOUTH 4702",
    "locID": "LOC000046048394",
    "tech": "NULL",
    "upgrade": "NULL_NA",
    "gnaf_pid": "GAQLD160338593",
    "tech_change_status": "Not Planned"
   }
  },
  {
   "type": "Feature",
   "geometry": {
    "type": "Point",
    "coordinates": [
     150.11367127,
     -23.43827632
    ]
   },
   "properties": {
    "name": "LOT 8 DONOVAN ROAD MORINISH SOUTH 4702",
    "locID": "LOC000094059419",
    "tech": "NULL",
    "upgrade": "NULL_NA",
    "gnaf_pid": "GAQLD161129177",
    "tech_change_status": "Not Planned"
   }
  },
  {
   "type": "Feature",
   "geometry": {
    "type": "Point",
    "coordinates": [
     149.9475098,
     -23.33504486
    ]
   },
   "properties": {
    "name": "4693 ROSEWOOD ROAD MORINISH SOUTH 4702",
    "locID": "LOC000106953617",
    "tech": "SATELLITE",
    "upgrade": "NULL_NA",
    "gnaf_pid": "GAQLD719797434",
    "tech_change_status": "Not Planned"
   }
  },
  {
   "type": "Feature",
   "geometry": {
    "type": "Point",
    "coordinates": [
     150.04095989,
     -23.34397467
    ]
   },
   "properties": {
    "name": "3242 ROSEWOOD ROAD MORINISH SOUTH 4702",
    "locID": "LOC000052250016",
    "tech": "NULL",
    "upgrade": "NULL_NA",
    "gnaf_pid": "GAQLD719797967",
    "tech_change_status": "Not Planned"
   }
  },
  {
   "type": "Feature",
   "geometry": {
    "type": "Point",
    "coordinates": [
     150.05173483,
     -23.40986892
    ]
   },
   "properties": {
    "name": "2652 ROSEWOOD ROAD MORINISH SOUTH 4702",
    "locID": "LOC000074265849",
    "tech": "SATELLITE",
    "upgrade": "NULL_NA",
    "gnaf_pid": "GAQLD719798115",
    "tech_change_status": "Not Planned"
   }
  },
  {
   "type": "Feature",
   "geometry": {
    "type": "Point",
    "coordinates": [
     150.05917827,
     -23.40764692
    ]
   },
   "properties": {
    "name": "2670 ROSEWOOD ROAD MORINISH SOUTH 4702",
    "locID": "LOC000011631344",
    "tech": "NULL",
    "upgrade": "NULL_NA",
    "gnaf_pid": "GAQLD719799658",
    "tech_change_status": "Not Planned"
   }
  },
  {
   "type": "Feature",
   "geometry": {
    "type": "Point",
    "coordinates": [
     149.96845564,
     -23.30343423
    ]
   },
   "properties": {
    "name": "4407 ROSEWOOD ROAD MORINISH SOUTH 4702",
    "locID": "LOC000069826203",
    "tech": "NULL",
    "upgrade": "NULL_NA",
    "gnaf_pid": "GAQLD719800078",
    "tech_change_status": "Not Planned"
   }
  },
  {
   "type": "Feature",
   "geometry": {
    "type": "Point",
    "coordinates": [
     149.984477,
     -23.32808543
    ]
   },
   "properties": {
    "name": "LOT 26 ROSEWOOD ROAD MORINISH SOUTH 4702",
    "locID": "LOC000074265849",
    "tech": "SATELLITE",
    "upgrade": "NULL_NA",
    "gnaf_pid": "GAQLD719801028",
    "tech_change_status": "Not Planned"
   }
  },
  {
   "type": "Feature",
   "geometry": {
    "type": "Point",
    "coordinates": [
     149.97945688,
     -23.32021644
    ]
   },
   "properties": {
    "name": "4068 ROSEWOOD ROAD MORINISH SOUTH 4702",
    "locID": "LOC000074265831",
    "tech": "SATELLITE",
    "upgrade": "NULL_NA",
    "gnaf_pid": "GAQLD719801128",
    "tech_change_status": "Not Planned"
   }
  },
  {
   "type": "Feature",
   "geometry": {
    "type": "Point",
    "coordinates": [
     150.00411816,
     -23.33422197
    ]
   },
   "properties": {
    "name": "4281 ROSEWOOD ROAD MORINISH SOUTH 4702",
    "locID": "LOC000041224956",
    "tech": "NULL",
    "upgrade": "NULL_NA",
    "gnaf_pid": "GAQLD719822592",
    "tech_change_status": "Not Planned"
   }
  },
  {
   "type": "Feature",
   "geometry": {
    "type": "Point",
    "coordinates": [
     149.995323,
     -23.39885997
    ]
   },
   "properties": {
    "name": "LOT 1 BARRETT ROAD MORINISH SOUTH 4702",
    "locID": "LOC000046048394",
    "tech": "NULL",
    "upgrade": "NULL_NA",
    "gnaf_pid": "GAQLD719827429",
    "tech_change_status": "Not Planned"
   }
  },
  {
   "type": "Feature",
   "geometry": {
    "type": "Point",
    "coordinates": [
     149.98950973,
     -23.36292779
    ]
   },
   "properties": {
    "name": "20 COFFEE POT ROAD MORINISH SOUTH 4702",
    "locID": "LOC000041224956",
    "tech": "NULL",
    "upgrade": "NULL_NA",
    "gnaf_pid": "GAQLD721432187",
    "tech_change_status": "Not Planned"
   }
  }
 ]
}