{
 "type": "FeatureCollection",
 "generated": "2026-04-16T17:19:24.556896",
 "suburb": "MOUNT CARBINE",
 "features": [
  {
   "type": "Feature",
   "geometry": {
    "type": "Point",
    "coordinates": [
     145.13049589,
     -16.53707628
    ]
   },
   "properties": {
    "name": "95 PUMP ROAD MOUNT CARBINE 4871",
    "locID": "LOC000088205118",
    "tech": "NULL",
    "upgrade": "NULL_NA",
    "gnaf_pid": "GAQLD158307413",
    "tech_change_status": "Not Planned"
   }
  },
  {
   "type": "Feature",
   "geometry": {
    "type": "Point",
    "coordinates": [
     145.13275935,
     -16.53168085
    ]
   },
   "properties": {
    "name": "33 PUMP ROAD MOUNT CARBINE 4871",
    "locID": "LOC000029881638",
    "tech": "SATELLITE",
    "upgrade": "NULL_NA",
    "gnaf_pid": "GAQLD158322986",
    "tech_change_status": "Not Planned"
   }
  },
  {
   "type": "Feature",
   "geometry": {
    "type": "Point",
    "coordinates": [
     145.13298801,
     -16.52941885
    ]
   },
   "properties": {
    "name": "11 PUMP ROAD MOUNT CARBINE 4871",
    "locID": "LOC000038627931",
    "tech": "NULL",
    "upgrade": "NULL_NA",
    "gnaf_pid": "GAQLD158322989",
    "tech_change_status": "Not Planned"
   }
  },
  {
   "type": "Feature",
   "geometry": {
    "type": "Point",
    "coordinates": [
     145.13232575,
     -16.53293294
    ]
   },
   "properties": {
    "name": "47 PUMP ROAD MOUNT CARBINE 4871",
    "locID": "LOC000054810327",
    "tech": "SATELLITE",
    "upgrade": "NULL_NA",
    "gnaf_pid": "GAQLD158322990",
    "tech_change_status": "Not Planned"
   }
  },
  {
   "type": "Feature",
   "geometry": {
    "type": "Point",
    "coordinates": [
     145.1961498,
     -16.56296192
    ]
   },
   "properties": {
    "name": "33 BUTCHERS CREEK ROAD MOUNT CARBINE 4871",
    "locID": "LOC000093286640",
    "tech": "SATELLITE",
    "upgrade": "NULL_NA",
    "gnaf_pid": "GAQLD161429437",
    "tech_change_status": "Not Planned"
   }
  },
  {
   "type": "Feature",
   "geometry": {
    "type": "Point",
    "coordinates": [
     145.18607531,
     -16.55912547
    ]
   },
   "properties": {
    "name": "34 BUTCHERS CREEK ROAD MOUNT CARBINE 4871",
    "locID": "LOC000083815139",
    "tech": "NULL",
    "upgrade": "NULL_NA",
    "gnaf_pid": "GAQLD161429438",
    "tech_change_status": "Not Planned"
   }
  },
  {
   "type": "Feature",
   "geometry": {
    "type": "Point",
    "coordinates": [
     145.19501863,
     -16.56365802
    ]
   },
   "properties": {
    "name": "64 BUTCHERS CREEK ROAD MOUNT CARBINE 4871",
    "locID": "LOC000045757463",
    "tech": "SATELLITE",
    "upgrade": "NULL_NA",
    "gnaf_pid": "GAQLD161429439",
    "tech_change_status": "Not Planned"
   }
  },
  {
   "type": "Feature",
   "geometry": {
    "type": "Point",
    "coordinates": [
     145.20616051,
     -16.55280037
    ]
   },
   "properties": {
    "name": "65 BUTCHERS CREEK ROAD MOUNT CARBINE 4871",
    "locID": "LOC000086776943",
    "tech": "NULL",
    "upgrade": "NULL_NA",
    "gnaf_pid": "GAQLD161429440",
    "tech_change_status": "Not Planned"
   }
  },
  {
   "type": "Feature",
   "geometry": {
    "type": "Point",
    "coordinates": [
     145.1975783,
     -16.57354545
    ]
   },
   "properties": {
    "name": "131 EAST MARY ROAD MOUNT CARBINE 4871",
    "locID": "LOC000044707823",
    "tech": "SATELLITE",
    "upgrade": "NULL_NA",
    "gnaf_pid": "GAQLD161434781",
    "tech_change_status": "Not Planned"
   }
  },
  {
   "type": "Feature",
   "geometry": {
    "type": "Point",
    "coordinates": [
     145.19965757,
     -16.57109901
    ]
   },
   "properties": {
    "name": "133 EAST MARY ROAD MOUNT CARBINE 4871",
    "locID": "LOC000179389523",
    "tech": "SATELLITE",
    "upgrade": "NULL_NA",
    "gnaf_pid": "GAQLD161434782",
    "tech_change_status": "Not Planned"
   }
  },
  {
   "type": "Feature",
   "geometry": {
    "type": "Point",
    "coordinates": [
     145.20238093,
     -16.56868466
    ]
   },
   "properties": {
    "name": "213 EAST MARY ROAD MOUNT CARBINE 4871",
    "locID": "LOC000041922135",
    "tech": "NULL",
    "upgrade": "NULL_NA",
    "gnaf_pid": "GAQLD161434783",
    "tech_change_status": "Not Planned"
   }
  },
  {
   "type": "Feature",
   "geometry": {
    "type": "Point",
    "coordinates": [
     145.21809764,
     -16.55995457
    ]
   },
   "properties": {
    "name": "414 EAST MARY ROAD MOUNT CARBINE 4871",
    "locID": "LOC000185282144",
    "tech": "SATELLITE",
    "upgrade": "NULL_NA",
    "gnaf_pid": "GAQLD161434784",
    "tech_change_status": "Not Planned"
   }
  },
  {
   "type": "Feature",
   "geometry": {
    "type": "Point",
    "coordinates": [
     145.1903919,
     -16.5721985
    ]
   },
   "properties": {
    "name": "93 EAST MARY ROAD MOUNT CARBINE 4871",
    "locID": "LOC000017448775",
    "tech": "SATELLITE",
    "upgrade": "NULL_NA",
    "gnaf_pid": "GAQLD161434786",
    "tech_change_status": "Not Planned"
   }
  },
  {
   "type": "Feature",
   "geometry": {
    "type": "Point",
    "coordinates": [
     145.13163733,
     -16.5300875
    ]
   },
   "properties": {
    "name": "LOT 1 PUMP ROAD MOUNT CARBINE 4871",
    "locID": "LOC000054810327",
    "tech": "SATELLITE",
    "upgrade": "NULL_NA",
    "gnaf_pid": "GAQLD161454270",
    "tech_change_status": "Not Planned"
   }
  },
  {
   "type": "Feature",
   "geometry": {
    "type": "Point",
    "coordinates": [
     145.13251962,
     -16.53131111
    ]
   },
   "properties": {
    "name": "LOT 3 PUMP ROAD MOUNT CARBINE 4871",
    "locID": "LOC000029881638",
    "tech": "SATELLITE",
    "upgrade": "NULL_NA",
    "gnaf_pid": "GAQLD161454272",
    "tech_change_status": "Not Planned"
   }
  },
  {
   "type": "Feature",
   "geometry": {
    "type": "Point",
    "coordinates": [
     145.17984568,
     -16.56657546
    ]
   },
   "properties": {
    "name": "118 WEST MARY ROAD MOUNT CARBINE 4871",
    "locID": "LOC000014413439",
    "tech": "SATELLITE",
    "upgrade": "NULL_NA",
    "gnaf_pid": "GAQLD161463488",
    "tech_change_status": "Not Planned"
   }
  },
  {
   "type": "Feature",
   "geometry": {
    "type": "Point",
    "coordinates": [
     145.18323122,
     -16.56275062
    ]
   },
   "properties": {
    "name": "154 WEST MARY ROAD MOUNT CARBINE 4871",
    "locID": "LOC000040530799",
    "tech": "SATELLITE",
    "upgrade": "NULL_NA",
    "gnaf_pid": "GAQLD161463489",
    "tech_change_status": "Not Planned"
   }
  },
  {
   "type": "Feature",
   "geometry": {
    "type": "Point",
    "coordinates": [
     145.1910034,
     -16.55056029
    ]
   },
   "properties": {
    "name": "280 WEST MARY ROAD MOUNT CARBINE 4871",
    "locID": "LOC000142341507",
    "tech": "SATELLITE",
    "upgrade": "NULL_NA",
    "gnaf_pid": "GAQLD161463490",
    "tech_change_status": "Not Planned"
   }
  },
  {
   "type": "Feature",
   "geometry": {
    "type": "Point",
    "coordinates": [
     145.19909719,
     -16.54959227
    ]
   },
   "properties": {
    "name": "338 WEST MARY ROAD MOUNT CARBINE 4871",
    "locID": "LOC000097799321",
    "tech": "NULL",
    "upgrade": "NULL_NA",
    "gnaf_pid": "GAQLD161463491",
    "tech_change_status": "Not Planned"
   }
  },
  {
   "type": "Feature",
   "geometry": {
    "type": "Point",
    "coordinates": [
     145.10832052,
     -16.52084409
    ]
   },
   "properties": {
    "name": "339 WEST MARY ROAD MOUNT CARBINE 4871",
    "locID": "LOC000145424947",
    "tech": "NULL",
    "upgrade": "NULL_NA",
    "gnaf_pid": "GAQLD161463492",
    "tech_change_status": "Not Planned"
   }
  },
  {
   "type": "Feature",
   "geometry": {
    "type": "Point",
    "coordinates": [
     145.13580755,
     -16.52896001
    ]
   },
   "properties": {
    "name": "9 MOUNT SPURGEON ROAD MOUNT CARBINE 4871",
    "locID": "LOC000077885089",
    "tech": "SATELLITE",
    "upgrade": "NULL_NA",
    "gnaf_pid": "GAQLD161635984",
    "tech_change_status": "Not Planned"
   }
  },
  {
   "type": "Feature",
   "geometry": {
    "type": "Point",
    "coordinates": [
     145.18882074,
     -16.57533495
    ]
   },
   "properties": {
    "name": "61 EAST MARY ROAD MOUNT CARBINE 4871",
    "locID": "LOC000059216363",
    "tech": "SATELLITE",
    "upgrade": "NULL_NA",
    "gnaf_pid": "GAQLD161655323",
    "tech_change_status": "Not Planned"
   }
  },
  {
   "type": "Feature",
   "geometry": {
    "type": "Point",
    "coordinates": [
     145.13788248,
     -16.52812953
    ]
   },
   "properties": {
    "name": "26 MOUNT SPURGEON ROAD MOUNT CARBINE 4871",
    "locID": "LOC000113852622",
    "tech": "SATELLITE",
    "upgrade": "NULL_NA",
    "gnaf_pid": "GAQLD162051639",
    "tech_change_status": "Not Planned"
   }
  },
  {
   "type": "Feature",
   "geometry": {
    "type": "Point",
    "coordinates": [
     145.13830377,
     -16.52798733
    ]
   },
   "properties": {
    "name": "28 MOUNT SPURGEON ROAD MOUNT CARBINE 4871",
    "locID": "LOC000113771643",
    "tech": "SATELLITE",
    "upgrade": "NULL_NA",
    "gnaf_pid": "GAQLD162051640",
    "tech_change_status": "Not Planned"
   }
  },
  {
   "type": "Feature",
   "geometry": {
    "type": "Point",
    "coordinates": [
     145.19813196,
     -16.44640395
    ]
   },
   "properties": {
    "name": "LOT 346 PENINSULA DEVELOPMENTAL ROAD MOUNT CARBINE 4871",
    "locID": "LOC000129841650",
    "tech": "NULL",
    "upgrade": "NULL_NA",
    "gnaf_pid": "GAQLD162184569",
    "tech_change_status": "Not Planned"
   }
  },
  {
   "type": "Feature",
   "geometry": {
    "type": "Point",
    "coordinates": [
     145.13988803,
     -16.52914722
    ]
   },
   "properties": {
    "name": "UNIT 11, 6806 MULLIGAN HIGHWAY MOUNT CARBINE 4871",
    "locID": "LOC000008647711",
    "tech": "SATELLITE",
    "upgrade": "NULL_NA",
    "gnaf_pid": "GAQLD162219251",
    "tech_change_status": "Not Planned"
   }
  },
  {
   "type": "Feature",
   "geometry": {
    "type": "Point",
    "coordinates": [
     145.13988803,
     -16.52914722
    ]
   },
   "properties": {
    "name": "UNIT 12, 6806 MULLIGAN HIGHWAY MOUNT CARBINE 4871",
    "locID": "LOC000008213301",
    "tech": "SATELLITE",
    "upgrade": "NULL_NA",
    "gnaf_pid": "GAQLD162219252",
    "tech_change_status": "Not Planned"
   }
  },
  {
   "type": "Feature",
   "geometry": {
    "type": "Point",
    "coordinates": [
     145.13988803,
     -16.52914722
    ]
   },
   "properties": {
    "name": "UNIT 13, 6806 MULLIGAN HIGHWAY MOUNT CARBINE 4871",
    "locID": "LOC000008204327",
    "tech": "SATELLITE",
    "upgrade": "NULL_NA",
    "gnaf_pid": "GAQLD162219253",
    "tech_change_status": "Not Planned"
   }
  },
  {
   "type": "Feature",
   "geometry": {
    "type": "Point",
    "coordinates": [
     145.13988803,
     -16.52914722
    ]
   },
   "properties": {
    "name": "UNIT 14, 6806 MULLIGAN HIGHWAY MOUNT CARBINE 4871",
    "locID": "LOC000181261369",
    "tech": "SATELLITE",
    "upgrade": "NULL_NA",
    "gnaf_pid": "GAQLD162219254",
    "tech_change_status": "Not Planned"
   }
  },
  {
   "type": "Feature",
   "geometry": {
    "type": "Point",
    "coordinates": [
     145.13988803,
     -16.52914722
    ]
   },
   "properties": {
    "name": "UNIT 15, 6806 MULLIGAN HIGHWAY MOUNT CARBINE 4871",
    "locID": "LOC000181261369",
    "tech": "SATELLITE",
    "upgrade": "NULL_NA",
    "gnaf_pid": "GAQLD162219255",
    "tech_change_status": "Not Planned"
   }
  },
  {
   "type": "Feature",
   "geometry": {
    "type": "Point",
    "coordinates": [
     145.13988803,
     -16.52914722
    ]
   },
   "properties": {
    "name": "UNIT 16, 6806 MULLIGAN HIGHWAY MOUNT CARBINE 4871",
    "locID": "LOC000181261369",
    "tech": "SATELLITE",
    "upgrade": "NULL_NA",
    "gnaf_pid": "GAQLD162219256",
    "tech_change_status": "Not Planned"
   }
  },
  {
   "type": "Feature",
   "geometry": {
    "type": "Point",
    "coordinates": [
     145.13988803,
     -16.52914722
    ]
   },
   "properties": {
    "name": "UNIT 17, 6806 MULLIGAN HIGHWAY MOUNT CARBINE 4871",
    "locID": "LOC000181261369",
    "tech": "SATELLITE",
    "upgrade": "NULL_NA",
    "gnaf_pid": "GAQLD162219257",
    "tech_change_status": "Not Planned"
   }
  },
  {
   "type": "Feature",
   "geometry": {
    "type": "Point",
    "coordinates": [
     145.13988803,
     -16.52914722
    ]
   },
   "properties": {
    "name": "UNIT 18, 6806 MULLIGAN HIGHWAY MOUNT CARBINE 4871",
    "locID": "LOC000008657472",
    "tech": "SATELLITE",
    "upgrade": "NULL_NA",
    "gnaf_pid": "GAQLD162219258",
    "tech_change_status": "Not Planned"
   }
  },
  {
   "type": "Feature",
   "geometry": {
    "type": "Point",
    "coordinates": [
     145.13988803,
     -16.52914722
    ]
   },
   "properties": {
    "name": "UNIT 19, 6806 MULLIGAN HIGHWAY MOUNT CARBINE 4871",
    "locID": "LOC000008607150",
    "tech": "SATELLITE",
    "upgrade": "NULL_NA",
    "gnaf_pid": "GAQLD162219259",
    "tech_change_status": "Not Planned"
   }
  },
  {
   "type": "Feature",
   "geometry": {
    "type": "Point",
    "coordinates": [
     145.13988803,
     -16.52914722
    ]
   },
   "properties": {
    "name": "UNIT 24, 6806 MULLIGAN HIGHWAY MOUNT CARBINE 4871",
    "locID": "LOC000181261369",
    "tech": "SATELLITE",
    "upgrade": "NULL_NA",
    "gnaf_pid": "GAQLD162219260",
    "tech_change_status": "Not Planned"
   }
  },
  {
   "type": "Feature",
   "geometry": {
    "type": "Point",
    "coordinates": [
     145.13988803,
     -16.52914722
    ]
   },
   "properties": {
    "name": "UNIT 2, 6806 MULLIGAN HIGHWAY MOUNT CARBINE 4871",
    "locID": "LOC000008548832",
    "tech": "SATELLITE",
    "upgrade": "NULL_NA",
    "gnaf_pid": "GAQLD162219261",
    "tech_change_status": "Not Planned"
   }
  },
  {
   "type": "Feature",
   "geometry": {
    "type": "Point",
    "coordinates": [
     145.13988803,
     -16.52914722
    ]
   },
   "properties": {
    "name": "UNIT 4A, 6806 MULLIGAN HIGHWAY MOUNT CARBINE 4871",
    "locID": "LOC000181261369",
    "tech": "SATELLITE",
    "upgrade": "NULL_NA",
    "gnaf_pid": "GAQLD162219262",
    "tech_change_status": "Not Planned"
   }
  },
  {
   "type": "Feature",
   "geometry": {
    "type": "Point",
    "coordinates": [
     145.13988803,
     -16.52914722
    ]
   },
   "properties": {
    "name": "UNIT 4B, 6806 MULLIGAN HIGHWAY MOUNT CARBINE 4871",
    "locID": "LOC000181261369",
    "tech": "SATELLITE",
    "upgrade": "NULL_NA",
    "gnaf_pid": "GAQLD162219263",
    "tech_change_status": "Not Planned"
   }
  },
  {
   "type": "Feature",
   "geometry": {
    "type": "Point",
    "coordinates": [
     145.13988803,
     -16.52914722
    ]
   },
   "properties": {
    "name": "UNIT 5, 6806 MULLIGAN HIGHWAY MOUNT CARBINE 4871",
    "locID": "LOC000181261369",
    "tech": "SATELLITE",
    "upgrade": "NULL_NA",
    "gnaf_pid": "GAQLD162219264",
    "tech_change_status": "Not Planned"
   }
  },
  {
   "type": "Feature",
   "geometry": {
    "type": "Point",
    "coordinates": [
     145.13988803,
     -16.52914722
    ]
   },
   "properties": {
    "name": "UNIT 8, 6806 MULLIGAN HIGHWAY MOUNT CARBINE 4871",
    "locID": "LOC000181261369",
    "tech": "SATELLITE",
    "upgrade": "NULL_NA",
    "gnaf_pid": "GAQLD162219265",
    "tech_change_status": "Not Planned"
   }
  },
  {
   "type": "Feature",
   "geometry": {
    "type": "Point",
    "coordinates": [
     145.21109418,
     -16.58193514
    ]
   },
   "properties": {
    "name": "5732 MULLIGAN HIGHWAY MOUNT CARBINE 4871",
    "locID": "LOC000053508065",
    "tech": "SATELLITE",
    "upgrade": "NULL_NA",
    "gnaf_pid": "GAQLD162219266",
    "tech_change_status": "Not Planned"
   }
  },
  {
   "type": "Feature",
   "geometry": {
    "type": "Point",
    "coordinates": [
     145.2055653,
     -16.58374808
    ]
   },
   "properties": {
    "name": "5828 MULLIGAN HIGHWAY MOUNT CARBINE 4871",
    "locID": "LOC000074951505",
    "tech": "SATELLITE",
    "upgrade": "NULL_NA",
    "gnaf_pid": "GAQLD162219267",
    "tech_change_status": "Not Planned"
   }
  },
  {
   "type": "Feature",
   "geometry": {
    "type": "Point",
    "coordinates": [
     145.159767,
     -16.56760599
    ]
   },
   "properties": {
    "name": "6019 MULLIGAN HIGHWAY MOUNT CARBINE 4871",
    "locID": "LOC000019256507",
    "tech": "SATELLITE",
    "upgrade": "NULL_NA",
    "gnaf_pid": "GAQLD162219268",
    "tech_change_status": "Not Planned"
   }
  },
  {
   "type": "Feature",
   "geometry": {
    "type": "Point",
    "coordinates": [
     145.18390066,
     -16.57751272
    ]
   },
   "properties": {
    "name": "6069 MULLIGAN HIGHWAY MOUNT CARBINE 4871",
    "locID": "LOC000094488133",
    "tech": "NULL",
    "upgrade": "NULL_NA",
    "gnaf_pid": "GAQLD162219269",
    "tech_change_status": "Not Planned"
   }
  },
  {
   "type": "Feature",
   "geometry": {
    "type": "Point",
    "coordinates": [
     145.18375167,
     -16.57740168
    ]
   },
   "properties": {
    "name": "6071 MULLIGAN HIGHWAY MOUNT CARBINE 4871",
    "locID": "LOC000043742727",
    "tech": "SATELLITE",
    "upgrade": "NULL_NA",
    "gnaf_pid": "GAQLD162219270",
    "tech_change_status": "Not Planned"
   }
  },
  {
   "type": "Feature",
   "geometry": {
    "type": "Point",
    "coordinates": [
     145.18374167,
     -16.57963671
    ]
   },
   "properties": {
    "name": "6075 MULLIGAN HIGHWAY MOUNT CARBINE 4871",
    "locID": "LOC000004215049",
    "tech": "SATELLITE",
    "upgrade": "NULL_NA",
    "gnaf_pid": "GAQLD162219271",
    "tech_change_status": "Not Planned"
   }
  },
  {
   "type": "Feature",
   "geometry": {
    "type": "Point",
    "coordinates": [
     145.13988803,
     -16.52914722
    ]
   },
   "properties": {
    "name": "6806 MULLIGAN HIGHWAY MOUNT CARBINE 4871",
    "locID": "LOC000142313389",
    "tech": "SATELLITE",
    "upgrade": "NULL_NA",
    "gnaf_pid": "GAQLD162219272",
    "tech_change_status": "Not Planned"
   }
  },
  {
   "type": "Feature",
   "geometry": {
    "type": "Point",
    "coordinates": [
     145.13165687,
     -16.53659429
    ]
   },
   "properties": {
    "name": "6833 MULLIGAN HIGHWAY MOUNT CARBINE 4871",
    "locID": "LOC000059341517",
    "tech": "NULL",
    "upgrade": "NULL_NA",
    "gnaf_pid": "GAQLD162219273",
    "tech_change_status": "Not Planned"
   }
  },
  {
   "type": "Feature",
   "geometry": {
    "type": "Point",
    "coordinates": [
     145.13397899,
     -16.53009705
    ]
   },
   "properties": {
    "name": "6835 MULLIGAN HIGHWAY MOUNT CARBINE 4871",
    "locID": "LOC000041340259",
    "tech": "NULL",
    "upgrade": "NULL_NA",
    "gnaf_pid": "GAQLD162219274",
    "tech_change_status": "Not Planned"
   }
  },
  {
   "type": "Feature",
   "geometry": {
    "type": "Point",
    "coordinates": [
     145.13365293,
     -16.52900963
    ]
   },
   "properties": {
    "name": "6869 MULLIGAN HIGHWAY MOUNT CARBINE 4871",
    "locID": "LOC000036379690",
    "tech": "SATELLITE",
    "upgrade": "NULL_NA",
    "gnaf_pid": "GAQLD162219275",
    "tech_change_status": "Not Planned"
   }
  },
  {
   "type": "Feature",
   "geometry": {
    "type": "Point",
    "coordinates": [
     145.13320691,
     -16.52890319
    ]
   },
   "properties": {
    "name": "6875 MULLIGAN HIGHWAY MOUNT CARBINE 4871",
    "locID": "LOC000049295662",
    "tech": "SATELLITE",
    "upgrade": "NULL_NA",
    "gnaf_pid": "GAQLD162219276",
    "tech_change_status": "Not Planned"
   }
  },
  {
   "type": "Feature",
   "geometry": {
    "type": "Point",
    "coordinates": [
     145.13223115,
     -16.52748083
    ]
   },
   "properties": {
    "name": "6888 MULLIGAN HIGHWAY MOUNT CARBINE 4871",
    "locID": "LOC000053232722",
    "tech": "NULL",
    "upgrade": "NULL_NA",
    "gnaf_pid": "GAQLD162219277",
    "tech_change_status": "Not Planned"
   }
  },
  {
   "type": "Feature",
   "geometry": {
    "type": "Point",
    "coordinates": [
     145.13988803,
     -16.52914722
    ]
   },
   "properties": {
    "name": "UNIT 6, 6806 MULLIGAN HIGHWAY MOUNT CARBINE 4871",
    "locID": "LOC000008548832",
    "tech": "SATELLITE",
    "upgrade": "NULL_NA",
    "gnaf_pid": "GAQLD162306283",
    "tech_change_status": "Not Planned"
   }
  },
  {
   "type": "Feature",
   "geometry": {
    "type": "Point",
    "coordinates": [
     145.13988803,
     -16.52914722
    ]
   },
   "properties": {
    "name": "UNIT 7, 6806 MULLIGAN HIGHWAY MOUNT CARBINE 4871",
    "locID": "LOC000181261369",
    "tech": "SATELLITE",
    "upgrade": "NULL_NA",
    "gnaf_pid": "GAQLD162306284",
    "tech_change_status": "Not Planned"
   }
  },
  {
   "type": "Feature",
   "geometry": {
    "type": "Point",
    "coordinates": [
     145.17694547,
     -16.57063735
    ]
   },
   "properties": {
    "name": "6068 MULLIGAN HIGHWAY MOUNT CARBINE 4871",
    "locID": "LOC000158442267",
    "tech": "SATELLITE",
    "upgrade": "NULL_NA",
    "gnaf_pid": "GAQLD162530872",
    "tech_change_status": "Not Planned"
   }
  },
  {
   "type": "Feature",
   "geometry": {
    "type": "Point",
    "coordinates": [
     145.13406342,
     -16.52814195
    ]
   },
   "properties": {
    "name": "6872 MULLIGAN HIGHWAY MOUNT CARBINE 4871",
    "locID": "LOC000030756108",
    "tech": "SATELLITE",
    "upgrade": "NULL_NA",
    "gnaf_pid": "GAQLD162928334",
    "tech_change_status": "Not Planned"
   }
  },
  {
   "type": "Feature",
   "geometry": {
    "type": "Point",
    "coordinates": [
     145.13988803,
     -16.52914722
    ]
   },
   "properties": {
    "name": "UNIT 10, 6806 MULLIGAN HIGHWAY MOUNT CARBINE 4871",
    "locID": "LOC000181261369",
    "tech": "SATELLITE",
    "upgrade": "NULL_NA",
    "gnaf_pid": "GAQLD163064046",
    "tech_change_status": "Not Planned"
   }
  },
  {
   "type": "Feature",
   "geometry": {
    "type": "Point",
    "coordinates": [
     145.18406488,
     -16.57765386
    ]
   },
   "properties": {
    "name": "6067 MULLIGAN HIGHWAY MOUNT CARBINE 4871",
    "locID": "LOC000112078168",
    "tech": "NULL",
    "upgrade": "NULL_NA",
    "gnaf_pid": "GAQLD163170663",
    "tech_change_status": "Not Planned"
   }
  },
  {
   "type": "Feature",
   "geometry": {
    "type": "Point",
    "coordinates": [
     145.18726985,
     -16.56426225
    ]
   },
   "properties": {
    "name": "34 WEST MARY ROAD MOUNT CARBINE 4871",
    "locID": "LOC000011767794",
    "tech": "SATELLITE",
    "upgrade": "NULL_NA",
    "gnaf_pid": "GAQLD163257616"
   }
  },
  {
   "type": "Feature",
   "geometry": {
    "type": "Point",
    "coordinates": [
     145.13988803,
     -16.52914722
    ]
   },
   "properties": {
    "name": "UNIT 23, 6806 MULLIGAN HIGHWAY MOUNT CARBINE 4871",
    "locID": "LOC000181261369",
    "tech": "SATELLITE",
    "upgrade": "NULL_NA",
    "gnaf_pid": "GAQLD425179972",
    "tech_change_status": "Not Planned"
   }
  },
  {
   "type": "Feature",
   "geometry": {
    "type": "Point",
    "coordinates": [
     145.13304915,
     -16.52978321
    ]
   },
   "properties": {
    "name": "15 PUMP ROAD MOUNT CARBINE 4871",
    "locID": "LOC000088205118",
    "tech": "NULL",
    "upgrade": "NULL_NA",
    "gnaf_pid": "GAQLD425252211",
    "tech_change_status": "Not Planned"
   }
  },
  {
   "type": "Feature",
   "geometry": {
    "type": "Point",
    "coordinates": [
     145.20424143,
     -16.43530456
    ]
   },
   "properties": {
    "name": "LOT 197 MOUNT SPURGEON ROAD MOUNT CARBINE 4871",
    "locID": "LOC000113771643",
    "tech": "SATELLITE",
    "upgrade": "NULL_NA",
    "gnaf_pid": "GAQLD425265527",
    "tech_change_status": "Not Planned"
   }
  },
  {
   "type": "Feature",
   "geometry": {
    "type": "Point",
    "coordinates": [
     145.16300508,
     -16.49053948
    ]
   },
   "properties": {
    "name": "LOT 346 MOUNT SPURGEON ROAD MOUNT CARBINE 4871",
    "locID": "LOC000113771643",
    "tech": "SATELLITE",
    "upgrade": "NULL_NA",
    "gnaf_pid": "GAQLD425492436",
    "tech_change_status": "Not Planned"
   }
  },
  {
   "type": "Feature",
   "geometry": {
    "type": "Point",
    "coordinates": [
     145.14029235,
     -16.53089036
    ]
   },
   "properties": {
    "name": "LOT 10 MULLIGAN HIGHWAY MOUNT CARBINE 4871",
    "locID": "LOC000059341517",
    "tech": "NULL",
    "upgrade": "NULL_NA",
    "gnaf_pid": "GAQLD425592374",
    "tech_change_status": "Not Planned"
   }
  },
  {
   "type": "Feature",
   "geometry": {
    "type": "Point",
    "coordinates": [
     145.06791827,
     -16.51223218
    ]
   },
   "properties": {
    "name": "LOT 11 MULLIGAN HIGHWAY MOUNT CARBINE 4871",
    "locID": "LOC000142906299",
    "tech": "NULL",
    "upgrade": "NULL_NA",
    "gnaf_pid": "GAQLD425592375",
    "tech_change_status": "Not Planned"
   }
  },
  {
   "type": "Feature",
   "geometry": {
    "type": "Point",
    "coordinates": [
     145.14113436,
     -16.53053249
    ]
   },
   "properties": {
    "name": "LOT 12 MULLIGAN HIGHWAY MOUNT CARBINE 4871",
    "locID": "LOC000184786514",
    "tech": "NULL",
    "upgrade": "NULL_NA",
    "gnaf_pid": "GAQLD425592376",
    "tech_change_status": "Not Planned"
   }
  },
  {
   "type": "Feature",
   "geometry": {
    "type": "Point",
    "coordinates": [
     145.13664435,
     -16.52792276
    ]
   },
   "properties": {
    "name": "LOT 13 MULLIGAN HIGHWAY MOUNT CARBINE 4871",
    "locID": "LOC100071884864",
    "tech": "NULL",
    "upgrade": "NULL_NA",
    "gnaf_pid": "GAQLD425592377",
    "tech_change_status": "Not Planned"
   }
  },
  {
   "type": "Feature",
   "geometry": {
    "type": "Point",
    "coordinates": [
     145.14166027,
     -16.53047977
    ]
   },
   "properties": {
    "name": "LOT 14 MULLIGAN HIGHWAY MOUNT CARBINE 4871",
    "locID": "LOC000184786514",
    "tech": "NULL",
    "upgrade": "NULL_NA",
    "gnaf_pid": "GAQLD425592378",
    "tech_change_status": "Not Planned"
   }
  },
  {
   "type": "Feature",
   "geometry": {
    "type": "Point",
    "coordinates": [
     145.1418767,
     -16.53078189
    ]
   },
   "properties": {
    "name": "LOT 15 MULLIGAN HIGHWAY MOUNT CARBINE 4871",
    "locID": "LOC000184786514",
    "tech": "NULL",
    "upgrade": "NULL_NA",
    "gnaf_pid": "GAQLD425592379",
    "tech_change_status": "Not Planned"
   }
  },
  {
   "type": "Feature",
   "geometry": {
    "type": "Point",
    "coordinates": [
     145.14161327,
     -16.53087059
    ]
   },
   "properties": {
    "name": "LOT 16 MULLIGAN HIGHWAY MOUNT CARBINE 4871",
    "locID": "LOC100071884864",
    "tech": "NULL",
    "upgrade": "NULL_NA",
    "gnaf_pid": "GAQLD425592380",
    "tech_change_status": "Not Planned"
   }
  },
  {
   "type": "Feature",
   "geometry": {
    "type": "Point",
    "coordinates": [
     145.14205544,
     -16.53036216
    ]
   },
   "properties": {
    "name": "LOT 17 MULLIGAN HIGHWAY MOUNT CARBINE 4871",
    "locID": "LOC100071884864",
    "tech": "NULL",
    "upgrade": "NULL_NA",
    "gnaf_pid": "GAQLD425592381",
    "tech_change_status": "Not Planned"
   }
  },
  {
   "type": "Feature",
   "geometry": {
    "type": "Point",
    "coordinates": [
     145.14224032,
     -16.53061417
    ]
   },
   "properties": {
    "name": "LOT 18 MULLIGAN HIGHWAY MOUNT CARBINE 4871",
    "locID": "LOC000184786514",
    "tech": "NULL",
    "upgrade": "NULL_NA",
    "gnaf_pid": "GAQLD425592382",
    "tech_change_status": "Not Planned"
   }
  },
  {
   "type": "Feature",
   "geometry": {
    "type": "Point",
    "coordinates": [
     145.14253345,
     -16.53044865
    ]
   },
   "properties": {
    "name": "LOT 19 MULLIGAN HIGHWAY MOUNT CARBINE 4871",
    "locID": "LOC100071884864",
    "tech": "NULL",
    "upgrade": "NULL_NA",
    "gnaf_pid": "GAQLD425592383",
    "tech_change_status": "Not Planned"
   }
  },
  {
   "type": "Feature",
   "geometry": {
    "type": "Point",
    "coordinates": [
     145.19260384,
     -16.44298572
    ]
   },
   "properties": {
    "name": "LOT 1 MULLIGAN HIGHWAY MOUNT CARBINE 4871",
    "locID": "LOC000049295662",
    "tech": "SATELLITE",
    "upgrade": "NULL_NA",
    "gnaf_pid": "GAQLD425592384",
    "tech_change_status": "Not Planned"
   }
  },
  {
   "type": "Feature",
   "geometry": {
    "type": "Point",
    "coordinates": [
     145.14368366,
     -16.53001999
    ]
   },
   "properties": {
    "name": "LOT 20 MULLIGAN HIGHWAY MOUNT CARBINE 4871",
    "locID": "LOC000184786514",
    "tech": "NULL",
    "upgrade": "NULL_NA",
    "gnaf_pid": "GAQLD425592385",
    "tech_change_status": "Not Planned"
   }
  },
  {
   "type": "Feature",
   "geometry": {
    "type": "Point",
    "coordinates": [
     145.14116547,
     -16.52887635
    ]
   },
   "properties": {
    "name": "LOT 21 MULLIGAN HIGHWAY MOUNT CARBINE 4871",
    "locID": "LOC100071884864",
    "tech": "NULL",
    "upgrade": "NULL_NA",
    "gnaf_pid": "GAQLD425592386",
    "tech_change_status": "Not Planned"
   }
  },
  {
   "type": "Feature",
   "geometry": {
    "type": "Point",
    "coordinates": [
     145.14236934,
     -16.52866227
    ]
   },
   "properties": {
    "name": "LOT 22 MULLIGAN HIGHWAY MOUNT CARBINE 4871",
    "locID": "LOC000169070879",
    "tech": "SATELLITE",
    "upgrade": "NULL_NA",
    "gnaf_pid": "GAQLD425592387",
    "tech_change_status": "Not Planned"
   }
  },
  {
   "type": "Feature",
   "geometry": {
    "type": "Point",
    "coordinates": [
     145.14030595,
     -16.52757576
    ]
   },
   "properties": {
    "name": "LOT 23 MULLIGAN HIGHWAY MOUNT CARBINE 4871",
    "locID": "LOC000184786514",
    "tech": "NULL",
    "upgrade": "NULL_NA",
    "gnaf_pid": "GAQLD425592388",
    "tech_change_status": "Not Planned"
   }
  },
  {
   "type": "Feature",
   "geometry": {
    "type": "Point",
    "coordinates": [
     145.13806456,
     -16.53056999
    ]
   },
   "properties": {
    "name": "LOT 26 MULLIGAN HIGHWAY MOUNT CARBINE 4871",
    "locID": "LOC000050310739",
    "tech": "SATELLITE",
    "upgrade": "NULL_NA",
    "gnaf_pid": "GAQLD425592389",
    "tech_change_status": "Not Planned"
   }
  },
  {
   "type": "Feature",
   "geometry": {
    "type": "Point",
    "coordinates": [
     145.13336311,
     -16.52821115
    ]
   },
   "properties": {
    "name": "LOT 2 MULLIGAN HIGHWAY MOUNT CARBINE 4871",
    "locID": "LOC000094488133",
    "tech": "NULL",
    "upgrade": "NULL_NA",
    "gnaf_pid": "GAQLD425592390",
    "tech_change_status": "Not Planned"
   }
  },
  {
   "type": "Feature",
   "geometry": {
    "type": "Point",
    "coordinates": [
     145.13201109,
     -16.52920631
    ]
   },
   "properties": {
    "name": "LOT 3 MULLIGAN HIGHWAY MOUNT CARBINE 4871",
    "locID": "LOC000043742727",
    "tech": "SATELLITE",
    "upgrade": "NULL_NA",
    "gnaf_pid": "GAQLD425592391",
    "tech_change_status": "Not Planned"
   }
  },
  {
   "type": "Feature",
   "geometry": {
    "type": "Point",
    "coordinates": [
     145.13181817,
     -16.52916098
    ]
   },
   "properties": {
    "name": "LOT 4 MULLIGAN HIGHWAY MOUNT CARBINE 4871",
    "locID": "LOC100071884864",
    "tech": "NULL",
    "upgrade": "NULL_NA",
    "gnaf_pid": "GAQLD425592392",
    "tech_change_status": "Not Planned"
   }
  },
  {
   "type": "Feature",
   "geometry": {
    "type": "Point",
    "coordinates": [
     145.18913221,
     -16.58041854
    ]
   },
   "properties": {
    "name": "LOT 50 MULLIGAN HIGHWAY MOUNT CARBINE 4871",
    "locID": "LOC000184786514",
    "tech": "NULL",
    "upgrade": "NULL_NA",
    "gnaf_pid": "GAQLD425592393",
    "tech_change_status": "Not Planned"
   }
  },
  {
   "type": "Feature",
   "geometry": {
    "type": "Point",
    "coordinates": [
     145.18067477,
     -16.5770974
    ]
   },
   "properties": {
    "name": "LOT 55 MULLIGAN HIGHWAY MOUNT CARBINE 4871",
    "locID": "LOC000184786514",
    "tech": "NULL",
    "upgrade": "NULL_NA",
    "gnaf_pid": "GAQLD425592394",
    "tech_change_status": "Not Planned"
   }
  },
  {
   "type": "Feature",
   "geometry": {
    "type": "Point",
    "coordinates": [
     145.1313083,
     -16.52772416
    ]
   },
   "properties": {
    "name": "LOT 58 MULLIGAN HIGHWAY MOUNT CARBINE 4871",
    "locID": "LOC000074951505",
    "tech": "SATELLITE",
    "upgrade": "NULL_NA",
    "gnaf_pid": "GAQLD425592395",
    "tech_change_status": "Not Planned"
   }
  },
  {
   "type": "Feature",
   "geometry": {
    "type": "Point",
    "coordinates": [
     145.13195051,
     -16.52863373
    ]
   },
   "properties": {
    "name": "LOT 5 MULLIGAN HIGHWAY MOUNT CARBINE 4871",
    "locID": "LOC000030756108",
    "tech": "SATELLITE",
    "upgrade": "NULL_NA",
    "gnaf_pid": "GAQLD425592396",
    "tech_change_status": "Not Planned"
   }
  },
  {
   "type": "Feature",
   "geometry": {
    "type": "Point",
    "coordinates": [
     145.13340717,
     -16.5270716
    ]
   },
   "properties": {
    "name": "LOT 63 MULLIGAN HIGHWAY MOUNT CARBINE 4871",
    "locID": "LOC000184786514",
    "tech": "NULL",
    "upgrade": "NULL_NA",
    "gnaf_pid": "GAQLD425592397",
    "tech_change_status": "Not Planned"
   }
  },
  {
   "type": "Feature",
   "geometry": {
    "type": "Point",
    "coordinates": [
     145.13415015,
     -16.52741567
    ]
   },
   "properties": {
    "name": "LOT 67 MULLIGAN HIGHWAY MOUNT CARBINE 4871",
    "locID": "LOC100071884864",
    "tech": "NULL",
    "upgrade": "NULL_NA",
    "gnaf_pid": "GAQLD425592398",
    "tech_change_status": "Not Planned"
   }
  },
  {
   "type": "Feature",
   "geometry": {
    "type": "Point",
    "coordinates": [
     145.14029159,
     -16.52999368
    ]
   },
   "properties": {
    "name": "LOT 6 MULLIGAN HIGHWAY MOUNT CARBINE 4871",
    "locID": "LOC000184786514",
    "tech": "NULL",
    "upgrade": "NULL_NA",
    "gnaf_pid": "GAQLD425592399",
    "tech_change_status": "Not Planned"
   }
  },
  {
   "type": "Feature",
   "geometry": {
    "type": "Point",
    "coordinates": [
     145.14046901,
     -16.53025577
    ]
   },
   "properties": {
    "name": "LOT 7 MULLIGAN HIGHWAY MOUNT CARBINE 4871",
    "locID": "LOC000184786514",
    "tech": "NULL",
    "upgrade": "NULL_NA",
    "gnaf_pid": "GAQLD425592400",
    "tech_change_status": "Not Planned"
   }
  },
  {
   "type": "Feature",
   "geometry": {
    "type": "Point",
    "coordinates": [
     145.11267161,
     -16.52920312
    ]
   },
   "properties": {
    "name": "LOT 8 MULLIGAN HIGHWAY MOUNT CARBINE 4871",
    "locID": "LOC000184786514",
    "tech": "NULL",
    "upgrade": "NULL_NA",
    "gnaf_pid": "GAQLD425592401",
    "tech_change_status": "Not Planned"
   }
  },
  {
   "type": "Feature",
   "geometry": {
    "type": "Point",
    "coordinates": [
     145.14087852,
     -16.53094047
    ]
   },
   "properties": {
    "name": "LOT 9 MULLIGAN HIGHWAY MOUNT CARBINE 4871",
    "locID": "LOC000053232722",
    "tech": "NULL",
    "upgrade": "NULL_NA",
    "gnaf_pid": "GAQLD425592402",
    "tech_change_status": "Not Planned"
   }
  },
  {
   "type": "Feature",
   "geometry": {
    "type": "Point",
    "coordinates": [
     145.2010644,
     -16.56609398
    ]
   },
   "properties": {
    "name": "LOT 13 EAST MARY ROAD MOUNT CARBINE 4871",
    "locID": "LOC000085298010",
    "tech": "SATELLITE",
    "upgrade": "NULL_NA",
    "gnaf_pid": "GAQLD719289930",
    "tech_change_status": "Not Planned"
   }
  },
  {
   "type": "Feature",
   "geometry": {
    "type": "Point",
    "coordinates": [
     145.16300508,
     -16.49053948
    ]
   },
   "properties": {
    "name": "25 MOUNT SPURGEON ROAD MOUNT CARBINE 4871",
    "locID": "LOC000113852622",
    "tech": "SATELLITE",
    "upgrade": "NULL_NA",
    "gnaf_pid": "GAQLD719824067",
    "tech_change_status": "Not Planned"
   }
  },
  {
   "type": "Feature",
   "geometry": {
    "type": "Point",
    "coordinates": [
     145.13988803,
     -16.52914722
    ]
   },
   "properties": {
    "name": "UNIT 22, 6806 MULLIGAN HIGHWAY MOUNT CARBINE 4871",
    "locID": "LOC000181261369",
    "tech": "SATELLITE",
    "upgrade": "NULL_NA",
    "gnaf_pid": "GAQLD720119988",
    "tech_change_status": "Not Planned"
   }
  },
  {
   "type": "Feature",
   "geometry": {
    "type": "Point",
    "coordinates": [
     145.13988803,
     -16.52914722
    ]
   },
   "properties": {
    "name": "UNIT 3, 6806 MULLIGAN HIGHWAY MOUNT CARBINE 4871",
    "locID": "LOC000181261369",
    "tech": "SATELLITE",
    "upgrade": "NULL_NA",
    "gnaf_pid": "GAQLD720691317",
    "tech_change_status": "Not Planned"
   }
  },
  {
   "type": "Feature",
   "geometry": {
    "type": "Point",
    "coordinates": [
     145.13988803,
     -16.52914722
    ]
   },
   "properties": {
    "name": "UNIT 21, 6806 MULLIGAN HIGHWAY MOUNT CARBINE 4871",
    "locID": "LOC000181261369",
    "tech": "SATELLITE",
    "upgrade": "NULL_NA",
    "gnaf_pid": "GAQLD720879057",
    "tech_change_status": "Not Planned"
   }
  }
 ]
}