{
 "type": "FeatureCollection",
 "generated": "2026-07-06T14:03:50.369237",
 "suburb": "MOUNT ISA",
 "features": [
  {
   "type": "Feature",
   "geometry": {
    "type": "Point",
    "coordinates": [
     139.475369,
     -20.742945
    ]
   },
   "properties": {
    "name": "1 SPRUCE STREET MOUNT ISA 4825",
    "locID": "LOC000043203446",
    "tech": "NULL",
    "upgrade": "NULL_NA",
    "gnaf_pid": "GAQLD155592747",
    "tech_change_status": "Not Planned"
   }
  },
  {
   "type": "Feature",
   "geometry": {
    "type": "Point",
    "coordinates": [
     139.475225,
     -20.743257
    ]
   },
   "properties": {
    "name": "3 SPRUCE STREET MOUNT ISA 4825",
    "locID": "LOC000105810943",
    "tech": "NULL",
    "upgrade": "NULL_NA",
    "gnaf_pid": "GAQLD155592748",
    "tech_change_status": "Not Planned"
   }
  },
  {
   "type": "Feature",
   "geometry": {
    "type": "Point",
    "coordinates": [
     139.475103,
     -20.743619
    ]
   },
   "properties": {
    "name": "5 SPRUCE STREET MOUNT ISA 4825",
    "locID": "LOC000093375914",
    "tech": "NULL",
    "upgrade": "NULL_NA",
    "gnaf_pid": "GAQLD155592749",
    "tech_change_status": "Not Planned"
   }
  },
  {
   "type": "Feature",
   "geometry": {
    "type": "Point",
    "coordinates": [
     139.475271,
     -20.742184
    ]
   },
   "properties": {
    "name": "25 ROSALIE STREET MOUNT ISA 4825",
    "locID": "LOC000041337341",
    "tech": "NULL",
    "upgrade": "NULL_NA",
    "gnaf_pid": "GAQLD155600834",
    "tech_change_status": "Not Planned"
   }
  },
  {
   "type": "Feature",
   "geometry": {
    "type": "Point",
    "coordinates": [
     139.476945,
     -20.741279
    ]
   },
   "properties": {
    "name": "26 ROSALIE STREET MOUNT ISA 4825",
    "locID": "LOC000049633061",
    "tech": "NULL",
    "upgrade": "NULL_NA",
    "gnaf_pid": "GAQLD155600835",
    "tech_change_status": "Not Planned"
   }
  },
  {
   "type": "Feature",
   "geometry": {
    "type": "Point",
    "coordinates": [
     139.476947,
     -20.741814
    ]
   },
   "properties": {
    "name": "28 ROSALIE STREET MOUNT ISA 4825",
    "locID": "LOC000018332438",
    "tech": "NULL",
    "upgrade": "NULL_NA",
    "gnaf_pid": "GAQLD155600836",
    "tech_change_status": "Not Planned"
   }
  },
  {
   "type": "Feature",
   "geometry": {
    "type": "Point",
    "coordinates": [
     139.476969,
     -20.742223
    ]
   },
   "properties": {
    "name": "30 ROSALIE STREET MOUNT ISA 4825",
    "locID": "LOC000077918785",
    "tech": "NULL",
    "upgrade": "NULL_NA",
    "gnaf_pid": "GAQLD155600837",
    "tech_change_status": "Not Planned"
   }
  },
  {
   "type": "Feature",
   "geometry": {
    "type": "Point",
    "coordinates": [
     139.476978,
     -20.74257
    ]
   },
   "properties": {
    "name": "32 ROSALIE STREET MOUNT ISA 4825",
    "locID": "LOC000059017390",
    "tech": "NULL",
    "upgrade": "NULL_NA",
    "gnaf_pid": "GAQLD155600838",
    "tech_change_status": "Not Planned"
   }
  },
  {
   "type": "Feature",
   "geometry": {
    "type": "Point",
    "coordinates": [
     139.476965,
     -20.74087
    ]
   },
   "properties": {
    "name": "2 QUONDONG STREET MOUNT ISA 4825",
    "locID": "LOC000047898252",
    "tech": "NULL",
    "upgrade": "NULL_NA",
    "gnaf_pid": "GAQLD155602810",
    "tech_change_status": "Not Planned"
   }
  },
  {
   "type": "Feature",
   "geometry": {
    "type": "Point",
    "coordinates": [
     139.477179,
     -20.740878
    ]
   },
   "properties": {
    "name": "4 QUONDONG STREET MOUNT ISA 4825",
    "locID": "LOC000022521203",
    "tech": "NULL",
    "upgrade": "NULL_NA",
    "gnaf_pid": "GAQLD155602811",
    "tech_change_status": "Not Planned"
   }
  },
  {
   "type": "Feature",
   "geometry": {
    "type": "Point",
    "coordinates": [
     139.48558,
     -20.706192
    ]
   },
   "properties": {
    "name": "90 BARKLY HIGHWAY MOUNT ISA 4825",
    "locID": "LOC000020084135",
    "tech": "FTTP",
    "upgrade": "FTTP_NA",
    "gnaf_pid": "GAQLD155602898",
    "tech_change_status": "Previous Tech Disconnected",
    "program_type": "On-Demand N2P SDU/MDU Simple",
    "target_eligibility_quarter": "NA"
   }
  },
  {
   "type": "Feature",
   "geometry": {
    "type": "Point",
    "coordinates": [
     139.47578,
     -20.74034
    ]
   },
   "properties": {
    "name": "3 NETTLE STREET MOUNT ISA 4825",
    "locID": "LOC000103616995",
    "tech": "NULL",
    "upgrade": "NULL_NA",
    "gnaf_pid": "GAQLD155603384",
    "tech_change_status": "Not Planned"
   }
  },
  {
   "type": "Feature",
   "geometry": {
    "type": "Point",
    "coordinates": [
     139.475438,
     -20.740631
    ]
   },
   "properties": {
    "name": "5 NETTLE STREET MOUNT ISA 4825",
    "locID": "LOC000041209250",
    "tech": "NULL",
    "upgrade": "NULL_NA",
    "gnaf_pid": "GAQLD155603385",
    "tech_change_status": "Not Planned"
   }
  },
  {
   "type": "Feature",
   "geometry": {
    "type": "Point",
    "coordinates": [
     139.41197305,
     -20.44985055
    ]
   },
   "properties": {
    "name": "LOT 2 BARKLY HIGHWAY MOUNT ISA 4825",
    "locID": "LOC000151951344",
    "tech": "FTTN",
    "upgrade": "FTTP_SA",
    "gnaf_pid": "GAQLD157385270",
    "tech_change_status": "Eligible to Order",
    "program_type": "On-Demand N2P SDU/MDU Simple",
    "target_eligibility_quarter": "NA"
   }
  },
  {
   "type": "Feature",
   "geometry": {
    "type": "Point",
    "coordinates": [
     139.477209,
     -20.743037
    ]
   },
   "properties": {
    "name": "3 THALMERA STREET MOUNT ISA 4825",
    "locID": "LOC000016769069",
    "tech": "NULL",
    "upgrade": "NULL_NA",
    "gnaf_pid": "GAQLD158312186",
    "tech_change_status": "Not Planned"
   }
  },
  {
   "type": "Feature",
   "geometry": {
    "type": "Point",
    "coordinates": [
     139.488847,
     -20.781992
    ]
   },
   "properties": {
    "name": "10 TECOMA STREET MOUNT ISA 4825",
    "locID": "LOC000059605300",
    "tech": "FTTN",
    "upgrade": "FTTP_NA",
    "gnaf_pid": "GAQLD158322017",
    "tech_change_status": "In Design",
    "program_type": "On-Demand N2P SDU/MDU Simple",
    "target_eligibility_quarter": "Mar 2028"
   }
  },
  {
   "type": "Feature",
   "geometry": {
    "type": "Point",
    "coordinates": [
     139.48961,
     -20.781974
    ]
   },
   "properties": {
    "name": "2 TECOMA STREET MOUNT ISA 4825",
    "locID": "LOC000045115781",
    "tech": "FTTN",
    "upgrade": "FTTP_NA",
    "gnaf_pid": "GAQLD158322020",
    "tech_change_status": "In Design",
    "program_type": "On-Demand N2P SDU/MDU Simple",
    "target_eligibility_quarter": "Mar 2028"
   }
  },
  {
   "type": "Feature",
   "geometry": {
    "type": "Point",
    "coordinates": [
     139.490617,
     -20.782019
    ]
   },
   "properties": {
    "name": "5 TECOMA STREET MOUNT ISA 4825",
    "locID": "LOC000043628370",
    "tech": "FTTN",
    "upgrade": "FTTP_NA",
    "gnaf_pid": "GAQLD158322868",
    "tech_change_status": "In Design",
    "program_type": "On-Demand N2P SDU/MDU Simple",
    "target_eligibility_quarter": "Mar 2028"
   }
  },
  {
   "type": "Feature",
   "geometry": {
    "type": "Point",
    "coordinates": [
     139.477479,
     -20.742861
    ]
   },
   "properties": {
    "name": "5 THALMERA STREET MOUNT ISA 4825",
    "locID": "LOC000103422487",
    "tech": "NULL",
    "upgrade": "NULL_NA",
    "gnaf_pid": "GAQLD158328099",
    "tech_change_status": "Not Planned"
   }
  },
  {
   "type": "Feature",
   "geometry": {
    "type": "Point",
    "coordinates": [
     139.47828556,
     -20.74303514
    ]
   },
   "properties": {
    "name": "2 OBAN ROAD MOUNT ISA 4825",
    "locID": "LOC000179693584",
    "tech": "FTTP",
    "upgrade": "NULL_NA",
    "gnaf_pid": "GAQLD158330898"
   }
  },
  {
   "type": "Feature",
   "geometry": {
    "type": "Point",
    "coordinates": [
     139.52653299,
     -20.84690304
    ]
   },
   "properties": {
    "name": "266 DUCHESS ROAD MOUNT ISA 4825",
    "locID": "LOC000056561236",
    "tech": "SATELLITE",
    "upgrade": "NULL_NA",
    "gnaf_pid": "GAQLD158337366",
    "tech_change_status": "Not Planned"
   }
  },
  {
   "type": "Feature",
   "geometry": {
    "type": "Point",
    "coordinates": [
     139.476908,
     -20.743148
    ]
   },
   "properties": {
    "name": "1 THALMERA STREET MOUNT ISA 4825",
    "locID": "LOC000028319423",
    "tech": "SATELLITE",
    "upgrade": "NULL_NA",
    "gnaf_pid": "GAQLD158344308",
    "tech_change_status": "Not Planned"
   }
  },
  {
   "type": "Feature",
   "geometry": {
    "type": "Point",
    "coordinates": [
     139.489878,
     -20.782012
    ]
   },
   "properties": {
    "name": "7 TECOMA STREET MOUNT ISA 4825",
    "locID": "LOC000050270494",
    "tech": "FTTN",
    "upgrade": "FTTP_NA",
    "gnaf_pid": "GAQLD158346305",
    "tech_change_status": "In Design",
    "program_type": "On-Demand N2P SDU/MDU Simple",
    "target_eligibility_quarter": "Mar 2028"
   }
  },
  {
   "type": "Feature",
   "geometry": {
    "type": "Point",
    "coordinates": [
     139.490361,
     -20.782019
    ]
   },
   "properties": {
    "name": "4 TECOMA STREET MOUNT ISA 4825",
    "locID": "LOC000049255519",
    "tech": "FTTN",
    "upgrade": "FTTP_NA",
    "gnaf_pid": "GAQLD158346306",
    "tech_change_status": "In Design",
    "program_type": "On-Demand N2P SDU/MDU Simple",
    "target_eligibility_quarter": "Mar 2028"
   }
  },
  {
   "type": "Feature",
   "geometry": {
    "type": "Point",
    "coordinates": [
     139.489131,
     -20.781962
    ]
   },
   "properties": {
    "name": "8 TECOMA STREET MOUNT ISA 4825",
    "locID": "LOC000028311339",
    "tech": "FTTN",
    "upgrade": "FTTP_NA",
    "gnaf_pid": "GAQLD158346308",
    "tech_change_status": "In Design",
    "program_type": "On-Demand N2P SDU/MDU Simple",
    "target_eligibility_quarter": "Mar 2028"
   }
  },
  {
   "type": "Feature",
   "geometry": {
    "type": "Point",
    "coordinates": [
     139.490086,
     -20.782009
    ]
   },
   "properties": {
    "name": "1 TECOMA STREET MOUNT ISA 4825",
    "locID": "LOC000076671617",
    "tech": "FTTN",
    "upgrade": "FTTP_NA",
    "gnaf_pid": "GAQLD158346310",
    "tech_change_status": "In Design",
    "program_type": "On-Demand N2P SDU/MDU Simple",
    "target_eligibility_quarter": "Mar 2028"
   }
  },
  {
   "type": "Feature",
   "geometry": {
    "type": "Point",
    "coordinates": [
     139.51049688,
     -20.62144676
    ]
   },
   "properties": {
    "name": "LOT 16 BARKLY HIGHWAY MOUNT ISA 4825",
    "locID": "LOC000090975862",
    "tech": "FTTP",
    "upgrade": "NULL_NA",
    "gnaf_pid": "GAQLD161058966",
    "program_type": "On-Demand N2P SDU/MDU Simple",
    "target_eligibility_quarter": "NA"
   }
  },
  {
   "type": "Feature",
   "geometry": {
    "type": "Point",
    "coordinates": [
     139.28921765,
     -20.3900938
    ]
   },
   "properties": {
    "name": "LOT 1 BARKLY HIGHWAY MOUNT ISA 4825",
    "locID": "LOC000148108465",
    "tech": "NULL",
    "upgrade": "NULL_NA",
    "gnaf_pid": "GAQLD161058967",
    "tech_change_status": "Not Planned"
   }
  },
  {
   "type": "Feature",
   "geometry": {
    "type": "Point",
    "coordinates": [
     139.50586641,
     -20.63463444
    ]
   },
   "properties": {
    "name": "LOT 33 BARKLY HIGHWAY MOUNT ISA 4825",
    "locID": "LOC000009371327",
    "tech": "FTTN",
    "upgrade": "FTTP_SA",
    "gnaf_pid": "GAQLD161058970",
    "tech_change_status": "Eligible to Order",
    "program_type": "On-Demand N2P SDU/MDU Simple",
    "target_eligibility_quarter": "NA"
   }
  },
  {
   "type": "Feature",
   "geometry": {
    "type": "Point",
    "coordinates": [
     139.50738736,
     -20.63254776
    ]
   },
   "properties": {
    "name": "LOT 34 BARKLY HIGHWAY MOUNT ISA 4825",
    "locID": "LOC000024015426",
    "tech": "FTTN",
    "upgrade": "FTTP_SA",
    "gnaf_pid": "GAQLD161058971",
    "tech_change_status": "Eligible to Order",
    "program_type": "On-Demand N2P SDU/MDU Simple",
    "target_eligibility_quarter": "NA"
   }
  },
  {
   "type": "Feature",
   "geometry": {
    "type": "Point",
    "coordinates": [
     139.50081518,
     -20.64952173
    ]
   },
   "properties": {
    "name": "LOT 36 BARKLY HIGHWAY MOUNT ISA 4825",
    "locID": "LOC000049693310",
    "tech": "FTTP",
    "upgrade": "FTTP_NA",
    "gnaf_pid": "GAQLD161058973",
    "tech_change_status": "Previous Tech Disconnected",
    "program_type": "On-Demand N2P SDU/MDU Simple",
    "target_eligibility_quarter": "NA"
   }
  },
  {
   "type": "Feature",
   "geometry": {
    "type": "Point",
    "coordinates": [
     139.50677081,
     -20.65088635
    ]
   },
   "properties": {
    "name": "LOT 37 BARKLY HIGHWAY MOUNT ISA 4825",
    "locID": "LOC000003329089",
    "tech": "FTTN",
    "upgrade": "FTTP_SA",
    "gnaf_pid": "GAQLD161058974",
    "tech_change_status": "Eligible to Order",
    "program_type": "On-Demand N2P SDU/MDU Simple",
    "target_eligibility_quarter": "NA"
   }
  },
  {
   "type": "Feature",
   "geometry": {
    "type": "Point",
    "coordinates": [
     139.49805236,
     -20.66406664
    ]
   },
   "properties": {
    "name": "LOT 38 BARKLY HIGHWAY MOUNT ISA 4825",
    "locID": "LOC000129511416",
    "tech": "FTTP",
    "upgrade": "NULL_NA",
    "gnaf_pid": "GAQLD161058975",
    "program_type": "On-Demand N2P SDU/MDU Simple",
    "target_eligibility_quarter": "NA"
   }
  },
  {
   "type": "Feature",
   "geometry": {
    "type": "Point",
    "coordinates": [
     139.48285631,
     -20.52524306
    ]
   },
   "properties": {
    "name": "LOT 3 BARKLY HIGHWAY MOUNT ISA 4825",
    "locID": "LOC000073333819",
    "tech": "FTTN",
    "upgrade": "FTTP_NA",
    "gnaf_pid": "GAQLD161058976",
    "tech_change_status": "In Design",
    "program_type": "On-Demand N2P SDU/MDU Simple",
    "target_eligibility_quarter": "Mar 2028"
   }
  },
  {
   "type": "Feature",
   "geometry": {
    "type": "Point",
    "coordinates": [
     139.48664469,
     -20.56418309
    ]
   },
   "properties": {
    "name": "LOT 4 BARKLY HIGHWAY MOUNT ISA 4825",
    "locID": "LOC000149111173",
    "tech": "SATELLITE",
    "upgrade": "NULL_NA",
    "gnaf_pid": "GAQLD161058980",
    "tech_change_status": "Not Planned"
   }
  },
  {
   "type": "Feature",
   "geometry": {
    "type": "Point",
    "coordinates": [
     139.50873663,
     -20.6567747
    ]
   },
   "properties": {
    "name": "LOT 51 BARKLY HIGHWAY MOUNT ISA 4825",
    "locID": "LOC000013592619",
    "tech": "FTTN",
    "upgrade": "FTTP_SA",
    "gnaf_pid": "GAQLD161058981",
    "tech_change_status": "Eligible to Order",
    "program_type": "On-Demand N2P SDU/MDU Simple",
    "target_eligibility_quarter": "NA"
   }
  },
  {
   "type": "Feature",
   "geometry": {
    "type": "Point",
    "coordinates": [
     139.48001741,
     -20.86624753
    ]
   },
   "properties": {
    "name": "LOT 574 BARKLY HIGHWAY MOUNT ISA 4825",
    "locID": "LOC100079796392",
    "tech": "FTTP",
    "upgrade": "NULL_NA",
    "gnaf_pid": "GAQLD161058984"
   }
  },
  {
   "type": "Feature",
   "geometry": {
    "type": "Point",
    "coordinates": [
     139.46134508,
     -20.79291775
    ]
   },
   "properties": {
    "name": "LOT 575 BARKLY HIGHWAY MOUNT ISA 4825",
    "locID": "LOC100079796392",
    "tech": "FTTP",
    "upgrade": "NULL_NA",
    "gnaf_pid": "GAQLD161058985"
   }
  },
  {
   "type": "Feature",
   "geometry": {
    "type": "Point",
    "coordinates": [
     139.53682734,
     -20.63042
    ]
   },
   "properties": {
    "name": "LOT 1 MOONDARRA DRIVE MOUNT ISA 4825",
    "locID": "LOC000183103810",
    "tech": "SATELLITE",
    "upgrade": "NULL_NA",
    "gnaf_pid": "GAQLD161703884",
    "tech_change_status": "Not Planned"
   }
  },
  {
   "type": "Feature",
   "geometry": {
    "type": "Point",
    "coordinates": [
     139.53682734,
     -20.63042
    ]
   },
   "properties": {
    "name": "LOT 3 MOONDARRA DRIVE MOUNT ISA 4825",
    "locID": "LOC000189642597",
    "tech": "SATELLITE",
    "upgrade": "NULL_NA",
    "gnaf_pid": "GAQLD161703885",
    "tech_change_status": "Not Planned"
   }
  },
  {
   "type": "Feature",
   "geometry": {
    "type": "Point",
    "coordinates": [
     139.48561,
     -20.713682
    ]
   },
   "properties": {
    "name": "74 BARKLY HIGHWAY MOUNT ISA 4825",
    "locID": "LOC000060681648",
    "tech": "FTTN",
    "upgrade": "FTTP_SA",
    "gnaf_pid": "GAQLD162461273",
    "tech_change_status": "Eligible to Order",
    "program_type": "On-Demand N2P SDU/MDU Simple",
    "target_eligibility_quarter": "NA"
   }
  },
  {
   "type": "Feature",
   "geometry": {
    "type": "Point",
    "coordinates": [
     139.476103,
     -20.740054
    ]
   },
   "properties": {
    "name": "1 NETTLE STREET MOUNT ISA 4825",
    "locID": "LOC000069923832",
    "tech": "NULL",
    "upgrade": "NULL_NA",
    "gnaf_pid": "GAQLD162943932",
    "tech_change_status": "Not Planned"
   }
  },
  {
   "type": "Feature",
   "geometry": {
    "type": "Point",
    "coordinates": [
     139.477925,
     -20.742921
    ]
   },
   "properties": {
    "name": "3 OBAN ROAD MOUNT ISA 4825",
    "locID": "LOC000103851771",
    "tech": "NULL",
    "upgrade": "NULL_NA",
    "gnaf_pid": "GAQLD162944178",
    "tech_change_status": "Not Planned"
   }
  },
  {
   "type": "Feature",
   "geometry": {
    "type": "Point",
    "coordinates": [
     139.476901,
     -20.740367
    ]
   },
   "properties": {
    "name": "24 ROSALIE STREET MOUNT ISA 4825",
    "locID": "LOC000096405165",
    "tech": "NULL",
    "upgrade": "NULL_NA",
    "gnaf_pid": "GAQLD162945987",
    "tech_change_status": "Not Planned"
   }
  },
  {
   "type": "Feature",
   "geometry": {
    "type": "Point",
    "coordinates": [
     139.476925,
     -20.743546
    ]
   },
   "properties": {
    "name": "2 ULMUS STREET MOUNT ISA 4825",
    "locID": "LOC000065923533",
    "tech": "NULL",
    "upgrade": "NULL_NA",
    "gnaf_pid": "GAQLD162948461",
    "tech_change_status": "Not Planned"
   }
  },
  {
   "type": "Feature",
   "geometry": {
    "type": "Point",
    "coordinates": [
     139.477337,
     -20.743897
    ]
   },
   "properties": {
    "name": "3 ULMUS STREET MOUNT ISA 4825",
    "locID": "LOC000103551832",
    "tech": "NULL",
    "upgrade": "NULL_NA",
    "gnaf_pid": "GAQLD162948462",
    "tech_change_status": "Not Planned"
   }
  },
  {
   "type": "Feature",
   "geometry": {
    "type": "Point",
    "coordinates": [
     139.477272,
     -20.743471
    ]
   },
   "properties": {
    "name": "4 ULMUS STREET MOUNT ISA 4825",
    "locID": "LOC000093909603",
    "tech": "NULL",
    "upgrade": "NULL_NA",
    "gnaf_pid": "GAQLD162948463",
    "tech_change_status": "Not Planned"
   }
  },
  {
   "type": "Feature",
   "geometry": {
    "type": "Point",
    "coordinates": [
     139.477662,
     -20.743829
    ]
   },
   "properties": {
    "name": "5 ULMUS STREET MOUNT ISA 4825",
    "locID": "LOC000073941778",
    "tech": "NULL",
    "upgrade": "NULL_NA",
    "gnaf_pid": "GAQLD162948464",
    "tech_change_status": "Not Planned"
   }
  },
  {
   "type": "Feature",
   "geometry": {
    "type": "Point",
    "coordinates": [
     139.477623,
     -20.743389
    ]
   },
   "properties": {
    "name": "6 ULMUS STREET MOUNT ISA 4825",
    "locID": "LOC000094853995",
    "tech": "NULL",
    "upgrade": "NULL_NA",
    "gnaf_pid": "GAQLD162948465",
    "tech_change_status": "Not Planned"
   }
  },
  {
   "type": "Feature",
   "geometry": {
    "type": "Point",
    "coordinates": [
     139.478045,
     -20.743744
    ]
   },
   "properties": {
    "name": "7 ULMUS STREET MOUNT ISA 4825",
    "locID": "LOC000058718655",
    "tech": "NULL",
    "upgrade": "NULL_NA",
    "gnaf_pid": "GAQLD162948466",
    "tech_change_status": "Not Planned"
   }
  },
  {
   "type": "Feature",
   "geometry": {
    "type": "Point",
    "coordinates": [
     139.477976,
     -20.743307
    ]
   },
   "properties": {
    "name": "8 ULMUS STREET MOUNT ISA 4825",
    "locID": "LOC000095263790",
    "tech": "NULL",
    "upgrade": "NULL_NA",
    "gnaf_pid": "GAQLD162948467",
    "tech_change_status": "Not Planned"
   }
  },
  {
   "type": "Feature",
   "geometry": {
    "type": "Point",
    "coordinates": [
     139.47949325,
     -20.76270616
    ]
   },
   "properties": {
    "name": "2 POWERHOUSE ROAD MOUNT ISA 4825",
    "locID": "LOC000113115696",
    "tech": "NULL",
    "upgrade": "NULL_NA",
    "gnaf_pid": "GAQLD163018227",
    "tech_change_status": "Not Planned"
   }
  },
  {
   "type": "Feature",
   "geometry": {
    "type": "Point",
    "coordinates": [
     139.47828556,
     -20.74303514
    ]
   },
   "properties": {
    "name": "UNIT 10, 1 OBAN ROAD MOUNT ISA 4825",
    "locID": "LOC000005900726",
    "tech": "NULL",
    "upgrade": "NULL_NA",
    "gnaf_pid": "GAQLD163141970",
    "tech_change_status": "Not Planned"
   }
  },
  {
   "type": "Feature",
   "geometry": {
    "type": "Point",
    "coordinates": [
     139.47828556,
     -20.74303514
    ]
   },
   "properties": {
    "name": "UNIT 11, 1 OBAN ROAD MOUNT ISA 4825",
    "locID": "LOC000005902734",
    "tech": "NULL",
    "upgrade": "NULL_NA",
    "gnaf_pid": "GAQLD163141971",
    "tech_change_status": "Not Planned"
   }
  },
  {
   "type": "Feature",
   "geometry": {
    "type": "Point",
    "coordinates": [
     139.47828556,
     -20.74303514
    ]
   },
   "properties": {
    "name": "UNIT 12, 1 OBAN ROAD MOUNT ISA 4825",
    "locID": "LOC000005892196",
    "tech": "NULL",
    "upgrade": "NULL_NA",
    "gnaf_pid": "GAQLD163141972",
    "tech_change_status": "Not Planned"
   }
  },
  {
   "type": "Feature",
   "geometry": {
    "type": "Point",
    "coordinates": [
     139.47828556,
     -20.74303514
    ]
   },
   "properties": {
    "name": "UNIT 13, 1 OBAN ROAD MOUNT ISA 4825",
    "locID": "LOC000005887008",
    "tech": "NULL",
    "upgrade": "NULL_NA",
    "gnaf_pid": "GAQLD163141973",
    "tech_change_status": "Not Planned"
   }
  },
  {
   "type": "Feature",
   "geometry": {
    "type": "Point",
    "coordinates": [
     139.47828556,
     -20.74303514
    ]
   },
   "properties": {
    "name": "UNIT 14, 1 OBAN ROAD MOUNT ISA 4825",
    "locID": "LOC000005887008",
    "tech": "NULL",
    "upgrade": "NULL_NA",
    "gnaf_pid": "GAQLD163141974",
    "tech_change_status": "Not Planned"
   }
  },
  {
   "type": "Feature",
   "geometry": {
    "type": "Point",
    "coordinates": [
     139.47828556,
     -20.74303514
    ]
   },
   "properties": {
    "name": "UNIT 15, 1 OBAN ROAD MOUNT ISA 4825",
    "locID": "LOC000005900682",
    "tech": "NULL",
    "upgrade": "NULL_NA",
    "gnaf_pid": "GAQLD163141975",
    "tech_change_status": "Not Planned"
   }
  },
  {
   "type": "Feature",
   "geometry": {
    "type": "Point",
    "coordinates": [
     139.47828556,
     -20.74303514
    ]
   },
   "properties": {
    "name": "UNIT 16, 1 OBAN ROAD MOUNT ISA 4825",
    "locID": "LOC000005878983",
    "tech": "NULL",
    "upgrade": "NULL_NA",
    "gnaf_pid": "GAQLD163141976",
    "tech_change_status": "Not Planned"
   }
  },
  {
   "type": "Feature",
   "geometry": {
    "type": "Point",
    "coordinates": [
     139.47828556,
     -20.74303514
    ]
   },
   "properties": {
    "name": "UNIT 17, 1 OBAN ROAD MOUNT ISA 4825",
    "locID": "LOC000005847907",
    "tech": "NULL",
    "upgrade": "NULL_NA",
    "gnaf_pid": "GAQLD163141977",
    "tech_change_status": "Not Planned"
   }
  },
  {
   "type": "Feature",
   "geometry": {
    "type": "Point",
    "coordinates": [
     139.47828556,
     -20.74303514
    ]
   },
   "properties": {
    "name": "UNIT 18, 1 OBAN ROAD MOUNT ISA 4825",
    "locID": "LOC000005902752",
    "tech": "NULL",
    "upgrade": "NULL_NA",
    "gnaf_pid": "GAQLD163141978",
    "tech_change_status": "Not Planned"
   }
  },
  {
   "type": "Feature",
   "geometry": {
    "type": "Point",
    "coordinates": [
     139.47828556,
     -20.74303514
    ]
   },
   "properties": {
    "name": "UNIT 1, 1 OBAN ROAD MOUNT ISA 4825",
    "locID": "LOC000005887008",
    "tech": "NULL",
    "upgrade": "NULL_NA",
    "gnaf_pid": "GAQLD163141979",
    "tech_change_status": "Not Planned"
   }
  },
  {
   "type": "Feature",
   "geometry": {
    "type": "Point",
    "coordinates": [
     139.47828556,
     -20.74303514
    ]
   },
   "properties": {
    "name": "UNIT 2, 1 OBAN ROAD MOUNT ISA 4825",
    "locID": "LOC000005887008",
    "tech": "NULL",
    "upgrade": "NULL_NA",
    "gnaf_pid": "GAQLD163141980",
    "tech_change_status": "Not Planned"
   }
  },
  {
   "type": "Feature",
   "geometry": {
    "type": "Point",
    "coordinates": [
     139.47828556,
     -20.74303514
    ]
   },
   "properties": {
    "name": "UNIT 3, 1 OBAN ROAD MOUNT ISA 4825",
    "locID": "LOC000005887008",
    "tech": "NULL",
    "upgrade": "NULL_NA",
    "gnaf_pid": "GAQLD163141981",
    "tech_change_status": "Not Planned"
   }
  },
  {
   "type": "Feature",
   "geometry": {
    "type": "Point",
    "coordinates": [
     139.47828556,
     -20.74303514
    ]
   },
   "properties": {
    "name": "UNIT 4, 1 OBAN ROAD MOUNT ISA 4825",
    "locID": "LOC000005886983",
    "tech": "NULL",
    "upgrade": "NULL_NA",
    "gnaf_pid": "GAQLD163141982",
    "tech_change_status": "Not Planned"
   }
  },
  {
   "type": "Feature",
   "geometry": {
    "type": "Point",
    "coordinates": [
     139.47828556,
     -20.74303514
    ]
   },
   "properties": {
    "name": "UNIT 5, 1 OBAN ROAD MOUNT ISA 4825",
    "locID": "LOC000005887008",
    "tech": "NULL",
    "upgrade": "NULL_NA",
    "gnaf_pid": "GAQLD163141983",
    "tech_change_status": "Not Planned"
   }
  },
  {
   "type": "Feature",
   "geometry": {
    "type": "Point",
    "coordinates": [
     139.47828556,
     -20.74303514
    ]
   },
   "properties": {
    "name": "UNIT 6, 1 OBAN ROAD MOUNT ISA 4825",
    "locID": "LOC000005900892",
    "tech": "NULL",
    "upgrade": "NULL_NA",
    "gnaf_pid": "GAQLD163141984",
    "tech_change_status": "Not Planned"
   }
  },
  {
   "type": "Feature",
   "geometry": {
    "type": "Point",
    "coordinates": [
     139.47828556,
     -20.74303514
    ]
   },
   "properties": {
    "name": "UNIT 7, 1 OBAN ROAD MOUNT ISA 4825",
    "locID": "LOC000005900580",
    "tech": "NULL",
    "upgrade": "NULL_NA",
    "gnaf_pid": "GAQLD163141985",
    "tech_change_status": "Not Planned"
   }
  },
  {
   "type": "Feature",
   "geometry": {
    "type": "Point",
    "coordinates": [
     139.47828556,
     -20.74303514
    ]
   },
   "properties": {
    "name": "UNIT 8, 1 OBAN ROAD MOUNT ISA 4825",
    "locID": "LOC000005887008",
    "tech": "NULL",
    "upgrade": "NULL_NA",
    "gnaf_pid": "GAQLD163141986",
    "tech_change_status": "Not Planned"
   }
  },
  {
   "type": "Feature",
   "geometry": {
    "type": "Point",
    "coordinates": [
     139.47828556,
     -20.74303514
    ]
   },
   "properties": {
    "name": "UNIT 9, 1 OBAN ROAD MOUNT ISA 4825",
    "locID": "LOC000005924948",
    "tech": "NULL",
    "upgrade": "NULL_NA",
    "gnaf_pid": "GAQLD163141987",
    "tech_change_status": "Not Planned"
   }
  },
  {
   "type": "Feature",
   "geometry": {
    "type": "Point",
    "coordinates": [
     139.47828556,
     -20.74303514
    ]
   },
   "properties": {
    "name": "1 OBAN ROAD MOUNT ISA 4825",
    "locID": "LOC000005887008",
    "tech": "NULL",
    "upgrade": "NULL_NA",
    "gnaf_pid": "GAQLD163141988",
    "tech_change_status": "Not Planned"
   }
  },
  {
   "type": "Feature",
   "geometry": {
    "type": "Point",
    "coordinates": [
     139.53682734,
     -20.63042
    ]
   },
   "properties": {
    "name": "48 MOONDARRA DRIVE MOUNT ISA 4825",
    "locID": "LOC000189285409",
    "tech": "NULL",
    "upgrade": "NULL_NA",
    "gnaf_pid": "GAQLD425050706",
    "tech_change_status": "Not Planned"
   }
  },
  {
   "type": "Feature",
   "geometry": {
    "type": "Point",
    "coordinates": [
     139.48440799,
     -20.69510212
    ]
   },
   "properties": {
    "name": "202-214 BARKLY HIGHWAY MOUNT ISA 4825",
    "locID": "LOC000151943198",
    "tech": "FTTN",
    "upgrade": "FTTP_NA",
    "gnaf_pid": "GAQLD425260513",
    "tech_change_status": "In Design",
    "program_type": "On-Demand N2P SDU/MDU Simple",
    "target_eligibility_quarter": "Mar 2028"
   }
  },
  {
   "type": "Feature",
   "geometry": {
    "type": "Point",
    "coordinates": [
     139.55154811,
     -20.33933469
    ]
   },
   "properties": {
    "name": "LOT 13 BARKLY HIGHWAY MOUNT ISA 4825",
    "locID": "LOC000020084135",
    "tech": "FTTP",
    "upgrade": "FTTP_NA",
    "gnaf_pid": "GAQLD425260514",
    "tech_change_status": "Previous Tech Disconnected",
    "program_type": "On-Demand N2P SDU/MDU Simple",
    "target_eligibility_quarter": "NA"
   }
  },
  {
   "type": "Feature",
   "geometry": {
    "type": "Point",
    "coordinates": [
     139.50458949,
     -20.62005002
    ]
   },
   "properties": {
    "name": "LOT 26 BARKLY HIGHWAY MOUNT ISA 4825",
    "locID": "LOC000129487548",
    "tech": "NULL",
    "upgrade": "NULL_NA",
    "gnaf_pid": "GAQLD425260517",
    "tech_change_status": "Not Planned"
   }
  },
  {
   "type": "Feature",
   "geometry": {
    "type": "Point",
    "coordinates": [
     139.53100609,
     -20.80212235
    ]
   },
   "properties": {
    "name": "LOT 573 BARKLY HIGHWAY MOUNT ISA 4825",
    "locID": "LOC100079796392",
    "tech": "FTTP",
    "upgrade": "NULL_NA",
    "gnaf_pid": "GAQLD425260518"
   }
  },
  {
   "type": "Feature",
   "geometry": {
    "type": "Point",
    "coordinates": [
     139.48018156,
     -20.73012572
    ]
   },
   "properties": {
    "name": "LOT 7 BARKLY HIGHWAY MOUNT ISA 4825",
    "locID": "LOC000151943608",
    "tech": "FTTN",
    "upgrade": "NULL_NA",
    "gnaf_pid": "GAQLD425260520",
    "tech_change_status": "Not Planned"
   }
  },
  {
   "type": "Feature",
   "geometry": {
    "type": "Point",
    "coordinates": [
     139.72042899,
     -20.16966051
    ]
   },
   "properties": {
    "name": "LOT 9 BARKLY HIGHWAY MOUNT ISA 4825",
    "locID": "LOC000182379299",
    "tech": "SATELLITE",
    "upgrade": "NULL_NA",
    "gnaf_pid": "GAQLD425260521",
    "tech_change_status": "Not Planned"
   }
  },
  {
   "type": "Feature",
   "geometry": {
    "type": "Point",
    "coordinates": [
     139.50550526,
     -20.70255367
    ]
   },
   "properties": {
    "name": "LOT 1 COMMERCIAL ROAD MOUNT ISA 4825",
    "locID": "LOC000047044330",
    "tech": "FTTN",
    "upgrade": "FTTP_SA",
    "gnaf_pid": "GAQLD425261820",
    "tech_change_status": "Eligible to Order",
    "program_type": "On-Demand N2P SDU/MDU Simple",
    "target_eligibility_quarter": "NA"
   }
  },
  {
   "type": "Feature",
   "geometry": {
    "type": "Point",
    "coordinates": [
     139.49804132,
     -20.79985847
    ]
   },
   "properties": {
    "name": "UNIT 1, LOT 1 MOUNT ISA DUCHESS ROAD MOUNT ISA 4825",
    "locID": "LOC000185249296",
    "tech": "NULL",
    "upgrade": "NULL_NA",
    "gnaf_pid": "GAQLD425265456",
    "tech_change_status": "Not Planned"
   }
  },
  {
   "type": "Feature",
   "geometry": {
    "type": "Point",
    "coordinates": [
     139.49748576,
     -20.80007041
    ]
   },
   "properties": {
    "name": "UNIT 2, LOT 2 MOUNT ISA DUCHESS ROAD MOUNT ISA 4825",
    "locID": "LOC000185249296",
    "tech": "NULL",
    "upgrade": "NULL_NA",
    "gnaf_pid": "GAQLD425265457",
    "tech_change_status": "Not Planned"
   }
  },
  {
   "type": "Feature",
   "geometry": {
    "type": "Point",
    "coordinates": [
     139.49745087,
     -20.79917892
    ]
   },
   "properties": {
    "name": "UNIT 3, LOT 3 MOUNT ISA DUCHESS ROAD MOUNT ISA 4825",
    "locID": "LOC000185249296",
    "tech": "NULL",
    "upgrade": "NULL_NA",
    "gnaf_pid": "GAQLD425265458",
    "tech_change_status": "Not Planned"
   }
  },
  {
   "type": "Feature",
   "geometry": {
    "type": "Point",
    "coordinates": [
     139.49810399,
     -20.79907604
    ]
   },
   "properties": {
    "name": "UNIT 4, LOT 4 MOUNT ISA DUCHESS ROAD MOUNT ISA 4825",
    "locID": "LOC000185249296",
    "tech": "NULL",
    "upgrade": "NULL_NA",
    "gnaf_pid": "GAQLD425265459",
    "tech_change_status": "Not Planned"
   }
  },
  {
   "type": "Feature",
   "geometry": {
    "type": "Point",
    "coordinates": [
     139.50725953,
     -20.76824593
    ]
   },
   "properties": {
    "name": "188 MOUNT ISA DUCHESS ROAD MOUNT ISA 4825",
    "locID": "LOC000002446393",
    "tech": "FTTN",
    "upgrade": "FTTP_NA",
    "gnaf_pid": "GAQLD425265460",
    "tech_change_status": "In Design",
    "program_type": "On-Demand N2P SDU/MDU Simple",
    "target_eligibility_quarter": "Mar 2028"
   }
  },
  {
   "type": "Feature",
   "geometry": {
    "type": "Point",
    "coordinates": [
     139.50198206,
     -20.76797426
    ]
   },
   "properties": {
    "name": "200 MOUNT ISA DUCHESS ROAD MOUNT ISA 4825",
    "locID": "LOC100071890859",
    "tech": "FTTN",
    "upgrade": "FTTP_NA",
    "gnaf_pid": "GAQLD425265461",
    "tech_change_status": "In Design",
    "program_type": "On-Demand N2P SDU/MDU Simple",
    "target_eligibility_quarter": "Mar 2028"
   }
  },
  {
   "type": "Feature",
   "geometry": {
    "type": "Point",
    "coordinates": [
     139.55797698,
     -20.88669262
    ]
   },
   "properties": {
    "name": "2648 MOUNT ISA DUCHESS ROAD MOUNT ISA 4825",
    "locID": "LOC000185249296",
    "tech": "NULL",
    "upgrade": "NULL_NA",
    "gnaf_pid": "GAQLD425265462",
    "tech_change_status": "Not Planned"
   }
  },
  {
   "type": "Feature",
   "geometry": {
    "type": "Point",
    "coordinates": [
     139.49872557,
     -20.77598462
    ]
   },
   "properties": {
    "name": "266 MOUNT ISA DUCHESS ROAD MOUNT ISA 4825",
    "locID": "LOC100071890863",
    "tech": "NULL",
    "upgrade": "NULL_NA",
    "gnaf_pid": "GAQLD425265463",
    "tech_change_status": "Not Planned"
   }
  },
  {
   "type": "Feature",
   "geometry": {
    "type": "Point",
    "coordinates": [
     139.49499901,
     -20.83231587
    ]
   },
   "properties": {
    "name": "LOT 1 MOUNT ISA DUCHESS ROAD MOUNT ISA 4825",
    "locID": "LOC000182377617",
    "tech": "NULL",
    "upgrade": "NULL_NA",
    "gnaf_pid": "GAQLD425265464",
    "tech_change_status": "Not Planned"
   }
  },
  {
   "type": "Feature",
   "geometry": {
    "type": "Point",
    "coordinates": [
     139.49376901,
     -20.8115862
    ]
   },
   "properties": {
    "name": "LOT 2 MOUNT ISA DUCHESS ROAD MOUNT ISA 4825",
    "locID": "LOC100071890863",
    "tech": "NULL",
    "upgrade": "NULL_NA",
    "gnaf_pid": "GAQLD425265465",
    "tech_change_status": "Not Planned"
   }
  },
  {
   "type": "Feature",
   "geometry": {
    "type": "Point",
    "coordinates": [
     139.49989682,
     -20.80661284
    ]
   },
   "properties": {
    "name": "LOT 3 MOUNT ISA DUCHESS ROAD MOUNT ISA 4825",
    "locID": "LOC000189638244",
    "tech": "SATELLITE",
    "upgrade": "NULL_NA",
    "gnaf_pid": "GAQLD425265466",
    "tech_change_status": "Not Planned"
   }
  },
  {
   "type": "Feature",
   "geometry": {
    "type": "Point",
    "coordinates": [
     139.49514104,
     -20.83663737
    ]
   },
   "properties": {
    "name": "LOT 4 MOUNT ISA DUCHESS ROAD MOUNT ISA 4825",
    "locID": "LOC000182377617",
    "tech": "NULL",
    "upgrade": "NULL_NA",
    "gnaf_pid": "GAQLD425265467",
    "tech_change_status": "Not Planned"
   }
  },
  {
   "type": "Feature",
   "geometry": {
    "type": "Point",
    "coordinates": [
     139.50483125,
     -20.82820592
    ]
   },
   "properties": {
    "name": "LOT 574 MOUNT ISA DUCHESS ROAD MOUNT ISA 4825",
    "locID": "LOC000185249296",
    "tech": "NULL",
    "upgrade": "NULL_NA",
    "gnaf_pid": "GAQLD425265468",
    "tech_change_status": "Not Planned"
   }
  },
  {
   "type": "Feature",
   "geometry": {
    "type": "Point",
    "coordinates": [
     139.49330319,
     -20.79256383
    ]
   },
   "properties": {
    "name": "LOT 5 MOUNT ISA DUCHESS ROAD MOUNT ISA 4825",
    "locID": "LOC100080629252",
    "tech": "SATELLITE",
    "upgrade": "NULL_NA",
    "gnaf_pid": "GAQLD425265469",
    "tech_change_status": "Not Planned"
   }
  },
  {
   "type": "Feature",
   "geometry": {
    "type": "Point",
    "coordinates": [
     139.49703221,
     -20.79879723
    ]
   },
   "properties": {
    "name": "LOT 9999 MOUNT ISA DUCHESS ROAD MOUNT ISA 4825",
    "locID": "LOC000185249296",
    "tech": "NULL",
    "upgrade": "NULL_NA",
    "gnaf_pid": "GAQLD425265470",
    "tech_change_status": "Not Planned"
   }
  },
  {
   "type": "Feature",
   "geometry": {
    "type": "Point",
    "coordinates": [
     139.4868581,
     -20.6810113
    ]
   },
   "properties": {
    "name": "2 NORTHRIDGE ROAD MOUNT ISA 4825",
    "locID": "LOC000151943325",
    "tech": "FTTN",
    "upgrade": "FTTP_NA",
    "gnaf_pid": "GAQLD425265745",
    "tech_change_status": "In Design",
    "program_type": "On-Demand N2P SDU/MDU Simple",
    "target_eligibility_quarter": "Mar 2028"
   }
  },
  {
   "type": "Feature",
   "geometry": {
    "type": "Point",
    "coordinates": [
     139.48151443,
     -20.6882609
    ]
   },
   "properties": {
    "name": "LOT 3 NORTHRIDGE ROAD MOUNT ISA 4825",
    "locID": "LOC000182605015",
    "tech": "NULL",
    "upgrade": "NULL_NA",
    "gnaf_pid": "GAQLD425265748",
    "tech_change_status": "Not Planned"
   }
  },
  {
   "type": "Feature",
   "geometry": {
    "type": "Point",
    "coordinates": [
     139.50725517,
     -20.70478657
    ]
   },
   "properties": {
    "name": "LOT 84 SPORTS PARADE MOUNT ISA 4825",
    "locID": "LOC000149113395",
    "tech": "FTTP",
    "upgrade": "FTTP_NA",
    "gnaf_pid": "GAQLD425267138",
    "tech_change_status": "Previous Tech Disconnected",
    "program_type": "On-Demand N2P SDU/MDU Simple",
    "target_eligibility_quarter": "NA"
   }
  },
  {
   "type": "Feature",
   "geometry": {
    "type": "Point",
    "coordinates": [
     139.50687719,
     -20.70060693
    ]
   },
   "properties": {
    "name": "LOT 95 SUNSET DRIVE MOUNT ISA 4825",
    "locID": "LOC000151950099",
    "tech": "FTTN",
    "upgrade": "FTTP_SA",
    "gnaf_pid": "GAQLD425267353",
    "tech_change_status": "Eligible to Order",
    "program_type": "On-Demand N2P SDU/MDU Simple",
    "target_eligibility_quarter": "NA"
   }
  },
  {
   "type": "Feature",
   "geometry": {
    "type": "Point",
    "coordinates": [
     139.48561,
     -20.711847
    ]
   },
   "properties": {
    "name": "78 BARKLY HIGHWAY MOUNT ISA 4825",
    "locID": "LOC000151951344",
    "tech": "FTTN",
    "upgrade": "FTTP_SA",
    "gnaf_pid": "GAQLD425374281",
    "tech_change_status": "Eligible to Order",
    "program_type": "On-Demand N2P SDU/MDU Simple",
    "target_eligibility_quarter": "NA"
   }
  },
  {
   "type": "Feature",
   "geometry": {
    "type": "Point",
    "coordinates": [
     139.48710383,
     -20.75248615
    ]
   },
   "properties": {
    "name": "LOT 4753 POWERHOUSE ROAD MOUNT ISA 4825",
    "locID": "LOC000191665174",
    "tech": "FTTN",
    "upgrade": "NULL_NA",
    "gnaf_pid": "GAQLD425478662",
    "tech_change_status": "Not Planned"
   }
  },
  {
   "type": "Feature",
   "geometry": {
    "type": "Point",
    "coordinates": [
     139.52653299,
     -20.84690304
    ]
   },
   "properties": {
    "name": "200 DUCHESS ROAD MOUNT ISA 4825",
    "locID": "LOC000173710584",
    "tech": "FTTN",
    "upgrade": "FTTP_SA",
    "gnaf_pid": "GAQLD425810119",
    "tech_change_status": "Eligible to Order",
    "program_type": "On-Demand N2P SDU/MDU Simple",
    "target_eligibility_quarter": "NA"
   }
  },
  {
   "type": "Feature",
   "geometry": {
    "type": "Point",
    "coordinates": [
     139.79475137,
     -20.38841095
    ]
   },
   "properties": {
    "name": "LOT 1 LAKE JULIUS ROAD MOUNT ISA 4825",
    "locID": "LOC100056395009",
    "tech": "SATELLITE",
    "upgrade": "NULL_NA",
    "gnaf_pid": "GAQLD425811407",
    "tech_change_status": "Not Planned"
   }
  },
  {
   "type": "Feature",
   "geometry": {
    "type": "Point",
    "coordinates": [
     139.4849135,
     -20.72945434
    ]
   },
   "properties": {
    "name": "LOT 15 STATION STREET MOUNT ISA 4825",
    "locID": "LOC000090269356",
    "tech": "FTTN",
    "upgrade": "FTTP_NA",
    "gnaf_pid": "GAQLD425813214",
    "tech_change_status": "In Design",
    "program_type": "On-Demand N2P SDU/MDU Simple",
    "target_eligibility_quarter": "Jun 2028"
   }
  },
  {
   "type": "Feature",
   "geometry": {
    "type": "Point",
    "coordinates": [
     139.53682734,
     -20.63042
    ]
   },
   "properties": {
    "name": "36 MOONDARRA DRIVE MOUNT ISA 4825",
    "locID": "LOC000189642597",
    "tech": "SATELLITE",
    "upgrade": "NULL_NA",
    "gnaf_pid": "GAQLD425860554",
    "tech_change_status": "Not Planned"
   }
  },
  {
   "type": "Feature",
   "geometry": {
    "type": "Point",
    "coordinates": [
     139.4433782,
     -20.82884571
    ]
   },
   "properties": {
    "name": "LOT 1 DIAMANTINA DEVELOPMENTAL ROAD MOUNT ISA 4825",
    "locID": "LOC000190275975",
    "tech": "FTTN",
    "upgrade": "FTTP_NA",
    "gnaf_pid": "GAQLD719126282",
    "tech_change_status": "In Design",
    "program_type": "On-Demand N2P SDU/MDU Simple",
    "target_eligibility_quarter": "Mar 2028"
   }
  },
  {
   "type": "Feature",
   "geometry": {
    "type": "Point",
    "coordinates": [
     139.44428049,
     -20.76928287
    ]
   },
   "properties": {
    "name": "LOT 444 DIAMANTINA DEVELOPMENTAL ROAD MOUNT ISA 4825",
    "locID": "LOC000148116638",
    "tech": "NULL",
    "upgrade": "NULL_NA",
    "gnaf_pid": "GAQLD719127877",
    "tech_change_status": "Not Planned"
   }
  },
  {
   "type": "Feature",
   "geometry": {
    "type": "Point",
    "coordinates": [
     139.47613229,
     -20.8407037
    ]
   },
   "properties": {
    "name": "LOT 10 DIAMANTINA DEVELOPMENTAL ROAD MOUNT ISA 4825",
    "locID": "LOC000179363146",
    "tech": "NULL",
    "upgrade": "NULL_NA",
    "gnaf_pid": "GAQLD719133919",
    "tech_change_status": "Not Planned"
   }
  },
  {
   "type": "Feature",
   "geometry": {
    "type": "Point",
    "coordinates": [
     139.46420538,
     -20.83432435
    ]
   },
   "properties": {
    "name": "44952 DIAMANTINA DEVELOPMENTAL ROAD MOUNT ISA 4825",
    "locID": "LOC000159171529",
    "tech": "SATELLITE",
    "upgrade": "NULL_NA",
    "gnaf_pid": "GAQLD719170960",
    "tech_change_status": "Not Planned"
   }
  },
  {
   "type": "Feature",
   "geometry": {
    "type": "Point",
    "coordinates": [
     139.48338799,
     -20.69715356
    ]
   },
   "properties": {
    "name": "LOT 21 BARKLY HIGHWAY MOUNT ISA 4825",
    "locID": "LOC000151943198",
    "tech": "FTTN",
    "upgrade": "FTTP_NA",
    "gnaf_pid": "GAQLD719268770",
    "tech_change_status": "In Design",
    "program_type": "On-Demand N2P SDU/MDU Simple",
    "target_eligibility_quarter": "Mar 2028"
   }
  },
  {
   "type": "Feature",
   "geometry": {
    "type": "Point",
    "coordinates": [
     139.48473291,
     -20.69389899
    ]
   },
   "properties": {
    "name": "LOT 95 NORTHRIDGE ROAD MOUNT ISA 4825",
    "locID": "LOC000182605015",
    "tech": "NULL",
    "upgrade": "NULL_NA",
    "gnaf_pid": "GAQLD719271118",
    "tech_change_status": "Not Planned"
   }
  },
  {
   "type": "Feature",
   "geometry": {
    "type": "Point",
    "coordinates": [
     139.51751363,
     -20.68837772
    ]
   },
   "properties": {
    "name": "LOT 4963 RYAN ROAD MOUNT ISA 4825",
    "locID": "LOC000176985241",
    "tech": "FTTN",
    "upgrade": "FTTP_SA",
    "gnaf_pid": "GAQLD719272549",
    "tech_change_status": "Eligible to Order",
    "program_type": "On-Demand N2P SDU/MDU Simple",
    "target_eligibility_quarter": "NA"
   }
  },
  {
   "type": "Feature",
   "geometry": {
    "type": "Point",
    "coordinates": [
     139.46109375,
     -20.72857879
    ]
   },
   "properties": {
    "name": "LOT 42 BARKLY HIGHWAY MOUNT ISA 4825",
    "locID": "LOC000129511638",
    "tech": "FTTN",
    "upgrade": "FTTP_SA",
    "gnaf_pid": "GAQLD719272930",
    "tech_change_status": "Eligible to Order",
    "program_type": "On-Demand N2P SDU/MDU Simple",
    "target_eligibility_quarter": "NA"
   }
  },
  {
   "type": "Feature",
   "geometry": {
    "type": "Point",
    "coordinates": [
     139.48283804,
     -20.69896813
    ]
   },
   "properties": {
    "name": "LOT 96 BARKLY HIGHWAY MOUNT ISA 4825",
    "locID": "LOC000182379299",
    "tech": "SATELLITE",
    "upgrade": "NULL_NA",
    "gnaf_pid": "GAQLD719274602",
    "tech_change_status": "Not Planned"
   }
  },
  {
   "type": "Feature",
   "geometry": {
    "type": "Point",
    "coordinates": [
     139.34115413,
     -20.58966602
    ]
   },
   "properties": {
    "name": "12363 BARKLY HIGHWAY MOUNT ISA 4825",
    "locID": "LOC000154628595",
    "tech": "SATELLITE",
    "upgrade": "NULL_NA",
    "gnaf_pid": "GAQLD719275113",
    "tech_change_status": "Not Planned"
   }
  },
  {
   "type": "Feature",
   "geometry": {
    "type": "Point",
    "coordinates": [
     139.4854737,
     -20.68659574
    ]
   },
   "properties": {
    "name": "106 NORTHRIDGE ROAD MOUNT ISA 4825",
    "locID": "LOC100032162117",
    "tech": "FTTN",
    "upgrade": "FTTP_NA",
    "gnaf_pid": "GAQLD719277577",
    "tech_change_status": "In Design",
    "program_type": "On-Demand N2P SDU/MDU Simple",
    "target_eligibility_quarter": "Mar 2028"
   }
  },
  {
   "type": "Feature",
   "geometry": {
    "type": "Point",
    "coordinates": [
     139.48611751,
     -20.69268449
    ]
   },
   "properties": {
    "name": "LOT 2 NORTHRIDGE ROAD MOUNT ISA 4825",
    "locID": "LOC000151943325",
    "tech": "FTTN",
    "upgrade": "FTTP_NA",
    "gnaf_pid": "GAQLD719278715",
    "tech_change_status": "In Design",
    "program_type": "On-Demand N2P SDU/MDU Simple",
    "target_eligibility_quarter": "Mar 2028"
   }
  },
  {
   "type": "Feature",
   "geometry": {
    "type": "Point",
    "coordinates": [
     139.54896018,
     -20.58599594
    ]
   },
   "properties": {
    "name": "LOT 90 MOONDARRA DRIVE MOUNT ISA 4825",
    "locID": "LOC000174083284",
    "tech": "SATELLITE",
    "upgrade": "NULL_NA",
    "gnaf_pid": "GAQLD719446271",
    "tech_change_status": "Not Planned"
   }
  },
  {
   "type": "Feature",
   "geometry": {
    "type": "Point",
    "coordinates": [
     139.49461376,
     -20.67080497
    ]
   },
   "properties": {
    "name": "LOT 39 BARKLY HIGHWAY MOUNT ISA 4825",
    "locID": "LOC000051130874",
    "tech": "FTTN",
    "upgrade": "FTTP_SA",
    "gnaf_pid": "GAQLD719450067",
    "tech_change_status": "Eligible to Order",
    "program_type": "On-Demand N2P SDU/MDU Simple",
    "target_eligibility_quarter": "NA"
   }
  },
  {
   "type": "Feature",
   "geometry": {
    "type": "Point",
    "coordinates": [
     139.49641041,
     -20.64591544
    ]
   },
   "properties": {
    "name": "LOT 35 BARKLY HIGHWAY MOUNT ISA 4825",
    "locID": "LOC000024101720",
    "tech": "FTTN",
    "upgrade": "FTTP_SA",
    "gnaf_pid": "GAQLD719450068",
    "tech_change_status": "Eligible to Order",
    "program_type": "On-Demand N2P SDU/MDU Simple",
    "target_eligibility_quarter": "NA"
   }
  },
  {
   "type": "Feature",
   "geometry": {
    "type": "Point",
    "coordinates": [
     139.48181902,
     -20.77162636
    ]
   },
   "properties": {
    "name": "LOT 422 DIAMANTINA DEVELOPMENTAL ROAD MOUNT ISA 4825",
    "locID": "LOC000171158138",
    "tech": "FTTN",
    "upgrade": "NULL_NA",
    "gnaf_pid": "GAQLD719450069",
    "tech_change_status": "Not Planned"
   }
  },
  {
   "type": "Feature",
   "geometry": {
    "type": "Point",
    "coordinates": [
     139.5037471,
     -20.68288711
    ]
   },
   "properties": {
    "name": "LOT 33 MOONDARRA DRIVE MOUNT ISA 4825",
    "locID": "LOC100089565150",
    "tech": "NULL",
    "upgrade": "NULL_NA",
    "gnaf_pid": "GAQLD720500723",
    "tech_change_status": "Not Planned"
   }
  },
  {
   "type": "Feature",
   "geometry": {
    "type": "Point",
    "coordinates": [
     139.54017358,
     -20.67319968
    ]
   },
   "properties": {
    "name": "237 MOONDARRA DRIVE MOUNT ISA 4825",
    "locID": "LOC000173403615",
    "tech": "FTTN",
    "upgrade": "FTTP_NA",
    "gnaf_pid": "GAQLD720501716",
    "tech_change_status": "MDU Complex Eligible To Apply",
    "program_type": "Customer-initiated N2P MDU Complex"
   }
  },
  {
   "type": "Feature",
   "geometry": {
    "type": "Point",
    "coordinates": [
     139.53682734,
     -20.63042
    ]
   },
   "properties": {
    "name": "LOT 36 MOONDARRA DRIVE MOUNT ISA 4825",
    "locID": "LOC000189642597",
    "tech": "SATELLITE",
    "upgrade": "NULL_NA",
    "gnaf_pid": "GAQLD720556420",
    "tech_change_status": "Not Planned"
   }
  },
  {
   "type": "Feature",
   "geometry": {
    "type": "Point",
    "coordinates": [
     139.53682734,
     -20.63042
    ]
   },
   "properties": {
    "name": "LOT 416 MOONDARRA DRIVE MOUNT ISA 4825",
    "locID": "LOC000173403615",
    "tech": "FTTN",
    "upgrade": "FTTP_NA",
    "gnaf_pid": "GAQLD720556701",
    "tech_change_status": "MDU Complex Eligible To Apply",
    "program_type": "Customer-initiated N2P MDU Complex"
   }
  },
  {
   "type": "Feature",
   "geometry": {
    "type": "Point",
    "coordinates": [
     139.51036119,
     -20.70534728
    ]
   },
   "properties": {
    "name": "40 SPORTS PARADE MOUNT ISA 4825",
    "locID": "LOC000149113395",
    "tech": "FTTP",
    "upgrade": "FTTP_NA",
    "gnaf_pid": "GAQLD720667488",
    "tech_change_status": "Previous Tech Disconnected",
    "program_type": "On-Demand N2P SDU/MDU Simple",
    "target_eligibility_quarter": "NA"
   }
  },
  {
   "type": "Feature",
   "geometry": {
    "type": "Point",
    "coordinates": [
     139.50837393,
     -20.68954168
    ]
   },
   "properties": {
    "name": "161 COMMERCIAL ROAD MOUNT ISA 4825",
    "locID": "LOC000188805361",
    "tech": "SATELLITE",
    "upgrade": "NULL_NA",
    "gnaf_pid": "GAQLD720668802",
    "tech_change_status": "Not Planned"
   }
  },
  {
   "type": "Feature",
   "geometry": {
    "type": "Point",
    "coordinates": [
     139.51318837,
     -20.70537087
    ]
   },
   "properties": {
    "name": "48 SPORTS PARADE MOUNT ISA 4825",
    "locID": "LOC100079384659",
    "tech": "NULL",
    "upgrade": "NULL_NA",
    "gnaf_pid": "GAQLD720670991",
    "tech_change_status": "Not Planned"
   }
  },
  {
   "type": "Feature",
   "geometry": {
    "type": "Point",
    "coordinates": [
     139.63719057,
     -20.39066695
    ]
   },
   "properties": {
    "name": "1355 MOONDARRA DRIVE MOUNT ISA 4825",
    "locID": "LOC000173403615",
    "tech": "FTTN",
    "upgrade": "FTTP_NA",
    "gnaf_pid": "GAQLD720671021",
    "tech_change_status": "MDU Complex Eligible To Apply",
    "program_type": "Customer-initiated N2P MDU Complex"
   }
  },
  {
   "type": "Feature",
   "geometry": {
    "type": "Point",
    "coordinates": [
     139.51486954,
     -20.6992092
    ]
   },
   "properties": {
    "name": "62 COMMERCIAL ROAD MOUNT ISA 4825",
    "locID": "LOC000191945235",
    "tech": "NULL",
    "upgrade": "NULL_NA",
    "gnaf_pid": "GAQLD720672743",
    "tech_change_status": "Not Planned"
   }
  },
  {
   "type": "Feature",
   "geometry": {
    "type": "Point",
    "coordinates": [
     139.51486954,
     -20.6992092
    ]
   },
   "properties": {
    "name": "62C COMMERCIAL ROAD MOUNT ISA 4825",
    "locID": "LOC000191945235",
    "tech": "NULL",
    "upgrade": "NULL_NA",
    "gnaf_pid": "GAQLD720673676",
    "tech_change_status": "Not Planned"
   }
  },
  {
   "type": "Feature",
   "geometry": {
    "type": "Point",
    "coordinates": [
     139.50921126,
     -20.70386026
    ]
   },
   "properties": {
    "name": "4 SPORTS PARADE MOUNT ISA 4825",
    "locID": "LOC100079384659",
    "tech": "NULL",
    "upgrade": "NULL_NA",
    "gnaf_pid": "GAQLD720675678",
    "tech_change_status": "Not Planned"
   }
  },
  {
   "type": "Feature",
   "geometry": {
    "type": "Point",
    "coordinates": [
     139.51510232,
     -20.70294846
    ]
   },
   "properties": {
    "name": "65 SPORTS PARADE MOUNT ISA 4825",
    "locID": "LOC100079384659",
    "tech": "NULL",
    "upgrade": "NULL_NA",
    "gnaf_pid": "GAQLD720676317",
    "tech_change_status": "Not Planned"
   }
  },
  {
   "type": "Feature",
   "geometry": {
    "type": "Point",
    "coordinates": [
     139.48184047,
     -20.49690039
    ]
   },
   "properties": {
    "name": "LOT 17 BARKLY HIGHWAY MOUNT ISA 4825",
    "locID": "LOC000129489052",
    "tech": "FTTN",
    "upgrade": "FTTP_SA",
    "gnaf_pid": "GAQLD721144917",
    "tech_change_status": "Eligible to Order",
    "program_type": "On-Demand N2P SDU/MDU Simple",
    "target_eligibility_quarter": "NA"
   }
  },
  {
   "type": "Feature",
   "geometry": {
    "type": "Point",
    "coordinates": [
     139.48010983,
     -20.78773807
    ]
   },
   "properties": {
    "name": "1 MORAN ROAD MOUNT ISA 4825",
    "locID": "LOC000190275975",
    "tech": "FTTN",
    "upgrade": "FTTP_NA",
    "gnaf_pid": "GAQLD721144966",
    "tech_change_status": "In Design",
    "program_type": "On-Demand N2P SDU/MDU Simple",
    "target_eligibility_quarter": "Mar 2028"
   }
  },
  {
   "type": "Feature",
   "geometry": {
    "type": "Point",
    "coordinates": [
     139.48444387,
     -20.7071562
    ]
   },
   "properties": {
    "name": "LOT 23 BARKLY HIGHWAY MOUNT ISA 4825",
    "locID": "LOC000129497711",
    "tech": "FTTP",
    "upgrade": "NULL_NA",
    "gnaf_pid": "GAQLD721148774"
   }
  },
  {
   "type": "Feature",
   "geometry": {
    "type": "Point",
    "coordinates": [
     139.47434606,
     -20.77696754
    ]
   },
   "properties": {
    "name": "LOT 1 POWERHOUSE ROAD MOUNT ISA 4825",
    "locID": "LOC000192093397",
    "tech": "FTTN",
    "upgrade": "FTTP_NA",
    "gnaf_pid": "GAQLD721149848",
    "tech_change_status": "In Design",
    "program_type": "On-Demand N2P SDU/MDU Simple",
    "target_eligibility_quarter": "Mar 2028"
   }
  },
  {
   "type": "Feature",
   "geometry": {
    "type": "Point",
    "coordinates": [
     139.71621123,
     -20.12379501
    ]
   },
   "properties": {
    "name": "LOT 14 LAKE JULIUS ROAD MOUNT ISA 4825",
    "locID": "LOC000191604636",
    "tech": "NULL",
    "upgrade": "NULL_NA",
    "gnaf_pid": "GAQLD721150084",
    "tech_change_status": "Not Planned"
   }
  },
  {
   "type": "Feature",
   "geometry": {
    "type": "Point",
    "coordinates": [
     139.6748454,
     -20.06474175
    ]
   },
   "properties": {
    "name": "2660 GUNPOWDER ROAD MOUNT ISA 4825",
    "locID": "LOC000148076759",
    "tech": "SATELLITE",
    "upgrade": "NULL_NA",
    "gnaf_pid": "GAQLD721429820",
    "tech_change_status": "Not Planned"
   }
  },
  {
   "type": "Feature",
   "geometry": {
    "type": "Point",
    "coordinates": [
     139.87196431,
     -20.41271814
    ]
   },
   "properties": {
    "name": "1069 LAKE JULIUS ROAD MOUNT ISA 4825",
    "locID": "LOC100075289747",
    "tech": "SATELLITE",
    "upgrade": "NULL_NA",
    "gnaf_pid": "GAQLD721868111",
    "tech_change_status": "Not Planned"
   }
  }
 ]
}