{
 "type": "FeatureCollection",
 "generated": "2025-01-18T16:09:31.493515",
 "suburb": "MOUNT DELANEY",
 "features": [
  {
   "type": "Feature",
   "geometry": {
    "type": "Point",
    "coordinates": [
     152.71749314,
     -26.99921806
    ]
   },
   "properties": {
    "name": "150 VIDONI ROAD MOUNT DELANEY 4514",
    "locID": "LOC000183608870",
    "tech": "WIRELESS",
    "upgrade": "NULL_NA",
    "gnaf_pid": "GAQLD158336699",
    "tech_change_status": "Not Planned",
    "program_type": "Fixed Wireless and Satellite Upgrade Program",
    "target_eligibility_quarter": "NA"
   }
  },
  {
   "type": "Feature",
   "geometry": {
    "type": "Point",
    "coordinates": [
     152.7182456,
     -27.00704578
    ]
   },
   "properties": {
    "name": "12 WISEMAN ROAD MOUNT DELANEY 4514",
    "locID": "LOC000068166854",
    "tech": "SATELLITE",
    "upgrade": "NULL_NA",
    "gnaf_pid": "GAQLD158336702",
    "tech_change_status": "Not Planned"
   }
  },
  {
   "type": "Feature",
   "geometry": {
    "type": "Point",
    "coordinates": [
     152.72917667,
     -27.01537338
    ]
   },
   "properties": {
    "name": "560 DELANEY CREEK ROAD MOUNT DELANEY 4514",
    "locID": "LOC000142302598",
    "tech": "SATELLITE",
    "upgrade": "NULL_NA",
    "gnaf_pid": "GAQLD160678766",
    "tech_change_status": "Not Planned"
   }
  },
  {
   "type": "Feature",
   "geometry": {
    "type": "Point",
    "coordinates": [
     152.71421146,
     -27.01145256
    ]
   },
   "properties": {
    "name": "760 DELANEY CREEK ROAD MOUNT DELANEY 4514",
    "locID": "LOC000011686258",
    "tech": "NULL",
    "upgrade": "NULL_NA",
    "gnaf_pid": "GAQLD160693403",
    "tech_change_status": "Not Planned"
   }
  },
  {
   "type": "Feature",
   "geometry": {
    "type": "Point",
    "coordinates": [
     152.70908379,
     -27.00683843
    ]
   },
   "properties": {
    "name": "853 DELANEY CREEK ROAD MOUNT DELANEY 4514",
    "locID": "LOC100072084012",
    "tech": "NULL",
    "upgrade": "NULL_NA",
    "gnaf_pid": "GAQLD160699268",
    "tech_change_status": "Not Planned"
   }
  },
  {
   "type": "Feature",
   "geometry": {
    "type": "Point",
    "coordinates": [
     152.70374917,
     -27.00922569
    ]
   },
   "properties": {
    "name": "890 DELANEY CREEK ROAD MOUNT DELANEY 4514",
    "locID": "LOC000007481073",
    "tech": "SATELLITE",
    "upgrade": "NULL_NA",
    "gnaf_pid": "GAQLD160713747",
    "tech_change_status": "Not Planned"
   }
  },
  {
   "type": "Feature",
   "geometry": {
    "type": "Point",
    "coordinates": [
     152.71541792,
     -27.0127141
    ]
   },
   "properties": {
    "name": "795 DELANEY CREEK ROAD MOUNT DELANEY 4514",
    "locID": "LOC000093619413",
    "tech": "SATELLITE",
    "upgrade": "NULL_NA",
    "gnaf_pid": "GAQLD160713748",
    "tech_change_status": "Not Planned"
   }
  },
  {
   "type": "Feature",
   "geometry": {
    "type": "Point",
    "coordinates": [
     152.71104454,
     -27.00042292
    ]
   },
   "properties": {
    "name": "866 DELANEY CREEK ROAD MOUNT DELANEY 4514",
    "locID": "LOC000073749565",
    "tech": "SATELLITE",
    "upgrade": "NULL_NA",
    "gnaf_pid": "GAQLD160713885",
    "tech_change_status": "Not Planned"
   }
  },
  {
   "type": "Feature",
   "geometry": {
    "type": "Point",
    "coordinates": [
     152.723305,
     -27.01756504
    ]
   },
   "properties": {
    "name": "593 DELANEY CREEK ROAD MOUNT DELANEY 4514",
    "locID": "LOC000142358781",
    "tech": "SATELLITE",
    "upgrade": "NULL_NA",
    "gnaf_pid": "GAQLD160713886",
    "tech_change_status": "Not Planned"
   }
  },
  {
   "type": "Feature",
   "geometry": {
    "type": "Point",
    "coordinates": [
     152.71541792,
     -27.0127141
    ]
   },
   "properties": {
    "name": "775 DELANEY CREEK ROAD MOUNT DELANEY 4514",
    "locID": "LOC000039375386",
    "tech": "NULL",
    "upgrade": "NULL_NA",
    "gnaf_pid": "GAQLD160713887",
    "tech_change_status": "Not Planned"
   }
  },
  {
   "type": "Feature",
   "geometry": {
    "type": "Point",
    "coordinates": [
     152.71899819,
     -27.00173448
    ]
   },
   "properties": {
    "name": "129 DEWHURTS ROAD MOUNT DELANEY 4514",
    "locID": "LOC000050698839",
    "tech": "NULL",
    "upgrade": "NULL_NA",
    "gnaf_pid": "GAQLD160947493",
    "tech_change_status": "Not Planned"
   }
  },
  {
   "type": "Feature",
   "geometry": {
    "type": "Point",
    "coordinates": [
     152.71654257,
     -27.00592557
    ]
   },
   "properties": {
    "name": "64 DEWHURTS ROAD MOUNT DELANEY 4514",
    "locID": "LOC000072609189",
    "tech": "NULL",
    "upgrade": "NULL_NA",
    "gnaf_pid": "GAQLD160947494",
    "tech_change_status": "Not Planned"
   }
  },
  {
   "type": "Feature",
   "geometry": {
    "type": "Point",
    "coordinates": [
     152.71541792,
     -27.0127141
    ]
   },
   "properties": {
    "name": "600 DELANEY CREEK ROAD MOUNT DELANEY 4514",
    "locID": "LOC000012533528",
    "tech": "SATELLITE",
    "upgrade": "NULL_NA",
    "gnaf_pid": "GAQLD161366175",
    "tech_change_status": "Not Planned"
   }
  },
  {
   "type": "Feature",
   "geometry": {
    "type": "Point",
    "coordinates": [
     152.71841488,
     -27.01899221
    ]
   },
   "properties": {
    "name": "545 DELANEY CREEK ROAD MOUNT DELANEY 4514",
    "locID": "LOC000142299828",
    "tech": "SATELLITE",
    "upgrade": "NULL_NA",
    "gnaf_pid": "GAQLD161654574",
    "tech_change_status": "Not Planned"
   }
  },
  {
   "type": "Feature",
   "geometry": {
    "type": "Point",
    "coordinates": [
     152.71465772,
     -27.00459665
    ]
   },
   "properties": {
    "name": "65 DEWHURTS ROAD MOUNT DELANEY 4514",
    "locID": "LOC000005780441",
    "tech": "WIRELESS",
    "upgrade": "NULL_NA",
    "gnaf_pid": "GAQLD161935765",
    "tech_change_status": "Not Planned",
    "program_type": "Fixed Wireless and Satellite Upgrade Program",
    "target_eligibility_quarter": "Jun 2025"
   }
  },
  {
   "type": "Feature",
   "geometry": {
    "type": "Point",
    "coordinates": [
     152.71275313,
     -27.03482101
    ]
   },
   "properties": {
    "name": "178-184 NINE V ROAD MOUNT DELANEY 4514",
    "locID": "LOC000106803406",
    "tech": "SATELLITE",
    "upgrade": "NULL_NA",
    "gnaf_pid": "GAQLD161940475",
    "tech_change_status": "Not Planned"
   }
  },
  {
   "type": "Feature",
   "geometry": {
    "type": "Point",
    "coordinates": [
     152.71541792,
     -27.0127141
    ]
   },
   "properties": {
    "name": "77 DELANEY CREEK ROAD MOUNT DELANEY 4514",
    "locID": "LOC000039375386",
    "tech": "NULL",
    "upgrade": "NULL_NA",
    "gnaf_pid": "GAQLD163231636",
    "tech_change_status": "Not Planned"
   }
  },
  {
   "type": "Feature",
   "geometry": {
    "type": "Point",
    "coordinates": [
     152.72037452,
     -27.01238882
    ]
   },
   "properties": {
    "name": "34 WISEMAN ROAD MOUNT DELANEY 4514",
    "locID": "LOC000128229472",
    "tech": "NULL",
    "upgrade": "NULL_NA",
    "gnaf_pid": "GAQLD163321960",
    "tech_change_status": "Not Planned"
   }
  },
  {
   "type": "Feature",
   "geometry": {
    "type": "Point",
    "coordinates": [
     152.71465772,
     -27.00459665
    ]
   },
   "properties": {
    "name": "UNIT 1, 65 DEWHURTS ROAD MOUNT DELANEY 4514",
    "locID": "LOC000005780441",
    "tech": "WIRELESS",
    "upgrade": "NULL_NA",
    "gnaf_pid": "GAQLD425269096",
    "tech_change_status": "Not Planned",
    "program_type": "Fixed Wireless and Satellite Upgrade Program",
    "target_eligibility_quarter": "Jun 2025"
   }
  },
  {
   "type": "Feature",
   "geometry": {
    "type": "Point",
    "coordinates": [
     152.71465772,
     -27.00459665
    ]
   },
   "properties": {
    "name": "UNIT 2, 65 DEWHURTS ROAD MOUNT DELANEY 4514",
    "locID": "LOC000005780441",
    "tech": "WIRELESS",
    "upgrade": "NULL_NA",
    "gnaf_pid": "GAQLD425269097",
    "tech_change_status": "Not Planned",
    "program_type": "Fixed Wireless and Satellite Upgrade Program",
    "target_eligibility_quarter": "Jun 2025"
   }
  },
  {
   "type": "Feature",
   "geometry": {
    "type": "Point",
    "coordinates": [
     152.73350788,
     -27.00924382
    ]
   },
   "properties": {
    "name": "490 DELANEY CREEK ROAD MOUNT DELANEY 4514",
    "locID": "LOC000105970980",
    "tech": "SATELLITE",
    "upgrade": "NULL_NA",
    "gnaf_pid": "GAQLD719143251",
    "tech_change_status": "Not Planned"
   }
  },
  {
   "type": "Feature",
   "geometry": {
    "type": "Point",
    "coordinates": [
     152.71415169,
     -27.02942281
    ]
   },
   "properties": {
    "name": "LOT 272 NINE V ROAD MOUNT DELANEY 4514",
    "locID": "LOC000106803406",
    "tech": "SATELLITE",
    "upgrade": "NULL_NA",
    "gnaf_pid": "GAQLD721140769",
    "tech_change_status": "Not Planned"
   }
  },
  {
   "type": "Feature",
   "geometry": {
    "type": "Point",
    "coordinates": [
     152.71541792,
     -27.0127141
    ]
   },
   "properties": {
    "name": "LOT 72 DELANEY CREEK ROAD MOUNT DELANEY 4514",
    "locID": "LOC000074520770",
    "tech": "SATELLITE",
    "upgrade": "NULL_NA",
    "gnaf_pid": "GAQLD721401358",
    "tech_change_status": "Not Planned"
   }
  }
 ]
}