{
 "type": "FeatureCollection",
 "generated": "2026-05-16T16:49:03.457186",
 "suburb": "PALGRAVE",
 "features": [
  {
   "type": "Feature",
   "geometry": {
    "type": "Point",
    "coordinates": [
     151.83006648,
     -28.33670606
    ]
   },
   "properties": {
    "name": "69 CLARE HILLS ROAD PALGRAVE 4374",
    "locID": "LOC000096249300",
    "tech": "NULL",
    "upgrade": "NULL_NA",
    "gnaf_pid": "GAQLD160675954",
    "tech_change_status": "Not Planned"
   }
  },
  {
   "type": "Feature",
   "geometry": {
    "type": "Point",
    "coordinates": [
     151.83672388,
     -28.36910344
    ]
   },
   "properties": {
    "name": "1415 PIKEDALE ROAD PALGRAVE 4374",
    "locID": "LOC000016553463",
    "tech": "SATELLITE",
    "upgrade": "NULL_NA",
    "gnaf_pid": "GAQLD160958779",
    "tech_change_status": "Not Planned"
   }
  },
  {
   "type": "Feature",
   "geometry": {
    "type": "Point",
    "coordinates": [
     151.82285055,
     -28.32528094
    ]
   },
   "properties": {
    "name": "LOT 46 CLARE HILLS ROAD PALGRAVE 4374",
    "locID": "LOC000127893142",
    "tech": "NULL",
    "upgrade": "NULL_NA",
    "gnaf_pid": "GAQLD161103549",
    "tech_change_status": "Not Planned"
   }
  },
  {
   "type": "Feature",
   "geometry": {
    "type": "Point",
    "coordinates": [
     151.83109133,
     -28.39294428
    ]
   },
   "properties": {
    "name": "LOT 29 PALGRAVE ROAD PALGRAVE 4374",
    "locID": "LOC100081203712",
    "tech": "SATELLITE",
    "upgrade": "NULL_NA",
    "gnaf_pid": "GAQLD161269462",
    "tech_change_status": "Not Planned"
   }
  },
  {
   "type": "Feature",
   "geometry": {
    "type": "Point",
    "coordinates": [
     151.82013514,
     -28.39177317
    ]
   },
   "properties": {
    "name": "LOT 30 PALGRAVE ROAD PALGRAVE 4374",
    "locID": "LOC100081203712",
    "tech": "SATELLITE",
    "upgrade": "NULL_NA",
    "gnaf_pid": "GAQLD161269463",
    "tech_change_status": "Not Planned"
   }
  },
  {
   "type": "Feature",
   "geometry": {
    "type": "Point",
    "coordinates": [
     151.82253392,
     -28.40560195
    ]
   },
   "properties": {
    "name": "LOT 41 PALGRAVE ROAD PALGRAVE 4374",
    "locID": "LOC100081203712",
    "tech": "SATELLITE",
    "upgrade": "NULL_NA",
    "gnaf_pid": "GAQLD161269464",
    "tech_change_status": "Not Planned"
   }
  },
  {
   "type": "Feature",
   "geometry": {
    "type": "Point",
    "coordinates": [
     151.7534619,
     -28.39682975
    ]
   },
   "properties": {
    "name": "LOT 67 PIKEDALE ROAD PALGRAVE 4374",
    "locID": "LOC000016553463",
    "tech": "SATELLITE",
    "upgrade": "NULL_NA",
    "gnaf_pid": "GAQLD161277286",
    "tech_change_status": "Not Planned"
   }
  },
  {
   "type": "Feature",
   "geometry": {
    "type": "Point",
    "coordinates": [
     151.82126131,
     -28.44389794
    ]
   },
   "properties": {
    "name": "555 PALGRAVE ROAD PALGRAVE 4374",
    "locID": "LOC100081203712",
    "tech": "SATELLITE",
    "upgrade": "NULL_NA",
    "gnaf_pid": "GAQLD161451969",
    "tech_change_status": "Not Planned"
   }
  },
  {
   "type": "Feature",
   "geometry": {
    "type": "Point",
    "coordinates": [
     151.83955585,
     -28.36124238
    ]
   },
   "properties": {
    "name": "1317 PIKEDALE ROAD PALGRAVE 4374",
    "locID": "LOC000079939010",
    "tech": "NULL",
    "upgrade": "NULL_NA",
    "gnaf_pid": "GAQLD161453261",
    "tech_change_status": "Not Planned"
   }
  },
  {
   "type": "Feature",
   "geometry": {
    "type": "Point",
    "coordinates": [
     151.82797088,
     -28.36526664
    ]
   },
   "properties": {
    "name": "1434 PIKEDALE ROAD PALGRAVE 4374",
    "locID": "LOC000127764532",
    "tech": "NULL",
    "upgrade": "NULL_NA",
    "gnaf_pid": "GAQLD161453262",
    "tech_change_status": "Not Planned"
   }
  },
  {
   "type": "Feature",
   "geometry": {
    "type": "Point",
    "coordinates": [
     151.77447183,
     -28.40749057
    ]
   },
   "properties": {
    "name": "2209 PIKEDALE ROAD PALGRAVE 4374",
    "locID": "LOC000102870388",
    "tech": "NULL",
    "upgrade": "NULL_NA",
    "gnaf_pid": "GAQLD161453263",
    "tech_change_status": "Not Planned"
   }
  },
  {
   "type": "Feature",
   "geometry": {
    "type": "Point",
    "coordinates": [
     151.80286948,
     -28.33296487
    ]
   },
   "properties": {
    "name": "171 VALHALLA ROAD PALGRAVE 4374",
    "locID": "LOC000093221177",
    "tech": "NULL",
    "upgrade": "NULL_NA",
    "gnaf_pid": "GAQLD161462272",
    "tech_change_status": "Not Planned"
   }
  },
  {
   "type": "Feature",
   "geometry": {
    "type": "Point",
    "coordinates": [
     151.79267292,
     -28.35769953
    ]
   },
   "properties": {
    "name": "46 VALHALLA ROAD PALGRAVE 4374",
    "locID": "LOC000074280839",
    "tech": "NULL",
    "upgrade": "NULL_NA",
    "gnaf_pid": "GAQLD161462273",
    "tech_change_status": "Not Planned"
   }
  },
  {
   "type": "Feature",
   "geometry": {
    "type": "Point",
    "coordinates": [
     151.84038948,
     -28.28529504
    ]
   },
   "properties": {
    "name": "LOT 2007 THREE BROTHERS CREEK ROAD PALGRAVE 4374",
    "locID": "LOC000127910159",
    "tech": "SATELLITE",
    "upgrade": "NULL_NA",
    "gnaf_pid": "GAQLD162200555",
    "tech_change_status": "Not Planned"
   }
  },
  {
   "type": "Feature",
   "geometry": {
    "type": "Point",
    "coordinates": [
     151.82868689,
     -28.28223281
    ]
   },
   "properties": {
    "name": "LOT 2186 THREE BROTHERS CREEK ROAD PALGRAVE 4374",
    "locID": "LOC000127910159",
    "tech": "SATELLITE",
    "upgrade": "NULL_NA",
    "gnaf_pid": "GAQLD162200556",
    "tech_change_status": "Not Planned"
   }
  },
  {
   "type": "Feature",
   "geometry": {
    "type": "Point",
    "coordinates": [
     151.83277859,
     -28.27767273
    ]
   },
   "properties": {
    "name": "LOT 2187 THREE BROTHERS CREEK ROAD PALGRAVE 4374",
    "locID": "LOC000127910159",
    "tech": "SATELLITE",
    "upgrade": "NULL_NA",
    "gnaf_pid": "GAQLD162200557",
    "tech_change_status": "Not Planned"
   }
  },
  {
   "type": "Feature",
   "geometry": {
    "type": "Point",
    "coordinates": [
     151.80833554,
     -28.30713929
    ]
   },
   "properties": {
    "name": "LOT 2209 THREE BROTHERS CREEK ROAD PALGRAVE 4374",
    "locID": "LOC000127910159",
    "tech": "SATELLITE",
    "upgrade": "NULL_NA",
    "gnaf_pid": "GAQLD162200558",
    "tech_change_status": "Not Planned"
   }
  },
  {
   "type": "Feature",
   "geometry": {
    "type": "Point",
    "coordinates": [
     151.81363387,
     -28.27880185
    ]
   },
   "properties": {
    "name": "LOT 2228 THREE BROTHERS CREEK ROAD PALGRAVE 4374",
    "locID": "LOC000127910159",
    "tech": "SATELLITE",
    "upgrade": "NULL_NA",
    "gnaf_pid": "GAQLD162200559",
    "tech_change_status": "Not Planned"
   }
  },
  {
   "type": "Feature",
   "geometry": {
    "type": "Point",
    "coordinates": [
     151.84543885,
     -28.28323209
    ]
   },
   "properties": {
    "name": "LOT 2229 THREE BROTHERS CREEK ROAD PALGRAVE 4374",
    "locID": "LOC000127910159",
    "tech": "SATELLITE",
    "upgrade": "NULL_NA",
    "gnaf_pid": "GAQLD162200560",
    "tech_change_status": "Not Planned"
   }
  },
  {
   "type": "Feature",
   "geometry": {
    "type": "Point",
    "coordinates": [
     151.79325802,
     -28.30502895
    ]
   },
   "properties": {
    "name": "LOT 2230 THREE BROTHERS CREEK ROAD PALGRAVE 4374",
    "locID": "LOC000127910159",
    "tech": "SATELLITE",
    "upgrade": "NULL_NA",
    "gnaf_pid": "GAQLD162200561",
    "tech_change_status": "Not Planned"
   }
  },
  {
   "type": "Feature",
   "geometry": {
    "type": "Point",
    "coordinates": [
     151.80081758,
     -28.28271258
    ]
   },
   "properties": {
    "name": "LOT 2262 THREE BROTHERS CREEK ROAD PALGRAVE 4374",
    "locID": "LOC000127910159",
    "tech": "SATELLITE",
    "upgrade": "NULL_NA",
    "gnaf_pid": "GAQLD162200562",
    "tech_change_status": "Not Planned"
   }
  },
  {
   "type": "Feature",
   "geometry": {
    "type": "Point",
    "coordinates": [
     151.79474179,
     -28.29266678
    ]
   },
   "properties": {
    "name": "LOT 2295 THREE BROTHERS CREEK ROAD PALGRAVE 4374",
    "locID": "LOC000127910159",
    "tech": "SATELLITE",
    "upgrade": "NULL_NA",
    "gnaf_pid": "GAQLD162200563",
    "tech_change_status": "Not Planned"
   }
  },
  {
   "type": "Feature",
   "geometry": {
    "type": "Point",
    "coordinates": [
     151.83796165,
     -28.26632462
    ]
   },
   "properties": {
    "name": "LOT 2386 THREE BROTHERS CREEK ROAD PALGRAVE 4374",
    "locID": "LOC000127910159",
    "tech": "SATELLITE",
    "upgrade": "NULL_NA",
    "gnaf_pid": "GAQLD162200564",
    "tech_change_status": "Not Planned"
   }
  },
  {
   "type": "Feature",
   "geometry": {
    "type": "Point",
    "coordinates": [
     151.84784042,
     -28.26919385
    ]
   },
   "properties": {
    "name": "LOT 2 THREE BROTHERS CREEK ROAD PALGRAVE 4374",
    "locID": "LOC000127910159",
    "tech": "SATELLITE",
    "upgrade": "NULL_NA",
    "gnaf_pid": "GAQLD162200565",
    "tech_change_status": "Not Planned"
   }
  },
  {
   "type": "Feature",
   "geometry": {
    "type": "Point",
    "coordinates": [
     151.8158358,
     -28.31855363
    ]
   },
   "properties": {
    "name": "LOT 612 THREE BROTHERS CREEK ROAD PALGRAVE 4374",
    "locID": "LOC000127910159",
    "tech": "SATELLITE",
    "upgrade": "NULL_NA",
    "gnaf_pid": "GAQLD162200568",
    "tech_change_status": "Not Planned"
   }
  },
  {
   "type": "Feature",
   "geometry": {
    "type": "Point",
    "coordinates": [
     151.82594784,
     -28.26370296
    ]
   },
   "properties": {
    "name": "2 THREE BROTHERS CREEK ROAD PALGRAVE 4374",
    "locID": "LOC000127910159",
    "tech": "SATELLITE",
    "upgrade": "NULL_NA",
    "gnaf_pid": "GAQLD162548959",
    "tech_change_status": "Not Planned"
   }
  },
  {
   "type": "Feature",
   "geometry": {
    "type": "Point",
    "coordinates": [
     151.7965297,
     -28.31857651
    ]
   },
   "properties": {
    "name": "549 CLARE HILLS ROAD PALGRAVE 4374",
    "locID": "LOC000127893142",
    "tech": "NULL",
    "upgrade": "NULL_NA",
    "gnaf_pid": "GAQLD425036695",
    "tech_change_status": "Not Planned"
   }
  }
 ]
}