{
 "type": "FeatureCollection",
 "generated": "2025-03-07T12:01:48.237541",
 "suburb": "SEVENTEEN MILE",
 "features": [
  {
   "type": "Feature",
   "geometry": {
    "type": "Point",
    "coordinates": [
     152.16589933,
     -27.49164058
    ]
   },
   "properties": {
    "name": "830 SEVENTEEN MILE ROAD SEVENTEEN MILE 4344",
    "locID": "LOC000027507707",
    "tech": "SATELLITE",
    "upgrade": "NULL_NA",
    "gnaf_pid": "GAQLD158602459",
    "tech_change_status": "Not Planned"
   }
  },
  {
   "type": "Feature",
   "geometry": {
    "type": "Point",
    "coordinates": [
     152.1699762,
     -27.45583449
    ]
   },
   "properties": {
    "name": "1275 SEVENTEEN MILE ROAD SEVENTEEN MILE 4344",
    "locID": "LOC000017474740",
    "tech": "SATELLITE",
    "upgrade": "NULL_NA",
    "gnaf_pid": "GAQLD158602461",
    "tech_change_status": "Not Planned"
   }
  },
  {
   "type": "Feature",
   "geometry": {
    "type": "Point",
    "coordinates": [
     152.18565416,
     -27.45336117
    ]
   },
   "properties": {
    "name": "1309 SEVENTEEN MILE ROAD SEVENTEEN MILE 4344",
    "locID": "LOC000033303988",
    "tech": "NULL",
    "upgrade": "NULL_NA",
    "gnaf_pid": "GAQLD158602462",
    "tech_change_status": "Not Planned"
   }
  },
  {
   "type": "Feature",
   "geometry": {
    "type": "Point",
    "coordinates": [
     152.18237692,
     -27.43764953
    ]
   },
   "properties": {
    "name": "1655 SEVENTEEN MILE ROAD SEVENTEEN MILE 4344",
    "locID": "LOC000040152708",
    "tech": "NULL",
    "upgrade": "NULL_NA",
    "gnaf_pid": "GAQLD158602464",
    "tech_change_status": "Not Planned"
   }
  },
  {
   "type": "Feature",
   "geometry": {
    "type": "Point",
    "coordinates": [
     152.19067586,
     -27.45610084
    ]
   },
   "properties": {
    "name": "1373 SEVENTEEN MILE ROAD SEVENTEEN MILE 4344",
    "locID": "LOC000072045282",
    "tech": "SATELLITE",
    "upgrade": "NULL_NA",
    "gnaf_pid": "GAQLD158602465",
    "tech_change_status": "Not Planned"
   }
  },
  {
   "type": "Feature",
   "geometry": {
    "type": "Point",
    "coordinates": [
     152.19768872,
     -27.45461848
    ]
   },
   "properties": {
    "name": "1455 SEVENTEEN MILE ROAD SEVENTEEN MILE 4344",
    "locID": "LOC000062702443",
    "tech": "SATELLITE",
    "upgrade": "NULL_NA",
    "gnaf_pid": "GAQLD158602466",
    "tech_change_status": "Not Planned"
   }
  },
  {
   "type": "Feature",
   "geometry": {
    "type": "Point",
    "coordinates": [
     152.16279858,
     -27.48650371
    ]
   },
   "properties": {
    "name": "870 SEVENTEEN MILE ROAD SEVENTEEN MILE 4344",
    "locID": "LOC000073168380",
    "tech": "NULL",
    "upgrade": "NULL_NA",
    "gnaf_pid": "GAQLD159880586",
    "tech_change_status": "Not Planned"
   }
  },
  {
   "type": "Feature",
   "geometry": {
    "type": "Point",
    "coordinates": [
     152.158447,
     -27.45945937
    ]
   },
   "properties": {
    "name": "LOT 70 SEVENTEEN MILE ROAD SEVENTEEN MILE 4344",
    "locID": "LOC000091429284",
    "tech": "FTTN",
    "upgrade": "NULL_NA",
    "gnaf_pid": "GAQLD161305778",
    "tech_change_status": "Not Planned"
   }
  },
  {
   "type": "Feature",
   "geometry": {
    "type": "Point",
    "coordinates": [
     152.16587936,
     -27.44878096
    ]
   },
   "properties": {
    "name": "LOT 27 SEVENTEEN MILE ROAD SEVENTEEN MILE 4344",
    "locID": "LOC000113979318",
    "tech": "FTTN",
    "upgrade": "NULL_NA",
    "gnaf_pid": "GAQLD162065185",
    "tech_change_status": "Not Planned"
   }
  },
  {
   "type": "Feature",
   "geometry": {
    "type": "Point",
    "coordinates": [
     152.20327927,
     -27.45993493
    ]
   },
   "properties": {
    "name": "1462 SEVENTEEN MILE ROAD SEVENTEEN MILE 4344",
    "locID": "LOC000105496084",
    "tech": "SATELLITE",
    "upgrade": "NULL_NA",
    "gnaf_pid": "GAQLD162378550",
    "tech_change_status": "Not Planned"
   }
  }
 ]
}