{
 "type": "FeatureCollection",
 "generated": "2024-12-22T21:32:59.886922",
 "suburb": "TEELAH",
 "features": [
  {
   "type": "Feature",
   "geometry": {
    "type": "Point",
    "coordinates": [
     152.09277175,
     -26.74001085
    ]
   },
   "properties": {
    "name": "LOT 1 OLD ESK ROAD TEELAH 4314",
    "locID": "LOC000018368645",
    "tech": "WIRELESS",
    "upgrade": "NULL_NA",
    "gnaf_pid": "GAQLD155896675",
    "tech_change_status": "Not Planned",
    "program_type": "Fixed Wireless and Satellite Upgrade Program",
    "target_eligibility_quarter": "NA"
   }
  },
  {
   "type": "Feature",
   "geometry": {
    "type": "Point",
    "coordinates": [
     152.09031464,
     -26.79234274
    ]
   },
   "properties": {
    "name": "44 STRETTON DRIVE TEELAH 4314",
    "locID": "LOC000041025188",
    "tech": "WIRELESS",
    "upgrade": "NULL_NA",
    "gnaf_pid": "GAQLD158726608",
    "tech_change_status": "Not Planned",
    "program_type": "Fixed Wireless and Satellite Upgrade Program",
    "target_eligibility_quarter": "NA"
   }
  },
  {
   "type": "Feature",
   "geometry": {
    "type": "Point",
    "coordinates": [
     152.07262036,
     -26.80204064
    ]
   },
   "properties": {
    "name": "279 STRETTON DRIVE TEELAH 4314",
    "locID": "LOC000177580230",
    "tech": "WIRELESS",
    "upgrade": "NULL_NA",
    "gnaf_pid": "GAQLD158726609",
    "tech_change_status": "Not Planned",
    "program_type": "Fixed Wireless and Satellite Upgrade Program",
    "target_eligibility_quarter": "NA"
   }
  },
  {
   "type": "Feature",
   "geometry": {
    "type": "Point",
    "coordinates": [
     152.06842844,
     -26.79817738
    ]
   },
   "properties": {
    "name": "333 STRETTON DRIVE TEELAH 4314",
    "locID": "LOC000016183055",
    "tech": "WIRELESS",
    "upgrade": "NULL_NA",
    "gnaf_pid": "GAQLD158732414",
    "tech_change_status": "Not Planned",
    "program_type": "Fixed Wireless and Satellite Upgrade Program",
    "target_eligibility_quarter": "NA"
   }
  },
  {
   "type": "Feature",
   "geometry": {
    "type": "Point",
    "coordinates": [
     152.08266244,
     -26.79828191
    ]
   },
   "properties": {
    "name": "LOT 31 STRETTON DRIVE TEELAH 4314",
    "locID": "LOC000016183055",
    "tech": "WIRELESS",
    "upgrade": "NULL_NA",
    "gnaf_pid": "GAQLD158960221",
    "tech_change_status": "Not Planned",
    "program_type": "Fixed Wireless and Satellite Upgrade Program",
    "target_eligibility_quarter": "NA"
   }
  },
  {
   "type": "Feature",
   "geometry": {
    "type": "Point",
    "coordinates": [
     152.06842088,
     -26.80203456
    ]
   },
   "properties": {
    "name": "305 STRETTON DRIVE TEELAH 4314",
    "locID": "LOC000093567178",
    "tech": "WIRELESS",
    "upgrade": "NULL_NA",
    "gnaf_pid": "GAQLD160711896",
    "tech_change_status": "Not Planned",
    "program_type": "Fixed Wireless and Satellite Upgrade Program",
    "target_eligibility_quarter": "NA"
   }
  },
  {
   "type": "Feature",
   "geometry": {
    "type": "Point",
    "coordinates": [
     152.089634,
     -26.78832301
    ]
   },
   "properties": {
    "name": "LOT 10 OLD ESK ROAD TEELAH 4314",
    "locID": "LOC100078024379",
    "tech": "WIRELESS",
    "upgrade": "NULL_NA",
    "gnaf_pid": "GAQLD161263369",
    "tech_change_status": "Not Planned",
    "program_type": "Fixed Wireless and Satellite Upgrade Program",
    "target_eligibility_quarter": "NA"
   }
  },
  {
   "type": "Feature",
   "geometry": {
    "type": "Point",
    "coordinates": [
     152.089634,
     -26.78832301
    ]
   },
   "properties": {
    "name": "LOT 12 OLD ESK ROAD TEELAH 4314",
    "locID": "LOC100078024379",
    "tech": "WIRELESS",
    "upgrade": "NULL_NA",
    "gnaf_pid": "GAQLD161263370",
    "tech_change_status": "Not Planned",
    "program_type": "Fixed Wireless and Satellite Upgrade Program",
    "target_eligibility_quarter": "NA"
   }
  },
  {
   "type": "Feature",
   "geometry": {
    "type": "Point",
    "coordinates": [
     152.089634,
     -26.78832301
    ]
   },
   "properties": {
    "name": "LOT 20 OLD ESK ROAD TEELAH 4314",
    "locID": "LOC100078024379",
    "tech": "WIRELESS",
    "upgrade": "NULL_NA",
    "gnaf_pid": "GAQLD161263371",
    "tech_change_status": "Not Planned",
    "program_type": "Fixed Wireless and Satellite Upgrade Program",
    "target_eligibility_quarter": "NA"
   }
  },
  {
   "type": "Feature",
   "geometry": {
    "type": "Point",
    "coordinates": [
     152.08780258,
     -26.78458738
    ]
   },
   "properties": {
    "name": "LOT 224 OLD ESK ROAD TEELAH 4314",
    "locID": "LOC100078024379",
    "tech": "WIRELESS",
    "upgrade": "NULL_NA",
    "gnaf_pid": "GAQLD161263372",
    "tech_change_status": "Not Planned",
    "program_type": "Fixed Wireless and Satellite Upgrade Program",
    "target_eligibility_quarter": "NA"
   }
  },
  {
   "type": "Feature",
   "geometry": {
    "type": "Point",
    "coordinates": [
     152.09706504,
     -26.80247968
    ]
   },
   "properties": {
    "name": "LOT 225 OLD ESK ROAD TEELAH 4314",
    "locID": "LOC100078024379",
    "tech": "WIRELESS",
    "upgrade": "NULL_NA",
    "gnaf_pid": "GAQLD161263373",
    "tech_change_status": "Not Planned",
    "program_type": "Fixed Wireless and Satellite Upgrade Program",
    "target_eligibility_quarter": "NA"
   }
  },
  {
   "type": "Feature",
   "geometry": {
    "type": "Point",
    "coordinates": [
     152.089634,
     -26.78832301
    ]
   },
   "properties": {
    "name": "LOT 24 OLD ESK ROAD TEELAH 4314",
    "locID": "LOC100078024379",
    "tech": "WIRELESS",
    "upgrade": "NULL_NA",
    "gnaf_pid": "GAQLD161263374",
    "tech_change_status": "Not Planned",
    "program_type": "Fixed Wireless and Satellite Upgrade Program",
    "target_eligibility_quarter": "NA"
   }
  },
  {
   "type": "Feature",
   "geometry": {
    "type": "Point",
    "coordinates": [
     152.089634,
     -26.78832301
    ]
   },
   "properties": {
    "name": "LOT 25 OLD ESK ROAD TEELAH 4314",
    "locID": "LOC100078024379",
    "tech": "WIRELESS",
    "upgrade": "NULL_NA",
    "gnaf_pid": "GAQLD161263375",
    "tech_change_status": "Not Planned",
    "program_type": "Fixed Wireless and Satellite Upgrade Program",
    "target_eligibility_quarter": "NA"
   }
  },
  {
   "type": "Feature",
   "geometry": {
    "type": "Point",
    "coordinates": [
     152.089634,
     -26.78832301
    ]
   },
   "properties": {
    "name": "LOT 28 OLD ESK ROAD TEELAH 4314",
    "locID": "LOC100078024379",
    "tech": "WIRELESS",
    "upgrade": "NULL_NA",
    "gnaf_pid": "GAQLD161263376",
    "tech_change_status": "Not Planned",
    "program_type": "Fixed Wireless and Satellite Upgrade Program",
    "target_eligibility_quarter": "NA"
   }
  },
  {
   "type": "Feature",
   "geometry": {
    "type": "Point",
    "coordinates": [
     152.089634,
     -26.78832301
    ]
   },
   "properties": {
    "name": "LOT 29 OLD ESK ROAD TEELAH 4314",
    "locID": "LOC100078024379",
    "tech": "WIRELESS",
    "upgrade": "NULL_NA",
    "gnaf_pid": "GAQLD161263377",
    "tech_change_status": "Not Planned",
    "program_type": "Fixed Wireless and Satellite Upgrade Program",
    "target_eligibility_quarter": "NA"
   }
  },
  {
   "type": "Feature",
   "geometry": {
    "type": "Point",
    "coordinates": [
     152.07930171,
     -26.79012217
    ]
   },
   "properties": {
    "name": "LOT 2 OLD ESK ROAD TEELAH 4314",
    "locID": "LOC100078024379",
    "tech": "WIRELESS",
    "upgrade": "NULL_NA",
    "gnaf_pid": "GAQLD161263378",
    "tech_change_status": "Not Planned",
    "program_type": "Fixed Wireless and Satellite Upgrade Program",
    "target_eligibility_quarter": "NA"
   }
  },
  {
   "type": "Feature",
   "geometry": {
    "type": "Point",
    "coordinates": [
     152.089634,
     -26.78832301
    ]
   },
   "properties": {
    "name": "LOT 30 OLD ESK ROAD TEELAH 4314",
    "locID": "LOC100078024379",
    "tech": "WIRELESS",
    "upgrade": "NULL_NA",
    "gnaf_pid": "GAQLD161263379",
    "tech_change_status": "Not Planned",
    "program_type": "Fixed Wireless and Satellite Upgrade Program",
    "target_eligibility_quarter": "NA"
   }
  },
  {
   "type": "Feature",
   "geometry": {
    "type": "Point",
    "coordinates": [
     152.089634,
     -26.78832301
    ]
   },
   "properties": {
    "name": "LOT 31 OLD ESK ROAD TEELAH 4314",
    "locID": "LOC100078024379",
    "tech": "WIRELESS",
    "upgrade": "NULL_NA",
    "gnaf_pid": "GAQLD161263380",
    "tech_change_status": "Not Planned",
    "program_type": "Fixed Wireless and Satellite Upgrade Program",
    "target_eligibility_quarter": "NA"
   }
  },
  {
   "type": "Feature",
   "geometry": {
    "type": "Point",
    "coordinates": [
     152.089634,
     -26.78832301
    ]
   },
   "properties": {
    "name": "LOT 32 OLD ESK ROAD TEELAH 4314",
    "locID": "LOC100078024379",
    "tech": "WIRELESS",
    "upgrade": "NULL_NA",
    "gnaf_pid": "GAQLD161263381",
    "tech_change_status": "Not Planned",
    "program_type": "Fixed Wireless and Satellite Upgrade Program",
    "target_eligibility_quarter": "NA"
   }
  },
  {
   "type": "Feature",
   "geometry": {
    "type": "Point",
    "coordinates": [
     152.089634,
     -26.78832301
    ]
   },
   "properties": {
    "name": "LOT 35 OLD ESK ROAD TEELAH 4314",
    "locID": "LOC100078024379",
    "tech": "WIRELESS",
    "upgrade": "NULL_NA",
    "gnaf_pid": "GAQLD161263382",
    "tech_change_status": "Not Planned",
    "program_type": "Fixed Wireless and Satellite Upgrade Program",
    "target_eligibility_quarter": "NA"
   }
  },
  {
   "type": "Feature",
   "geometry": {
    "type": "Point",
    "coordinates": [
     152.089634,
     -26.78832301
    ]
   },
   "properties": {
    "name": "LOT 37 OLD ESK ROAD TEELAH 4314",
    "locID": "LOC100078024379",
    "tech": "WIRELESS",
    "upgrade": "NULL_NA",
    "gnaf_pid": "GAQLD161263383",
    "tech_change_status": "Not Planned",
    "program_type": "Fixed Wireless and Satellite Upgrade Program",
    "target_eligibility_quarter": "NA"
   }
  },
  {
   "type": "Feature",
   "geometry": {
    "type": "Point",
    "coordinates": [
     152.089634,
     -26.78832301
    ]
   },
   "properties": {
    "name": "LOT 38 OLD ESK ROAD TEELAH 4314",
    "locID": "LOC100078024379",
    "tech": "WIRELESS",
    "upgrade": "NULL_NA",
    "gnaf_pid": "GAQLD161263384",
    "tech_change_status": "Not Planned",
    "program_type": "Fixed Wireless and Satellite Upgrade Program",
    "target_eligibility_quarter": "NA"
   }
  },
  {
   "type": "Feature",
   "geometry": {
    "type": "Point",
    "coordinates": [
     152.0810646,
     -26.75576905
    ]
   },
   "properties": {
    "name": "LOT 3 OLD ESK ROAD TEELAH 4314",
    "locID": "LOC000022584487",
    "tech": "WIRELESS",
    "upgrade": "NULL_NA",
    "gnaf_pid": "GAQLD161263385",
    "tech_change_status": "Not Planned",
    "program_type": "Fixed Wireless and Satellite Upgrade Program",
    "target_eligibility_quarter": "NA"
   }
  },
  {
   "type": "Feature",
   "geometry": {
    "type": "Point",
    "coordinates": [
     152.089634,
     -26.78832301
    ]
   },
   "properties": {
    "name": "LOT 5 OLD ESK ROAD TEELAH 4314",
    "locID": "LOC100078024379",
    "tech": "WIRELESS",
    "upgrade": "NULL_NA",
    "gnaf_pid": "GAQLD161263387",
    "tech_change_status": "Not Planned",
    "program_type": "Fixed Wireless and Satellite Upgrade Program",
    "target_eligibility_quarter": "NA"
   }
  },
  {
   "type": "Feature",
   "geometry": {
    "type": "Point",
    "coordinates": [
     152.089634,
     -26.78832301
    ]
   },
   "properties": {
    "name": "LOT 67 OLD ESK ROAD TEELAH 4314",
    "locID": "LOC100078024379",
    "tech": "WIRELESS",
    "upgrade": "NULL_NA",
    "gnaf_pid": "GAQLD161263388",
    "tech_change_status": "Not Planned",
    "program_type": "Fixed Wireless and Satellite Upgrade Program",
    "target_eligibility_quarter": "NA"
   }
  },
  {
   "type": "Feature",
   "geometry": {
    "type": "Point",
    "coordinates": [
     152.089634,
     -26.78832301
    ]
   },
   "properties": {
    "name": "LOT 68 OLD ESK ROAD TEELAH 4314",
    "locID": "LOC100078024379",
    "tech": "WIRELESS",
    "upgrade": "NULL_NA",
    "gnaf_pid": "GAQLD161263389",
    "tech_change_status": "Not Planned",
    "program_type": "Fixed Wireless and Satellite Upgrade Program",
    "target_eligibility_quarter": "NA"
   }
  },
  {
   "type": "Feature",
   "geometry": {
    "type": "Point",
    "coordinates": [
     152.089634,
     -26.78832301
    ]
   },
   "properties": {
    "name": "LOT 69 OLD ESK ROAD TEELAH 4314",
    "locID": "LOC100078024379",
    "tech": "WIRELESS",
    "upgrade": "NULL_NA",
    "gnaf_pid": "GAQLD161263390",
    "tech_change_status": "Not Planned",
    "program_type": "Fixed Wireless and Satellite Upgrade Program",
    "target_eligibility_quarter": "NA"
   }
  },
  {
   "type": "Feature",
   "geometry": {
    "type": "Point",
    "coordinates": [
     152.089634,
     -26.78832301
    ]
   },
   "properties": {
    "name": "LOT 70 OLD ESK ROAD TEELAH 4314",
    "locID": "LOC100078024379",
    "tech": "WIRELESS",
    "upgrade": "NULL_NA",
    "gnaf_pid": "GAQLD161263391",
    "tech_change_status": "Not Planned",
    "program_type": "Fixed Wireless and Satellite Upgrade Program",
    "target_eligibility_quarter": "NA"
   }
  },
  {
   "type": "Feature",
   "geometry": {
    "type": "Point",
    "coordinates": [
     152.089634,
     -26.78832301
    ]
   },
   "properties": {
    "name": "LOT 72 OLD ESK ROAD TEELAH 4314",
    "locID": "LOC000088691611",
    "tech": "NULL",
    "upgrade": "NULL_NA",
    "gnaf_pid": "GAQLD161263393",
    "tech_change_status": "Not Planned"
   }
  },
  {
   "type": "Feature",
   "geometry": {
    "type": "Point",
    "coordinates": [
     152.089634,
     -26.78832301
    ]
   },
   "properties": {
    "name": "LOT 73 OLD ESK ROAD TEELAH 4314",
    "locID": "LOC100078024379",
    "tech": "WIRELESS",
    "upgrade": "NULL_NA",
    "gnaf_pid": "GAQLD161263394",
    "tech_change_status": "Not Planned",
    "program_type": "Fixed Wireless and Satellite Upgrade Program",
    "target_eligibility_quarter": "NA"
   }
  },
  {
   "type": "Feature",
   "geometry": {
    "type": "Point",
    "coordinates": [
     152.089634,
     -26.78832301
    ]
   },
   "properties": {
    "name": "LOT 76 OLD ESK ROAD TEELAH 4314",
    "locID": "LOC100078024379",
    "tech": "WIRELESS",
    "upgrade": "NULL_NA",
    "gnaf_pid": "GAQLD161263395",
    "tech_change_status": "Not Planned",
    "program_type": "Fixed Wireless and Satellite Upgrade Program",
    "target_eligibility_quarter": "NA"
   }
  },
  {
   "type": "Feature",
   "geometry": {
    "type": "Point",
    "coordinates": [
     152.089634,
     -26.78832301
    ]
   },
   "properties": {
    "name": "LOT 77 OLD ESK ROAD TEELAH 4314",
    "locID": "LOC100078024379",
    "tech": "WIRELESS",
    "upgrade": "NULL_NA",
    "gnaf_pid": "GAQLD161263396",
    "tech_change_status": "Not Planned",
    "program_type": "Fixed Wireless and Satellite Upgrade Program",
    "target_eligibility_quarter": "NA"
   }
  },
  {
   "type": "Feature",
   "geometry": {
    "type": "Point",
    "coordinates": [
     152.089634,
     -26.78832301
    ]
   },
   "properties": {
    "name": "LOT 7 OLD ESK ROAD TEELAH 4314",
    "locID": "LOC000088691611",
    "tech": "NULL",
    "upgrade": "NULL_NA",
    "gnaf_pid": "GAQLD161263397",
    "tech_change_status": "Not Planned"
   }
  },
  {
   "type": "Feature",
   "geometry": {
    "type": "Point",
    "coordinates": [
     152.089634,
     -26.78832301
    ]
   },
   "properties": {
    "name": "LOT 80 OLD ESK ROAD TEELAH 4314",
    "locID": "LOC100078024379",
    "tech": "WIRELESS",
    "upgrade": "NULL_NA",
    "gnaf_pid": "GAQLD161263398",
    "tech_change_status": "Not Planned",
    "program_type": "Fixed Wireless and Satellite Upgrade Program",
    "target_eligibility_quarter": "NA"
   }
  },
  {
   "type": "Feature",
   "geometry": {
    "type": "Point",
    "coordinates": [
     152.089634,
     -26.78832301
    ]
   },
   "properties": {
    "name": "LOT 81 OLD ESK ROAD TEELAH 4314",
    "locID": "LOC100078024379",
    "tech": "WIRELESS",
    "upgrade": "NULL_NA",
    "gnaf_pid": "GAQLD161263399",
    "tech_change_status": "Not Planned",
    "program_type": "Fixed Wireless and Satellite Upgrade Program",
    "target_eligibility_quarter": "NA"
   }
  },
  {
   "type": "Feature",
   "geometry": {
    "type": "Point",
    "coordinates": [
     152.089634,
     -26.78832301
    ]
   },
   "properties": {
    "name": "LOT 82 OLD ESK ROAD TEELAH 4314",
    "locID": "LOC100078024379",
    "tech": "WIRELESS",
    "upgrade": "NULL_NA",
    "gnaf_pid": "GAQLD161263400",
    "tech_change_status": "Not Planned",
    "program_type": "Fixed Wireless and Satellite Upgrade Program",
    "target_eligibility_quarter": "NA"
   }
  },
  {
   "type": "Feature",
   "geometry": {
    "type": "Point",
    "coordinates": [
     152.089634,
     -26.78832301
    ]
   },
   "properties": {
    "name": "LOT 83 OLD ESK ROAD TEELAH 4314",
    "locID": "LOC100078024379",
    "tech": "WIRELESS",
    "upgrade": "NULL_NA",
    "gnaf_pid": "GAQLD161263401",
    "tech_change_status": "Not Planned",
    "program_type": "Fixed Wireless and Satellite Upgrade Program",
    "target_eligibility_quarter": "NA"
   }
  },
  {
   "type": "Feature",
   "geometry": {
    "type": "Point",
    "coordinates": [
     152.089634,
     -26.78832301
    ]
   },
   "properties": {
    "name": "LOT 84 OLD ESK ROAD TEELAH 4314",
    "locID": "LOC100078024379",
    "tech": "WIRELESS",
    "upgrade": "NULL_NA",
    "gnaf_pid": "GAQLD161263402",
    "tech_change_status": "Not Planned",
    "program_type": "Fixed Wireless and Satellite Upgrade Program",
    "target_eligibility_quarter": "NA"
   }
  },
  {
   "type": "Feature",
   "geometry": {
    "type": "Point",
    "coordinates": [
     152.089634,
     -26.78832301
    ]
   },
   "properties": {
    "name": "LOT 86 OLD ESK ROAD TEELAH 4314",
    "locID": "LOC100078024379",
    "tech": "WIRELESS",
    "upgrade": "NULL_NA",
    "gnaf_pid": "GAQLD161263403",
    "tech_change_status": "Not Planned",
    "program_type": "Fixed Wireless and Satellite Upgrade Program",
    "target_eligibility_quarter": "NA"
   }
  },
  {
   "type": "Feature",
   "geometry": {
    "type": "Point",
    "coordinates": [
     152.089634,
     -26.78832301
    ]
   },
   "properties": {
    "name": "LOT 87 OLD ESK ROAD TEELAH 4314",
    "locID": "LOC100078024379",
    "tech": "WIRELESS",
    "upgrade": "NULL_NA",
    "gnaf_pid": "GAQLD161263404",
    "tech_change_status": "Not Planned",
    "program_type": "Fixed Wireless and Satellite Upgrade Program",
    "target_eligibility_quarter": "NA"
   }
  },
  {
   "type": "Feature",
   "geometry": {
    "type": "Point",
    "coordinates": [
     152.09873674,
     -26.73829839
    ]
   },
   "properties": {
    "name": "LOT 8 OLD ESK ROAD TEELAH 4314",
    "locID": "LOC100078024379",
    "tech": "WIRELESS",
    "upgrade": "NULL_NA",
    "gnaf_pid": "GAQLD161263405",
    "tech_change_status": "Not Planned",
    "program_type": "Fixed Wireless and Satellite Upgrade Program",
    "target_eligibility_quarter": "NA"
   }
  },
  {
   "type": "Feature",
   "geometry": {
    "type": "Point",
    "coordinates": [
     152.089634,
     -26.78832301
    ]
   },
   "properties": {
    "name": "LOT 91 OLD ESK ROAD TEELAH 4314",
    "locID": "LOC100078024379",
    "tech": "WIRELESS",
    "upgrade": "NULL_NA",
    "gnaf_pid": "GAQLD161263406",
    "tech_change_status": "Not Planned",
    "program_type": "Fixed Wireless and Satellite Upgrade Program",
    "target_eligibility_quarter": "NA"
   }
  },
  {
   "type": "Feature",
   "geometry": {
    "type": "Point",
    "coordinates": [
     152.08072639,
     -26.80020721
    ]
   },
   "properties": {
    "name": "LOT 12 STRETTON DRIVE TEELAH 4314",
    "locID": "LOC000096679522",
    "tech": "WIRELESS",
    "upgrade": "NULL_NA",
    "gnaf_pid": "GAQLD161319485",
    "tech_change_status": "Eligible to Order",
    "program_type": "Fixed Wireless and Satellite Upgrade Program",
    "target_eligibility_quarter": "NA"
   }
  },
  {
   "type": "Feature",
   "geometry": {
    "type": "Point",
    "coordinates": [
     152.08266244,
     -26.79828191
    ]
   },
   "properties": {
    "name": "LOT 13 STRETTON DRIVE TEELAH 4314",
    "locID": "LOC000073627286",
    "tech": "WIRELESS",
    "upgrade": "NULL_NA",
    "gnaf_pid": "GAQLD161319486",
    "tech_change_status": "Not Planned",
    "program_type": "Fixed Wireless and Satellite Upgrade Program",
    "target_eligibility_quarter": "NA"
   }
  },
  {
   "type": "Feature",
   "geometry": {
    "type": "Point",
    "coordinates": [
     152.08266244,
     -26.79828191
    ]
   },
   "properties": {
    "name": "LOT 14 STRETTON DRIVE TEELAH 4314",
    "locID": "LOC000012561261",
    "tech": "WIRELESS",
    "upgrade": "NULL_NA",
    "gnaf_pid": "GAQLD161319487",
    "tech_change_status": "Not Planned",
    "program_type": "Fixed Wireless and Satellite Upgrade Program",
    "target_eligibility_quarter": "NA"
   }
  },
  {
   "type": "Feature",
   "geometry": {
    "type": "Point",
    "coordinates": [
     152.07645727,
     -26.80290563
    ]
   },
   "properties": {
    "name": "LOT 16 STRETTON DRIVE TEELAH 4314",
    "locID": "LOC000048761512",
    "tech": "WIRELESS",
    "upgrade": "NULL_NA",
    "gnaf_pid": "GAQLD161319489",
    "tech_change_status": "Not Planned",
    "program_type": "Fixed Wireless and Satellite Upgrade Program",
    "target_eligibility_quarter": "NA"
   }
  },
  {
   "type": "Feature",
   "geometry": {
    "type": "Point",
    "coordinates": [
     152.08266244,
     -26.79828191
    ]
   },
   "properties": {
    "name": "LOT 18 STRETTON DRIVE TEELAH 4314",
    "locID": "LOC000095262334",
    "tech": "SATELLITE",
    "upgrade": "NULL_NA",
    "gnaf_pid": "GAQLD161319491",
    "tech_change_status": "Not Planned"
   }
  },
  {
   "type": "Feature",
   "geometry": {
    "type": "Point",
    "coordinates": [
     152.08266244,
     -26.79828191
    ]
   },
   "properties": {
    "name": "LOT 1 STRETTON DRIVE TEELAH 4314",
    "locID": "LOC000030844455",
    "tech": "WIRELESS",
    "upgrade": "NULL_NA",
    "gnaf_pid": "GAQLD161319493",
    "tech_change_status": "Not Planned",
    "program_type": "Fixed Wireless and Satellite Upgrade Program",
    "target_eligibility_quarter": "NA"
   }
  },
  {
   "type": "Feature",
   "geometry": {
    "type": "Point",
    "coordinates": [
     152.07340265,
     -26.80030034
    ]
   },
   "properties": {
    "name": "LOT 22 STRETTON DRIVE TEELAH 4314",
    "locID": "LOC000003426316",
    "tech": "WIRELESS",
    "upgrade": "NULL_NA",
    "gnaf_pid": "GAQLD161319495",
    "tech_change_status": "Not Planned",
    "program_type": "Fixed Wireless and Satellite Upgrade Program",
    "target_eligibility_quarter": "NA"
   }
  },
  {
   "type": "Feature",
   "geometry": {
    "type": "Point",
    "coordinates": [
     152.06811864,
     -26.80084746
    ]
   },
   "properties": {
    "name": "LOT 28 STRETTON DRIVE TEELAH 4314",
    "locID": "LOC000088717376",
    "tech": "SATELLITE",
    "upgrade": "WIRELESS",
    "gnaf_pid": "GAQLD161319500",
    "tech_change_status": "Eligible to Order",
    "program_type": "Fixed Wireless and Satellite Upgrade Program",
    "target_eligibility_quarter": "NA"
   }
  },
  {
   "type": "Feature",
   "geometry": {
    "type": "Point",
    "coordinates": [
     152.08266244,
     -26.79828191
    ]
   },
   "properties": {
    "name": "LOT 34 STRETTON DRIVE TEELAH 4314",
    "locID": "LOC000054368429",
    "tech": "WIRELESS",
    "upgrade": "NULL_NA",
    "gnaf_pid": "GAQLD161319503",
    "tech_change_status": "Not Planned",
    "program_type": "Fixed Wireless and Satellite Upgrade Program",
    "target_eligibility_quarter": "NA"
   }
  },
  {
   "type": "Feature",
   "geometry": {
    "type": "Point",
    "coordinates": [
     152.08266244,
     -26.79828191
    ]
   },
   "properties": {
    "name": "LOT 36 STRETTON DRIVE TEELAH 4314",
    "locID": "LOC000050126266",
    "tech": "WIRELESS",
    "upgrade": "NULL_NA",
    "gnaf_pid": "GAQLD161319504",
    "tech_change_status": "Not Planned",
    "program_type": "Fixed Wireless and Satellite Upgrade Program",
    "target_eligibility_quarter": "NA"
   }
  },
  {
   "type": "Feature",
   "geometry": {
    "type": "Point",
    "coordinates": [
     152.08266244,
     -26.79828191
    ]
   },
   "properties": {
    "name": "LOT 3 STRETTON DRIVE TEELAH 4314",
    "locID": "LOC000008400780",
    "tech": "WIRELESS",
    "upgrade": "NULL_NA",
    "gnaf_pid": "GAQLD161319505",
    "tech_change_status": "Not Planned",
    "program_type": "Fixed Wireless and Satellite Upgrade Program",
    "target_eligibility_quarter": "NA"
   }
  },
  {
   "type": "Feature",
   "geometry": {
    "type": "Point",
    "coordinates": [
     152.08266244,
     -26.79828191
    ]
   },
   "properties": {
    "name": "LOT 4 STRETTON DRIVE TEELAH 4314",
    "locID": "LOC000083319500",
    "tech": "WIRELESS",
    "upgrade": "NULL_NA",
    "gnaf_pid": "GAQLD161319507",
    "tech_change_status": "Not Planned",
    "program_type": "Fixed Wireless and Satellite Upgrade Program",
    "target_eligibility_quarter": "NA"
   }
  },
  {
   "type": "Feature",
   "geometry": {
    "type": "Point",
    "coordinates": [
     152.08582146,
     -26.79843014
    ]
   },
   "properties": {
    "name": "LOT 5 STRETTON DRIVE TEELAH 4314",
    "locID": "LOC000103097256",
    "tech": "WIRELESS",
    "upgrade": "NULL_NA",
    "gnaf_pid": "GAQLD161319508",
    "tech_change_status": "Not Planned",
    "program_type": "Fixed Wireless and Satellite Upgrade Program",
    "target_eligibility_quarter": "NA"
   }
  },
  {
   "type": "Feature",
   "geometry": {
    "type": "Point",
    "coordinates": [
     152.08266244,
     -26.79828191
    ]
   },
   "properties": {
    "name": "LOT 74 STRETTON DRIVE TEELAH 4314",
    "locID": "LOC000088869951",
    "tech": "WIRELESS",
    "upgrade": "NULL_NA",
    "gnaf_pid": "GAQLD161319510",
    "tech_change_status": "Not Planned",
    "program_type": "Fixed Wireless and Satellite Upgrade Program",
    "target_eligibility_quarter": "NA"
   }
  },
  {
   "type": "Feature",
   "geometry": {
    "type": "Point",
    "coordinates": [
     152.08266244,
     -26.79828191
    ]
   },
   "properties": {
    "name": "LOT 88 STRETTON DRIVE TEELAH 4314",
    "locID": "LOC000096679522",
    "tech": "WIRELESS",
    "upgrade": "NULL_NA",
    "gnaf_pid": "GAQLD161319515",
    "tech_change_status": "Eligible to Order",
    "program_type": "Fixed Wireless and Satellite Upgrade Program",
    "target_eligibility_quarter": "NA"
   }
  },
  {
   "type": "Feature",
   "geometry": {
    "type": "Point",
    "coordinates": [
     152.08266244,
     -26.79828191
    ]
   },
   "properties": {
    "name": "LOT 89 STRETTON DRIVE TEELAH 4314",
    "locID": "LOC000004492645",
    "tech": "WIRELESS",
    "upgrade": "NULL_NA",
    "gnaf_pid": "GAQLD161319516",
    "tech_change_status": "Not Planned",
    "program_type": "Fixed Wireless and Satellite Upgrade Program",
    "target_eligibility_quarter": "NA"
   }
  },
  {
   "type": "Feature",
   "geometry": {
    "type": "Point",
    "coordinates": [
     152.08266244,
     -26.79828191
    ]
   },
   "properties": {
    "name": "LOT 8 STRETTON DRIVE TEELAH 4314",
    "locID": "LOC000034336309",
    "tech": "WIRELESS",
    "upgrade": "NULL_NA",
    "gnaf_pid": "GAQLD161319517",
    "tech_change_status": "Not Planned",
    "program_type": "Fixed Wireless and Satellite Upgrade Program",
    "target_eligibility_quarter": "NA"
   }
  },
  {
   "type": "Feature",
   "geometry": {
    "type": "Point",
    "coordinates": [
     152.08266244,
     -26.79828191
    ]
   },
   "properties": {
    "name": "LOT 92 STRETTON DRIVE TEELAH 4314",
    "locID": "LOC000081322740",
    "tech": "WIRELESS",
    "upgrade": "NULL_NA",
    "gnaf_pid": "GAQLD161319519",
    "tech_change_status": "Not Planned",
    "program_type": "Fixed Wireless and Satellite Upgrade Program",
    "target_eligibility_quarter": "NA"
   }
  },
  {
   "type": "Feature",
   "geometry": {
    "type": "Point",
    "coordinates": [
     152.08288526,
     -26.80002953
    ]
   },
   "properties": {
    "name": "LOT 9 STRETTON DRIVE TEELAH 4314",
    "locID": "LOC000081322740",
    "tech": "WIRELESS",
    "upgrade": "NULL_NA",
    "gnaf_pid": "GAQLD161319521",
    "tech_change_status": "Not Planned",
    "program_type": "Fixed Wireless and Satellite Upgrade Program",
    "target_eligibility_quarter": "NA"
   }
  },
  {
   "type": "Feature",
   "geometry": {
    "type": "Point",
    "coordinates": [
     152.09734092,
     -26.80567322
    ]
   },
   "properties": {
    "name": "1305 OLD ESK ROAD TEELAH 4314",
    "locID": "LOC100078024379",
    "tech": "WIRELESS",
    "upgrade": "NULL_NA",
    "gnaf_pid": "GAQLD161370395",
    "tech_change_status": "Not Planned",
    "program_type": "Fixed Wireless and Satellite Upgrade Program",
    "target_eligibility_quarter": "NA"
   }
  },
  {
   "type": "Feature",
   "geometry": {
    "type": "Point",
    "coordinates": [
     152.10374107,
     -26.80480973
    ]
   },
   "properties": {
    "name": "1314 OLD ESK ROAD TEELAH 4314",
    "locID": "LOC000092010845",
    "tech": "SATELLITE",
    "upgrade": "NULL_NA",
    "gnaf_pid": "GAQLD161370396",
    "tech_change_status": "Not Planned"
   }
  },
  {
   "type": "Feature",
   "geometry": {
    "type": "Point",
    "coordinates": [
     152.08371602,
     -26.79974737
    ]
   },
   "properties": {
    "name": "141 STRETTON DRIVE TEELAH 4314",
    "locID": "LOC000034336309",
    "tech": "WIRELESS",
    "upgrade": "NULL_NA",
    "gnaf_pid": "GAQLD161478729",
    "tech_change_status": "Not Planned",
    "program_type": "Fixed Wireless and Satellite Upgrade Program",
    "target_eligibility_quarter": "NA"
   }
  },
  {
   "type": "Feature",
   "geometry": {
    "type": "Point",
    "coordinates": [
     152.08885397,
     -26.79618335
    ]
   },
   "properties": {
    "name": "75 STRETTON DRIVE TEELAH 4314",
    "locID": "LOC000088717376",
    "tech": "SATELLITE",
    "upgrade": "WIRELESS",
    "gnaf_pid": "GAQLD161478730",
    "tech_change_status": "Eligible to Order",
    "program_type": "Fixed Wireless and Satellite Upgrade Program",
    "target_eligibility_quarter": "NA"
   }
  },
  {
   "type": "Feature",
   "geometry": {
    "type": "Point",
    "coordinates": [
     152.0880755,
     -26.79645933
    ]
   },
   "properties": {
    "name": "81 STRETTON DRIVE TEELAH 4314",
    "locID": "LOC000030844455",
    "tech": "WIRELESS",
    "upgrade": "NULL_NA",
    "gnaf_pid": "GAQLD161478731",
    "tech_change_status": "Not Planned",
    "program_type": "Fixed Wireless and Satellite Upgrade Program",
    "target_eligibility_quarter": "NA"
   }
  },
  {
   "type": "Feature",
   "geometry": {
    "type": "Point",
    "coordinates": [
     152.10728796,
     -26.7994361
    ]
   },
   "properties": {
    "name": "1334 OLD ESK ROAD TEELAH 4314",
    "locID": "LOC000088691611",
    "tech": "NULL",
    "upgrade": "NULL_NA",
    "gnaf_pid": "GAQLD161664989",
    "tech_change_status": "Not Planned"
   }
  },
  {
   "type": "Feature",
   "geometry": {
    "type": "Point",
    "coordinates": [
     152.11465304,
     -26.78374264
    ]
   },
   "properties": {
    "name": "1460 OLD ESK ROAD TEELAH 4314",
    "locID": "LOC000187519982",
    "tech": "WIRELESS",
    "upgrade": "NULL_NA",
    "gnaf_pid": "GAQLD161664990",
    "tech_change_status": "Not Planned",
    "program_type": "Fixed Wireless and Satellite Upgrade Program",
    "target_eligibility_quarter": "NA"
   }
  },
  {
   "type": "Feature",
   "geometry": {
    "type": "Point",
    "coordinates": [
     152.09341382,
     -26.78563193
    ]
   },
   "properties": {
    "name": "1544 OLD ESK ROAD TEELAH 4314",
    "locID": "LOC000018368645",
    "tech": "WIRELESS",
    "upgrade": "NULL_NA",
    "gnaf_pid": "GAQLD161664991",
    "tech_change_status": "Not Planned",
    "program_type": "Fixed Wireless and Satellite Upgrade Program",
    "target_eligibility_quarter": "NA"
   }
  },
  {
   "type": "Feature",
   "geometry": {
    "type": "Point",
    "coordinates": [
     152.07900828,
     -26.80021796
    ]
   },
   "properties": {
    "name": "173 STRETTON DRIVE TEELAH 4314",
    "locID": "LOC000012561261",
    "tech": "WIRELESS",
    "upgrade": "NULL_NA",
    "gnaf_pid": "GAQLD161668642",
    "tech_change_status": "Not Planned",
    "program_type": "Fixed Wireless and Satellite Upgrade Program",
    "target_eligibility_quarter": "NA"
   }
  },
  {
   "type": "Feature",
   "geometry": {
    "type": "Point",
    "coordinates": [
     152.07989166,
     -26.80022369
    ]
   },
   "properties": {
    "name": "169 STRETTON DRIVE TEELAH 4314",
    "locID": "LOC000073627286",
    "tech": "WIRELESS",
    "upgrade": "NULL_NA",
    "gnaf_pid": "GAQLD161798614",
    "tech_change_status": "Not Planned",
    "program_type": "Fixed Wireless and Satellite Upgrade Program",
    "target_eligibility_quarter": "NA"
   }
  },
  {
   "type": "Feature",
   "geometry": {
    "type": "Point",
    "coordinates": [
     152.09176152,
     -26.79136202
    ]
   },
   "properties": {
    "name": "22 STRETTON DRIVE TEELAH 4314",
    "locID": "LOC000003426316",
    "tech": "WIRELESS",
    "upgrade": "NULL_NA",
    "gnaf_pid": "GAQLD161798615",
    "tech_change_status": "Not Planned",
    "program_type": "Fixed Wireless and Satellite Upgrade Program",
    "target_eligibility_quarter": "NA"
   }
  },
  {
   "type": "Feature",
   "geometry": {
    "type": "Point",
    "coordinates": [
     152.06980364,
     -26.80023374
    ]
   },
   "properties": {
    "name": "330 STRETTON DRIVE TEELAH 4314",
    "locID": "LOC000054184031",
    "tech": "SATELLITE",
    "upgrade": "WIRELESS",
    "gnaf_pid": "GAQLD161798616",
    "tech_change_status": "Eligible to Order",
    "program_type": "Fixed Wireless and Satellite Upgrade Program",
    "target_eligibility_quarter": "NA"
   }
  },
  {
   "type": "Feature",
   "geometry": {
    "type": "Point",
    "coordinates": [
     152.07302801,
     -26.7962252
    ]
   },
   "properties": {
    "name": "378 STRETTON DRIVE TEELAH 4314",
    "locID": "LOC000086043603",
    "tech": "WIRELESS",
    "upgrade": "NULL_NA",
    "gnaf_pid": "GAQLD161798617",
    "tech_change_status": "Not Planned",
    "program_type": "Fixed Wireless and Satellite Upgrade Program",
    "target_eligibility_quarter": "NA"
   }
  },
  {
   "type": "Feature",
   "geometry": {
    "type": "Point",
    "coordinates": [
     152.09722077,
     -26.80479246
    ]
   },
   "properties": {
    "name": "1309 OLD ESK ROAD TEELAH 4314",
    "locID": "LOC000022584487",
    "tech": "WIRELESS",
    "upgrade": "NULL_NA",
    "gnaf_pid": "GAQLD161962562",
    "tech_change_status": "Not Planned",
    "program_type": "Fixed Wireless and Satellite Upgrade Program",
    "target_eligibility_quarter": "NA"
   }
  },
  {
   "type": "Feature",
   "geometry": {
    "type": "Point",
    "coordinates": [
     152.11721433,
     -26.79960272
    ]
   },
   "properties": {
    "name": "95 PAMELA DRIVE TEELAH 4314",
    "locID": "LOC000087535132",
    "tech": "NULL",
    "upgrade": "NULL_NA",
    "gnaf_pid": "GAQLD161963143",
    "tech_change_status": "Not Planned"
   }
  },
  {
   "type": "Feature",
   "geometry": {
    "type": "Point",
    "coordinates": [
     152.12087224,
     -26.80251714
    ]
   },
   "properties": {
    "name": "99 PAMELA DRIVE TEELAH 4314",
    "locID": "LOC000083813030",
    "tech": "SATELLITE",
    "upgrade": "NULL_NA",
    "gnaf_pid": "GAQLD161963144",
    "tech_change_status": "Not Planned"
   }
  },
  {
   "type": "Feature",
   "geometry": {
    "type": "Point",
    "coordinates": [
     152.08667398,
     -26.7971431
    ]
   },
   "properties": {
    "name": "107 STRETTON DRIVE TEELAH 4314",
    "locID": "LOC000008400780",
    "tech": "WIRELESS",
    "upgrade": "NULL_NA",
    "gnaf_pid": "GAQLD161966959",
    "tech_change_status": "Not Planned",
    "program_type": "Fixed Wireless and Satellite Upgrade Program",
    "target_eligibility_quarter": "NA"
   }
  },
  {
   "type": "Feature",
   "geometry": {
    "type": "Point",
    "coordinates": [
     152.08617507,
     -26.79771358
    ]
   },
   "properties": {
    "name": "117 STRETTON DRIVE TEELAH 4314",
    "locID": "LOC000083319500",
    "tech": "WIRELESS",
    "upgrade": "NULL_NA",
    "gnaf_pid": "GAQLD161966960",
    "tech_change_status": "Not Planned",
    "program_type": "Fixed Wireless and Satellite Upgrade Program",
    "target_eligibility_quarter": "NA"
   }
  },
  {
   "type": "Feature",
   "geometry": {
    "type": "Point",
    "coordinates": [
     152.08339448,
     -26.79647018
    ]
   },
   "properties": {
    "name": "124 STRETTON DRIVE TEELAH 4314",
    "locID": "LOC000096679522",
    "tech": "WIRELESS",
    "upgrade": "NULL_NA",
    "gnaf_pid": "GAQLD161966961",
    "tech_change_status": "Eligible to Order",
    "program_type": "Fixed Wireless and Satellite Upgrade Program",
    "target_eligibility_quarter": "NA"
   }
  },
  {
   "type": "Feature",
   "geometry": {
    "type": "Point",
    "coordinates": [
     152.08119097,
     -26.79670509
    ]
   },
   "properties": {
    "name": "162 STRETTON DRIVE TEELAH 4314",
    "locID": "LOC000048761512",
    "tech": "WIRELESS",
    "upgrade": "NULL_NA",
    "gnaf_pid": "GAQLD161966962",
    "tech_change_status": "Not Planned",
    "program_type": "Fixed Wireless and Satellite Upgrade Program",
    "target_eligibility_quarter": "NA"
   }
  },
  {
   "type": "Feature",
   "geometry": {
    "type": "Point",
    "coordinates": [
     152.07882921,
     -26.79632143
    ]
   },
   "properties": {
    "name": "188 STRETTON DRIVE TEELAH 4314",
    "locID": "LOC000061970635",
    "tech": "WIRELESS",
    "upgrade": "NULL_NA",
    "gnaf_pid": "GAQLD161966963",
    "tech_change_status": "Not Planned",
    "program_type": "Fixed Wireless and Satellite Upgrade Program",
    "target_eligibility_quarter": "NA"
   }
  },
  {
   "type": "Feature",
   "geometry": {
    "type": "Point",
    "coordinates": [
     152.07807016,
     -26.79603718
    ]
   },
   "properties": {
    "name": "196 STRETTON DRIVE TEELAH 4314",
    "locID": "LOC000047809875",
    "tech": "SATELLITE",
    "upgrade": "NULL_NA",
    "gnaf_pid": "GAQLD161966964",
    "tech_change_status": "Not Planned"
   }
  },
  {
   "type": "Feature",
   "geometry": {
    "type": "Point",
    "coordinates": [
     152.0940006,
     -26.79351525
    ]
   },
   "properties": {
    "name": "19 STRETTON DRIVE TEELAH 4314",
    "locID": "LOC100078024305",
    "tech": "WIRELESS",
    "upgrade": "NULL_NA",
    "gnaf_pid": "GAQLD161966965",
    "tech_change_status": "Not Planned",
    "program_type": "Fixed Wireless and Satellite Upgrade Program",
    "target_eligibility_quarter": "NA"
   }
  },
  {
   "type": "Feature",
   "geometry": {
    "type": "Point",
    "coordinates": [
     152.07143135,
     -26.79776624
    ]
   },
   "properties": {
    "name": "354 STRETTON DRIVE TEELAH 4314",
    "locID": "LOC000088869951",
    "tech": "WIRELESS",
    "upgrade": "NULL_NA",
    "gnaf_pid": "GAQLD161966968",
    "tech_change_status": "Not Planned",
    "program_type": "Fixed Wireless and Satellite Upgrade Program",
    "target_eligibility_quarter": "NA"
   }
  },
  {
   "type": "Feature",
   "geometry": {
    "type": "Point",
    "coordinates": [
     152.07073839,
     -26.79448672
    ]
   },
   "properties": {
    "name": "379 STRETTON DRIVE TEELAH 4314",
    "locID": "LOC000064370972",
    "tech": "WIRELESS",
    "upgrade": "NULL_NA",
    "gnaf_pid": "GAQLD161966969",
    "tech_change_status": "Not Planned",
    "program_type": "Fixed Wireless and Satellite Upgrade Program",
    "target_eligibility_quarter": "NA"
   }
  },
  {
   "type": "Feature",
   "geometry": {
    "type": "Point",
    "coordinates": [
     152.07484057,
     -26.79464257
    ]
   },
   "properties": {
    "name": "400 STRETTON DRIVE TEELAH 4314",
    "locID": "LOC100078024295",
    "tech": "WIRELESS",
    "upgrade": "NULL_NA",
    "gnaf_pid": "GAQLD161966970",
    "tech_change_status": "Not Planned",
    "program_type": "Fixed Wireless and Satellite Upgrade Program",
    "target_eligibility_quarter": "NA"
   }
  },
  {
   "type": "Feature",
   "geometry": {
    "type": "Point",
    "coordinates": [
     152.07477587,
     -26.79369441
    ]
   },
   "properties": {
    "name": "404 STRETTON DRIVE TEELAH 4314",
    "locID": "LOC000083525776",
    "tech": "WIRELESS",
    "upgrade": "NULL_NA",
    "gnaf_pid": "GAQLD161966971",
    "tech_change_status": "Not Planned",
    "program_type": "Fixed Wireless and Satellite Upgrade Program",
    "target_eligibility_quarter": "NA"
   }
  },
  {
   "type": "Feature",
   "geometry": {
    "type": "Point",
    "coordinates": [
     152.09148619,
     -26.79458284
    ]
   },
   "properties": {
    "name": "43 STRETTON DRIVE TEELAH 4314",
    "locID": "LOC000069627460",
    "tech": "WIRELESS",
    "upgrade": "NULL_NA",
    "gnaf_pid": "GAQLD161966972",
    "tech_change_status": "Not Planned",
    "program_type": "Fixed Wireless and Satellite Upgrade Program",
    "target_eligibility_quarter": "NA"
   }
  },
  {
   "type": "Feature",
   "geometry": {
    "type": "Point",
    "coordinates": [
     152.10654522,
     -26.80473468
    ]
   },
   "properties": {
    "name": "61 PAMELA DRIVE TEELAH 4314",
    "locID": "LOC000083221552",
    "tech": "SATELLITE",
    "upgrade": "NULL_NA",
    "gnaf_pid": "GAQLD162377234",
    "tech_change_status": "Not Planned"
   }
  },
  {
   "type": "Feature",
   "geometry": {
    "type": "Point",
    "coordinates": [
     152.0868997,
     -26.79021445
    ]
   },
   "properties": {
    "name": "56 STRETTON DRIVE TEELAH 4314",
    "locID": "LOC000103097256",
    "tech": "WIRELESS",
    "upgrade": "NULL_NA",
    "gnaf_pid": "GAQLD162378966",
    "tech_change_status": "Not Planned",
    "program_type": "Fixed Wireless and Satellite Upgrade Program",
    "target_eligibility_quarter": "NA"
   }
  },
  {
   "type": "Feature",
   "geometry": {
    "type": "Point",
    "coordinates": [
     152.07360831,
     -26.79569065
    ]
   },
   "properties": {
    "name": "386 STRETTON DRIVE TEELAH 4314",
    "locID": "LOC000083358195",
    "tech": "WIRELESS",
    "upgrade": "NULL_NA",
    "gnaf_pid": "GAQLD162459147",
    "tech_change_status": "Not Planned",
    "program_type": "Fixed Wireless and Satellite Upgrade Program",
    "target_eligibility_quarter": "NA"
   }
  },
  {
   "type": "Feature",
   "geometry": {
    "type": "Point",
    "coordinates": [
     152.08537485,
     -26.80296353
    ]
   },
   "properties": {
    "name": "149 STRETTON DRIVE TEELAH 4314",
    "locID": "LOC000005840283",
    "tech": "NULL",
    "upgrade": "NULL_NA",
    "gnaf_pid": "GAQLD162480948",
    "tech_change_status": "Not Planned"
   }
  },
  {
   "type": "Feature",
   "geometry": {
    "type": "Point",
    "coordinates": [
     152.0701824,
     -26.79497843
    ]
   },
   "properties": {
    "name": "371 STRETTON DRIVE TEELAH 4314",
    "locID": "LOC000050126266",
    "tech": "WIRELESS",
    "upgrade": "NULL_NA",
    "gnaf_pid": "GAQLD162480949",
    "tech_change_status": "Not Planned",
    "program_type": "Fixed Wireless and Satellite Upgrade Program",
    "target_eligibility_quarter": "NA"
   }
  },
  {
   "type": "Feature",
   "geometry": {
    "type": "Point",
    "coordinates": [
     152.08673973,
     -26.79388622
    ]
   },
   "properties": {
    "name": "82 STRETTON DRIVE TEELAH 4314",
    "locID": "LOC000081322740",
    "tech": "WIRELESS",
    "upgrade": "NULL_NA",
    "gnaf_pid": "GAQLD162480951",
    "tech_change_status": "Not Planned",
    "program_type": "Fixed Wireless and Satellite Upgrade Program",
    "target_eligibility_quarter": "NA"
   }
  },
  {
   "type": "Feature",
   "geometry": {
    "type": "Point",
    "coordinates": [
     152.08409964,
     -26.79586682
    ]
   },
   "properties": {
    "name": "116 STRETTON DRIVE TEELAH 4314",
    "locID": "LOC000004492645",
    "tech": "WIRELESS",
    "upgrade": "NULL_NA",
    "gnaf_pid": "GAQLD162669296",
    "tech_change_status": "Not Planned",
    "program_type": "Fixed Wireless and Satellite Upgrade Program",
    "target_eligibility_quarter": "NA"
   }
  },
  {
   "type": "Feature",
   "geometry": {
    "type": "Point",
    "coordinates": [
     152.07636003,
     -26.79902729
    ]
   },
   "properties": {
    "name": "199 STRETTON DRIVE TEELAH 4314",
    "locID": "LOC000095262334",
    "tech": "SATELLITE",
    "upgrade": "NULL_NA",
    "gnaf_pid": "GAQLD162947199",
    "tech_change_status": "Not Planned"
   }
  },
  {
   "type": "Feature",
   "geometry": {
    "type": "Point",
    "coordinates": [
     152.09292171,
     -26.7938913
    ]
   },
   "properties": {
    "name": "27 STRETTON DRIVE TEELAH 4314",
    "locID": "LOC000177000150",
    "tech": "WIRELESS",
    "upgrade": "NULL_NA",
    "gnaf_pid": "GAQLD162947200",
    "tech_change_status": "Not Planned",
    "program_type": "Fixed Wireless and Satellite Upgrade Program",
    "target_eligibility_quarter": "NA"
   }
  },
  {
   "type": "Feature",
   "geometry": {
    "type": "Point",
    "coordinates": [
     152.06923699,
     -26.79615735
    ]
   },
   "properties": {
    "name": "357 STRETTON DRIVE TEELAH 4314",
    "locID": "LOC000103101691",
    "tech": "WIRELESS",
    "upgrade": "NULL_NA",
    "gnaf_pid": "GAQLD162947201",
    "tech_change_status": "Not Planned",
    "program_type": "Fixed Wireless and Satellite Upgrade Program",
    "target_eligibility_quarter": "NA"
   }
  },
  {
   "type": "Feature",
   "geometry": {
    "type": "Point",
    "coordinates": [
     152.0906042,
     -26.79132608
    ]
   },
   "properties": {
    "name": "38 STRETTON DRIVE TEELAH 4314",
    "locID": "LOC000054368429",
    "tech": "WIRELESS",
    "upgrade": "NULL_NA",
    "gnaf_pid": "GAQLD162947202",
    "tech_change_status": "Not Planned",
    "program_type": "Fixed Wireless and Satellite Upgrade Program",
    "target_eligibility_quarter": "NA"
   }
  },
  {
   "type": "Feature",
   "geometry": {
    "type": "Point",
    "coordinates": [
     152.07055517,
     -26.79926899
    ]
   },
   "properties": {
    "name": "334 STRETTON DRIVE TEELAH 4314",
    "locID": "LOC000127733507",
    "tech": "WIRELESS",
    "upgrade": "NULL_NA",
    "gnaf_pid": "GAQLD163291647",
    "tech_change_status": "Not Planned",
    "program_type": "Fixed Wireless and Satellite Upgrade Program",
    "target_eligibility_quarter": "NA"
   }
  },
  {
   "type": "Feature",
   "geometry": {
    "type": "Point",
    "coordinates": [
     152.07998133,
     -26.80320143
    ]
   },
   "properties": {
    "name": "183 STRETTON DRIVE TEELAH 4314",
    "locID": "LOC100078024351",
    "tech": "WIRELESS",
    "upgrade": "NULL_NA",
    "gnaf_pid": "GAQLD425040527",
    "tech_change_status": "Not Planned",
    "program_type": "Fixed Wireless and Satellite Upgrade Program",
    "target_eligibility_quarter": "NA"
   }
  },
  {
   "type": "Feature",
   "geometry": {
    "type": "Point",
    "coordinates": [
     152.07660957,
     -26.79547285
    ]
   },
   "properties": {
    "name": "214 STRETTON DRIVE TEELAH 4314",
    "locID": "LOC000127704510",
    "tech": "NULL",
    "upgrade": "NULL_NA",
    "gnaf_pid": "GAQLD425040529",
    "tech_change_status": "Not Planned"
   }
  },
  {
   "type": "Feature",
   "geometry": {
    "type": "Point",
    "coordinates": [
     152.08733162,
     -26.79675576
    ]
   },
   "properties": {
    "name": "LOT 2 STRETTON DRIVE TEELAH 4314",
    "locID": "LOC000093567178",
    "tech": "WIRELESS",
    "upgrade": "NULL_NA",
    "gnaf_pid": "GAQLD425040532",
    "tech_change_status": "Not Planned",
    "program_type": "Fixed Wireless and Satellite Upgrade Program",
    "target_eligibility_quarter": "NA"
   }
  },
  {
   "type": "Feature",
   "geometry": {
    "type": "Point",
    "coordinates": [
     152.0723016,
     -26.79404414
    ]
   },
   "properties": {
    "name": "LOT 38 STRETTON DRIVE TEELAH 4314",
    "locID": "LOC000054368429",
    "tech": "WIRELESS",
    "upgrade": "NULL_NA",
    "gnaf_pid": "GAQLD425040534",
    "tech_change_status": "Not Planned",
    "program_type": "Fixed Wireless and Satellite Upgrade Program",
    "target_eligibility_quarter": "NA"
   }
  },
  {
   "type": "Feature",
   "geometry": {
    "type": "Point",
    "coordinates": [
     152.089634,
     -26.78832301
    ]
   },
   "properties": {
    "name": "LOT 190 OLD ESK ROAD TEELAH 4314",
    "locID": "LOC100078024379",
    "tech": "WIRELESS",
    "upgrade": "NULL_NA",
    "gnaf_pid": "GAQLD425151806",
    "tech_change_status": "Not Planned",
    "program_type": "Fixed Wireless and Satellite Upgrade Program",
    "target_eligibility_quarter": "NA"
   }
  },
  {
   "type": "Feature",
   "geometry": {
    "type": "Point",
    "coordinates": [
     152.08444587,
     -26.79949058
    ]
   },
   "properties": {
    "name": "137 STRETTON DRIVE TEELAH 4314",
    "locID": "LOC100020474051",
    "tech": "WIRELESS",
    "upgrade": "NULL_NA",
    "gnaf_pid": "GAQLD425252649",
    "tech_change_status": "Not Planned",
    "program_type": "Fixed Wireless and Satellite Upgrade Program",
    "target_eligibility_quarter": "NA"
   }
  },
  {
   "type": "Feature",
   "geometry": {
    "type": "Point",
    "coordinates": [
     152.089634,
     -26.78832301
    ]
   },
   "properties": {
    "name": "LOT 107 OLD ESK ROAD TEELAH 4314",
    "locID": "LOC100078024379",
    "tech": "WIRELESS",
    "upgrade": "NULL_NA",
    "gnaf_pid": "GAQLD425866141",
    "tech_change_status": "Not Planned",
    "program_type": "Fixed Wireless and Satellite Upgrade Program",
    "target_eligibility_quarter": "NA"
   }
  },
  {
   "type": "Feature",
   "geometry": {
    "type": "Point",
    "coordinates": [
     152.089634,
     -26.78832301
    ]
   },
   "properties": {
    "name": "LOT 11 OLD ESK ROAD TEELAH 4314",
    "locID": "LOC100078024379",
    "tech": "WIRELESS",
    "upgrade": "NULL_NA",
    "gnaf_pid": "GAQLD425866142",
    "tech_change_status": "Not Planned",
    "program_type": "Fixed Wireless and Satellite Upgrade Program",
    "target_eligibility_quarter": "NA"
   }
  },
  {
   "type": "Feature",
   "geometry": {
    "type": "Point",
    "coordinates": [
     152.089634,
     -26.78832301
    ]
   },
   "properties": {
    "name": "LOT 13 OLD ESK ROAD TEELAH 4314",
    "locID": "LOC100078024379",
    "tech": "WIRELESS",
    "upgrade": "NULL_NA",
    "gnaf_pid": "GAQLD425866143",
    "tech_change_status": "Not Planned",
    "program_type": "Fixed Wireless and Satellite Upgrade Program",
    "target_eligibility_quarter": "NA"
   }
  },
  {
   "type": "Feature",
   "geometry": {
    "type": "Point",
    "coordinates": [
     152.089634,
     -26.78832301
    ]
   },
   "properties": {
    "name": "LOT 148 OLD ESK ROAD TEELAH 4314",
    "locID": "LOC100078024379",
    "tech": "WIRELESS",
    "upgrade": "NULL_NA",
    "gnaf_pid": "GAQLD425866144",
    "tech_change_status": "Not Planned",
    "program_type": "Fixed Wireless and Satellite Upgrade Program",
    "target_eligibility_quarter": "NA"
   }
  },
  {
   "type": "Feature",
   "geometry": {
    "type": "Point",
    "coordinates": [
     152.089634,
     -26.78832301
    ]
   },
   "properties": {
    "name": "LOT 14 OLD ESK ROAD TEELAH 4314",
    "locID": "LOC000095035171",
    "tech": "WIRELESS",
    "upgrade": "NULL_NA",
    "gnaf_pid": "GAQLD425866145",
    "tech_change_status": "Not Planned",
    "program_type": "Fixed Wireless and Satellite Upgrade Program",
    "target_eligibility_quarter": "NA"
   }
  },
  {
   "type": "Feature",
   "geometry": {
    "type": "Point",
    "coordinates": [
     152.089634,
     -26.78832301
    ]
   },
   "properties": {
    "name": "LOT 15 OLD ESK ROAD TEELAH 4314",
    "locID": "LOC000018368645",
    "tech": "WIRELESS",
    "upgrade": "NULL_NA",
    "gnaf_pid": "GAQLD425866146",
    "tech_change_status": "Not Planned",
    "program_type": "Fixed Wireless and Satellite Upgrade Program",
    "target_eligibility_quarter": "NA"
   }
  },
  {
   "type": "Feature",
   "geometry": {
    "type": "Point",
    "coordinates": [
     152.089634,
     -26.78832301
    ]
   },
   "properties": {
    "name": "LOT 16 OLD ESK ROAD TEELAH 4314",
    "locID": "LOC100078024379",
    "tech": "WIRELESS",
    "upgrade": "NULL_NA",
    "gnaf_pid": "GAQLD425866147",
    "tech_change_status": "Not Planned",
    "program_type": "Fixed Wireless and Satellite Upgrade Program",
    "target_eligibility_quarter": "NA"
   }
  },
  {
   "type": "Feature",
   "geometry": {
    "type": "Point",
    "coordinates": [
     152.089634,
     -26.78832301
    ]
   },
   "properties": {
    "name": "LOT 17 OLD ESK ROAD TEELAH 4314",
    "locID": "LOC100078024379",
    "tech": "WIRELESS",
    "upgrade": "NULL_NA",
    "gnaf_pid": "GAQLD425866148",
    "tech_change_status": "Not Planned",
    "program_type": "Fixed Wireless and Satellite Upgrade Program",
    "target_eligibility_quarter": "NA"
   }
  },
  {
   "type": "Feature",
   "geometry": {
    "type": "Point",
    "coordinates": [
     152.089634,
     -26.78832301
    ]
   },
   "properties": {
    "name": "LOT 18 OLD ESK ROAD TEELAH 4314",
    "locID": "LOC100078024379",
    "tech": "WIRELESS",
    "upgrade": "NULL_NA",
    "gnaf_pid": "GAQLD425866149",
    "tech_change_status": "Not Planned",
    "program_type": "Fixed Wireless and Satellite Upgrade Program",
    "target_eligibility_quarter": "NA"
   }
  },
  {
   "type": "Feature",
   "geometry": {
    "type": "Point",
    "coordinates": [
     152.089634,
     -26.78832301
    ]
   },
   "properties": {
    "name": "LOT 19 OLD ESK ROAD TEELAH 4314",
    "locID": "LOC100078024379",
    "tech": "WIRELESS",
    "upgrade": "NULL_NA",
    "gnaf_pid": "GAQLD425866150",
    "tech_change_status": "Not Planned",
    "program_type": "Fixed Wireless and Satellite Upgrade Program",
    "target_eligibility_quarter": "NA"
   }
  },
  {
   "type": "Feature",
   "geometry": {
    "type": "Point",
    "coordinates": [
     152.089634,
     -26.78832301
    ]
   },
   "properties": {
    "name": "LOT 27 OLD ESK ROAD TEELAH 4314",
    "locID": "LOC100078024379",
    "tech": "WIRELESS",
    "upgrade": "NULL_NA",
    "gnaf_pid": "GAQLD425866154",
    "tech_change_status": "Not Planned",
    "program_type": "Fixed Wireless and Satellite Upgrade Program",
    "target_eligibility_quarter": "NA"
   }
  },
  {
   "type": "Feature",
   "geometry": {
    "type": "Point",
    "coordinates": [
     152.089634,
     -26.78832301
    ]
   },
   "properties": {
    "name": "LOT 491 OLD ESK ROAD TEELAH 4314",
    "locID": "LOC100078024379",
    "tech": "WIRELESS",
    "upgrade": "NULL_NA",
    "gnaf_pid": "GAQLD425866156",
    "tech_change_status": "Not Planned",
    "program_type": "Fixed Wireless and Satellite Upgrade Program",
    "target_eligibility_quarter": "NA"
   }
  },
  {
   "type": "Feature",
   "geometry": {
    "type": "Point",
    "coordinates": [
     152.089634,
     -26.78832301
    ]
   },
   "properties": {
    "name": "LOT 6 OLD ESK ROAD TEELAH 4314",
    "locID": "LOC100078024379",
    "tech": "WIRELESS",
    "upgrade": "NULL_NA",
    "gnaf_pid": "GAQLD425866158",
    "tech_change_status": "Not Planned",
    "program_type": "Fixed Wireless and Satellite Upgrade Program",
    "target_eligibility_quarter": "NA"
   }
  },
  {
   "type": "Feature",
   "geometry": {
    "type": "Point",
    "coordinates": [
     152.089634,
     -26.78832301
    ]
   },
   "properties": {
    "name": "LOT 9 OLD ESK ROAD TEELAH 4314",
    "locID": "LOC100078024379",
    "tech": "WIRELESS",
    "upgrade": "NULL_NA",
    "gnaf_pid": "GAQLD425866159",
    "tech_change_status": "Not Planned",
    "program_type": "Fixed Wireless and Satellite Upgrade Program",
    "target_eligibility_quarter": "NA"
   }
  },
  {
   "type": "Feature",
   "geometry": {
    "type": "Point",
    "coordinates": [
     152.09578011,
     -26.79982106
    ]
   },
   "properties": {
    "name": "29 SCOTT CLOSE TEELAH 4314",
    "locID": "LOC100071911411",
    "tech": "WIRELESS",
    "upgrade": "NULL_NA",
    "gnaf_pid": "GAQLD719125488",
    "tech_change_status": "Not Planned",
    "program_type": "Fixed Wireless and Satellite Upgrade Program",
    "target_eligibility_quarter": "NA"
   }
  },
  {
   "type": "Feature",
   "geometry": {
    "type": "Point",
    "coordinates": [
     152.09241965,
     -26.79822289
    ]
   },
   "properties": {
    "name": "LOT 15 SCOTT CLOSE TEELAH 4314",
    "locID": "LOC100072075286",
    "tech": "NULL",
    "upgrade": "NULL_NA",
    "gnaf_pid": "GAQLD719125489",
    "tech_change_status": "Not Planned"
   }
  },
  {
   "type": "Feature",
   "geometry": {
    "type": "Point",
    "coordinates": [
     152.09669807,
     -26.79627027
    ]
   },
   "properties": {
    "name": "4 SCOTT CLOSE TEELAH 4314",
    "locID": "LOC000127719818",
    "tech": "WIRELESS",
    "upgrade": "NULL_NA",
    "gnaf_pid": "GAQLD719128039",
    "tech_change_status": "Not Planned",
    "program_type": "Fixed Wireless and Satellite Upgrade Program",
    "target_eligibility_quarter": "NA"
   }
  },
  {
   "type": "Feature",
   "geometry": {
    "type": "Point",
    "coordinates": [
     152.09328056,
     -26.79786174
    ]
   },
   "properties": {
    "name": "42 SCOTT CLOSE TEELAH 4314",
    "locID": "LOC000127711863",
    "tech": "WIRELESS",
    "upgrade": "NULL_NA",
    "gnaf_pid": "GAQLD719130895",
    "tech_change_status": "Not Planned",
    "program_type": "Fixed Wireless and Satellite Upgrade Program",
    "target_eligibility_quarter": "NA"
   }
  },
  {
   "type": "Feature",
   "geometry": {
    "type": "Point",
    "coordinates": [
     152.09409336,
     -26.80126878
    ]
   },
   "properties": {
    "name": "47 SCOTT CLOSE TEELAH 4314",
    "locID": "LOC000105121853",
    "tech": "WIRELESS",
    "upgrade": "NULL_NA",
    "gnaf_pid": "GAQLD719132919",
    "tech_change_status": "Not Planned",
    "program_type": "Fixed Wireless and Satellite Upgrade Program",
    "target_eligibility_quarter": "NA"
   }
  },
  {
   "type": "Feature",
   "geometry": {
    "type": "Point",
    "coordinates": [
     152.09491546,
     -26.79722036
    ]
   },
   "properties": {
    "name": "26 SCOTT CLOSE TEELAH 4314",
    "locID": "LOC100071911363",
    "tech": "NULL",
    "upgrade": "NULL_NA",
    "gnaf_pid": "GAQLD719133361",
    "tech_change_status": "Not Planned"
   }
  },
  {
   "type": "Feature",
   "geometry": {
    "type": "Point",
    "coordinates": [
     152.09335917,
     -26.80453148
    ]
   },
   "properties": {
    "name": "LOT 10 SCOTT CLOSE TEELAH 4314",
    "locID": "LOC100072075319",
    "tech": "NULL",
    "upgrade": "NULL_NA",
    "gnaf_pid": "GAQLD719135448",
    "tech_change_status": "Not Planned"
   }
  },
  {
   "type": "Feature",
   "geometry": {
    "type": "Point",
    "coordinates": [
     152.09405924,
     -26.79756525
    ]
   },
   "properties": {
    "name": "34 SCOTT CLOSE TEELAH 4314",
    "locID": "LOC000142311844",
    "tech": "SATELLITE",
    "upgrade": "WIRELESS",
    "gnaf_pid": "GAQLD719138706",
    "tech_change_status": "Eligible to Order",
    "program_type": "Fixed Wireless and Satellite Upgrade Program",
    "target_eligibility_quarter": "NA"
   }
  },
  {
   "type": "Feature",
   "geometry": {
    "type": "Point",
    "coordinates": [
     152.09693998,
     -26.79897291
    ]
   },
   "properties": {
    "name": "7 SCOTT CLOSE TEELAH 4314",
    "locID": "LOC000127719818",
    "tech": "WIRELESS",
    "upgrade": "NULL_NA",
    "gnaf_pid": "GAQLD719140537",
    "tech_change_status": "Not Planned",
    "program_type": "Fixed Wireless and Satellite Upgrade Program",
    "target_eligibility_quarter": "NA"
   }
  },
  {
   "type": "Feature",
   "geometry": {
    "type": "Point",
    "coordinates": [
     152.09025963,
     -26.79923977
    ]
   },
   "properties": {
    "name": "LOT 13 SCOTT CLOSE TEELAH 4314",
    "locID": "LOC100072075303",
    "tech": "NULL",
    "upgrade": "NULL_NA",
    "gnaf_pid": "GAQLD719140994",
    "tech_change_status": "Not Planned"
   }
  },
  {
   "type": "Feature",
   "geometry": {
    "type": "Point",
    "coordinates": [
     152.09577157,
     -26.79689176
    ]
   },
   "properties": {
    "name": "12 SCOTT CLOSE TEELAH 4314",
    "locID": "LOC100071911371",
    "tech": "NULL",
    "upgrade": "NULL_NA",
    "gnaf_pid": "GAQLD719143848",
    "tech_change_status": "Not Planned"
   }
  },
  {
   "type": "Feature",
   "geometry": {
    "type": "Point",
    "coordinates": [
     152.09489395,
     -26.80107429
    ]
   },
   "properties": {
    "name": "37 SCOTT CLOSE TEELAH 4314",
    "locID": "LOC000127719818",
    "tech": "WIRELESS",
    "upgrade": "NULL_NA",
    "gnaf_pid": "GAQLD719171300",
    "tech_change_status": "Not Planned",
    "program_type": "Fixed Wireless and Satellite Upgrade Program",
    "target_eligibility_quarter": "NA"
   }
  },
  {
   "type": "Feature",
   "geometry": {
    "type": "Point",
    "coordinates": [
     152.08909231,
     -26.79191932
    ]
   },
   "properties": {
    "name": "48 STRETTON DRIVE TEELAH 4314",
    "locID": "LOC100078024282",
    "tech": "WIRELESS",
    "upgrade": "NULL_NA",
    "gnaf_pid": "GAQLD719566552",
    "tech_change_status": "Not Planned",
    "program_type": "Fixed Wireless and Satellite Upgrade Program",
    "target_eligibility_quarter": "NA"
   }
  },
  {
   "type": "Feature",
   "geometry": {
    "type": "Point",
    "coordinates": [
     152.08517533,
     -26.79909137
    ]
   },
   "properties": {
    "name": "129 STRETTON DRIVE TEELAH 4314",
    "locID": "LOC100082108798",
    "tech": "WIRELESS",
    "upgrade": "NULL_NA",
    "gnaf_pid": "GAQLD720666227",
    "tech_change_status": "Not Planned",
    "program_type": "Fixed Wireless and Satellite Upgrade Program",
    "target_eligibility_quarter": "NA"
   }
  },
  {
   "type": "Feature",
   "geometry": {
    "type": "Point",
    "coordinates": [
     152.09746558,
     -26.80655809
    ]
   },
   "properties": {
    "name": "1285 OLD ESK ROAD TEELAH 4314",
    "locID": "LOC100086328581",
    "tech": "WIRELESS",
    "upgrade": "NULL_NA",
    "gnaf_pid": "GAQLD721064964",
    "tech_change_status": "Not Planned",
    "program_type": "Fixed Wireless and Satellite Upgrade Program",
    "target_eligibility_quarter": "NA"
   }
  },
  {
   "type": "Feature",
   "geometry": {
    "type": "Point",
    "coordinates": [
     152.06884795,
     -26.79680108
    ]
   },
   "properties": {
    "name": "345 STRETTON DRIVE TEELAH 4314",
    "locID": "LOC100087114923",
    "tech": "WIRELESS",
    "upgrade": "NULL_NA",
    "gnaf_pid": "GAQLD721065949",
    "tech_change_status": "Not Planned",
    "program_type": "Fixed Wireless and Satellite Upgrade Program",
    "target_eligibility_quarter": "NA"
   }
  },
  {
   "type": "Feature",
   "geometry": {
    "type": "Point",
    "coordinates": [
     152.09219273,
     -26.79422071
    ]
   },
   "properties": {
    "name": "35 STRETTON DRIVE TEELAH 4314",
    "locID": "LOC000003426316",
    "tech": "WIRELESS",
    "upgrade": "NULL_NA",
    "gnaf_pid": "GAQLD721306787",
    "tech_change_status": "Not Planned",
    "program_type": "Fixed Wireless and Satellite Upgrade Program",
    "target_eligibility_quarter": "NA"
   }
  }
 ]
}