{
 "type": "FeatureCollection",
 "generated": "2026-05-17T14:46:13.788974",
 "suburb": "TOOBEAH",
 "features": [
  {
   "type": "Feature",
   "geometry": {
    "type": "Point",
    "coordinates": [
     149.86957481,
     -28.41654742
    ]
   },
   "properties": {
    "name": "LOT 19 PFINGST STREET TOOBEAH 4498",
    "locID": "LOC100078033171",
    "tech": "SATELLITE",
    "upgrade": "NULL_NA",
    "gnaf_pid": "GAQLD158948817",
    "tech_change_status": "Not Planned"
   }
  },
  {
   "type": "Feature",
   "geometry": {
    "type": "Point",
    "coordinates": [
     149.8641643,
     -28.42244127
    ]
   },
   "properties": {
    "name": "LOT 10 BARWON HIGHWAY TOOBEAH 4498",
    "locID": "LOC000068400350",
    "tech": "NULL",
    "upgrade": "NULL_NA",
    "gnaf_pid": "GAQLD161060306",
    "tech_change_status": "Not Planned"
   }
  },
  {
   "type": "Feature",
   "geometry": {
    "type": "Point",
    "coordinates": [
     149.90866625,
     -28.43371098
    ]
   },
   "properties": {
    "name": "LOT 18 BARWON HIGHWAY TOOBEAH 4498",
    "locID": "LOC000142311941",
    "tech": "SATELLITE",
    "upgrade": "NULL_NA",
    "gnaf_pid": "GAQLD161060311",
    "tech_change_status": "Not Planned"
   }
  },
  {
   "type": "Feature",
   "geometry": {
    "type": "Point",
    "coordinates": [
     149.96074706,
     -28.4302054
    ]
   },
   "properties": {
    "name": "LOT 24 BARWON HIGHWAY TOOBEAH 4498",
    "locID": "LOC000014913613",
    "tech": "WIRELESS",
    "upgrade": "NULL_NA",
    "gnaf_pid": "GAQLD161060317",
    "tech_change_status": "Not Planned",
    "program_type": "Fixed Wireless and Satellite Upgrade Program",
    "target_eligibility_quarter": "NA"
   }
  },
  {
   "type": "Feature",
   "geometry": {
    "type": "Point",
    "coordinates": [
     149.95170548,
     -28.39255552
    ]
   },
   "properties": {
    "name": "LOT 25 BARWON HIGHWAY TOOBEAH 4498",
    "locID": "LOC000142311941",
    "tech": "SATELLITE",
    "upgrade": "NULL_NA",
    "gnaf_pid": "GAQLD161060318",
    "tech_change_status": "Not Planned"
   }
  },
  {
   "type": "Feature",
   "geometry": {
    "type": "Point",
    "coordinates": [
     149.9967465,
     -28.48066746
    ]
   },
   "properties": {
    "name": "LOT 26 BARWON HIGHWAY TOOBEAH 4498",
    "locID": "LOC000142311941",
    "tech": "SATELLITE",
    "upgrade": "NULL_NA",
    "gnaf_pid": "GAQLD161060319",
    "tech_change_status": "Not Planned"
   }
  },
  {
   "type": "Feature",
   "geometry": {
    "type": "Point",
    "coordinates": [
     149.77960448,
     -28.39053308
    ]
   },
   "properties": {
    "name": "LOT 6 BARWON HIGHWAY TOOBEAH 4498",
    "locID": "LOC000142311941",
    "tech": "SATELLITE",
    "upgrade": "NULL_NA",
    "gnaf_pid": "GAQLD161060322",
    "tech_change_status": "Not Planned"
   }
  },
  {
   "type": "Feature",
   "geometry": {
    "type": "Point",
    "coordinates": [
     149.85195161,
     -28.35654057
    ]
   },
   "properties": {
    "name": "LOT 3 KIOMA ROAD TOOBEAH 4498",
    "locID": "LOC000150205575",
    "tech": "SATELLITE",
    "upgrade": "NULL_NA",
    "gnaf_pid": "GAQLD161202359",
    "tech_change_status": "Not Planned"
   }
  },
  {
   "type": "Feature",
   "geometry": {
    "type": "Point",
    "coordinates": [
     149.94968536,
     -28.2446562
    ]
   },
   "properties": {
    "name": "LOT 1 MINNEL ROAD TOOBEAH 4498",
    "locID": "LOC000063165161",
    "tech": "SATELLITE",
    "upgrade": "NULL_NA",
    "gnaf_pid": "GAQLD161238785",
    "tech_change_status": "Not Planned"
   }
  },
  {
   "type": "Feature",
   "geometry": {
    "type": "Point",
    "coordinates": [
     149.87063204,
     -28.41598985
    ]
   },
   "properties": {
    "name": "LOT 13 PFINGST STREET TOOBEAH 4498",
    "locID": "LOC000128156621",
    "tech": "NULL",
    "upgrade": "NULL_NA",
    "gnaf_pid": "GAQLD161276441",
    "tech_change_status": "Not Planned"
   }
  },
  {
   "type": "Feature",
   "geometry": {
    "type": "Point",
    "coordinates": [
     149.87045584,
     -28.41608277
    ]
   },
   "properties": {
    "name": "LOT 14 PFINGST STREET TOOBEAH 4498",
    "locID": "LOC000128156621",
    "tech": "NULL",
    "upgrade": "NULL_NA",
    "gnaf_pid": "GAQLD161276442",
    "tech_change_status": "Not Planned"
   }
  },
  {
   "type": "Feature",
   "geometry": {
    "type": "Point",
    "coordinates": [
     149.87027963,
     -28.41617571
    ]
   },
   "properties": {
    "name": "LOT 15 PFINGST STREET TOOBEAH 4498",
    "locID": "LOC000128156621",
    "tech": "NULL",
    "upgrade": "NULL_NA",
    "gnaf_pid": "GAQLD161276443",
    "tech_change_status": "Not Planned"
   }
  },
  {
   "type": "Feature",
   "geometry": {
    "type": "Point",
    "coordinates": [
     149.87009453,
     -28.41628031
    ]
   },
   "properties": {
    "name": "LOT 16 PFINGST STREET TOOBEAH 4498",
    "locID": "LOC000128156621",
    "tech": "NULL",
    "upgrade": "NULL_NA",
    "gnaf_pid": "GAQLD161276444",
    "tech_change_status": "Not Planned"
   }
  },
  {
   "type": "Feature",
   "geometry": {
    "type": "Point",
    "coordinates": [
     149.86992723,
     -28.41636157
    ]
   },
   "properties": {
    "name": "LOT 17 PFINGST STREET TOOBEAH 4498",
    "locID": "LOC000128156621",
    "tech": "NULL",
    "upgrade": "NULL_NA",
    "gnaf_pid": "GAQLD161276445",
    "tech_change_status": "Not Planned"
   }
  },
  {
   "type": "Feature",
   "geometry": {
    "type": "Point",
    "coordinates": [
     149.86939861,
     -28.41664035
    ]
   },
   "properties": {
    "name": "LOT 20 PFINGST STREET TOOBEAH 4498",
    "locID": "LOC000128156621",
    "tech": "NULL",
    "upgrade": "NULL_NA",
    "gnaf_pid": "GAQLD161276446",
    "tech_change_status": "Not Planned"
   }
  },
  {
   "type": "Feature",
   "geometry": {
    "type": "Point",
    "coordinates": [
     149.86922242,
     -28.41673328
    ]
   },
   "properties": {
    "name": "LOT 21 PFINGST STREET TOOBEAH 4498",
    "locID": "LOC100078033171",
    "tech": "SATELLITE",
    "upgrade": "NULL_NA",
    "gnaf_pid": "GAQLD161276447",
    "tech_change_status": "Not Planned"
   }
  },
  {
   "type": "Feature",
   "geometry": {
    "type": "Point",
    "coordinates": [
     149.86904621,
     -28.41682621
    ]
   },
   "properties": {
    "name": "LOT 22 PFINGST STREET TOOBEAH 4498",
    "locID": "LOC000128156621",
    "tech": "NULL",
    "upgrade": "NULL_NA",
    "gnaf_pid": "GAQLD161276448",
    "tech_change_status": "Not Planned"
   }
  },
  {
   "type": "Feature",
   "geometry": {
    "type": "Point",
    "coordinates": [
     149.86887,
     -28.41691913
    ]
   },
   "properties": {
    "name": "LOT 23 PFINGST STREET TOOBEAH 4498",
    "locID": "LOC000128156621",
    "tech": "NULL",
    "upgrade": "NULL_NA",
    "gnaf_pid": "GAQLD161276449",
    "tech_change_status": "Not Planned"
   }
  },
  {
   "type": "Feature",
   "geometry": {
    "type": "Point",
    "coordinates": [
     149.8686938,
     -28.41701207
    ]
   },
   "properties": {
    "name": "LOT 24 PFINGST STREET TOOBEAH 4498",
    "locID": "LOC000128156621",
    "tech": "NULL",
    "upgrade": "NULL_NA",
    "gnaf_pid": "GAQLD161276450",
    "tech_change_status": "Not Planned"
   }
  },
  {
   "type": "Feature",
   "geometry": {
    "type": "Point",
    "coordinates": [
     149.8710055,
     -28.41582831
    ]
   },
   "properties": {
    "name": "LOT 26 PFINGST STREET TOOBEAH 4498",
    "locID": "LOC000128156621",
    "tech": "NULL",
    "upgrade": "NULL_NA",
    "gnaf_pid": "GAQLD161276451",
    "tech_change_status": "Not Planned"
   }
  },
  {
   "type": "Feature",
   "geometry": {
    "type": "Point",
    "coordinates": [
     149.87080824,
     -28.41589691
    ]
   },
   "properties": {
    "name": "LOT 27 PFINGST STREET TOOBEAH 4498",
    "locID": "LOC000128156621",
    "tech": "NULL",
    "upgrade": "NULL_NA",
    "gnaf_pid": "GAQLD161276452",
    "tech_change_status": "Not Planned"
   }
  },
  {
   "type": "Feature",
   "geometry": {
    "type": "Point",
    "coordinates": [
     149.80678275,
     -28.58583514
    ]
   },
   "properties": {
    "name": "LOT 1 SOUTH TOOBEAH ROAD TOOBEAH 4498",
    "locID": "LOC000040020245",
    "tech": "NULL",
    "upgrade": "NULL_NA",
    "gnaf_pid": "GAQLD161312197",
    "tech_change_status": "Not Planned"
   }
  },
  {
   "type": "Feature",
   "geometry": {
    "type": "Point",
    "coordinates": [
     149.79017073,
     -28.56406055
    ]
   },
   "properties": {
    "name": "LOT 9 SOUTH TOOBEAH ROAD TOOBEAH 4498",
    "locID": "LOC000085000041",
    "tech": "SATELLITE",
    "upgrade": "NULL_NA",
    "gnaf_pid": "GAQLD161312203",
    "tech_change_status": "Not Planned"
   }
  },
  {
   "type": "Feature",
   "geometry": {
    "type": "Point",
    "coordinates": [
     149.83294789,
     -28.59083582
    ]
   },
   "properties": {
    "name": "178 JAMIESONS ROAD TOOBEAH 4498",
    "locID": "LOC000096349943",
    "tech": "NULL",
    "upgrade": "NULL_NA",
    "gnaf_pid": "GAQLD161472022",
    "tech_change_status": "Not Planned"
   }
  },
  {
   "type": "Feature",
   "geometry": {
    "type": "Point",
    "coordinates": [
     149.91484427,
     -28.59725149
    ]
   },
   "properties": {
    "name": "LOT 11 CALLANDOON ROAD TOOBEAH 4498",
    "locID": "LOC000150205534",
    "tech": "NULL",
    "upgrade": "NULL_NA",
    "gnaf_pid": "GAQLD161742328",
    "tech_change_status": "Not Planned"
   }
  },
  {
   "type": "Feature",
   "geometry": {
    "type": "Point",
    "coordinates": [
     149.93196217,
     -28.59666159
    ]
   },
   "properties": {
    "name": "LOT 10 CALLANDOON ROAD TOOBEAH 4498",
    "locID": "LOC000150205534",
    "tech": "NULL",
    "upgrade": "NULL_NA",
    "gnaf_pid": "GAQLD161742329",
    "tech_change_status": "Not Planned"
   }
  },
  {
   "type": "Feature",
   "geometry": {
    "type": "Point",
    "coordinates": [
     149.90596596,
     -28.5992415
    ]
   },
   "properties": {
    "name": "LOT 1 CALLANDOON ROAD TOOBEAH 4498",
    "locID": "LOC000009511485",
    "tech": "NULL",
    "upgrade": "NULL_NA",
    "gnaf_pid": "GAQLD161747100",
    "tech_change_status": "Not Planned"
   }
  },
  {
   "type": "Feature",
   "geometry": {
    "type": "Point",
    "coordinates": [
     149.78804439,
     -28.45814972
    ]
   },
   "properties": {
    "name": "5309 BARWON HIGHWAY TOOBEAH 4498",
    "locID": "LOC000068400350",
    "tech": "NULL",
    "upgrade": "NULL_NA",
    "gnaf_pid": "GAQLD161775539",
    "tech_change_status": "Not Planned"
   }
  },
  {
   "type": "Feature",
   "geometry": {
    "type": "Point",
    "coordinates": [
     149.94622067,
     -28.33857438
    ]
   },
   "properties": {
    "name": "2015 GOORAY ROAD TOOBEAH 4498",
    "locID": "LOC000079889284",
    "tech": "NULL",
    "upgrade": "NULL_NA",
    "gnaf_pid": "GAQLD161784256",
    "tech_change_status": "Not Planned"
   }
  },
  {
   "type": "Feature",
   "geometry": {
    "type": "Point",
    "coordinates": [
     149.870748,
     -28.33027305
    ]
   },
   "properties": {
    "name": "160 KIOMA ROAD TOOBEAH 4498",
    "locID": "LOC000012708160",
    "tech": "NULL",
    "upgrade": "NULL_NA",
    "gnaf_pid": "GAQLD161787806",
    "tech_change_status": "Not Planned"
   }
  },
  {
   "type": "Feature",
   "geometry": {
    "type": "Point",
    "coordinates": [
     149.90100788,
     -28.2537683
    ]
   },
   "properties": {
    "name": "1679 MINNEL ROAD TOOBEAH 4498",
    "locID": "LOC000059334006",
    "tech": "NULL",
    "upgrade": "NULL_NA",
    "gnaf_pid": "GAQLD161792082",
    "tech_change_status": "Not Planned"
   }
  },
  {
   "type": "Feature",
   "geometry": {
    "type": "Point",
    "coordinates": [
     149.86016333,
     -28.38400665
    ]
   },
   "properties": {
    "name": "189 MINNEL ROAD TOOBEAH 4498",
    "locID": "LOC000087804301",
    "tech": "SATELLITE",
    "upgrade": "NULL_NA",
    "gnaf_pid": "GAQLD161792083",
    "tech_change_status": "Not Planned"
   }
  },
  {
   "type": "Feature",
   "geometry": {
    "type": "Point",
    "coordinates": [
     149.87094626,
     -28.48228589
    ]
   },
   "properties": {
    "name": "675 SOUTH TOOBEAH ROAD TOOBEAH 4498",
    "locID": "LOC000036608348",
    "tech": "SATELLITE",
    "upgrade": "NULL_NA",
    "gnaf_pid": "GAQLD161798123",
    "tech_change_status": "Not Planned"
   }
  },
  {
   "type": "Feature",
   "geometry": {
    "type": "Point",
    "coordinates": [
     149.69734639,
     -28.5520101
    ]
   },
   "properties": {
    "name": "1216 DONOVANS ROAD TOOBEAH 4498",
    "locID": "LOC000095018400",
    "tech": "NULL",
    "upgrade": "NULL_NA",
    "gnaf_pid": "GAQLD162083997",
    "tech_change_status": "Not Planned"
   }
  },
  {
   "type": "Feature",
   "geometry": {
    "type": "Point",
    "coordinates": [
     149.71970279,
     -28.58903982
    ]
   },
   "properties": {
    "name": "1232 DONOVANS ROAD TOOBEAH 4498",
    "locID": "LOC000142338983",
    "tech": "SATELLITE",
    "upgrade": "NULL_NA",
    "gnaf_pid": "GAQLD162083998",
    "tech_change_status": "Not Planned"
   }
  },
  {
   "type": "Feature",
   "geometry": {
    "type": "Point",
    "coordinates": [
     149.98784402,
     -28.41624072
    ]
   },
   "properties": {
    "name": "3444 BARWON HIGHWAY TOOBEAH 4498",
    "locID": "LOC000180599564",
    "tech": "NULL",
    "upgrade": "NULL_NA",
    "gnaf_pid": "GAQLD162341106",
    "tech_change_status": "Not Planned"
   }
  },
  {
   "type": "Feature",
   "geometry": {
    "type": "Point",
    "coordinates": [
     149.95172238,
     -28.39695922
    ]
   },
   "properties": {
    "name": "4146 BARWON HIGHWAY TOOBEAH 4498",
    "locID": "LOC000116040621",
    "tech": "SATELLITE",
    "upgrade": "NULL_NA",
    "gnaf_pid": "GAQLD162341107",
    "tech_change_status": "Not Planned"
   }
  },
  {
   "type": "Feature",
   "geometry": {
    "type": "Point",
    "coordinates": [
     149.85395768,
     -28.44020633
    ]
   },
   "properties": {
    "name": "4763 BARWON HIGHWAY TOOBEAH 4498",
    "locID": "LOC000092390970",
    "tech": "NULL",
    "upgrade": "NULL_NA",
    "gnaf_pid": "GAQLD162341108",
    "tech_change_status": "Not Planned"
   }
  },
  {
   "type": "Feature",
   "geometry": {
    "type": "Point",
    "coordinates": [
     149.96219596,
     -28.28987094
    ]
   },
   "properties": {
    "name": "1309 BURUMBAH ROAD TOOBEAH 4498",
    "locID": "LOC000043028815",
    "tech": "NULL",
    "upgrade": "NULL_NA",
    "gnaf_pid": "GAQLD162343602",
    "tech_change_status": "Not Planned"
   }
  },
  {
   "type": "Feature",
   "geometry": {
    "type": "Point",
    "coordinates": [
     149.79612149,
     -28.52101274
    ]
   },
   "properties": {
    "name": "440 DONOVANS ROAD TOOBEAH 4498",
    "locID": "LOC000077505406",
    "tech": "NULL",
    "upgrade": "NULL_NA",
    "gnaf_pid": "GAQLD162347347",
    "tech_change_status": "Not Planned"
   }
  },
  {
   "type": "Feature",
   "geometry": {
    "type": "Point",
    "coordinates": [
     149.86898109,
     -28.41745047
    ]
   },
   "properties": {
    "name": "LOT 1 HIGHWAY STREET TOOBEAH 4498",
    "locID": "LOC000116040700",
    "tech": "NULL",
    "upgrade": "NULL_NA",
    "gnaf_pid": "GAQLD162352119",
    "tech_change_status": "Not Planned"
   }
  },
  {
   "type": "Feature",
   "geometry": {
    "type": "Point",
    "coordinates": [
     149.86722717,
     -28.41837995
    ]
   },
   "properties": {
    "name": "LOT 2 HIGHWAY STREET TOOBEAH 4498",
    "locID": "LOC000128156342",
    "tech": "NULL",
    "upgrade": "NULL_NA",
    "gnaf_pid": "GAQLD162352121",
    "tech_change_status": "Not Planned"
   }
  },
  {
   "type": "Feature",
   "geometry": {
    "type": "Point",
    "coordinates": [
     149.86740233,
     -28.41828753
    ]
   },
   "properties": {
    "name": "LOT 3 HIGHWAY STREET TOOBEAH 4498",
    "locID": "LOC000111675446",
    "tech": "NULL",
    "upgrade": "NULL_NA",
    "gnaf_pid": "GAQLD162352122",
    "tech_change_status": "Not Planned"
   }
  },
  {
   "type": "Feature",
   "geometry": {
    "type": "Point",
    "coordinates": [
     149.86757538,
     -28.41820245
    ]
   },
   "properties": {
    "name": "LOT 4 HIGHWAY STREET TOOBEAH 4498",
    "locID": "LOC000112003019",
    "tech": "NULL",
    "upgrade": "NULL_NA",
    "gnaf_pid": "GAQLD162352123",
    "tech_change_status": "Not Planned"
   }
  },
  {
   "type": "Feature",
   "geometry": {
    "type": "Point",
    "coordinates": [
     149.86775101,
     -28.41810849
    ]
   },
   "properties": {
    "name": "LOT 5 HIGHWAY STREET TOOBEAH 4498",
    "locID": "LOC000111214226",
    "tech": "NULL",
    "upgrade": "NULL_NA",
    "gnaf_pid": "GAQLD162352124",
    "tech_change_status": "Not Planned"
   }
  },
  {
   "type": "Feature",
   "geometry": {
    "type": "Point",
    "coordinates": [
     149.87004438,
     -28.41689298
    ]
   },
   "properties": {
    "name": "LOT 7 HIGHWAY STREET TOOBEAH 4498",
    "locID": "LOC000110613909",
    "tech": "NULL",
    "upgrade": "NULL_NA",
    "gnaf_pid": "GAQLD162352126",
    "tech_change_status": "Not Planned"
   }
  },
  {
   "type": "Feature",
   "geometry": {
    "type": "Point",
    "coordinates": [
     149.87038791,
     -28.41671888
    ]
   },
   "properties": {
    "name": "LOT 9 HIGHWAY STREET TOOBEAH 4498",
    "locID": "LOC000111675446",
    "tech": "NULL",
    "upgrade": "NULL_NA",
    "gnaf_pid": "GAQLD162352128",
    "tech_change_status": "Not Planned"
   }
  },
  {
   "type": "Feature",
   "geometry": {
    "type": "Point",
    "coordinates": [
     149.83785997,
     -28.31930293
    ]
   },
   "properties": {
    "name": "812 KIOMA ROAD TOOBEAH 4498",
    "locID": "LOC000045486687",
    "tech": "SATELLITE",
    "upgrade": "NULL_NA",
    "gnaf_pid": "GAQLD162354332",
    "tech_change_status": "Not Planned"
   }
  },
  {
   "type": "Feature",
   "geometry": {
    "type": "Point",
    "coordinates": [
     149.91415344,
     -28.22670677
    ]
   },
   "properties": {
    "name": "2119 MINNEL ROAD TOOBEAH 4498",
    "locID": "LOC000063165161",
    "tech": "SATELLITE",
    "upgrade": "NULL_NA",
    "gnaf_pid": "GAQLD162358046",
    "tech_change_status": "Not Planned"
   }
  },
  {
   "type": "Feature",
   "geometry": {
    "type": "Point",
    "coordinates": [
     149.86975102,
     -28.41645449
    ]
   },
   "properties": {
    "name": "LOT 18 PFINGST STREET TOOBEAH 4498",
    "locID": "LOC000128156621",
    "tech": "NULL",
    "upgrade": "NULL_NA",
    "gnaf_pid": "GAQLD162361204",
    "tech_change_status": "Not Planned"
   }
  },
  {
   "type": "Feature",
   "geometry": {
    "type": "Point",
    "coordinates": [
     149.87123659,
     -28.41765358
    ]
   },
   "properties": {
    "name": "12 SOUTH TOOBEAH ROAD TOOBEAH 4498",
    "locID": "LOC000040020245",
    "tech": "NULL",
    "upgrade": "NULL_NA",
    "gnaf_pid": "GAQLD162364831",
    "tech_change_status": "Not Planned"
   }
  },
  {
   "type": "Feature",
   "geometry": {
    "type": "Point",
    "coordinates": [
     149.88812614,
     -28.28999134
    ]
   },
   "properties": {
    "name": "1625 MINNEL ROAD TOOBEAH 4498",
    "locID": "LOC000054820015",
    "tech": "NULL",
    "upgrade": "NULL_NA",
    "gnaf_pid": "GAQLD162376246",
    "tech_change_status": "Not Planned"
   }
  },
  {
   "type": "Feature",
   "geometry": {
    "type": "Point",
    "coordinates": [
     149.82493258,
     -28.39012424
    ]
   },
   "properties": {
    "name": "4950 BARWON HIGHWAY TOOBEAH 4498",
    "locID": "LOC000059734856",
    "tech": "NULL",
    "upgrade": "NULL_NA",
    "gnaf_pid": "GAQLD162500078",
    "tech_change_status": "Not Planned"
   }
  },
  {
   "type": "Feature",
   "geometry": {
    "type": "Point",
    "coordinates": [
     149.99462727,
     -28.24745766
    ]
   },
   "properties": {
    "name": "1473 BURUMBAH ROAD TOOBEAH 4498",
    "locID": "LOC000009980807",
    "tech": "NULL",
    "upgrade": "NULL_NA",
    "gnaf_pid": "GAQLD162501708",
    "tech_change_status": "Not Planned"
   }
  },
  {
   "type": "Feature",
   "geometry": {
    "type": "Point",
    "coordinates": [
     149.94160217,
     -28.54073394
    ]
   },
   "properties": {
    "name": "2160 CALLANDOON ROAD TOOBEAH 4498",
    "locID": "LOC000009511485",
    "tech": "NULL",
    "upgrade": "NULL_NA",
    "gnaf_pid": "GAQLD162501828",
    "tech_change_status": "Not Planned"
   }
  },
  {
   "type": "Feature",
   "geometry": {
    "type": "Point",
    "coordinates": [
     149.95078535,
     -28.59667835
    ]
   },
   "properties": {
    "name": "2535 CALLANDOON ROAD TOOBEAH 4498",
    "locID": "LOC000150205534",
    "tech": "NULL",
    "upgrade": "NULL_NA",
    "gnaf_pid": "GAQLD162501829",
    "tech_change_status": "Not Planned"
   }
  },
  {
   "type": "Feature",
   "geometry": {
    "type": "Point",
    "coordinates": [
     149.93758322,
     -28.56914418
    ]
   },
   "properties": {
    "name": "LOT 3 CALLANDOON ROAD TOOBEAH 4498",
    "locID": "LOC000150205534",
    "tech": "NULL",
    "upgrade": "NULL_NA",
    "gnaf_pid": "GAQLD162501830",
    "tech_change_status": "Not Planned"
   }
  },
  {
   "type": "Feature",
   "geometry": {
    "type": "Point",
    "coordinates": [
     149.95813286,
     -28.57476498
    ]
   },
   "properties": {
    "name": "LOT 4 CALLANDOON ROAD TOOBEAH 4498",
    "locID": "LOC000009511485",
    "tech": "NULL",
    "upgrade": "NULL_NA",
    "gnaf_pid": "GAQLD162501831",
    "tech_change_status": "Not Planned"
   }
  },
  {
   "type": "Feature",
   "geometry": {
    "type": "Point",
    "coordinates": [
     149.87695339,
     -28.20424554
    ]
   },
   "properties": {
    "name": "LOT 1 COORANGY ROAD TOOBEAH 4498",
    "locID": "LOC000150205568",
    "tech": "NULL",
    "upgrade": "NULL_NA",
    "gnaf_pid": "GAQLD162503502",
    "tech_change_status": "Not Planned"
   }
  },
  {
   "type": "Feature",
   "geometry": {
    "type": "Point",
    "coordinates": [
     149.74670176,
     -28.58916361
    ]
   },
   "properties": {
    "name": "LOT 1 DONOVANS ROAD TOOBEAH 4498",
    "locID": "LOC000142287833",
    "tech": "SATELLITE",
    "upgrade": "NULL_NA",
    "gnaf_pid": "GAQLD162504581",
    "tech_change_status": "Not Planned"
   }
  },
  {
   "type": "Feature",
   "geometry": {
    "type": "Point",
    "coordinates": [
     150.03440032,
     -28.42850655
    ]
   },
   "properties": {
    "name": "LOT 3 GOORAY ROAD TOOBEAH 4498",
    "locID": "LOC000128174366",
    "tech": "SATELLITE",
    "upgrade": "NULL_NA",
    "gnaf_pid": "GAQLD162508511",
    "tech_change_status": "Not Planned"
   }
  },
  {
   "type": "Feature",
   "geometry": {
    "type": "Point",
    "coordinates": [
     150.03291915,
     -28.44340184
    ]
   },
   "properties": {
    "name": "LOT 4 GOORAY ROAD TOOBEAH 4498",
    "locID": "LOC000079889284",
    "tech": "NULL",
    "upgrade": "NULL_NA",
    "gnaf_pid": "GAQLD162508512",
    "tech_change_status": "Not Planned"
   }
  },
  {
   "type": "Feature",
   "geometry": {
    "type": "Point",
    "coordinates": [
     149.86132506,
     -28.56446965
    ]
   },
   "properties": {
    "name": "LOT 17 JAMIESONS ROAD TOOBEAH 4498",
    "locID": "LOC000096349943",
    "tech": "NULL",
    "upgrade": "NULL_NA",
    "gnaf_pid": "GAQLD162510541",
    "tech_change_status": "Not Planned"
   }
  },
  {
   "type": "Feature",
   "geometry": {
    "type": "Point",
    "coordinates": [
     149.8188693,
     -28.58393606
    ]
   },
   "properties": {
    "name": "LOT 2 JAMIESONS ROAD TOOBEAH 4498",
    "locID": "LOC000128132009",
    "tech": "NULL",
    "upgrade": "NULL_NA",
    "gnaf_pid": "GAQLD162510543",
    "tech_change_status": "Not Planned"
   }
  },
  {
   "type": "Feature",
   "geometry": {
    "type": "Point",
    "coordinates": [
     149.85261306,
     -28.59686315
    ]
   },
   "properties": {
    "name": "LOT 4 JAMIESONS ROAD TOOBEAH 4498",
    "locID": "LOC000142489562",
    "tech": "NULL",
    "upgrade": "NULL_NA",
    "gnaf_pid": "GAQLD162510544",
    "tech_change_status": "Not Planned"
   }
  },
  {
   "type": "Feature",
   "geometry": {
    "type": "Point",
    "coordinates": [
     149.84236394,
     -28.56489202
    ]
   },
   "properties": {
    "name": "LOT 6 JAMIESONS ROAD TOOBEAH 4498",
    "locID": "LOC000140468136",
    "tech": "NULL",
    "upgrade": "NULL_NA",
    "gnaf_pid": "GAQLD162510545",
    "tech_change_status": "Not Planned"
   }
  },
  {
   "type": "Feature",
   "geometry": {
    "type": "Point",
    "coordinates": [
     149.85440383,
     -28.32182997
    ]
   },
   "properties": {
    "name": "LOT 2 KIOMA ROAD TOOBEAH 4498",
    "locID": "LOC000150205575",
    "tech": "SATELLITE",
    "upgrade": "NULL_NA",
    "gnaf_pid": "GAQLD162511598",
    "tech_change_status": "Not Planned"
   }
  },
  {
   "type": "Feature",
   "geometry": {
    "type": "Point",
    "coordinates": [
     149.89447258,
     -28.53383763
    ]
   },
   "properties": {
    "name": "1061 SOUTH TOOBEAH ROAD TOOBEAH 4498",
    "locID": "LOC000097336393",
    "tech": "NULL",
    "upgrade": "NULL_NA",
    "gnaf_pid": "GAQLD162522477",
    "tech_change_status": "Not Planned"
   }
  },
  {
   "type": "Feature",
   "geometry": {
    "type": "Point",
    "coordinates": [
     149.85459577,
     -28.53691434
    ]
   },
   "properties": {
    "name": "1297 SOUTH TOOBEAH ROAD TOOBEAH 4498",
    "locID": "LOC000150205547",
    "tech": "SATELLITE",
    "upgrade": "NULL_NA",
    "gnaf_pid": "GAQLD162522478",
    "tech_change_status": "Not Planned"
   }
  },
  {
   "type": "Feature",
   "geometry": {
    "type": "Point",
    "coordinates": [
     149.86883038,
     -28.42312371
    ]
   },
   "properties": {
    "name": "LOT 19 SOUTH TOOBEAH ROAD TOOBEAH 4498",
    "locID": "LOC000070057674",
    "tech": "NULL",
    "upgrade": "NULL_NA",
    "gnaf_pid": "GAQLD162522480",
    "tech_change_status": "Not Planned"
   }
  },
  {
   "type": "Feature",
   "geometry": {
    "type": "Point",
    "coordinates": [
     149.91530826,
     -28.51396217
    ]
   },
   "properties": {
    "name": "LOT 10 SOUTH WINTON ROAD TOOBEAH 4498",
    "locID": "LOC000113478409",
    "tech": "NULL",
    "upgrade": "NULL_NA",
    "gnaf_pid": "GAQLD162522507",
    "tech_change_status": "Not Planned"
   }
  },
  {
   "type": "Feature",
   "geometry": {
    "type": "Point",
    "coordinates": [
     149.93786421,
     -28.49483591
    ]
   },
   "properties": {
    "name": "LOT 12 SOUTH WINTON ROAD TOOBEAH 4498",
    "locID": "LOC000113478409",
    "tech": "NULL",
    "upgrade": "NULL_NA",
    "gnaf_pid": "GAQLD162522509",
    "tech_change_status": "Not Planned"
   }
  },
  {
   "type": "Feature",
   "geometry": {
    "type": "Point",
    "coordinates": [
     149.94163677,
     -28.4431159
    ]
   },
   "properties": {
    "name": "258 SOUTH WINTON ROAD TOOBEAH 4498",
    "locID": "LOC000070057674",
    "tech": "NULL",
    "upgrade": "NULL_NA",
    "gnaf_pid": "GAQLD162522510",
    "tech_change_status": "Not Planned"
   }
  },
  {
   "type": "Feature",
   "geometry": {
    "type": "Point",
    "coordinates": [
     149.92275821,
     -28.46686516
    ]
   },
   "properties": {
    "name": "386 SOUTH WINTON ROAD TOOBEAH 4498",
    "locID": "LOC000082729713",
    "tech": "NULL",
    "upgrade": "NULL_NA",
    "gnaf_pid": "GAQLD162522511",
    "tech_change_status": "Not Planned"
   }
  },
  {
   "type": "Feature",
   "geometry": {
    "type": "Point",
    "coordinates": [
     149.93443506,
     -28.51297595
    ]
   },
   "properties": {
    "name": "983 SOUTH WINTON ROAD TOOBEAH 4498",
    "locID": "LOC000085000041",
    "tech": "SATELLITE",
    "upgrade": "NULL_NA",
    "gnaf_pid": "GAQLD162522512",
    "tech_change_status": "Not Planned"
   }
  },
  {
   "type": "Feature",
   "geometry": {
    "type": "Point",
    "coordinates": [
     149.868771,
     -28.42165261
    ]
   },
   "properties": {
    "name": "LOT 13 TOOBEAH ROAD SOUTH TOOBEAH 4498",
    "locID": "LOC000085000041",
    "tech": "SATELLITE",
    "upgrade": "NULL_NA",
    "gnaf_pid": "GAQLD162524937",
    "tech_change_status": "Not Planned"
   }
  },
  {
   "type": "Feature",
   "geometry": {
    "type": "Point",
    "coordinates": [
     149.96991138,
     -28.47500485
    ]
   },
   "properties": {
    "name": "LOT 3 BARWON HIGHWAY TOOBEAH 4498",
    "locID": "LOC000039264937",
    "tech": "SATELLITE",
    "upgrade": "NULL_NA",
    "gnaf_pid": "GAQLD162862980",
    "tech_change_status": "Not Planned"
   }
  },
  {
   "type": "Feature",
   "geometry": {
    "type": "Point",
    "coordinates": [
     149.88930403,
     -28.39411706
    ]
   },
   "properties": {
    "name": "LOT 4 BARWON HIGHWAY TOOBEAH 4498",
    "locID": "LOC000142843850",
    "tech": "SATELLITE",
    "upgrade": "NULL_NA",
    "gnaf_pid": "GAQLD162864336",
    "tech_change_status": "Not Planned"
   }
  },
  {
   "type": "Feature",
   "geometry": {
    "type": "Point",
    "coordinates": [
     149.78833287,
     -28.45824884
    ]
   },
   "properties": {
    "name": "LOT 1 BARWON HIGHWAY TOOBEAH 4498",
    "locID": "LOC000068400350",
    "tech": "NULL",
    "upgrade": "NULL_NA",
    "gnaf_pid": "GAQLD162949767",
    "tech_change_status": "Not Planned"
   }
  },
  {
   "type": "Feature",
   "geometry": {
    "type": "Point",
    "coordinates": [
     149.91835146,
     -28.49010475
    ]
   },
   "properties": {
    "name": "722 SOUTH WINTON ROAD TOOBEAH 4498",
    "locID": "LOC000142315705",
    "tech": "NULL",
    "upgrade": "NULL_NA",
    "gnaf_pid": "GAQLD162997648",
    "tech_change_status": "Not Planned"
   }
  },
  {
   "type": "Feature",
   "geometry": {
    "type": "Point",
    "coordinates": [
     149.71642237,
     -28.51899288
    ]
   },
   "properties": {
    "name": "69 KALANGA ROAD TOOBEAH 4498",
    "locID": "LOC000097628078",
    "tech": "SATELLITE",
    "upgrade": "NULL_NA",
    "gnaf_pid": "GAQLD163107291",
    "tech_change_status": "Not Planned"
   }
  },
  {
   "type": "Feature",
   "geometry": {
    "type": "Point",
    "coordinates": [
     149.88725667,
     -28.58766165
    ]
   },
   "properties": {
    "name": "617 JAMIESONS ROAD TOOBEAH 4498",
    "locID": "LOC000140468136",
    "tech": "NULL",
    "upgrade": "NULL_NA",
    "gnaf_pid": "GAQLD163263531",
    "tech_change_status": "Not Planned"
   }
  },
  {
   "type": "Feature",
   "geometry": {
    "type": "Point",
    "coordinates": [
     149.92275821,
     -28.46686516
    ]
   },
   "properties": {
    "name": "386A SOUTH WINTON ROAD TOOBEAH 4498",
    "locID": "LOC000113478409",
    "tech": "NULL",
    "upgrade": "NULL_NA",
    "gnaf_pid": "GAQLD163332782",
    "tech_change_status": "Not Planned"
   }
  },
  {
   "type": "Feature",
   "geometry": {
    "type": "Point",
    "coordinates": [
     149.87082691,
     -28.41648587
    ]
   },
   "properties": {
    "name": "LOT 112 HIGHWAY STREET TOOBEAH 4498",
    "locID": "LOC000116040700",
    "tech": "NULL",
    "upgrade": "NULL_NA",
    "gnaf_pid": "GAQLD163352805",
    "tech_change_status": "Not Planned"
   }
  },
  {
   "type": "Feature",
   "geometry": {
    "type": "Point",
    "coordinates": [
     149.95172238,
     -28.39695922
    ]
   },
   "properties": {
    "name": "UNIT 1, 4146 BARWON HIGHWAY TOOBEAH 4498",
    "locID": "LOC000116040621",
    "tech": "SATELLITE",
    "upgrade": "NULL_NA",
    "gnaf_pid": "GAQLD425045215",
    "tech_change_status": "Not Planned"
   }
  },
  {
   "type": "Feature",
   "geometry": {
    "type": "Point",
    "coordinates": [
     149.95172238,
     -28.39695922
    ]
   },
   "properties": {
    "name": "UNIT 2, 4146 BARWON HIGHWAY TOOBEAH 4498",
    "locID": "LOC000116040621",
    "tech": "SATELLITE",
    "upgrade": "NULL_NA",
    "gnaf_pid": "GAQLD425045216",
    "tech_change_status": "Not Planned"
   }
  },
  {
   "type": "Feature",
   "geometry": {
    "type": "Point",
    "coordinates": [
     149.95078535,
     -28.59667835
    ]
   },
   "properties": {
    "name": "UNIT 1, 2535 CALLANDOON ROAD TOOBEAH 4498",
    "locID": "LOC000150205534",
    "tech": "NULL",
    "upgrade": "NULL_NA",
    "gnaf_pid": "GAQLD425046678",
    "tech_change_status": "Not Planned"
   }
  },
  {
   "type": "Feature",
   "geometry": {
    "type": "Point",
    "coordinates": [
     149.95078535,
     -28.59667835
    ]
   },
   "properties": {
    "name": "UNIT 2, 2535 CALLANDOON ROAD TOOBEAH 4498",
    "locID": "LOC000150205534",
    "tech": "NULL",
    "upgrade": "NULL_NA",
    "gnaf_pid": "GAQLD425046679",
    "tech_change_status": "Not Planned"
   }
  },
  {
   "type": "Feature",
   "geometry": {
    "type": "Point",
    "coordinates": [
     149.95078535,
     -28.59667835
    ]
   },
   "properties": {
    "name": "UNIT 3, 2535 CALLANDOON ROAD TOOBEAH 4498",
    "locID": "LOC000150205534",
    "tech": "NULL",
    "upgrade": "NULL_NA",
    "gnaf_pid": "GAQLD425046680",
    "tech_change_status": "Not Planned"
   }
  },
  {
   "type": "Feature",
   "geometry": {
    "type": "Point",
    "coordinates": [
     149.95078535,
     -28.59667835
    ]
   },
   "properties": {
    "name": "UNIT 4, 2535 CALLANDOON ROAD TOOBEAH 4498",
    "locID": "LOC000150205534",
    "tech": "NULL",
    "upgrade": "NULL_NA",
    "gnaf_pid": "GAQLD425046681",
    "tech_change_status": "Not Planned"
   }
  },
  {
   "type": "Feature",
   "geometry": {
    "type": "Point",
    "coordinates": [
     149.95078535,
     -28.59667835
    ]
   },
   "properties": {
    "name": "UNIT 5, 2535 CALLANDOON ROAD TOOBEAH 4498",
    "locID": "LOC000150205534",
    "tech": "NULL",
    "upgrade": "NULL_NA",
    "gnaf_pid": "GAQLD425046682",
    "tech_change_status": "Not Planned"
   }
  },
  {
   "type": "Feature",
   "geometry": {
    "type": "Point",
    "coordinates": [
     149.85459577,
     -28.53691434
    ]
   },
   "properties": {
    "name": "UNIT 2, 1297 SOUTH TOOBEAH ROAD TOOBEAH 4498",
    "locID": "LOC000150205547",
    "tech": "SATELLITE",
    "upgrade": "NULL_NA",
    "gnaf_pid": "GAQLD425052311",
    "tech_change_status": "Not Planned"
   }
  },
  {
   "type": "Feature",
   "geometry": {
    "type": "Point",
    "coordinates": [
     149.85459577,
     -28.53691434
    ]
   },
   "properties": {
    "name": "UNIT 3, 1297 SOUTH TOOBEAH ROAD TOOBEAH 4498",
    "locID": "LOC000150205547",
    "tech": "SATELLITE",
    "upgrade": "NULL_NA",
    "gnaf_pid": "GAQLD425052312",
    "tech_change_status": "Not Planned"
   }
  },
  {
   "type": "Feature",
   "geometry": {
    "type": "Point",
    "coordinates": [
     149.91835146,
     -28.49010475
    ]
   },
   "properties": {
    "name": "UNIT 1, 722 SOUTH WINTON ROAD TOOBEAH 4498",
    "locID": "LOC000142315705",
    "tech": "NULL",
    "upgrade": "NULL_NA",
    "gnaf_pid": "GAQLD425052314",
    "tech_change_status": "Not Planned"
   }
  },
  {
   "type": "Feature",
   "geometry": {
    "type": "Point",
    "coordinates": [
     149.91835146,
     -28.49010475
    ]
   },
   "properties": {
    "name": "UNIT 2, 722 SOUTH WINTON ROAD TOOBEAH 4498",
    "locID": "LOC000142315705",
    "tech": "NULL",
    "upgrade": "NULL_NA",
    "gnaf_pid": "GAQLD425052315",
    "tech_change_status": "Not Planned"
   }
  },
  {
   "type": "Feature",
   "geometry": {
    "type": "Point",
    "coordinates": [
     149.91835146,
     -28.49010475
    ]
   },
   "properties": {
    "name": "UNIT 3, 722 SOUTH WINTON ROAD TOOBEAH 4498",
    "locID": "LOC000142315705",
    "tech": "NULL",
    "upgrade": "NULL_NA",
    "gnaf_pid": "GAQLD425052316",
    "tech_change_status": "Not Planned"
   }
  },
  {
   "type": "Feature",
   "geometry": {
    "type": "Point",
    "coordinates": [
     149.83717574,
     -28.50619046
    ]
   },
   "properties": {
    "name": "LOT 13 SOUTH TOOBEAH ROAD TOOBEAH 4498",
    "locID": "LOC000085000041",
    "tech": "SATELLITE",
    "upgrade": "NULL_NA",
    "gnaf_pid": "GAQLD425345373",
    "tech_change_status": "Not Planned"
   }
  },
  {
   "type": "Feature",
   "geometry": {
    "type": "Point",
    "coordinates": [
     149.95538503,
     -28.19623503
    ]
   },
   "properties": {
    "name": "16 COORANGY ROAD TOOBEAH 4498",
    "locID": "LOC000150205568",
    "tech": "NULL",
    "upgrade": "NULL_NA",
    "gnaf_pid": "GAQLD425375437",
    "tech_change_status": "Not Planned"
   }
  },
  {
   "type": "Feature",
   "geometry": {
    "type": "Point",
    "coordinates": [
     149.9270457,
     -28.19466581
    ]
   },
   "properties": {
    "name": "LOT 21 COORANGY ROAD TOOBEAH 4498",
    "locID": "LOC000150205568",
    "tech": "NULL",
    "upgrade": "NULL_NA",
    "gnaf_pid": "GAQLD425375438",
    "tech_change_status": "Not Planned"
   }
  },
  {
   "type": "Feature",
   "geometry": {
    "type": "Point",
    "coordinates": [
     149.88670034,
     -28.17573296
    ]
   },
   "properties": {
    "name": "3630 KIOMA ROAD TOOBEAH 4498",
    "locID": "LOC000150205575",
    "tech": "SATELLITE",
    "upgrade": "NULL_NA",
    "gnaf_pid": "GAQLD425377593",
    "tech_change_status": "Not Planned"
   }
  },
  {
   "type": "Feature",
   "geometry": {
    "type": "Point",
    "coordinates": [
     149.85461549,
     -28.10901336
    ]
   },
   "properties": {
    "name": "LOT 25 KIOMA ROAD TOOBEAH 4498",
    "locID": "LOC000004487150",
    "tech": "NULL",
    "upgrade": "NULL_NA",
    "gnaf_pid": "GAQLD425377594",
    "tech_change_status": "Not Planned"
   }
  },
  {
   "type": "Feature",
   "geometry": {
    "type": "Point",
    "coordinates": [
     149.78851308,
     -28.29769398
    ]
   },
   "properties": {
    "name": "3855 KIOMA ROAD TOOBEAH 4498",
    "locID": "LOC000143015934",
    "tech": "SATELLITE",
    "upgrade": "NULL_NA",
    "gnaf_pid": "GAQLD425382386",
    "tech_change_status": "Not Planned"
   }
  },
  {
   "type": "Feature",
   "geometry": {
    "type": "Point",
    "coordinates": [
     149.9756021,
     -28.24613445
    ]
   },
   "properties": {
    "name": "LOT 2 BURUMBAH ROAD TOOBEAH 4498",
    "locID": "LOC000150205599",
    "tech": "SATELLITE",
    "upgrade": "NULL_NA",
    "gnaf_pid": "GAQLD425473456",
    "tech_change_status": "Not Planned"
   }
  },
  {
   "type": "Feature",
   "geometry": {
    "type": "Point",
    "coordinates": [
     149.72483914,
     -28.56082831
    ]
   },
   "properties": {
    "name": "LOT 2 DONOVANS ROAD TOOBEAH 4498",
    "locID": "LOC000150205608",
    "tech": "NULL",
    "upgrade": "NULL_NA",
    "gnaf_pid": "GAQLD425474627",
    "tech_change_status": "Not Planned"
   }
  },
  {
   "type": "Feature",
   "geometry": {
    "type": "Point",
    "coordinates": [
     149.69029152,
     -28.5880178
    ]
   },
   "properties": {
    "name": "LOT 3 DONOVANS ROAD TOOBEAH 4498",
    "locID": "LOC000095018400",
    "tech": "NULL",
    "upgrade": "NULL_NA",
    "gnaf_pid": "GAQLD425474628",
    "tech_change_status": "Not Planned"
   }
  },
  {
   "type": "Feature",
   "geometry": {
    "type": "Point",
    "coordinates": [
     149.67953967,
     -28.60104936
    ]
   },
   "properties": {
    "name": "LOT 4 DONOVANS ROAD TOOBEAH 4498",
    "locID": "LOC000063261544",
    "tech": "NULL",
    "upgrade": "NULL_NA",
    "gnaf_pid": "GAQLD425474629",
    "tech_change_status": "Not Planned"
   }
  },
  {
   "type": "Feature",
   "geometry": {
    "type": "Point",
    "coordinates": [
     149.68270793,
     -28.61821919
    ]
   },
   "properties": {
    "name": "LOT 5 DONOVANS ROAD TOOBEAH 4498",
    "locID": "LOC000077505406",
    "tech": "NULL",
    "upgrade": "NULL_NA",
    "gnaf_pid": "GAQLD425474630",
    "tech_change_status": "Not Planned"
   }
  },
  {
   "type": "Feature",
   "geometry": {
    "type": "Point",
    "coordinates": [
     149.90200047,
     -28.45831902
    ]
   },
   "properties": {
    "name": "LOT 15 SOUTH WINTON ROAD TOOBEAH 4498",
    "locID": "LOC000113478409",
    "tech": "NULL",
    "upgrade": "NULL_NA",
    "gnaf_pid": "GAQLD425479423",
    "tech_change_status": "Not Planned"
   }
  },
  {
   "type": "Feature",
   "geometry": {
    "type": "Point",
    "coordinates": [
     149.90903053,
     -28.42031507
    ]
   },
   "properties": {
    "name": "LOT 152 BARWON HIGHWAY TOOBEAH 4498",
    "locID": "LOC000142311941",
    "tech": "SATELLITE",
    "upgrade": "NULL_NA",
    "gnaf_pid": "GAQLD719337294",
    "tech_change_status": "Not Planned"
   }
  },
  {
   "type": "Feature",
   "geometry": {
    "type": "Point",
    "coordinates": [
     149.88494631,
     -28.41805667
    ]
   },
   "properties": {
    "name": "LOT 153 BARWON HIGHWAY TOOBEAH 4498",
    "locID": "LOC000142311941",
    "tech": "SATELLITE",
    "upgrade": "NULL_NA",
    "gnaf_pid": "GAQLD719340003",
    "tech_change_status": "Not Planned"
   }
  },
  {
   "type": "Feature",
   "geometry": {
    "type": "Point",
    "coordinates": [
     149.94244897,
     -28.42225305
    ]
   },
   "properties": {
    "name": "LOT 151 BARWON HIGHWAY TOOBEAH 4498",
    "locID": "LOC000142311941",
    "tech": "SATELLITE",
    "upgrade": "NULL_NA",
    "gnaf_pid": "GAQLD719340507",
    "tech_change_status": "Not Planned"
   }
  },
  {
   "type": "Feature",
   "geometry": {
    "type": "Point",
    "coordinates": [
     149.86480181,
     -28.48384249
    ]
   },
   "properties": {
    "name": "LOT 7 SOUTH TOOBEAH ROAD TOOBEAH 4498",
    "locID": "LOC000036608348",
    "tech": "SATELLITE",
    "upgrade": "NULL_NA",
    "gnaf_pid": "GAQLD719341980",
    "tech_change_status": "Not Planned"
   }
  },
  {
   "type": "Feature",
   "geometry": {
    "type": "Point",
    "coordinates": [
     150.03514735,
     -28.44539125
    ]
   },
   "properties": {
    "name": "LOT 112 GOORAY ROAD TOOBEAH 4498",
    "locID": "LOC000128174366",
    "tech": "SATELLITE",
    "upgrade": "NULL_NA",
    "gnaf_pid": "GAQLD719343642",
    "tech_change_status": "Not Planned"
   }
  },
  {
   "type": "Feature",
   "geometry": {
    "type": "Point",
    "coordinates": [
     149.87010834,
     -28.41725868
    ]
   },
   "properties": {
    "name": "5 HIGHWAY STREET TOOBEAH 4498",
    "locID": "LOC000111214226",
    "tech": "NULL",
    "upgrade": "NULL_NA",
    "gnaf_pid": "GAQLD719555523",
    "tech_change_status": "Not Planned"
   }
  },
  {
   "type": "Feature",
   "geometry": {
    "type": "Point",
    "coordinates": [
     149.86933237,
     -28.41726255
    ]
   },
   "properties": {
    "name": "22 HIGHWAY STREET TOOBEAH 4498",
    "locID": "LOC000141392746",
    "tech": "SATELLITE",
    "upgrade": "NULL_NA",
    "gnaf_pid": "GAQLD721227902",
    "tech_change_status": "Not Planned"
   }
  },
  {
   "type": "Feature",
   "geometry": {
    "type": "Point",
    "coordinates": [
     149.87057523,
     -28.41729211
    ]
   },
   "properties": {
    "name": "9 HIGHWAY STREET TOOBEAH 4498",
    "locID": "LOC000111675446",
    "tech": "NULL",
    "upgrade": "NULL_NA",
    "gnaf_pid": "GAQLD721227911",
    "tech_change_status": "Not Planned"
   }
  },
  {
   "type": "Feature",
   "geometry": {
    "type": "Point",
    "coordinates": [
     149.87122587,
     -28.41687321
    ]
   },
   "properties": {
    "name": "3 HIGHWAY STREET TOOBEAH 4498",
    "locID": "LOC000111675446",
    "tech": "NULL",
    "upgrade": "NULL_NA",
    "gnaf_pid": "GAQLD721228303",
    "tech_change_status": "Not Planned"
   }
  },
  {
   "type": "Feature",
   "geometry": {
    "type": "Point",
    "coordinates": [
     149.87037677,
     -28.41739662
    ]
   },
   "properties": {
    "name": "11 HIGHWAY STREET TOOBEAH 4498",
    "locID": "LOC000116040700",
    "tech": "NULL",
    "upgrade": "NULL_NA",
    "gnaf_pid": "GAQLD721228319",
    "tech_change_status": "Not Planned"
   }
  },
  {
   "type": "Feature",
   "geometry": {
    "type": "Point",
    "coordinates": [
     149.86968365,
     -28.41707463
    ]
   },
   "properties": {
    "name": "18 HIGHWAY STREET TOOBEAH 4498",
    "locID": "LOC100081527640",
    "tech": "NULL",
    "upgrade": "NULL_NA",
    "gnaf_pid": "GAQLD721229252",
    "tech_change_status": "Not Planned"
   }
  },
  {
   "type": "Feature",
   "geometry": {
    "type": "Point",
    "coordinates": [
     149.87118635,
     -28.41628626
    ]
   },
   "properties": {
    "name": "2 HIGHWAY STREET TOOBEAH 4498",
    "locID": "LOC000128156342",
    "tech": "NULL",
    "upgrade": "NULL_NA",
    "gnaf_pid": "GAQLD721230791",
    "tech_change_status": "Not Planned"
   }
  },
  {
   "type": "Feature",
   "geometry": {
    "type": "Point",
    "coordinates": [
     149.87079828,
     -28.41718577
    ]
   },
   "properties": {
    "name": "7 HIGHWAY STREET TOOBEAH 4498",
    "locID": "LOC000110613909",
    "tech": "NULL",
    "upgrade": "NULL_NA",
    "gnaf_pid": "GAQLD721231326",
    "tech_change_status": "Not Planned"
   }
  },
  {
   "type": "Feature",
   "geometry": {
    "type": "Point",
    "coordinates": [
     149.87083573,
     -28.41647413
    ]
   },
   "properties": {
    "name": "4 HIGHWAY STREET TOOBEAH 4498",
    "locID": "LOC000112003019",
    "tech": "NULL",
    "upgrade": "NULL_NA",
    "gnaf_pid": "GAQLD721231641",
    "tech_change_status": "Not Planned"
   }
  },
  {
   "type": "Feature",
   "geometry": {
    "type": "Point",
    "coordinates": [
     149.8701756,
     -28.41750576
    ]
   },
   "properties": {
    "name": "13 HIGHWAY STREET TOOBEAH 4498",
    "locID": "LOC000111214226",
    "tech": "NULL",
    "upgrade": "NULL_NA",
    "gnaf_pid": "GAQLD721232426",
    "tech_change_status": "Not Planned"
   }
  },
  {
   "type": "Feature",
   "geometry": {
    "type": "Point",
    "coordinates": [
     149.87022059,
     -28.41680006
    ]
   },
   "properties": {
    "name": "12 HIGHWAY STREET TOOBEAH 4498",
    "locID": "LOC000128156361",
    "tech": "NULL",
    "upgrade": "NULL_NA",
    "gnaf_pid": "GAQLD721234236",
    "tech_change_status": "Not Planned"
   }
  },
  {
   "type": "Feature",
   "geometry": {
    "type": "Point",
    "coordinates": [
     149.870573,
     -28.4166142
    ]
   },
   "properties": {
    "name": "8 HIGHWAY STREET TOOBEAH 4498",
    "locID": "LOC000128152274",
    "tech": "NULL",
    "upgrade": "NULL_NA",
    "gnaf_pid": "GAQLD721234814",
    "tech_change_status": "Not Planned"
   }
  },
  {
   "type": "Feature",
   "geometry": {
    "type": "Point",
    "coordinates": [
     149.869508,
     -28.41716858
    ]
   },
   "properties": {
    "name": "20 HIGHWAY STREET TOOBEAH 4498",
    "locID": "LOC000112003019",
    "tech": "NULL",
    "upgrade": "NULL_NA",
    "gnaf_pid": "GAQLD721235001",
    "tech_change_status": "Not Planned"
   }
  },
  {
   "type": "Feature",
   "geometry": {
    "type": "Point",
    "coordinates": [
     149.86986818,
     -28.41698592
    ]
   },
   "properties": {
    "name": "16 HIGHWAY STREET TOOBEAH 4498",
    "locID": "LOC000128152288",
    "tech": "NULL",
    "upgrade": "NULL_NA",
    "gnaf_pid": "GAQLD721235186",
    "tech_change_status": "Not Planned"
   }
  },
  {
   "type": "Feature",
   "geometry": {
    "type": "Point",
    "coordinates": [
     149.93441804,
     -28.15923271
    ]
   },
   "properties": {
    "name": "339 WARRABRI ROAD TOOBEAH 4498",
    "locID": "LOC000142347445",
    "tech": "SATELLITE",
    "upgrade": "NULL_NA",
    "gnaf_pid": "GAQLD721433570",
    "tech_change_status": "Not Planned"
   }
  }
 ]
}