{
 "type": "FeatureCollection",
 "generated": "2026-06-20T17:17:44.948659",
 "suburb": "TOOMULLA",
 "features": [
  {
   "type": "Feature",
   "geometry": {
    "type": "Point",
    "coordinates": [
     146.47047121,
     -19.07641151
    ]
   },
   "properties": {
    "name": "27 SALTWATER DRIVE TOOMULLA 4816",
    "locID": "LOC000074280147",
    "tech": "NULL",
    "upgrade": "NULL_NA",
    "gnaf_pid": "GAQLD155898893",
    "tech_change_status": "Not Planned"
   }
  },
  {
   "type": "Feature",
   "geometry": {
    "type": "Point",
    "coordinates": [
     146.47011283,
     -19.07623296
    ]
   },
   "properties": {
    "name": "31 SALTWATER DRIVE TOOMULLA 4816",
    "locID": "LOC000023525445",
    "tech": "NULL",
    "upgrade": "NULL_NA",
    "gnaf_pid": "GAQLD155898895",
    "tech_change_status": "Not Planned"
   }
  },
  {
   "type": "Feature",
   "geometry": {
    "type": "Point",
    "coordinates": [
     146.46955603,
     -19.07602741
    ]
   },
   "properties": {
    "name": "37 SALTWATER DRIVE TOOMULLA 4816",
    "locID": "LOC000100687026",
    "tech": "SATELLITE",
    "upgrade": "NULL_NA",
    "gnaf_pid": "GAQLD155898898",
    "tech_change_status": "Not Planned"
   }
  },
  {
   "type": "Feature",
   "geometry": {
    "type": "Point",
    "coordinates": [
     146.46978586,
     -19.07743167
    ]
   },
   "properties": {
    "name": "4 SALTWATER DRIVE TOOMULLA 4816",
    "locID": "LOC000129719472",
    "tech": "NULL",
    "upgrade": "NULL_NA",
    "gnaf_pid": "GAQLD155898900",
    "tech_change_status": "Not Planned"
   }
  },
  {
   "type": "Feature",
   "geometry": {
    "type": "Point",
    "coordinates": [
     146.46917579,
     -19.07587572
    ]
   },
   "properties": {
    "name": "41 SALTWATER DRIVE TOOMULLA 4816",
    "locID": "LOC000106888734",
    "tech": "NULL",
    "upgrade": "NULL_NA",
    "gnaf_pid": "GAQLD155898901",
    "tech_change_status": "Not Planned"
   }
  },
  {
   "type": "Feature",
   "geometry": {
    "type": "Point",
    "coordinates": [
     146.46897504,
     -19.07577636
    ]
   },
   "properties": {
    "name": "43 SALTWATER DRIVE TOOMULLA 4816",
    "locID": "LOC000055282005",
    "tech": "NULL",
    "upgrade": "NULL_NA",
    "gnaf_pid": "GAQLD155898902",
    "tech_change_status": "Not Planned"
   }
  },
  {
   "type": "Feature",
   "geometry": {
    "type": "Point",
    "coordinates": [
     146.47021087,
     -19.07734004
    ]
   },
   "properties": {
    "name": "8 SALTWATER DRIVE TOOMULLA 4816",
    "locID": "LOC000023525445",
    "tech": "NULL",
    "upgrade": "NULL_NA",
    "gnaf_pid": "GAQLD155898919",
    "tech_change_status": "Not Planned"
   }
  },
  {
   "type": "Feature",
   "geometry": {
    "type": "Point",
    "coordinates": [
     146.47068997,
     -19.07762774
    ]
   },
   "properties": {
    "name": "9 SALTWATER DRIVE TOOMULLA 4816",
    "locID": "LOC000064150133",
    "tech": "NULL",
    "upgrade": "NULL_NA",
    "gnaf_pid": "GAQLD155898920",
    "tech_change_status": "Not Planned"
   }
  },
  {
   "type": "Feature",
   "geometry": {
    "type": "Point",
    "coordinates": [
     146.47396453,
     -19.0816965
    ]
   },
   "properties": {
    "name": "4 TOOMULLA BEACH ROAD TOOMULLA 4816",
    "locID": "LOC000064225380",
    "tech": "NULL",
    "upgrade": "NULL_NA",
    "gnaf_pid": "GAQLD155898925",
    "tech_change_status": "Not Planned"
   }
  },
  {
   "type": "Feature",
   "geometry": {
    "type": "Point",
    "coordinates": [
     146.47382861,
     -19.08182417
    ]
   },
   "properties": {
    "name": "6 TOOMULLA BEACH ROAD TOOMULLA 4816",
    "locID": "LOC000063026714",
    "tech": "NULL",
    "upgrade": "NULL_NA",
    "gnaf_pid": "GAQLD155898927",
    "tech_change_status": "Not Planned"
   }
  },
  {
   "type": "Feature",
   "geometry": {
    "type": "Point",
    "coordinates": [
     146.46943583,
     -19.07671913
    ]
   },
   "properties": {
    "name": "11 DENISON COURT TOOMULLA 4816",
    "locID": "LOC000035035556",
    "tech": "NULL",
    "upgrade": "NULL_NA",
    "gnaf_pid": "GAQLD155903170",
    "tech_change_status": "Not Planned"
   }
  },
  {
   "type": "Feature",
   "geometry": {
    "type": "Point",
    "coordinates": [
     146.46980774,
     -19.0765037
    ]
   },
   "properties": {
    "name": "14 DENISON COURT TOOMULLA 4816",
    "locID": "LOC000006798166",
    "tech": "NULL",
    "upgrade": "NULL_NA",
    "gnaf_pid": "GAQLD155904178",
    "tech_change_status": "Not Planned"
   }
  },
  {
   "type": "Feature",
   "geometry": {
    "type": "Point",
    "coordinates": [
     146.46999709,
     -19.07658897
    ]
   },
   "properties": {
    "name": "16 DENISON COURT TOOMULLA 4816",
    "locID": "LOC000028533675",
    "tech": "NULL",
    "upgrade": "NULL_NA",
    "gnaf_pid": "GAQLD155904180",
    "tech_change_status": "Not Planned"
   }
  },
  {
   "type": "Feature",
   "geometry": {
    "type": "Point",
    "coordinates": [
     146.47074857,
     -19.07719468
    ]
   },
   "properties": {
    "name": "23 DENISON COURT TOOMULLA 4816",
    "locID": "LOC000116105647",
    "tech": "WIRELESS",
    "upgrade": "NULL_NA",
    "gnaf_pid": "GAQLD155904186",
    "tech_change_status": "Not Planned",
    "program_type": "Fixed Wireless and Satellite Upgrade Program",
    "target_eligibility_quarter": "NA"
   }
  },
  {
   "type": "Feature",
   "geometry": {
    "type": "Point",
    "coordinates": [
     146.4687013,
     -19.07648434
    ]
   },
   "properties": {
    "name": "3 DENISON COURT TOOMULLA 4816",
    "locID": "LOC000129713284",
    "tech": "NULL",
    "upgrade": "NULL_NA",
    "gnaf_pid": "GAQLD155904187",
    "tech_change_status": "Not Planned"
   }
  },
  {
   "type": "Feature",
   "geometry": {
    "type": "Point",
    "coordinates": [
     146.46888504,
     -19.07653115
    ]
   },
   "properties": {
    "name": "5 DENISON COURT TOOMULLA 4816",
    "locID": "LOC000045422769",
    "tech": "NULL",
    "upgrade": "NULL_NA",
    "gnaf_pid": "GAQLD155904189",
    "tech_change_status": "Not Planned"
   }
  },
  {
   "type": "Feature",
   "geometry": {
    "type": "Point",
    "coordinates": [
     146.46908519,
     -19.07659384
    ]
   },
   "properties": {
    "name": "7 DENISON COURT TOOMULLA 4816",
    "locID": "LOC000066226136",
    "tech": "NULL",
    "upgrade": "NULL_NA",
    "gnaf_pid": "GAQLD155905151",
    "tech_change_status": "Not Planned"
   }
  },
  {
   "type": "Feature",
   "geometry": {
    "type": "Point",
    "coordinates": [
     146.46927478,
     -19.07632644
    ]
   },
   "properties": {
    "name": "8 DENISON COURT TOOMULLA 4816",
    "locID": "LOC000041953418",
    "tech": "NULL",
    "upgrade": "NULL_NA",
    "gnaf_pid": "GAQLD155905152",
    "tech_change_status": "Not Planned"
   }
  },
  {
   "type": "Feature",
   "geometry": {
    "type": "Point",
    "coordinates": [
     146.47029168,
     -19.07811293
    ]
   },
   "properties": {
    "name": "4 DREAMTIME COURT TOOMULLA 4816",
    "locID": "LOC000042893913",
    "tech": "NULL",
    "upgrade": "NULL_NA",
    "gnaf_pid": "GAQLD155906177",
    "tech_change_status": "Not Planned"
   }
  },
  {
   "type": "Feature",
   "geometry": {
    "type": "Point",
    "coordinates": [
     146.47094235,
     -19.07829677
    ]
   },
   "properties": {
    "name": "7 DREAMTIME COURT TOOMULLA 4816",
    "locID": "LOC000129723023",
    "tech": "NULL",
    "upgrade": "NULL_NA",
    "gnaf_pid": "GAQLD155906179",
    "tech_change_status": "Not Planned"
   }
  },
  {
   "type": "Feature",
   "geometry": {
    "type": "Point",
    "coordinates": [
     146.46817379,
     -19.07796326
    ]
   },
   "properties": {
    "name": "12 EDGECUMBE COURT TOOMULLA 4816",
    "locID": "LOC000106896915",
    "tech": "SATELLITE",
    "upgrade": "NULL_NA",
    "gnaf_pid": "GAQLD155906192",
    "tech_change_status": "Not Planned"
   }
  },
  {
   "type": "Feature",
   "geometry": {
    "type": "Point",
    "coordinates": [
     146.46766379,
     -19.07776142
    ]
   },
   "properties": {
    "name": "18 EDGECUMBE COURT TOOMULLA 4816",
    "locID": "LOC000029149446",
    "tech": "SATELLITE",
    "upgrade": "NULL_NA",
    "gnaf_pid": "GAQLD155906895",
    "tech_change_status": "Not Planned"
   }
  },
  {
   "type": "Feature",
   "geometry": {
    "type": "Point",
    "coordinates": [
     146.46741766,
     -19.07767241
    ]
   },
   "properties": {
    "name": "20 EDGECUMBE COURT TOOMULLA 4816",
    "locID": "LOC000129707859",
    "tech": "SATELLITE",
    "upgrade": "NULL_NA",
    "gnaf_pid": "GAQLD155906897",
    "tech_change_status": "Not Planned"
   }
  },
  {
   "type": "Feature",
   "geometry": {
    "type": "Point",
    "coordinates": [
     146.46724291,
     -19.07760398
    ]
   },
   "properties": {
    "name": "22 EDGECUMBE COURT TOOMULLA 4816",
    "locID": "LOC000102745731",
    "tech": "NULL",
    "upgrade": "NULL_NA",
    "gnaf_pid": "GAQLD155906899",
    "tech_change_status": "Not Planned"
   }
  },
  {
   "type": "Feature",
   "geometry": {
    "type": "Point",
    "coordinates": [
     146.46901806,
     -19.07802041
    ]
   },
   "properties": {
    "name": "4 EDGECUMBE COURT TOOMULLA 4816",
    "locID": "LOC000078303252",
    "tech": "NULL",
    "upgrade": "NULL_NA",
    "gnaf_pid": "GAQLD155906901",
    "tech_change_status": "Not Planned"
   }
  },
  {
   "type": "Feature",
   "geometry": {
    "type": "Point",
    "coordinates": [
     146.46837211,
     -19.07757262
    ]
   },
   "properties": {
    "name": "7 EDGECUMBE COURT TOOMULLA 4816",
    "locID": "LOC000082422317",
    "tech": "SATELLITE",
    "upgrade": "NULL_NA",
    "gnaf_pid": "GAQLD155906904",
    "tech_change_status": "Not Planned"
   }
  },
  {
   "type": "Feature",
   "geometry": {
    "type": "Point",
    "coordinates": [
     146.47410879,
     -19.08222533
    ]
   },
   "properties": {
    "name": "11 HERALD STREET TOOMULLA 4816",
    "locID": "LOC000037393210",
    "tech": "SATELLITE",
    "upgrade": "NULL_NA",
    "gnaf_pid": "GAQLD155908826",
    "tech_change_status": "Not Planned"
   }
  },
  {
   "type": "Feature",
   "geometry": {
    "type": "Point",
    "coordinates": [
     146.47307912,
     -19.08122799
    ]
   },
   "properties": {
    "name": "19 HERALD STREET TOOMULLA 4816",
    "locID": "LOC000006703132",
    "tech": "NULL",
    "upgrade": "NULL_NA",
    "gnaf_pid": "GAQLD155908841",
    "tech_change_status": "Not Planned"
   }
  },
  {
   "type": "Feature",
   "geometry": {
    "type": "Point",
    "coordinates": [
     146.47294594,
     -19.08110324
    ]
   },
   "properties": {
    "name": "21 HERALD STREET TOOMULLA 4816",
    "locID": "LOC000012480651",
    "tech": "NULL",
    "upgrade": "NULL_NA",
    "gnaf_pid": "GAQLD155908842",
    "tech_change_status": "Not Planned"
   }
  },
  {
   "type": "Feature",
   "geometry": {
    "type": "Point",
    "coordinates": [
     146.47281163,
     -19.0809738
    ]
   },
   "properties": {
    "name": "23 HERALD STREET TOOMULLA 4816",
    "locID": "LOC000085019974",
    "tech": "SATELLITE",
    "upgrade": "NULL_NA",
    "gnaf_pid": "GAQLD155908843",
    "tech_change_status": "Not Planned"
   }
  },
  {
   "type": "Feature",
   "geometry": {
    "type": "Point",
    "coordinates": [
     146.47254299,
     -19.08071343
    ]
   },
   "properties": {
    "name": "27 HERALD STREET TOOMULLA 4816",
    "locID": "LOC000087879999",
    "tech": "NULL",
    "upgrade": "NULL_NA",
    "gnaf_pid": "GAQLD155908845",
    "tech_change_status": "Not Planned"
   }
  },
  {
   "type": "Feature",
   "geometry": {
    "type": "Point",
    "coordinates": [
     146.47240902,
     -19.08058396
    ]
   },
   "properties": {
    "name": "29 HERALD STREET TOOMULLA 4816",
    "locID": "LOC000076394176",
    "tech": "NULL",
    "upgrade": "NULL_NA",
    "gnaf_pid": "GAQLD155908846",
    "tech_change_status": "Not Planned"
   }
  },
  {
   "type": "Feature",
   "geometry": {
    "type": "Point",
    "coordinates": [
     146.47226723,
     -19.08042359
    ]
   },
   "properties": {
    "name": "31 HERALD STREET TOOMULLA 4816",
    "locID": "LOC000011586186",
    "tech": "SATELLITE",
    "upgrade": "NULL_NA",
    "gnaf_pid": "GAQLD155909800",
    "tech_change_status": "Not Planned"
   }
  },
  {
   "type": "Feature",
   "geometry": {
    "type": "Point",
    "coordinates": [
     146.47036802,
     -19.07938781
    ]
   },
   "properties": {
    "name": "64 HERALD STREET TOOMULLA 4816",
    "locID": "LOC000129722933",
    "tech": "NULL",
    "upgrade": "NULL_NA",
    "gnaf_pid": "GAQLD155909805",
    "tech_change_status": "Not Planned"
   }
  },
  {
   "type": "Feature",
   "geometry": {
    "type": "Point",
    "coordinates": [
     146.46997168,
     -19.07897107
    ]
   },
   "properties": {
    "name": "70 HERALD STREET TOOMULLA 4816",
    "locID": "LOC000041934423",
    "tech": "NULL",
    "upgrade": "NULL_NA",
    "gnaf_pid": "GAQLD155909821",
    "tech_change_status": "Not Planned"
   }
  },
  {
   "type": "Feature",
   "geometry": {
    "type": "Point",
    "coordinates": [
     146.47010002,
     -19.07828802
    ]
   },
   "properties": {
    "name": "71 HERALD STREET TOOMULLA 4816",
    "locID": "LOC000129723099",
    "tech": "NULL",
    "upgrade": "NULL_NA",
    "gnaf_pid": "GAQLD155909822",
    "tech_change_status": "Not Planned"
   }
  },
  {
   "type": "Feature",
   "geometry": {
    "type": "Point",
    "coordinates": [
     146.46998272,
     -19.07809573
    ]
   },
   "properties": {
    "name": "73 HERALD STREET TOOMULLA 4816",
    "locID": "LOC000005759344",
    "tech": "NULL",
    "upgrade": "NULL_NA",
    "gnaf_pid": "GAQLD155909824",
    "tech_change_status": "Not Planned"
   }
  },
  {
   "type": "Feature",
   "geometry": {
    "type": "Point",
    "coordinates": [
     146.46975242,
     -19.07865395
    ]
   },
   "properties": {
    "name": "74 HERALD STREET TOOMULLA 4816",
    "locID": "LOC000073862161",
    "tech": "NULL",
    "upgrade": "NULL_NA",
    "gnaf_pid": "GAQLD155909825",
    "tech_change_status": "Not Planned"
   }
  },
  {
   "type": "Feature",
   "geometry": {
    "type": "Point",
    "coordinates": [
     146.46964719,
     -19.07848858
    ]
   },
   "properties": {
    "name": "76 HERALD STREET TOOMULLA 4816",
    "locID": "LOC000045216550",
    "tech": "NULL",
    "upgrade": "NULL_NA",
    "gnaf_pid": "GAQLD155909827",
    "tech_change_status": "Not Planned"
   }
  },
  {
   "type": "Feature",
   "geometry": {
    "type": "Point",
    "coordinates": [
     146.46955472,
     -19.07831907
    ]
   },
   "properties": {
    "name": "78 HERALD STREET TOOMULLA 4816",
    "locID": "LOC000041137905",
    "tech": "SATELLITE",
    "upgrade": "NULL_NA",
    "gnaf_pid": "GAQLD155909828",
    "tech_change_status": "Not Planned"
   }
  },
  {
   "type": "Feature",
   "geometry": {
    "type": "Point",
    "coordinates": [
     146.46946302,
     -19.07815714
    ]
   },
   "properties": {
    "name": "80 HERALD STREET TOOMULLA 4816",
    "locID": "LOC000036225513",
    "tech": "NULL",
    "upgrade": "NULL_NA",
    "gnaf_pid": "GAQLD155909830",
    "tech_change_status": "Not Planned"
   }
  },
  {
   "type": "Feature",
   "geometry": {
    "type": "Point",
    "coordinates": [
     146.46938497,
     -19.07740076
    ]
   },
   "properties": {
    "name": "81 HERALD STREET TOOMULLA 4816",
    "locID": "LOC000129725707",
    "tech": "NULL",
    "upgrade": "NULL_NA",
    "gnaf_pid": "GAQLD155909831",
    "tech_change_status": "Not Planned"
   }
  },
  {
   "type": "Feature",
   "geometry": {
    "type": "Point",
    "coordinates": [
     146.46936347,
     -19.07799508
    ]
   },
   "properties": {
    "name": "82 HERALD STREET TOOMULLA 4816",
    "locID": "LOC000058513679",
    "tech": "NULL",
    "upgrade": "NULL_NA",
    "gnaf_pid": "GAQLD155909832",
    "tech_change_status": "Not Planned"
   }
  },
  {
   "type": "Feature",
   "geometry": {
    "type": "Point",
    "coordinates": [
     146.46890451,
     -19.07743162
    ]
   },
   "properties": {
    "name": "90 HERALD STREET TOOMULLA 4816",
    "locID": "LOC000028311413",
    "tech": "SATELLITE",
    "upgrade": "NULL_NA",
    "gnaf_pid": "GAQLD155909850",
    "tech_change_status": "Not Planned"
   }
  },
  {
   "type": "Feature",
   "geometry": {
    "type": "Point",
    "coordinates": [
     146.46834873,
     -19.07715155
    ]
   },
   "properties": {
    "name": "96 HERALD STREET TOOMULLA 4816",
    "locID": "LOC000022331776",
    "tech": "NULL",
    "upgrade": "NULL_NA",
    "gnaf_pid": "GAQLD155909855",
    "tech_change_status": "Not Planned"
   }
  },
  {
   "type": "Feature",
   "geometry": {
    "type": "Point",
    "coordinates": [
     146.47085232,
     -19.07873014
    ]
   },
   "properties": {
    "name": "2 LADY ELLIOTT COURT TOOMULLA 4816",
    "locID": "LOC000069888583",
    "tech": "NULL",
    "upgrade": "NULL_NA",
    "gnaf_pid": "GAQLD155909858",
    "tech_change_status": "Not Planned"
   }
  },
  {
   "type": "Feature",
   "geometry": {
    "type": "Point",
    "coordinates": [
     146.47009128,
     -19.07911994
    ]
   },
   "properties": {
    "name": "68 HERALD STREET TOOMULLA 4816",
    "locID": "LOC000043818221",
    "tech": "NULL",
    "upgrade": "NULL_NA",
    "gnaf_pid": "GAQLD155910796",
    "tech_change_status": "Not Planned"
   }
  },
  {
   "type": "Feature",
   "geometry": {
    "type": "Point",
    "coordinates": [
     146.47437725,
     -19.08248407
    ]
   },
   "properties": {
    "name": "7 HERALD STREET TOOMULLA 4816",
    "locID": "LOC000049740840",
    "tech": "NULL",
    "upgrade": "NULL_NA",
    "gnaf_pid": "GAQLD155910797",
    "tech_change_status": "Not Planned"
   }
  },
  {
   "type": "Feature",
   "geometry": {
    "type": "Point",
    "coordinates": [
     146.46925066,
     -19.07783717
    ]
   },
   "properties": {
    "name": "84 HERALD STREET TOOMULLA 4816",
    "locID": "LOC000030697654",
    "tech": "SATELLITE",
    "upgrade": "NULL_NA",
    "gnaf_pid": "GAQLD155910821",
    "tech_change_status": "Not Planned"
   }
  },
  {
   "type": "Feature",
   "geometry": {
    "type": "Point",
    "coordinates": [
     146.46906252,
     -19.07709882
    ]
   },
   "properties": {
    "name": "85 HERALD STREET TOOMULLA 4816",
    "locID": "LOC000129725724",
    "tech": "NULL",
    "upgrade": "NULL_NA",
    "gnaf_pid": "GAQLD155910822",
    "tech_change_status": "Not Planned"
   }
  },
  {
   "type": "Feature",
   "geometry": {
    "type": "Point",
    "coordinates": [
     146.4690365,
     -19.07760182
    ]
   },
   "properties": {
    "name": "88 HERALD STREET TOOMULLA 4816",
    "locID": "LOC000065913025",
    "tech": "NULL",
    "upgrade": "NULL_NA",
    "gnaf_pid": "GAQLD155910824",
    "tech_change_status": "Not Planned"
   }
  },
  {
   "type": "Feature",
   "geometry": {
    "type": "Point",
    "coordinates": [
     146.4687266,
     -19.07687496
    ]
   },
   "properties": {
    "name": "89 HERALD STREET TOOMULLA 4816",
    "locID": "LOC000068829274",
    "tech": "SATELLITE",
    "upgrade": "NULL_NA",
    "gnaf_pid": "GAQLD155910825",
    "tech_change_status": "Not Planned"
   }
  },
  {
   "type": "Feature",
   "geometry": {
    "type": "Point",
    "coordinates": [
     146.47011457,
     -19.07782234
    ]
   },
   "properties": {
    "name": "3 SALTWATER DRIVE TOOMULLA 4816",
    "locID": "LOC000010889701",
    "tech": "SATELLITE",
    "upgrade": "NULL_NA",
    "gnaf_pid": "GAQLD156085121",
    "tech_change_status": "Not Planned"
   }
  },
  {
   "type": "Feature",
   "geometry": {
    "type": "Point",
    "coordinates": [
     146.47060208,
     -19.07846568
    ]
   },
   "properties": {
    "name": "3 DREAMTIME COURT TOOMULLA 4816",
    "locID": "LOC000029452738",
    "tech": "SATELLITE",
    "upgrade": "NULL_NA",
    "gnaf_pid": "GAQLD156088806",
    "tech_change_status": "Not Planned"
   }
  },
  {
   "type": "Feature",
   "geometry": {
    "type": "Point",
    "coordinates": [
     146.4733577,
     -19.0813715
    ]
   },
   "properties": {
    "name": "5 TOOMULLA BEACH ROAD TOOMULLA 4816",
    "locID": "LOC000059853816",
    "tech": "NULL",
    "upgrade": "NULL_NA",
    "gnaf_pid": "GAQLD157211950",
    "tech_change_status": "Not Planned"
   }
  },
  {
   "type": "Feature",
   "geometry": {
    "type": "Point",
    "coordinates": [
     146.47477861,
     -19.08286613
    ]
   },
   "properties": {
    "name": "1 HERALD STREET TOOMULLA 4816",
    "locID": "LOC000018243077",
    "tech": "NULL",
    "upgrade": "NULL_NA",
    "gnaf_pid": "GAQLD157218744",
    "tech_change_status": "Not Planned"
   }
  },
  {
   "type": "Feature",
   "geometry": {
    "type": "Point",
    "coordinates": [
     146.46797778,
     -19.07701803
    ]
   },
   "properties": {
    "name": "100 HERALD STREET TOOMULLA 4816",
    "locID": "LOC000089820989",
    "tech": "NULL",
    "upgrade": "NULL_NA",
    "gnaf_pid": "GAQLD157218745",
    "tech_change_status": "Not Planned"
   }
  },
  {
   "type": "Feature",
   "geometry": {
    "type": "Point",
    "coordinates": [
     146.47397568,
     -19.08209043
    ]
   },
   "properties": {
    "name": "13 HERALD STREET TOOMULLA 4816",
    "locID": "LOC000129701497",
    "tech": "NULL",
    "upgrade": "NULL_NA",
    "gnaf_pid": "GAQLD157218759",
    "tech_change_status": "Not Planned"
   }
  },
  {
   "type": "Feature",
   "geometry": {
    "type": "Point",
    "coordinates": [
     146.47322365,
     -19.08149581
    ]
   },
   "properties": {
    "name": "17 HERALD STREET TOOMULLA 4816",
    "locID": "LOC000080379467",
    "tech": "NULL",
    "upgrade": "NULL_NA",
    "gnaf_pid": "GAQLD157218761",
    "tech_change_status": "Not Planned"
   }
  },
  {
   "type": "Feature",
   "geometry": {
    "type": "Point",
    "coordinates": [
     146.47464573,
     -19.0827428
    ]
   },
   "properties": {
    "name": "3 HERALD STREET TOOMULLA 4816",
    "locID": "LOC000033464707",
    "tech": "NULL",
    "upgrade": "NULL_NA",
    "gnaf_pid": "GAQLD157218768",
    "tech_change_status": "Not Planned"
   }
  },
  {
   "type": "Feature",
   "geometry": {
    "type": "Point",
    "coordinates": [
     146.47028162,
     -19.0763188
    ]
   },
   "properties": {
    "name": "29 SALTWATER DRIVE TOOMULLA 4816",
    "locID": "LOC000089773560",
    "tech": "NULL",
    "upgrade": "NULL_NA",
    "gnaf_pid": "GAQLD157222093",
    "tech_change_status": "Not Planned"
   }
  },
  {
   "type": "Feature",
   "geometry": {
    "type": "Point",
    "coordinates": [
     146.46992197,
     -19.07616671
    ]
   },
   "properties": {
    "name": "33 SALTWATER DRIVE TOOMULLA 4816",
    "locID": "LOC000043801093",
    "tech": "NULL",
    "upgrade": "NULL_NA",
    "gnaf_pid": "GAQLD157222096",
    "tech_change_status": "Not Planned"
   }
  },
  {
   "type": "Feature",
   "geometry": {
    "type": "Point",
    "coordinates": [
     146.46973903,
     -19.07610693
    ]
   },
   "properties": {
    "name": "35 SALTWATER DRIVE TOOMULLA 4816",
    "locID": "LOC000015352377",
    "tech": "NULL",
    "upgrade": "NULL_NA",
    "gnaf_pid": "GAQLD157222097",
    "tech_change_status": "Not Planned"
   }
  },
  {
   "type": "Feature",
   "geometry": {
    "type": "Point",
    "coordinates": [
     146.4745115,
     -19.08261341
    ]
   },
   "properties": {
    "name": "5 HERALD STREET TOOMULLA 4816",
    "locID": "LOC000009935779",
    "tech": "NULL",
    "upgrade": "NULL_NA",
    "gnaf_pid": "GAQLD157225883",
    "tech_change_status": "Not Planned"
   }
  },
  {
   "type": "Feature",
   "geometry": {
    "type": "Point",
    "coordinates": [
     146.4705012,
     -19.07951647
    ]
   },
   "properties": {
    "name": "62 HERALD STREET TOOMULLA 4816",
    "locID": "LOC000042935272",
    "tech": "NULL",
    "upgrade": "NULL_NA",
    "gnaf_pid": "GAQLD157225885",
    "tech_change_status": "Not Planned"
   }
  },
  {
   "type": "Feature",
   "geometry": {
    "type": "Point",
    "coordinates": [
     146.47044563,
     -19.07869355
    ]
   },
   "properties": {
    "name": "65 HERALD STREET TOOMULLA 4816",
    "locID": "LOC000014875942",
    "tech": "NULL",
    "upgrade": "NULL_NA",
    "gnaf_pid": "GAQLD157225888",
    "tech_change_status": "Not Planned"
   }
  },
  {
   "type": "Feature",
   "geometry": {
    "type": "Point",
    "coordinates": [
     146.47023479,
     -19.0792592
    ]
   },
   "properties": {
    "name": "66 HERALD STREET TOOMULLA 4816",
    "locID": "LOC000079200665",
    "tech": "NULL",
    "upgrade": "NULL_NA",
    "gnaf_pid": "GAQLD157225889",
    "tech_change_status": "Not Planned"
   }
  },
  {
   "type": "Feature",
   "geometry": {
    "type": "Point",
    "coordinates": [
     146.47032472,
     -19.07855014
    ]
   },
   "properties": {
    "name": "67 HERALD STREET TOOMULLA 4816",
    "locID": "LOC000113310097",
    "tech": "NULL",
    "upgrade": "NULL_NA",
    "gnaf_pid": "GAQLD157225890",
    "tech_change_status": "Not Planned"
   }
  },
  {
   "type": "Feature",
   "geometry": {
    "type": "Point",
    "coordinates": [
     146.46983611,
     -19.07880984
    ]
   },
   "properties": {
    "name": "72 HERALD STREET TOOMULLA 4816",
    "locID": "LOC000034386597",
    "tech": "SATELLITE",
    "upgrade": "NULL_NA",
    "gnaf_pid": "GAQLD157229207",
    "tech_change_status": "Not Planned"
   }
  },
  {
   "type": "Feature",
   "geometry": {
    "type": "Point",
    "coordinates": [
     146.46987196,
     -19.0778951
    ]
   },
   "properties": {
    "name": "75 HERALD STREET TOOMULLA 4816",
    "locID": "LOC000002556524",
    "tech": "NULL",
    "upgrade": "NULL_NA",
    "gnaf_pid": "GAQLD157229210",
    "tech_change_status": "Not Planned"
   }
  },
  {
   "type": "Feature",
   "geometry": {
    "type": "Point",
    "coordinates": [
     146.47424303,
     -19.0823547
    ]
   },
   "properties": {
    "name": "9 HERALD STREET TOOMULLA 4816",
    "locID": "LOC000104909836",
    "tech": "NULL",
    "upgrade": "NULL_NA",
    "gnaf_pid": "GAQLD157229258",
    "tech_change_status": "Not Planned"
   }
  },
  {
   "type": "Feature",
   "geometry": {
    "type": "Point",
    "coordinates": [
     146.46854825,
     -19.07683415
    ]
   },
   "properties": {
    "name": "91 HERALD STREET TOOMULLA 4816",
    "locID": "LOC000030729175",
    "tech": "SATELLITE",
    "upgrade": "NULL_NA",
    "gnaf_pid": "GAQLD157229260",
    "tech_change_status": "Not Planned"
   }
  },
  {
   "type": "Feature",
   "geometry": {
    "type": "Point",
    "coordinates": [
     146.46871211,
     -19.077319
    ]
   },
   "properties": {
    "name": "92 HERALD STREET TOOMULLA 4816",
    "locID": "LOC000129725822",
    "tech": "NULL",
    "upgrade": "NULL_NA",
    "gnaf_pid": "GAQLD157229261",
    "tech_change_status": "Not Planned"
   }
  },
  {
   "type": "Feature",
   "geometry": {
    "type": "Point",
    "coordinates": [
     146.46817032,
     -19.07708989
    ]
   },
   "properties": {
    "name": "98 HERALD STREET TOOMULLA 4816",
    "locID": "LOC000022331776",
    "tech": "NULL",
    "upgrade": "NULL_NA",
    "gnaf_pid": "GAQLD157229265",
    "tech_change_status": "Not Planned"
   }
  },
  {
   "type": "Feature",
   "geometry": {
    "type": "Point",
    "coordinates": [
     146.47105411,
     -19.07866045
    ]
   },
   "properties": {
    "name": "3 LADY ELLIOTT COURT TOOMULLA 4816",
    "locID": "LOC000109122138",
    "tech": "NULL",
    "upgrade": "NULL_NA",
    "gnaf_pid": "GAQLD157229267",
    "tech_change_status": "Not Planned"
   }
  },
  {
   "type": "Feature",
   "geometry": {
    "type": "Point",
    "coordinates": [
     146.4715755,
     -19.07844196
    ]
   },
   "properties": {
    "name": "6 LADY ELLIOTT COURT TOOMULLA 4816",
    "locID": "LOC000129719694",
    "tech": "NULL",
    "upgrade": "NULL_NA",
    "gnaf_pid": "GAQLD157229269",
    "tech_change_status": "Not Planned"
   }
  },
  {
   "type": "Feature",
   "geometry": {
    "type": "Point",
    "coordinates": [
     146.47045159,
     -19.07729569
    ]
   },
   "properties": {
    "name": "10 SALTWATER DRIVE TOOMULLA 4816",
    "locID": "LOC000129698563",
    "tech": "SATELLITE",
    "upgrade": "NULL_NA",
    "gnaf_pid": "GAQLD157229270",
    "tech_change_status": "Not Planned"
   }
  },
  {
   "type": "Feature",
   "geometry": {
    "type": "Point",
    "coordinates": [
     146.47140718,
     -19.07726588
    ]
   },
   "properties": {
    "name": "15 SALTWATER DRIVE TOOMULLA 4816",
    "locID": "LOC000010889701",
    "tech": "SATELLITE",
    "upgrade": "NULL_NA",
    "gnaf_pid": "GAQLD157229273",
    "tech_change_status": "Not Planned"
   }
  },
  {
   "type": "Feature",
   "geometry": {
    "type": "Point",
    "coordinates": [
     146.47114877,
     -19.07715726
    ]
   },
   "properties": {
    "name": "17 SALTWATER DRIVE TOOMULLA 4816",
    "locID": "LOC000064150133",
    "tech": "NULL",
    "upgrade": "NULL_NA",
    "gnaf_pid": "GAQLD157229274",
    "tech_change_status": "Not Planned"
   }
  },
  {
   "type": "Feature",
   "geometry": {
    "type": "Point",
    "coordinates": [
     146.4710534,
     -19.07700043
    ]
   },
   "properties": {
    "name": "19 SALTWATER DRIVE TOOMULLA 4816",
    "locID": "LOC000129705061",
    "tech": "NULL",
    "upgrade": "NULL_NA",
    "gnaf_pid": "GAQLD157229275",
    "tech_change_status": "Not Planned"
   }
  },
  {
   "type": "Feature",
   "geometry": {
    "type": "Point",
    "coordinates": [
     146.47096199,
     -19.07683592
    ]
   },
   "properties": {
    "name": "21 SALTWATER DRIVE TOOMULLA 4816",
    "locID": "LOC000129707918",
    "tech": "NULL",
    "upgrade": "NULL_NA",
    "gnaf_pid": "GAQLD157229277",
    "tech_change_status": "Not Planned"
   }
  },
  {
   "type": "Feature",
   "geometry": {
    "type": "Point",
    "coordinates": [
     146.4708405,
     -19.07667232
    ]
   },
   "properties": {
    "name": "23 SALTWATER DRIVE TOOMULLA 4816",
    "locID": "LOC000004151508",
    "tech": "NULL",
    "upgrade": "NULL_NA",
    "gnaf_pid": "GAQLD157229278",
    "tech_change_status": "Not Planned"
   }
  },
  {
   "type": "Feature",
   "geometry": {
    "type": "Point",
    "coordinates": [
     146.47070389,
     -19.07652899
    ]
   },
   "properties": {
    "name": "25 SALTWATER DRIVE TOOMULLA 4816",
    "locID": "LOC000025593388",
    "tech": "NULL",
    "upgrade": "NULL_NA",
    "gnaf_pid": "GAQLD157229279",
    "tech_change_status": "Not Planned"
   }
  },
  {
   "type": "Feature",
   "geometry": {
    "type": "Point",
    "coordinates": [
     146.46849295,
     -19.07639923
    ]
   },
   "properties": {
    "name": "1 DENISON COURT TOOMULLA 4816",
    "locID": "LOC000081479093",
    "tech": "SATELLITE",
    "upgrade": "NULL_NA",
    "gnaf_pid": "GAQLD157232713",
    "tech_change_status": "Not Planned"
   }
  },
  {
   "type": "Feature",
   "geometry": {
    "type": "Point",
    "coordinates": [
     146.46945688,
     -19.07635713
    ]
   },
   "properties": {
    "name": "10 DENISON COURT TOOMULLA 4816",
    "locID": "LOC000085826357",
    "tech": "NULL",
    "upgrade": "NULL_NA",
    "gnaf_pid": "GAQLD157232714",
    "tech_change_status": "Not Planned"
   }
  },
  {
   "type": "Feature",
   "geometry": {
    "type": "Point",
    "coordinates": [
     146.46964631,
     -19.07644828
    ]
   },
   "properties": {
    "name": "12 DENISON COURT TOOMULLA 4816",
    "locID": "LOC000094489724",
    "tech": "NULL",
    "upgrade": "NULL_NA",
    "gnaf_pid": "GAQLD157243151",
    "tech_change_status": "Not Planned"
   }
  },
  {
   "type": "Feature",
   "geometry": {
    "type": "Point",
    "coordinates": [
     146.46995398,
     -19.07694013
    ]
   },
   "properties": {
    "name": "17 DENISON COURT TOOMULLA 4816",
    "locID": "LOC000089563600",
    "tech": "NULL",
    "upgrade": "NULL_NA",
    "gnaf_pid": "GAQLD157243156",
    "tech_change_status": "Not Planned"
   }
  },
  {
   "type": "Feature",
   "geometry": {
    "type": "Point",
    "coordinates": [
     146.47024404,
     -19.07662676
    ]
   },
   "properties": {
    "name": "18 DENISON COURT TOOMULLA 4816",
    "locID": "LOC000129704949",
    "tech": "NULL",
    "upgrade": "NULL_NA",
    "gnaf_pid": "GAQLD157243157",
    "tech_change_status": "Not Planned"
   }
  },
  {
   "type": "Feature",
   "geometry": {
    "type": "Point",
    "coordinates": [
     146.4687111,
     -19.07611909
    ]
   },
   "properties": {
    "name": "2 DENISON COURT TOOMULLA 4816",
    "locID": "LOC000106163554",
    "tech": "NULL",
    "upgrade": "NULL_NA",
    "gnaf_pid": "GAQLD157243159",
    "tech_change_status": "Not Planned"
   }
  },
  {
   "type": "Feature",
   "geometry": {
    "type": "Point",
    "coordinates": [
     146.47051158,
     -19.07679455
    ]
   },
   "properties": {
    "name": "20 DENISON COURT TOOMULLA 4816",
    "locID": "LOC000064793518",
    "tech": "WIRELESS",
    "upgrade": "NULL_NA",
    "gnaf_pid": "GAQLD157243160",
    "tech_change_status": "Not Planned",
    "program_type": "Fixed Wireless and Satellite Upgrade Program",
    "target_eligibility_quarter": "NA"
   }
  },
  {
   "type": "Feature",
   "geometry": {
    "type": "Point",
    "coordinates": [
     146.46892401,
     -19.07621703
    ]
   },
   "properties": {
    "name": "4 DENISON COURT TOOMULLA 4816",
    "locID": "LOC000007719678",
    "tech": "NULL",
    "upgrade": "NULL_NA",
    "gnaf_pid": "GAQLD157243164",
    "tech_change_status": "Not Planned"
   }
  },
  {
   "type": "Feature",
   "geometry": {
    "type": "Point",
    "coordinates": [
     146.46910609,
     -19.0762534
    ]
   },
   "properties": {
    "name": "6 DENISON COURT TOOMULLA 4816",
    "locID": "LOC000029992039",
    "tech": "NULL",
    "upgrade": "NULL_NA",
    "gnaf_pid": "GAQLD157243166",
    "tech_change_status": "Not Planned"
   }
  },
  {
   "type": "Feature",
   "geometry": {
    "type": "Point",
    "coordinates": [
     146.47146383,
     -19.0780834
    ]
   },
   "properties": {
    "name": "13 DREAMTIME COURT TOOMULLA 4816",
    "locID": "LOC000008278168",
    "tech": "NULL",
    "upgrade": "NULL_NA",
    "gnaf_pid": "GAQLD157243183",
    "tech_change_status": "Not Planned"
   }
  },
  {
   "type": "Feature",
   "geometry": {
    "type": "Point",
    "coordinates": [
     146.47164508,
     -19.077531
    ]
   },
   "properties": {
    "name": "18 DREAMTIME COURT TOOMULLA 4816",
    "locID": "LOC000129704954",
    "tech": "NULL",
    "upgrade": "NULL_NA",
    "gnaf_pid": "GAQLD157243187",
    "tech_change_status": "Not Planned"
   }
  },
  {
   "type": "Feature",
   "geometry": {
    "type": "Point",
    "coordinates": [
     146.47029483,
     -19.077753
    ]
   },
   "properties": {
    "name": "5 SALTWATER DRIVE TOOMULLA 4816",
    "locID": "LOC000129719472",
    "tech": "NULL",
    "upgrade": "NULL_NA",
    "gnaf_pid": "GAQLD157246673",
    "tech_change_status": "Not Planned"
   }
  },
  {
   "type": "Feature",
   "geometry": {
    "type": "Point",
    "coordinates": [
     146.47048838,
     -19.07768823
    ]
   },
   "properties": {
    "name": "7 SALTWATER DRIVE TOOMULLA 4816",
    "locID": "LOC000106791420",
    "tech": "SATELLITE",
    "upgrade": "NULL_NA",
    "gnaf_pid": "GAQLD157246675",
    "tech_change_status": "Not Planned"
   }
  },
  {
   "type": "Feature",
   "geometry": {
    "type": "Point",
    "coordinates": [
     146.47129826,
     -19.07815882
    ]
   },
   "properties": {
    "name": "11 DREAMTIME COURT TOOMULLA 4816",
    "locID": "LOC000072478126",
    "tech": "NULL",
    "upgrade": "NULL_NA",
    "gnaf_pid": "GAQLD157250213",
    "tech_change_status": "Not Planned"
   }
  },
  {
   "type": "Feature",
   "geometry": {
    "type": "Point",
    "coordinates": [
     146.47076338,
     -19.07837827
    ]
   },
   "properties": {
    "name": "5 DREAMTIME COURT TOOMULLA 4816",
    "locID": "LOC000019094074",
    "tech": "SATELLITE",
    "upgrade": "NULL_NA",
    "gnaf_pid": "GAQLD157257307",
    "tech_change_status": "Not Planned"
   }
  },
  {
   "type": "Feature",
   "geometry": {
    "type": "Point",
    "coordinates": [
     146.47046279,
     -19.07803192
    ]
   },
   "properties": {
    "name": "6 DREAMTIME COURT TOOMULLA 4816",
    "locID": "LOC000056500986",
    "tech": "NULL",
    "upgrade": "NULL_NA",
    "gnaf_pid": "GAQLD157257308",
    "tech_change_status": "Not Planned"
   }
  },
  {
   "type": "Feature",
   "geometry": {
    "type": "Point",
    "coordinates": [
     146.47064146,
     -19.07795483
    ]
   },
   "properties": {
    "name": "8 DREAMTIME COURT TOOMULLA 4816",
    "locID": "LOC000023583320",
    "tech": "NULL",
    "upgrade": "NULL_NA",
    "gnaf_pid": "GAQLD157257317",
    "tech_change_status": "Not Planned"
   }
  },
  {
   "type": "Feature",
   "geometry": {
    "type": "Point",
    "coordinates": [
     146.47112042,
     -19.07823239
    ]
   },
   "properties": {
    "name": "9 DREAMTIME COURT TOOMULLA 4816",
    "locID": "LOC000034449201",
    "tech": "NULL",
    "upgrade": "NULL_NA",
    "gnaf_pid": "GAQLD157257318",
    "tech_change_status": "Not Planned"
   }
  },
  {
   "type": "Feature",
   "geometry": {
    "type": "Point",
    "coordinates": [
     146.46834851,
     -19.07804527
    ]
   },
   "properties": {
    "name": "10 EDGECUMBE COURT TOOMULLA 4816",
    "locID": "LOC000012755836",
    "tech": "NULL",
    "upgrade": "NULL_NA",
    "gnaf_pid": "GAQLD157257319",
    "tech_change_status": "Not Planned"
   }
  },
  {
   "type": "Feature",
   "geometry": {
    "type": "Point",
    "coordinates": [
     146.46800144,
     -19.07743922
    ]
   },
   "properties": {
    "name": "11 EDGECUMBE COURT TOOMULLA 4816",
    "locID": "LOC000035741769",
    "tech": "NULL",
    "upgrade": "NULL_NA",
    "gnaf_pid": "GAQLD157257320",
    "tech_change_status": "Not Planned"
   }
  },
  {
   "type": "Feature",
   "geometry": {
    "type": "Point",
    "coordinates": [
     146.46775498,
     -19.07731571
    ]
   },
   "properties": {
    "name": "13 EDGECUMBE COURT TOOMULLA 4816",
    "locID": "LOC000041319393",
    "tech": "SATELLITE",
    "upgrade": "NULL_NA",
    "gnaf_pid": "GAQLD157257322",
    "tech_change_status": "Not Planned"
   }
  },
  {
   "type": "Feature",
   "geometry": {
    "type": "Point",
    "coordinates": [
     146.46799543,
     -19.07790162
    ]
   },
   "properties": {
    "name": "14 EDGECUMBE COURT TOOMULLA 4816",
    "locID": "LOC000106011636",
    "tech": "NULL",
    "upgrade": "NULL_NA",
    "gnaf_pid": "GAQLD157257323",
    "tech_change_status": "Not Planned"
   }
  },
  {
   "type": "Feature",
   "geometry": {
    "type": "Point",
    "coordinates": [
     146.46783498,
     -19.07782644
    ]
   },
   "properties": {
    "name": "16 EDGECUMBE COURT TOOMULLA 4816",
    "locID": "LOC000022704299",
    "tech": "SATELLITE",
    "upgrade": "NULL_NA",
    "gnaf_pid": "GAQLD157257325",
    "tech_change_status": "Not Planned"
   }
  },
  {
   "type": "Feature",
   "geometry": {
    "type": "Point",
    "coordinates": [
     146.46745604,
     -19.07719615
    ]
   },
   "properties": {
    "name": "17 EDGECUMBE COURT TOOMULLA 4816",
    "locID": "LOC000129704912",
    "tech": "NULL",
    "upgrade": "NULL_NA",
    "gnaf_pid": "GAQLD157257326",
    "tech_change_status": "Not Planned"
   }
  },
  {
   "type": "Feature",
   "geometry": {
    "type": "Point",
    "coordinates": [
     146.46724198,
     -19.07713439
    ]
   },
   "properties": {
    "name": "19 EDGECUMBE COURT TOOMULLA 4816",
    "locID": "LOC000086044702",
    "tech": "NULL",
    "upgrade": "NULL_NA",
    "gnaf_pid": "GAQLD157257328",
    "tech_change_status": "Not Planned"
   }
  },
  {
   "type": "Feature",
   "geometry": {
    "type": "Point",
    "coordinates": [
     146.46709795,
     -19.0774468
    ]
   },
   "properties": {
    "name": "21 EDGECUMBE COURT TOOMULLA 4816",
    "locID": "LOC000052078666",
    "tech": "NULL",
    "upgrade": "NULL_NA",
    "gnaf_pid": "GAQLD157257330",
    "tech_change_status": "Not Planned"
   }
  },
  {
   "type": "Feature",
   "geometry": {
    "type": "Point",
    "coordinates": [
     146.46875717,
     -19.07772318
    ]
   },
   "properties": {
    "name": "3 EDGECUMBE COURT TOOMULLA 4816",
    "locID": "LOC000019914252",
    "tech": "NULL",
    "upgrade": "NULL_NA",
    "gnaf_pid": "GAQLD157257332",
    "tech_change_status": "Not Planned"
   }
  },
  {
   "type": "Feature",
   "geometry": {
    "type": "Point",
    "coordinates": [
     146.46853618,
     -19.07763422
    ]
   },
   "properties": {
    "name": "5 EDGECUMBE COURT TOOMULLA 4816",
    "locID": "LOC000009099293",
    "tech": "SATELLITE",
    "upgrade": "NULL_NA",
    "gnaf_pid": "GAQLD157257334",
    "tech_change_status": "Not Planned"
   }
  },
  {
   "type": "Feature",
   "geometry": {
    "type": "Point",
    "coordinates": [
     146.46857322,
     -19.07812743
    ]
   },
   "properties": {
    "name": "8 EDGECUMBE COURT TOOMULLA 4816",
    "locID": "LOC000129725657",
    "tech": "NULL",
    "upgrade": "NULL_NA",
    "gnaf_pid": "GAQLD157257337",
    "tech_change_status": "Not Planned"
   }
  },
  {
   "type": "Feature",
   "geometry": {
    "type": "Point",
    "coordinates": [
     146.47140995,
     -19.07852243
    ]
   },
   "properties": {
    "name": "5 LADY ELLIOTT COURT TOOMULLA 4816",
    "locID": "LOC000023172140",
    "tech": "SATELLITE",
    "upgrade": "NULL_NA",
    "gnaf_pid": "GAQLD158735394",
    "tech_change_status": "Not Planned"
   }
  },
  {
   "type": "Feature",
   "geometry": {
    "type": "Point",
    "coordinates": [
     146.46835027,
     -19.0767462
    ]
   },
   "properties": {
    "name": "7 SADDLEBACK COURT TOOMULLA 4816",
    "locID": "LOC000002460065",
    "tech": "NULL",
    "upgrade": "NULL_NA",
    "gnaf_pid": "GAQLD160495744",
    "tech_change_status": "Not Planned"
   }
  },
  {
   "type": "Feature",
   "geometry": {
    "type": "Point",
    "coordinates": [
     146.4750456,
     -19.08260614
    ]
   },
   "properties": {
    "name": "2 THE ESPLANADE TOOMULLA 4816",
    "locID": "LOC000129707837",
    "tech": "SATELLITE",
    "upgrade": "NULL_NA",
    "gnaf_pid": "GAQLD160505128",
    "tech_change_status": "Not Planned"
   }
  },
  {
   "type": "Feature",
   "geometry": {
    "type": "Point",
    "coordinates": [
     146.47349378,
     -19.08124356
    ]
   },
   "properties": {
    "name": "3 TOOMULLA BEACH ROAD TOOMULLA 4816",
    "locID": "LOC000015349885",
    "tech": "NULL",
    "upgrade": "NULL_NA",
    "gnaf_pid": "GAQLD161004868",
    "tech_change_status": "Not Planned"
   }
  },
  {
   "type": "Feature",
   "geometry": {
    "type": "Point",
    "coordinates": [
     146.46835321,
     -19.07619937
    ]
   },
   "properties": {
    "name": "LOT 400 SADDLEBACK COURT TOOMULLA 4816",
    "locID": "LOC000002460065",
    "tech": "NULL",
    "upgrade": "NULL_NA",
    "gnaf_pid": "GAQLD161298606",
    "tech_change_status": "Not Planned"
   }
  },
  {
   "type": "Feature",
   "geometry": {
    "type": "Point",
    "coordinates": [
     146.47327615,
     -19.08593124
    ]
   },
   "properties": {
    "name": "LOT 37 TOOMULLA BEACH ROAD TOOMULLA 4816",
    "locID": "LOC000088122958",
    "tech": "SATELLITE",
    "upgrade": "NULL_NA",
    "gnaf_pid": "GAQLD161332818",
    "tech_change_status": "Not Planned"
   }
  },
  {
   "type": "Feature",
   "geometry": {
    "type": "Point",
    "coordinates": [
     146.47122405,
     -19.07858189
    ]
   },
   "properties": {
    "name": "4 LADY ELLIOTT COURT TOOMULLA 4816",
    "locID": "LOC000114757932",
    "tech": "NULL",
    "upgrade": "NULL_NA",
    "gnaf_pid": "GAQLD162042614",
    "tech_change_status": "Not Planned"
   }
  },
  {
   "type": "Feature",
   "geometry": {
    "type": "Point",
    "coordinates": [
     146.47451545,
     -19.08209949
    ]
   },
   "properties": {
    "name": "10 THE ESPLANADE TOOMULLA 4816",
    "locID": "LOC000129713400",
    "tech": "SATELLITE",
    "upgrade": "NULL_NA",
    "gnaf_pid": "GAQLD162965634",
    "tech_change_status": "Not Planned"
   }
  },
  {
   "type": "Feature",
   "geometry": {
    "type": "Point",
    "coordinates": [
     146.47362443,
     -19.08111355
    ]
   },
   "properties": {
    "name": "18 THE ESPLANADE TOOMULLA 4816",
    "locID": "LOC000129705003",
    "tech": "NULL",
    "upgrade": "NULL_NA",
    "gnaf_pid": "GAQLD162965637",
    "tech_change_status": "Not Planned"
   }
  },
  {
   "type": "Feature",
   "geometry": {
    "type": "Point",
    "coordinates": [
     146.47334763,
     -19.08097599
    ]
   },
   "properties": {
    "name": "20 THE ESPLANADE TOOMULLA 4816",
    "locID": "LOC000129707837",
    "tech": "SATELLITE",
    "upgrade": "NULL_NA",
    "gnaf_pid": "GAQLD162965638",
    "tech_change_status": "Not Planned"
   }
  },
  {
   "type": "Feature",
   "geometry": {
    "type": "Point",
    "coordinates": [
     146.47308423,
     -19.08071878
    ]
   },
   "properties": {
    "name": "24 THE ESPLANADE TOOMULLA 4816",
    "locID": "LOC000129708040",
    "tech": "SATELLITE",
    "upgrade": "NULL_NA",
    "gnaf_pid": "GAQLD162965640",
    "tech_change_status": "Not Planned"
   }
  },
  {
   "type": "Feature",
   "geometry": {
    "type": "Point",
    "coordinates": [
     146.47294998,
     -19.08058934
    ]
   },
   "properties": {
    "name": "26 THE ESPLANADE TOOMULLA 4816",
    "locID": "LOC000129710769",
    "tech": "NULL",
    "upgrade": "NULL_NA",
    "gnaf_pid": "GAQLD162965641",
    "tech_change_status": "Not Planned"
   }
  },
  {
   "type": "Feature",
   "geometry": {
    "type": "Point",
    "coordinates": [
     146.47268138,
     -19.0803305
    ]
   },
   "properties": {
    "name": "30 THE ESPLANADE TOOMULLA 4816",
    "locID": "LOC000129713348",
    "tech": "NULL",
    "upgrade": "NULL_NA",
    "gnaf_pid": "GAQLD162965643",
    "tech_change_status": "Not Planned"
   }
  },
  {
   "type": "Feature",
   "geometry": {
    "type": "Point",
    "coordinates": [
     146.47254579,
     -19.08019986
    ]
   },
   "properties": {
    "name": "32 THE ESPLANADE TOOMULLA 4816",
    "locID": "LOC000129713400",
    "tech": "SATELLITE",
    "upgrade": "NULL_NA",
    "gnaf_pid": "GAQLD162965645",
    "tech_change_status": "Not Planned"
   }
  },
  {
   "type": "Feature",
   "geometry": {
    "type": "Point",
    "coordinates": [
     146.47491813,
     -19.08248758
    ]
   },
   "properties": {
    "name": "4 THE ESPLANADE TOOMULLA 4816",
    "locID": "LOC000129713400",
    "tech": "SATELLITE",
    "upgrade": "NULL_NA",
    "gnaf_pid": "GAQLD162965648",
    "tech_change_status": "Not Planned"
   }
  },
  {
   "type": "Feature",
   "geometry": {
    "type": "Point",
    "coordinates": [
     146.47132269,
     -19.07747961
    ]
   },
   "properties": {
    "name": "13 SALTWATER DRIVE TOOMULLA 4816",
    "locID": "LOC000024841413",
    "tech": "NULL",
    "upgrade": "NULL_NA",
    "gnaf_pid": "GAQLD163025172",
    "tech_change_status": "Not Planned"
   }
  },
  {
   "type": "Feature",
   "geometry": {
    "type": "Point",
    "coordinates": [
     146.47097231,
     -19.07750844
    ]
   },
   "properties": {
    "name": "11 SALTWATER DRIVE TOOMULLA 4816",
    "locID": "LOC000129701360",
    "tech": "NULL",
    "upgrade": "NULL_NA",
    "gnaf_pid": "GAQLD163285058",
    "tech_change_status": "Not Planned"
   }
  },
  {
   "type": "Feature",
   "geometry": {
    "type": "Point",
    "coordinates": [
     146.47097155,
     -19.07898719
    ]
   },
   "properties": {
    "name": "1 LADY ELLIOTT COURT TOOMULLA 4816",
    "locID": "LOC000109122138",
    "tech": "NULL",
    "upgrade": "NULL_NA",
    "gnaf_pid": "GAQLD163311592",
    "tech_change_status": "Not Planned"
   }
  },
  {
   "type": "Feature",
   "geometry": {
    "type": "Point",
    "coordinates": [
     146.45681649,
     -19.07622294
    ]
   },
   "properties": {
    "name": "108A HERALD STREET TOOMULLA 4816",
    "locID": "LOC000129698661",
    "tech": "NULL",
    "upgrade": "NULL_NA",
    "gnaf_pid": "GAQLD425003161",
    "tech_change_status": "Not Planned"
   }
  },
  {
   "type": "Feature",
   "geometry": {
    "type": "Point",
    "coordinates": [
     146.45665119,
     -19.07617083
    ]
   },
   "properties": {
    "name": "108B HERALD STREET TOOMULLA 4816",
    "locID": "LOC000129698674",
    "tech": "NULL",
    "upgrade": "NULL_NA",
    "gnaf_pid": "GAQLD425003162",
    "tech_change_status": "Not Planned"
   }
  },
  {
   "type": "Feature",
   "geometry": {
    "type": "Point",
    "coordinates": [
     146.45617462,
     -19.07604025
    ]
   },
   "properties": {
    "name": "108D HERALD STREET TOOMULLA 4816",
    "locID": "LOC000129698690",
    "tech": "NULL",
    "upgrade": "NULL_NA",
    "gnaf_pid": "GAQLD425003164",
    "tech_change_status": "Not Planned"
   }
  },
  {
   "type": "Feature",
   "geometry": {
    "type": "Point",
    "coordinates": [
     146.45617462,
     -19.07604025
    ]
   },
   "properties": {
    "name": "108 HERALD STREET TOOMULLA 4816",
    "locID": "LOC000129698661",
    "tech": "NULL",
    "upgrade": "NULL_NA",
    "gnaf_pid": "GAQLD425122723",
    "tech_change_status": "Not Planned"
   }
  },
  {
   "type": "Feature",
   "geometry": {
    "type": "Point",
    "coordinates": [
     146.47631662,
     -19.08371007
    ]
   },
   "properties": {
    "name": "1A HERALD STREET TOOMULLA 4816",
    "locID": "LOC000150748722",
    "tech": "NULL",
    "upgrade": "NULL_NA",
    "gnaf_pid": "GAQLD425174062",
    "tech_change_status": "Not Planned"
   }
  },
  {
   "type": "Feature",
   "geometry": {
    "type": "Point",
    "coordinates": [
     146.47422732,
     -19.08017626
    ]
   },
   "properties": {
    "name": "37 HERALD STREET TOOMULLA 4816",
    "locID": "LOC000129723099",
    "tech": "NULL",
    "upgrade": "NULL_NA",
    "gnaf_pid": "GAQLD425263761",
    "tech_change_status": "Not Planned"
   }
  },
  {
   "type": "Feature",
   "geometry": {
    "type": "Point",
    "coordinates": [
     146.47326717,
     -19.08592038
    ]
   },
   "properties": {
    "name": "84D TOOMULLA BEACH ROAD TOOMULLA 4816",
    "locID": "LOC100087332303",
    "tech": "NULL",
    "upgrade": "NULL_NA",
    "gnaf_pid": "GAQLD721149147",
    "tech_change_status": "Not Planned"
   }
  }
 ]
}